{"type": "FeatureCollection", "features": [{"type": "Feature", "geometry": {"type": "MultiPolygon", "coordinates": [[[[-120.9796, 36.4013], [-120.9703, 36.4009], [-120.9637, 36.4015], [-120.9611, 36.3983], [-120.956, 36.3956], [-120.9526, 36.3922], [-120.9506, 36.3916], [-120.949, 36.3892], [-120.9445, 36.388], [-120.943, 36.3885], [-120.9428, 36.3869], [-120.9399, 36.3872], [-120.9379, 36.3862], [-120.937, 36.3842], [-120.9388, 36.3811], [-120.9405, 36.3795], [-120.9487, 36.3798], [-120.9506, 36.3793], [-120.9508, 36.3806], [-120.9523, 36.3811], [-120.9561, 36.3842], [-120.9594, 36.3824], [-120.9621, 36.3821], [-120.9632, 36.3833], [-120.9688, 36.3839], [-120.9718, 36.3857], [-120.975, 36.3863], [-120.9744, 36.3897], [-120.9801, 36.3967], [-120.9815, 36.3972], [-120.981, 36.3983], [-120.9877, 36.4016], [-120.9854, 36.4031], [-120.9796, 36.4013]]], [[[-120.9478, 36.3914], [-120.9488, 36.3915], [-120.948, 36.3918], [-120.9478, 36.3914]]]]}, "properties": {"layer": "perimeter"}}, {"type": "Feature", "geometry": {"type": "MultiPolygon", "coordinates": [[[[-120.9796, 36.4013], [-120.9729, 36.4009], [-120.9637, 36.4015], [-120.9611, 36.3983], [-120.956, 36.3956], [-120.9526, 36.3922], [-120.9506, 36.3916], [-120.949, 36.3892], [-120.9445, 36.388], [-120.943, 36.3885], [-120.9428, 36.3869], [-120.9399, 36.3872], [-120.9379, 36.3862], [-120.937, 36.3842], [-120.9388, 36.3811], [-120.9405, 36.3795], [-120.9487, 36.3798], [-120.9506, 36.3793], [-120.9508, 36.3806], [-120.9523, 36.3811], [-120.9561, 36.3842], [-120.9594, 36.3824], [-120.9621, 36.3821], [-120.9632, 36.3833], [-120.9688, 36.3839], [-120.9718, 36.3857], [-120.975, 36.3863], [-120.9744, 36.3897], [-120.9801, 36.3967], [-120.9815, 36.3972], [-120.981, 36.3983], [-120.9877, 36.4016], [-120.9858, 36.4031], [-120.9824, 36.4025], [-120.9796, 36.4013]]], [[[-120.9478, 36.3914], [-120.9488, 36.3915], [-120.948, 36.3918], [-120.9478, 36.3914]]]]}, "properties": {"layer": "retained"}}]}
