{"type": "FeatureCollection", "features": [{"type": "Feature", "geometry": {"type": "MultiPolygon", "coordinates": [[[[-117.6079, 33.9016], [-117.6079, 33.9017], [-117.6078, 33.9016], [-117.6079, 33.9016]]], [[[-117.6075, 33.902], [-117.6043, 33.9022], [-117.603, 33.8986], [-117.6103, 33.8974], [-117.6123, 33.8954], [-117.6113, 33.8951], [-117.6143, 33.8931], [-117.6157, 33.8941], [-117.6156, 33.8949], [-117.6162, 33.8948], [-117.6159, 33.8942], [-117.6168, 33.8946], [-117.6176, 33.8966], [-117.6207, 33.8953], [-117.6277, 33.8965], [-117.6282, 33.897], [-117.6273, 33.8985], [-117.625, 33.899], [-117.6242, 33.9016], [-117.625, 33.9031], [-117.6262, 33.903], [-117.6267, 33.9036], [-117.6294, 33.9024], [-117.6296, 33.9003], [-117.6315, 33.899], [-117.6339, 33.8996], [-117.6381, 33.8978], [-117.6397, 33.8978], [-117.6406, 33.8985], [-117.6405, 33.8994], [-117.6395, 33.8996], [-117.6398, 33.9014], [-117.6428, 33.901], [-117.6438, 33.8984], [-117.6435, 33.8963], [-117.645, 33.8961], [-117.6447, 33.8951], [-117.6452, 33.8957], [-117.6465, 33.8953], [-117.6466, 33.9013], [-117.6494, 33.9094], [-117.6467, 33.9088], [-117.6445, 33.9076], [-117.6427, 33.9083], [-117.6431, 33.9094], [-117.6426, 33.9085], [-117.6411, 33.9089], [-117.6404, 33.91], [-117.6376, 33.9112], [-117.6382, 33.912], [-117.6373, 33.9112], [-117.6357, 33.9117], [-117.6361, 33.9127], [-117.6339, 33.909], [-117.629, 33.9107], [-117.6285, 33.9097], [-117.6221, 33.9094], [-117.6138, 33.9061], [-117.6121, 33.9039], [-117.6126, 33.9016], [-117.6118, 33.9013], [-117.6126, 33.8999], [-117.6086, 33.9009], [-117.6075, 33.902]]]]}, "properties": {"layer": "perimeter"}}, {"type": "Feature", "geometry": {"type": "MultiPolygon", "coordinates": [[[[-117.637, 33.8983], [-117.6401, 33.8979], [-117.6405, 33.8994], [-117.6396, 33.8995], [-117.64, 33.9001], [-117.6393, 33.9007], [-117.64, 33.9015], [-117.6429, 33.9009], [-117.6438, 33.8984], [-117.6433, 33.8974], [-117.6435, 33.8963], [-117.6446, 33.8981], [-117.6437, 33.9016], [-117.6413, 33.9029], [-117.6409, 33.9023], [-117.6407, 33.9033], [-117.6346, 33.9071], [-117.6359, 33.91], [-117.6472, 33.9066], [-117.6484, 33.9065], [-117.6494, 33.9094], [-117.6467, 33.9088], [-117.6445, 33.9076], [-117.6427, 33.9083], [-117.6431, 33.9094], [-117.6426, 33.9085], [-117.6411, 33.9089], [-117.6404, 33.91], [-117.6376, 33.9112], [-117.6382, 33.912], [-117.6373, 33.9112], [-117.6357, 33.9117], [-117.6361, 33.9127], [-117.6339, 33.909], [-117.629, 33.9107], [-117.6285, 33.9097], [-117.6244, 33.9099], [-117.6175, 33.9078], [-117.62, 33.9068], [-117.617, 33.9015], [-117.6202, 33.9005], [-117.6232, 33.9063], [-117.6283, 33.9049], [-117.6288, 33.9052], [-117.6338, 33.9025], [-117.6347, 33.9017], [-117.6341, 33.9005], [-117.637, 33.8983]]], [[[-117.6154, 33.9068], [-117.6127, 33.9054], [-117.6127, 33.9045], [-117.614, 33.904], [-117.6154, 33.9068]]]]}, "properties": {"layer": "retained"}}]}
