{"type": "FeatureCollection", "features": [{"type": "Feature", "geometry": {"type": "MultiPolygon", "coordinates": [[[[-120.073, 34.5159], [-120.0714, 34.5161], [-120.0713, 34.5169], [-120.0735, 34.5178], [-120.0735, 34.519], [-120.0714, 34.5193], [-120.0727, 34.5196], [-120.0706, 34.5201], [-120.0699, 34.5214], [-120.0684, 34.522], [-120.0684, 34.5231], [-120.0674, 34.5237], [-120.0679, 34.5217], [-120.0667, 34.5222], [-120.0648, 34.5206], [-120.0639, 34.5215], [-120.064, 34.5225], [-120.0635, 34.5215], [-120.0626, 34.5221], [-120.0623, 34.5214], [-120.0603, 34.5216], [-120.0593, 34.5204], [-120.0588, 34.5208], [-120.0573, 34.5199], [-120.0571, 34.5204], [-120.0567, 34.5192], [-120.054, 34.5178], [-120.0543, 34.5161], [-120.0534, 34.5148], [-120.0521, 34.5142], [-120.0519, 34.5134], [-120.0505, 34.5135], [-120.05, 34.5114], [-120.0521, 34.511], [-120.0524, 34.5101], [-120.0556, 34.5091], [-120.0557, 34.5085], [-120.0537, 34.5082], [-120.0505, 34.5091], [-120.0507, 34.5095], [-120.0464, 34.5089], [-120.0447, 34.5108], [-120.0452, 34.5116], [-120.0439, 34.5126], [-120.0432, 34.5148], [-120.0411, 34.5148], [-120.0401, 34.513], [-120.0378, 34.5122], [-120.0382, 34.5114], [-120.0391, 34.5119], [-120.0394, 34.5114], [-120.0385, 34.5096], [-120.0364, 34.5093], [-120.0379, 34.5079], [-120.0352, 34.5084], [-120.0336, 34.5062], [-120.0311, 34.505], [-120.03, 34.5049], [-120.0298, 34.5058], [-120.0282, 34.5067], [-120.027, 34.5037], [-120.0249, 34.502], [-120.0244, 34.5003], [-120.0255, 34.4995], [-120.0255, 34.4987], [-120.0235, 34.4981], [-120.0242, 34.4978], [-120.0235, 34.4969], [-120.0247, 34.4969], [-120.0262, 34.4985], [-120.0278, 34.4979], [-120.0269, 34.4965], [-120.0278, 34.4942], [-120.0236, 34.4923], [-120.022, 34.4923], [-120.0206, 34.4909], [-120.0211, 34.4889], [-120.0184, 34.4868], [-120.0197, 34.4862], [-120.0212, 34.487], [-120.0216, 34.4864], [-120.0202, 34.4858], [-120.0205, 34.4852], [-120.0211, 34.4856], [-120.0205, 34.4844], [-120.0185, 34.4843], [-120.0178, 34.483], [-120.0199, 34.4798], [-120.0233, 34.483], [-120.0248, 34.4826], [-120.0264, 34.4835], [-120.0261, 34.4815], [-120.0273, 34.4824], [-120.0271, 34.4832], [-120.0292, 34.4844], [-120.0294, 34.483], [-120.0279, 34.4826], [-120.0287, 34.4825], [-120.0287, 34.48], [-120.0294, 34.4791], [-120.0279, 34.4739], [-120.0316, 34.4748], [-120.0338, 34.4776], [-120.0333, 34.4791], [-120.0335, 34.4794], [-120.0352, 34.4753], [-120.0337, 34.4736], [-120.0342, 34.473], [-120.0359, 34.4741], [-120.0375, 34.4718], [-120.035, 34.4709], [-120.0352, 34.4704], [-120.037, 34.4706], [-120.0362, 34.4692], [-120.0366, 34.4688], [-120.0387, 34.4694], [-120.0393, 34.4688], [-120.0384, 34.4685], [-120.0419, 34.4679], [-120.043, 34.4647], [-120.0419, 34.4644], [-120.0435, 34.4645], [-120.0436, 34.4693], [-120.0444, 34.4708], [-120.0437, 34.4685], [-120.0445, 34.4656], [-120.0449, 34.4651], [-120.0457, 34.4656], [-120.0467, 34.4646], [-120.0466, 34.4665], [-120.0484, 34.4737], [-120.0478, 34.4741], [-120.0486, 34.4757], [-120.0527, 34.4764], [-120.0535, 34.4746], [-120.0553, 34.4759], [-120.0555, 34.4774], [-120.0566, 34.4751], [-120.0597, 34.4759], [-120.0603, 34.4739], [-120.0616, 34.4729], [-120.0622, 34.4733], [-120.0618, 34.4772], [-120.063, 34.48], [-120.0622, 34.4809], [-120.0626, 34.4821], [-120.0613, 34.4835], [-120.0618, 34.485], [-120.061, 34.4881], [-120.0614, 34.489], [-120.0633, 34.4896], [-120.0642, 34.4921], [-120.0635, 34.4932], [-120.0637, 34.4951], [-120.0621, 34.4966], [-120.0638, 34.497], [-120.0641, 34.4982], [-120.0661, 34.4982], [-120.0666, 34.4974], [-120.0658, 34.4913], [-120.0681, 34.4927], [-120.0677, 34.4915], [-120.0687, 34.4918], [-120.0701, 34.4908], [-120.066, 34.4899], [-120.0686, 34.4898], [-120.0665, 34.4887], [-120.0711, 34.4888], [-120.0691, 34.488], [-120.07, 34.4883], [-120.0704, 34.4876], [-120.0692, 34.4869], [-120.0695, 34.4852], [-120.0723, 34.4865], [-120.0729, 34.4907], [-120.0758, 34.4901], [-120.0758, 34.491], [-120.0744, 34.4929], [-120.0775, 34.4982], [-120.0799, 34.4993], [-120.0777, 34.4972], [-120.0789, 34.4951], [-120.0773, 34.4936], [-120.0793, 34.4922], [-120.0789, 34.4887], [-120.0805, 34.4884], [-120.0781, 34.4861], [-120.079, 34.4846], [-120.0776, 34.4844], [-120.0773, 34.4823], [-120.0761, 34.4821], [-120.076, 34.4816], [-120.0775, 34.481], [-120.0756, 34.4801], [-120.0778, 34.479], [-120.0774, 34.4781], [-120.078, 34.4776], [-120.0761, 34.4773], [-120.0765, 34.4762], [-120.0746, 34.4763], [-120.0705, 34.4747], [-120.0691, 34.4723], [-120.0703, 34.4712], [-120.0705, 34.4685], [-120.071, 34.4692], [-120.0736, 34.469], [-120.0779, 34.4729], [-120.0775, 34.4722], [-120.0782, 34.4704], [-120.0768, 34.4693], [-120.0801, 34.469], [-120.0805, 34.4664], [-120.0793, 34.4654], [-120.0792, 34.4641], [-120.0805, 34.4626], [-120.0778, 34.463], [-120.0765, 34.4646], [-120.0761, 34.4644], [-120.0774, 34.4626], [-120.0793, 34.4621], [-120.0802, 34.4607], [-120.0886, 34.4606], [-120.0945, 34.4616], [-120.1003, 34.4641], [-120.1021, 34.4637], [-120.1144, 34.4687], [-120.1149, 34.4713], [-120.12, 34.4734], [-120.1257, 34.4732], [-120.1365, 34.4754], [-120.1394, 34.4753], [-120.1547, 34.4743], [-120.1607, 34.4731], [-120.1609, 34.4724], [-120.1593, 34.4727], [-120.1591, 34.4721], [-120.161, 34.4715], [-120.1633, 34.472], [-120.1652, 34.4717], [-120.1665, 34.4725], [-120.1696, 34.472], [-120.1699, 34.4753], [-120.1707, 34.4767], [-120.1694, 34.4781], [-120.1709, 34.479], [-120.171, 34.48], [-120.1727, 34.4795], [-120.173, 34.4801], [-120.1719, 34.4803], [-120.1725, 34.4805], [-120.1736, 34.4805], [-120.1741, 34.4792], [-120.1721, 34.4788], [-120.1734, 34.4782], [-120.1758, 34.4783], [-120.1761, 34.4773], [-120.1755, 34.4771], [-120.1789, 34.4767], [-120.1789, 34.4773], [-120.1796, 34.4767], [-120.1806, 34.4773], [-120.1827, 34.4764], [-120.1848, 34.4766], [-120.1844, 34.4774], [-120.1854, 34.4779], [-120.1865, 34.4775], [-120.187, 34.478], [-120.1855, 34.4789], [-120.1855, 34.4801], [-120.188, 34.4797], [-120.1897, 34.4781], [-120.1912, 34.478], [-120.1927, 34.4788], [-120.1903, 34.479], [-120.1901, 34.4799], [-120.1922, 34.4802], [-120.1945, 34.4782], [-120.1943, 34.477], [-120.1964, 34.4762], [-120.1965, 34.4788], [-120.1978, 34.4798], [-120.2029, 34.4809], [-120.2041, 34.4817], [-120.2037, 34.4828], [-120.2047, 34.4838], [-120.2023, 34.4849], [-120.2016, 34.4868], [-120.2004, 34.4873], [-120.2001, 34.4852], [-120.1991, 34.4851], [-120.1985, 34.4857], [-120.198, 34.487], [-120.1989, 34.4879], [-120.1986, 34.4885], [-120.1957, 34.4882], [-120.1931, 34.4897], [-120.1925, 34.4889], [-120.1916, 34.4895], [-120.1902, 34.4878], [-120.1899, 34.4888], [-120.1909, 34.4901], [-120.1898, 34.4902], [-120.1891, 34.4896], [-120.189, 34.4882], [-120.1898, 34.4877], [-120.1892, 34.4869], [-120.188, 34.4879], [-120.1861, 34.4882], [-120.1869, 34.4888], [-120.1867, 34.4898], [-120.1837, 34.4885], [-120.1803, 34.4892], [-120.1773, 34.4894], [-120.1766, 34.4889], [-120.1757, 34.4896], [-120.1764, 34.4905], [-120.1754, 34.4913], [-120.1744, 34.4907], [-120.1752, 34.4921], [-120.1745, 34.4925], [-120.1734, 34.492], [-120.1743, 34.489], [-120.1734, 34.4884], [-120.1727, 34.4888], [-120.1726, 34.4905], [-120.17, 34.49], [-120.1698, 34.4907], [-120.1695, 34.4903], [-120.1676, 34.4907], [-120.1679, 34.4913], [-120.1666, 34.4909], [-120.1663, 34.4916], [-120.1645, 34.4915], [-120.1636, 34.4923], [-120.1658, 34.4931], [-120.1651, 34.4941], [-120.1651, 34.4965], [-120.1641, 34.4967], [-120.1662, 34.4988], [-120.1665, 34.5004], [-120.1654, 34.4996], [-120.1648, 34.5002], [-120.1658, 34.5014], [-120.1656, 34.5032], [-120.1649, 34.5031], [-120.1657, 34.5051], [-120.1656, 34.5061], [-120.1644, 34.5071], [-120.1668, 34.508], [-120.1681, 34.5095], [-120.1682, 34.512], [-120.1666, 34.5118], [-120.1663, 34.5126], [-120.1655, 34.5119], [-120.1652, 34.5124], [-120.1662, 34.5133], [-120.1648, 34.5138], [-120.1658, 34.5137], [-120.1655, 34.5144], [-120.1648, 34.5142], [-120.1634, 34.5153], [-120.1623, 34.515], [-120.1601, 34.5161], [-120.158, 34.5161], [-120.1554, 34.5181], [-120.1545, 34.5172], [-120.1509, 34.5184], [-120.1517, 34.5193], [-120.1513, 34.5197], [-120.1491, 34.5193], [-120.148, 34.5177], [-120.1462, 34.5177], [-120.1454, 34.5183], [-120.1446, 34.5172], [-120.1438, 34.5177], [-120.1438, 34.5184], [-120.145, 34.5186], [-120.1443, 34.5199], [-120.1402, 34.5223], [-120.1397, 34.5219], [-120.1368, 34.5232], [-120.1358, 34.5229], [-120.138, 34.5203], [-120.137, 34.5198], [-120.132, 34.5206], [-120.1309, 34.5217], [-120.1304, 34.5206], [-120.1256, 34.5206], [-120.1236, 34.5198], [-120.1227, 34.5203], [-120.1192, 34.5199], [-120.1181, 34.5206], [-120.1166, 34.5202], [-120.1075, 34.5225], [-120.1061, 34.5224], [-120.1063, 34.5229], [-120.1045, 34.5232], [-120.1038, 34.5245], [-120.0996, 34.5262], [-120.0983, 34.5257], [-120.0986, 34.5248], [-120.0966, 34.5238], [-120.0962, 34.5244], [-120.0969, 34.5252], [-120.0959, 34.5254], [-120.096, 34.5259], [-120.095, 34.5258], [-120.0952, 34.5241], [-120.0943, 34.5229], [-120.092, 34.5228], [-120.0928, 34.5223], [-120.0924, 34.5213], [-120.0899, 34.5207], [-120.0885, 34.5195], [-120.0885, 34.5185], [-120.0867, 34.5192], [-120.0866, 34.5208], [-120.0858, 34.5212], [-120.0855, 34.5201], [-120.0833, 34.5198], [-120.083, 34.5191], [-120.0838, 34.5186], [-120.0832, 34.5179], [-120.0826, 34.5189], [-120.0819, 34.5179], [-120.0801, 34.5181], [-120.0796, 34.5176], [-120.0784, 34.5187], [-120.078, 34.5179], [-120.073, 34.5159]], [[-120.0444, 34.4877], [-120.043, 34.4863], [-120.0448, 34.4861], [-120.0441, 34.4825], [-120.0452, 34.4823], [-120.0422, 34.4782], [-120.0429, 34.4756], [-120.0435, 34.475], [-120.0435, 34.4746], [-120.043, 34.4752], [-120.042, 34.4751], [-120.0409, 34.4784], [-120.0393, 34.479], [-120.0377, 34.4815], [-120.036, 34.4814], [-120.0369, 34.4822], [-120.035, 34.4819], [-120.0331, 34.483], [-120.0314, 34.4821], [-120.031, 34.4836], [-120.0296, 34.4841], [-120.0291, 34.4849], [-120.0327, 34.4856], [-120.0312, 34.4862], [-120.0355, 34.4867], [-120.0383, 34.4853], [-120.0387, 34.4869], [-120.0393, 34.4863], [-120.0389, 34.4844], [-120.0401, 34.4832], [-120.0404, 34.4846], [-120.0427, 34.4855], [-120.0428, 34.4869], [-120.0444, 34.4877]]], [[[-120.1749, 34.4928], [-120.1756, 34.4935], [-120.1752, 34.4941], [-120.1749, 34.4928]]], [[[-120.166, 34.5155], [-120.1654, 34.5148], [-120.1662, 34.5148], [-120.166, 34.5155]]]]}, "properties": {"layer": "perimeter"}}, {"type": "Feature", "geometry": {"type": "MultiPolygon", "coordinates": [[[[-120.073, 34.5159], [-120.0712, 34.5163], [-120.0713, 34.5169], [-120.0731, 34.5177], [-120.0731, 34.5191], [-120.0717, 34.5191], [-120.0725, 34.5198], [-120.071, 34.5199], [-120.0699, 34.5214], [-120.0684, 34.522], [-120.0679, 34.5237], [-120.0673, 34.523], [-120.0679, 34.5217], [-120.0667, 34.5222], [-120.0648, 34.5206], [-120.0639, 34.5215], [-120.064, 34.5225], [-120.0635, 34.5215], [-120.0626, 34.5221], [-120.0623, 34.5214], [-120.0603, 34.5216], [-120.0593, 34.5204], [-120.0588, 34.5208], [-120.0573, 34.5199], [-120.057, 34.5203], [-120.0566, 34.5192], [-120.0605, 34.5191], [-120.0607, 34.501], [-120.0531, 34.5006], [-120.053, 34.5046], [-120.0485, 34.5045], [-120.0485, 34.5081], [-120.0439, 34.5081], [-120.044, 34.5046], [-120.0396, 34.5045], [-120.0395, 34.5008], [-120.044, 34.5008], [-120.044, 34.4999], [-120.0309, 34.4989], [-120.0308, 34.5046], [-120.0275, 34.5046], [-120.0249, 34.502], [-120.0244, 34.5003], [-120.0255, 34.4995], [-120.0255, 34.4987], [-120.0235, 34.4981], [-120.0242, 34.4978], [-120.0235, 34.4969], [-120.0247, 34.4969], [-120.0262, 34.4985], [-120.0278, 34.4979], [-120.0269, 34.4965], [-120.0278, 34.4942], [-120.0236, 34.4923], [-120.022, 34.4923], [-120.0206, 34.4909], [-120.0211, 34.4889], [-120.0184, 34.4868], [-120.0197, 34.4862], [-120.0212, 34.487], [-120.0216, 34.4864], [-120.0202, 34.4858], [-120.0205, 34.4852], [-120.0211, 34.4856], [-120.0205, 34.4844], [-120.0185, 34.4843], [-120.0178, 34.483], [-120.0199, 34.4798], [-120.0233, 34.483], [-120.0248, 34.4826], [-120.0264, 34.4835], [-120.0261, 34.4815], [-120.0273, 34.4824], [-120.0271, 34.4832], [-120.0292, 34.4844], [-120.0294, 34.483], [-120.0279, 34.4826], [-120.0287, 34.4825], [-120.0287, 34.48], [-120.0294, 34.4791], [-120.0279, 34.4739], [-120.0316, 34.4748], [-120.0338, 34.4776], [-120.0333, 34.4791], [-120.0335, 34.4794], [-120.0352, 34.4753], [-120.0337, 34.4736], [-120.0342, 34.473], [-120.0359, 34.4741], [-120.0375, 34.4718], [-120.035, 34.4709], [-120.0352, 34.4704], [-120.037, 34.4706], [-120.0362, 34.4692], [-120.0366, 34.4688], [-120.0387, 34.4694], [-120.0393, 34.4688], [-120.0384, 34.4685], [-120.0419, 34.4679], [-120.043, 34.4647], [-120.0419, 34.4644], [-120.0435, 34.4645], [-120.0436, 34.4693], [-120.0444, 34.4708], [-120.0437, 34.4685], [-120.0445, 34.4656], [-120.0449, 34.4651], [-120.0457, 34.4656], [-120.0467, 34.4646], [-120.0466, 34.4665], [-120.0484, 34.4737], [-120.0478, 34.4741], [-120.0486, 34.4757], [-120.0527, 34.4764], [-120.0535, 34.4746], [-120.0553, 34.4759], [-120.0555, 34.4774], [-120.0566, 34.4751], [-120.0597, 34.4759], [-120.0603, 34.4739], [-120.0616, 34.4729], [-120.0622, 34.4733], [-120.0618, 34.4772], [-120.063, 34.48], [-120.0622, 34.4809], [-120.0626, 34.4821], [-120.0613, 34.4835], [-120.0618, 34.485], [-120.061, 34.4881], [-120.0614, 34.489], [-120.0633, 34.4896], [-120.0642, 34.4921], [-120.0635, 34.4932], [-120.0637, 34.4951], [-120.0621, 34.4966], [-120.0638, 34.497], [-120.0641, 34.4982], [-120.0661, 34.4982], [-120.0666, 34.4974], [-120.0658, 34.4913], [-120.0681, 34.4927], [-120.0677, 34.4915], [-120.0687, 34.4918], [-120.0701, 34.4908], [-120.066, 34.4899], [-120.0686, 34.4898], [-120.0665, 34.4887], [-120.0711, 34.4888], [-120.0691, 34.488], [-120.07, 34.4883], [-120.0704, 34.4876], [-120.0692, 34.4869], [-120.0695, 34.4852], [-120.0723, 34.4865], [-120.0729, 34.4907], [-120.0758, 34.4901], [-120.0758, 34.491], [-120.0744, 34.4929], [-120.0775, 34.4982], [-120.0799, 34.4993], [-120.0777, 34.4972], [-120.0789, 34.4951], [-120.0773, 34.4936], [-120.0793, 34.4922], [-120.0789, 34.4887], [-120.0805, 34.4884], [-120.0781, 34.4861], [-120.079, 34.4846], [-120.0776, 34.4844], [-120.0773, 34.4823], [-120.0761, 34.4821], [-120.076, 34.4816], [-120.0775, 34.481], [-120.0756, 34.4801], [-120.0778, 34.479], [-120.0774, 34.4781], [-120.078, 34.4776], [-120.0761, 34.4773], [-120.0765, 34.4762], [-120.0746, 34.4763], [-120.0705, 34.4747], [-120.0691, 34.4723], [-120.0703, 34.4712], [-120.0705, 34.4685], [-120.071, 34.4692], [-120.0736, 34.469], [-120.0779, 34.4729], [-120.0775, 34.4722], [-120.0782, 34.4704], [-120.0768, 34.4693], [-120.0801, 34.469], [-120.0805, 34.4664], [-120.0793, 34.4654], [-120.0792, 34.4641], [-120.0805, 34.4626], [-120.0778, 34.463], [-120.0765, 34.4646], [-120.0761, 34.4644], [-120.0774, 34.4626], [-120.0793, 34.4621], [-120.0802, 34.4607], [-120.0886, 34.4606], [-120.0945, 34.4616], [-120.1003, 34.4641], [-120.1022, 34.4638], [-120.1144, 34.4687], [-120.1149, 34.4713], [-120.12, 34.4734], [-120.1257, 34.4732], [-120.1365, 34.4754], [-120.1394, 34.4753], [-120.1547, 34.4743], [-120.1607, 34.4731], [-120.1609, 34.4724], [-120.1593, 34.4727], [-120.1591, 34.4721], [-120.161, 34.4715], [-120.1633, 34.472], [-120.1652, 34.4717], [-120.1665, 34.4725], [-120.1696, 34.472], [-120.1699, 34.4753], [-120.1707, 34.4767], [-120.1694, 34.4781], [-120.1709, 34.479], [-120.171, 34.48], [-120.1727, 34.4795], [-120.173, 34.4801], [-120.1719, 34.4803], [-120.1725, 34.4805], [-120.1736, 34.4805], [-120.1741, 34.4792], [-120.1721, 34.4788], [-120.1734, 34.4782], [-120.1758, 34.4783], [-120.1761, 34.4773], [-120.1755, 34.4771], [-120.1789, 34.4767], [-120.1789, 34.4773], [-120.1796, 34.4767], [-120.1806, 34.4773], [-120.1827, 34.4764], [-120.1848, 34.4766], [-120.1844, 34.4774], [-120.1854, 34.4779], [-120.1865, 34.4775], [-120.187, 34.478], [-120.1855, 34.4789], [-120.1855, 34.4801], [-120.188, 34.4797], [-120.1897, 34.4781], [-120.1912, 34.478], [-120.1927, 34.4788], [-120.1903, 34.479], [-120.1901, 34.4799], [-120.1922, 34.4802], [-120.1945, 34.4782], [-120.1943, 34.477], [-120.1964, 34.4762], [-120.1965, 34.4788], [-120.1978, 34.4798], [-120.2029, 34.4809], [-120.2041, 34.4817], [-120.2037, 34.4828], [-120.2047, 34.4838], [-120.2023, 34.4849], [-120.2021, 34.4862], [-120.2009, 34.4873], [-120.2001, 34.4852], [-120.1991, 34.4851], [-120.198, 34.487], [-120.1989, 34.4879], [-120.1986, 34.4885], [-120.1957, 34.4882], [-120.1931, 34.4897], [-120.1925, 34.4889], [-120.1916, 34.4895], [-120.1902, 34.4878], [-120.1899, 34.4888], [-120.1908, 34.4903], [-120.1892, 34.4897], [-120.189, 34.4882], [-120.1898, 34.4877], [-120.1892, 34.4869], [-120.188, 34.4879], [-120.1861, 34.4882], [-120.1869, 34.4888], [-120.1867, 34.4898], [-120.1837, 34.4885], [-120.1803, 34.4892], [-120.1773, 34.4894], [-120.1766, 34.4889], [-120.1757, 34.4896], [-120.1764, 34.4905], [-120.1754, 34.4913], [-120.1744, 34.4907], [-120.1752, 34.4921], [-120.1743, 34.4925], [-120.1734, 34.492], [-120.1743, 34.489], [-120.1734, 34.4884], [-120.1727, 34.4888], [-120.1726, 34.4905], [-120.17, 34.49], [-120.1698, 34.4907], [-120.1695, 34.4903], [-120.1676, 34.4907], [-120.1679, 34.4913], [-120.1666, 34.4909], [-120.1663, 34.4916], [-120.1645, 34.4915], [-120.1636, 34.4923], [-120.1658, 34.4931], [-120.1651, 34.4947], [-120.1428, 34.4942], [-120.143, 34.5014], [-120.1389, 34.5014], [-120.1389, 34.4977], [-120.1342, 34.4977], [-120.1342, 34.505], [-120.1298, 34.5051], [-120.1298, 34.5014], [-120.1218, 34.5014], [-120.1215, 34.5198], [-120.1232, 34.5198], [-120.1236, 34.52], [-120.123, 34.5202], [-120.1166, 34.5202], [-120.1075, 34.5225], [-120.1061, 34.5224], [-120.1063, 34.5229], [-120.1045, 34.5232], [-120.1038, 34.5245], [-120.0996, 34.5262], [-120.0983, 34.5257], [-120.0986, 34.5248], [-120.0966, 34.5238], [-120.0962, 34.5244], [-120.0969, 34.5251], [-120.0959, 34.5259], [-120.095, 34.5258], [-120.0952, 34.5241], [-120.0939, 34.5226], [-120.0932, 34.5232], [-120.092, 34.5228], [-120.0928, 34.5223], [-120.0924, 34.5213], [-120.0899, 34.5207], [-120.0885, 34.5195], [-120.0885, 34.5185], [-120.0867, 34.5192], [-120.0866, 34.5207], [-120.0858, 34.5212], [-120.0853, 34.5201], [-120.0833, 34.5198], [-120.083, 34.5191], [-120.0838, 34.5186], [-120.0832, 34.5179], [-120.0826, 34.5189], [-120.0818, 34.5179], [-120.0801, 34.5181], [-120.0796, 34.5176], [-120.0784, 34.5187], [-120.078, 34.5179], [-120.0773, 34.518], [-120.0773, 34.5121], [-120.0694, 34.5121], [-120.0693, 34.5157], [-120.073, 34.5159]], [[-120.0446, 34.4876], [-120.043, 34.4863], [-120.0448, 34.4861], [-120.0441, 34.4825], [-120.0452, 34.4823], [-120.0422, 34.4782], [-120.0429, 34.4756], [-120.0435, 34.475], [-120.0435, 34.4746], [-120.043, 34.4752], [-120.042, 34.4751], [-120.0409, 34.4784], [-120.0393, 34.479], [-120.0377, 34.4815], [-120.036, 34.4814], [-120.0369, 34.4822], [-120.035, 34.4819], [-120.0331, 34.483], [-120.0314, 34.4821], [-120.031, 34.4836], [-120.0296, 34.4841], [-120.0291, 34.4849], [-120.0327, 34.4856], [-120.0312, 34.4862], [-120.0355, 34.4867], [-120.0383, 34.4853], [-120.0387, 34.4869], [-120.0393, 34.4863], [-120.0389, 34.4844], [-120.0401, 34.4832], [-120.0405, 34.4847], [-120.0427, 34.4855], [-120.0437, 34.4878], [-120.0446, 34.4876]], [[-120.1219, 34.4978], [-120.1298, 34.4977], [-120.1298, 34.4941], [-120.1219, 34.4941], [-120.1219, 34.4978]]], [[[-120.1256, 34.5206], [-120.1243, 34.5199], [-120.1238, 34.5198], [-120.1257, 34.5199], [-120.1256, 34.5206]]], [[[-120.1749, 34.4928], [-120.1756, 34.4935], [-120.1752, 34.4941], [-120.1749, 34.4928]]]]}, "properties": {"layer": "retained"}}]}
