{"type": "FeatureCollection", "features": [{"type": "Feature", "geometry": {"type": "MultiPolygon", "coordinates": [[[[-123.6175, 40.7899], [-123.6165, 40.7899], [-123.616, 40.7894], [-123.6175, 40.7899]]], [[[-123.6109, 40.8215], [-123.609, 40.8203], [-123.609, 40.82], [-123.6111, 40.8203], [-123.6109, 40.8215]]], [[[-123.6875, 40.8249], [-123.6874, 40.8247], [-123.6877, 40.8249], [-123.6875, 40.8249]]], [[[-123.6868, 40.8262], [-123.6863, 40.8264], [-123.6864, 40.8262], [-123.6868, 40.8262]]], [[[-123.6868, 40.8284], [-123.687, 40.8286], [-123.6868, 40.8286], [-123.6868, 40.8284]]], [[[-123.6891, 40.8333], [-123.6889, 40.8326], [-123.6897, 40.8325], [-123.6898, 40.8329], [-123.6891, 40.8333]]], [[[-123.6112, 40.8051], [-123.6107, 40.8026], [-123.6118, 40.7996], [-123.6146, 40.7991], [-123.6158, 40.7964], [-123.6174, 40.796], [-123.6227, 40.7964], [-123.623, 40.7996], [-123.6247, 40.801], [-123.626, 40.801], [-123.6278, 40.7995], [-123.6292, 40.8014], [-123.6287, 40.8023], [-123.6295, 40.804], [-123.6304, 40.8035], [-123.6333, 40.8046], [-123.6362, 40.804], [-123.6397, 40.8051], [-123.6433, 40.8048], [-123.6432, 40.8028], [-123.6459, 40.8024], [-123.6465, 40.8002], [-123.6509, 40.7988], [-123.6511, 40.7969], [-123.6521, 40.7964], [-123.6529, 40.7977], [-123.6574, 40.7977], [-123.6595, 40.7965], [-123.6625, 40.7967], [-123.6638, 40.7956], [-123.6717, 40.7956], [-123.6726, 40.7947], [-123.6781, 40.7926], [-123.6787, 40.7926], [-123.6777, 40.794], [-123.6784, 40.7952], [-123.6777, 40.7977], [-123.6785, 40.7988], [-123.6784, 40.8007], [-123.6774, 40.8013], [-123.6781, 40.802], [-123.6809, 40.8016], [-123.6836, 40.8001], [-123.6896, 40.8004], [-123.6893, 40.8025], [-123.6913, 40.8066], [-123.6906, 40.8084], [-123.6912, 40.8089], [-123.6889, 40.8093], [-123.6895, 40.8112], [-123.6867, 40.8118], [-123.6843, 40.8134], [-123.6874, 40.8148], [-123.6872, 40.8157], [-123.6894, 40.8169], [-123.6892, 40.8182], [-123.6901, 40.8193], [-123.6882, 40.8204], [-123.6884, 40.8219], [-123.6869, 40.8237], [-123.6875, 40.8245], [-123.6853, 40.8252], [-123.6858, 40.827], [-123.6841, 40.8273], [-123.6859, 40.8301], [-123.6845, 40.8303], [-123.6831, 40.8287], [-123.6816, 40.8296], [-123.6811, 40.8328], [-123.6783, 40.8349], [-123.6758, 40.8394], [-123.676, 40.8413], [-123.6746, 40.8445], [-123.6783, 40.8565], [-123.6774, 40.86], [-123.6776, 40.8649], [-123.6767, 40.8664], [-123.6783, 40.8687], [-123.6784, 40.8708], [-123.677, 40.8739], [-123.6728, 40.8742], [-123.6712, 40.873], [-123.671, 40.8736], [-123.6663, 40.8733], [-123.6624, 40.8719], [-123.6609, 40.87], [-123.6576, 40.8685], [-123.6552, 40.8691], [-123.6523, 40.8684], [-123.6497, 40.8703], [-123.6483, 40.8699], [-123.6442, 40.8707], [-123.6439, 40.8721], [-123.6399, 40.8753], [-123.6372, 40.8746], [-123.637, 40.8756], [-123.6348, 40.8762], [-123.6346, 40.877], [-123.6295, 40.8772], [-123.6276, 40.8782], [-123.6251, 40.8772], [-123.6247, 40.8763], [-123.6261, 40.8759], [-123.6257, 40.8716], [-123.6231, 40.8677], [-123.6197, 40.8678], [-123.6189, 40.8657], [-123.6156, 40.8638], [-123.6161, 40.8619], [-123.6145, 40.8602], [-123.614, 40.8551], [-123.6133, 40.8545], [-123.6153, 40.851], [-123.6171, 40.8498], [-123.6186, 40.8501], [-123.6248, 40.8487], [-123.6283, 40.8509], [-123.6289, 40.8476], [-123.6279, 40.8465], [-123.6289, 40.8464], [-123.6301, 40.8446], [-123.631, 40.8455], [-123.6316, 40.8444], [-123.6305, 40.8443], [-123.6309, 40.8437], [-123.6307, 40.8434], [-123.6296, 40.8435], [-123.6295, 40.8428], [-123.629, 40.8434], [-123.6267, 40.8428], [-123.6259, 40.8419], [-123.6266, 40.8406], [-123.6255, 40.8401], [-123.6224, 40.8406], [-123.6212, 40.8415], [-123.6173, 40.8405], [-123.6173, 40.8391], [-123.6165, 40.8389], [-123.6171, 40.8369], [-123.616, 40.8357], [-123.6134, 40.838], [-123.6117, 40.8374], [-123.6105, 40.8392], [-123.6085, 40.8386], [-123.6081, 40.8364], [-123.606, 40.8371], [-123.6046, 40.8368], [-123.6054, 40.8363], [-123.6051, 40.8343], [-123.608, 40.8324], [-123.608, 40.8313], [-123.6073, 40.8312], [-123.6081, 40.8312], [-123.608, 40.8304], [-123.6106, 40.832], [-123.6106, 40.8308], [-123.6122, 40.8296], [-123.6114, 40.8283], [-123.6117, 40.8273], [-123.6101, 40.8268], [-123.61, 40.8253], [-123.6117, 40.8242], [-123.6111, 40.8238], [-123.6124, 40.8224], [-123.6117, 40.8216], [-123.6129, 40.8208], [-123.6122, 40.8192], [-123.6094, 40.818], [-123.6076, 40.8157], [-123.6083, 40.8152], [-123.6083, 40.8126], [-123.6074, 40.8106], [-123.6103, 40.8082], [-123.6112, 40.8051]], [[-123.6257, 40.8517], [-123.6262, 40.8515], [-123.6256, 40.8514], [-123.6257, 40.8517]], [[-123.6265, 40.851], [-123.6262, 40.8508], [-123.626, 40.8508], [-123.6265, 40.851]], [[-123.6336, 40.8652], [-123.6321, 40.8642], [-123.6309, 40.8653], [-123.6322, 40.8662], [-123.6339, 40.8661], [-123.6342, 40.865], [-123.6336, 40.8652]]], [[[-123.613, 40.8555], [-123.613, 40.8558], [-123.6129, 40.8557], [-123.613, 40.8555]]], [[[-123.6161, 40.8692], [-123.6154, 40.869], [-123.6159, 40.8687], [-123.6161, 40.8692]]]]}, "properties": {"layer": "perimeter"}}, {"type": "Feature", "geometry": {"type": "MultiPolygon", "coordinates": [[[[-123.6743, 40.7941], [-123.677, 40.7928], [-123.6787, 40.7926], [-123.6778, 40.7941], [-123.6743, 40.7941]]], [[[-123.6836, 40.8001], [-123.6858, 40.8006], [-123.6881, 40.8], [-123.6896, 40.8004], [-123.6896, 40.8013], [-123.6834, 40.8012], [-123.6836, 40.8001]]], [[[-123.677, 40.8525], [-123.6784, 40.8582], [-123.6774, 40.8598], [-123.6776, 40.8649], [-123.6769, 40.8661], [-123.6648, 40.8649], [-123.6644, 40.8516], [-123.677, 40.8525]]], [[[-123.6197, 40.8678], [-123.6193, 40.8671], [-123.621, 40.8672], [-123.621, 40.8679], [-123.6197, 40.8678]]], [[[-123.6161, 40.8692], [-123.6154, 40.869], [-123.6159, 40.8687], [-123.6161, 40.8692]]], [[[-123.6206, 40.8549], [-123.6293, 40.8554], [-123.6296, 40.8614], [-123.6208, 40.861], [-123.6206, 40.8549]]], [[[-123.6389, 40.8682], [-123.6393, 40.8743], [-123.6301, 40.8737], [-123.6296, 40.8614], [-123.6477, 40.8626], [-123.6482, 40.8688], [-123.6389, 40.8682]], [[-123.6334, 40.8652], [-123.6321, 40.8642], [-123.6309, 40.8653], [-123.6322, 40.8662], [-123.6339, 40.8661], [-123.6342, 40.865], [-123.6334, 40.8652]]]]}, "properties": {"layer": "retained"}}, {"type": "Feature", "geometry": {"type": "MultiPolygon", "coordinates": [[[[-123.6304, 40.8715], [-123.6315, 40.872], [-123.6315, 40.8707], [-123.6304, 40.8715]]], [[[-123.6649, 40.8635], [-123.6656, 40.8629], [-123.6649, 40.8624], [-123.6649, 40.8635]]], [[[-123.6726, 40.86], [-123.674, 40.8594], [-123.6729, 40.8592], [-123.6726, 40.86]]], [[[-123.6239, 40.8612], [-123.6228, 40.8609], [-123.6227, 40.8601], [-123.6221, 40.8607], [-123.6206, 40.8602], [-123.6207, 40.861], [-123.6239, 40.8612]]], [[[-123.6267, 40.8613], [-123.6263, 40.86], [-123.6256, 40.86], [-123.6249, 40.8609], [-123.6267, 40.8613]]], [[[-123.6263, 40.8597], [-123.6266, 40.8586], [-123.6259, 40.8584], [-123.6273, 40.8581], [-123.6262, 40.8576], [-123.6268, 40.8565], [-123.6226, 40.8566], [-123.6233, 40.8574], [-123.6244, 40.8574], [-123.6245, 40.8587], [-123.6263, 40.8597]], [[-123.6259, 40.8589], [-123.6255, 40.8592], [-123.6255, 40.8589], [-123.6259, 40.8589]]]]}, "properties": {"layer": "high_severity"}}, {"type": "Feature", "geometry": {"type": "Polygon", "coordinates": [[[-123.6224, 40.8612], [-123.6239, 40.8609], [-123.6217, 40.8607], [-123.6224, 40.8612]]]}, "properties": {"layer": "interior"}}, {"type": "Feature", "geometry": {"type": "Polygon", "coordinates": [[[-123.6224, 40.8612], [-123.6239, 40.8609], [-123.6217, 40.8607], [-123.6224, 40.8612]]]}, "properties": {"layer": "cell", "cell_id": "303_2000", "seed_zone": "303", "elevation_band": "2000–2500 ft"}}, {"type": "Feature", "geometry": {"type": "Polygon", "coordinates": [[[-123.6251, 40.8573], [-123.6254, 40.8571], [-123.6251, 40.8571], [-123.6251, 40.8573]]]}, "properties": {"layer": "cell", "cell_id": "303_2500", "seed_zone": "303", "elevation_band": "2500–3000 ft"}}]}
