{"type": "FeatureCollection", "features": [{"type": "Feature", "geometry": {"type": "Polygon", "coordinates": [[[-122.3563, 39.9425], [-122.3561, 39.9435], [-122.355, 39.9442], [-122.3552, 39.9436], [-122.3517, 39.9434], [-122.3477, 39.9403], [-122.3412, 39.9374], [-122.3356, 39.934], [-122.3353, 39.932], [-122.3245, 39.9285], [-122.32, 39.9255], [-122.319, 39.9257], [-122.3143, 39.9237], [-122.3155, 39.9221], [-122.3295, 39.925], [-122.3339, 39.9246], [-122.3353, 39.9239], [-122.3351, 39.9229], [-122.336, 39.9229], [-122.3356, 39.9242], [-122.3368, 39.9242], [-122.3381, 39.9228], [-122.3389, 39.9228], [-122.3378, 39.924], [-122.3393, 39.9238], [-122.3395, 39.9228], [-122.3405, 39.9236], [-122.3448, 39.9239], [-122.3436, 39.9187], [-122.345, 39.9186], [-122.345, 39.9159], [-122.3414, 39.9151], [-122.3356, 39.9152], [-122.3333, 39.9143], [-122.3303, 39.9145], [-122.3313, 39.9136], [-122.3379, 39.9122], [-122.3433, 39.9133], [-122.349, 39.912], [-122.3473, 39.9135], [-122.3523, 39.9189], [-122.3529, 39.9216], [-122.3542, 39.9072], [-122.3616, 39.9053], [-122.3695, 39.9051], [-122.3706, 39.907], [-122.3704, 39.9088], [-122.3697, 39.9091], [-122.3704, 39.9146], [-122.3679, 39.9213], [-122.374, 39.9207], [-122.3737, 39.9211], [-122.3748, 39.9214], [-122.3744, 39.9221], [-122.3778, 39.9215], [-122.3782, 39.9202], [-122.3828, 39.9204], [-122.3816, 39.9223], [-122.382, 39.9236], [-122.376, 39.9315], [-122.3702, 39.9365], [-122.3638, 39.9392], [-122.3641, 39.9402], [-122.363, 39.9419], [-122.3589, 39.9434], [-122.357, 39.9435], [-122.3563, 39.9425]]]}, "properties": {"layer": "perimeter"}}, {"type": "Feature", "geometry": {"type": "Polygon", "coordinates": [[[-122.3498, 39.9417], [-122.3356, 39.934], [-122.3353, 39.932], [-122.3267, 39.9292], [-122.3451, 39.9292], [-122.345, 39.9129], [-122.349, 39.912], [-122.3473, 39.9135], [-122.3523, 39.9189], [-122.3529, 39.9216], [-122.3542, 39.9072], [-122.3616, 39.9053], [-122.3695, 39.9051], [-122.3706, 39.907], [-122.3704, 39.9088], [-122.3697, 39.9091], [-122.3704, 39.9146], [-122.3679, 39.9213], [-122.374, 39.9207], [-122.3737, 39.9211], [-122.3748, 39.9214], [-122.3744, 39.9221], [-122.3778, 39.9215], [-122.3782, 39.9202], [-122.3828, 39.9204], [-122.3816, 39.9223], [-122.3816, 39.9244], [-122.376, 39.9315], [-122.3702, 39.9365], [-122.3638, 39.9392], [-122.364, 39.94], [-122.3498, 39.9417]]]}, "properties": {"layer": "retained"}}]}
