{"type": "FeatureCollection", "features": [{"type": "Feature", "geometry": {"type": "MultiPolygon", "coordinates": [[[[-120.2378, 41.8507], [-120.2382, 41.8509], [-120.2378, 41.851], [-120.2378, 41.8507]]], [[[-120.2811, 41.8516], [-120.281, 41.8523], [-120.2807, 41.8522], [-120.2811, 41.8516]]], [[[-120.2803, 41.8597], [-120.2804, 41.8601], [-120.2802, 41.8601], [-120.2803, 41.8597]]], [[[-120.2877, 41.8643], [-120.2877, 41.8645], [-120.2876, 41.8643], [-120.2877, 41.8643]]], [[[-120.2877, 41.8646], [-120.2879, 41.8646], [-120.2877, 41.8647], [-120.2877, 41.8646]]], [[[-120.303, 41.8676], [-120.302, 41.8672], [-120.3016, 41.8661], [-120.3037, 41.8657], [-120.3042, 41.8668], [-120.303, 41.8676]]], [[[-120.223, 41.8684], [-120.2233, 41.8687], [-120.223, 41.8687], [-120.223, 41.8684]]], [[[-120.2249, 41.8689], [-120.2251, 41.869], [-120.2249, 41.869], [-120.2249, 41.8689]]], [[[-120.3002, 41.8929], [-120.2938, 41.8914], [-120.293, 41.892], [-120.2897, 41.8905], [-120.2885, 41.8922], [-120.2867, 41.8915], [-120.285, 41.8919], [-120.284, 41.8908], [-120.2824, 41.8907], [-120.2796, 41.8891], [-120.276, 41.8888], [-120.2745, 41.8874], [-120.2747, 41.886], [-120.2733, 41.8868], [-120.2717, 41.8867], [-120.2713, 41.886], [-120.2686, 41.8868], [-120.265, 41.8853], [-120.2627, 41.8855], [-120.2597, 41.8836], [-120.2597, 41.8829], [-120.2577, 41.8821], [-120.2578, 41.8812], [-120.2554, 41.8808], [-120.2556, 41.8822], [-120.255, 41.8823], [-120.2548, 41.881], [-120.2525, 41.8816], [-120.2521, 41.8812], [-120.2515, 41.8819], [-120.2471, 41.8811], [-120.2452, 41.8827], [-120.2432, 41.8797], [-120.2405, 41.8811], [-120.2393, 41.8802], [-120.2397, 41.8794], [-120.234, 41.879], [-120.2294, 41.8776], [-120.23, 41.8796], [-120.2306, 41.8801], [-120.2316, 41.8799], [-120.2334, 41.8822], [-120.2317, 41.8836], [-120.2298, 41.8824], [-120.2287, 41.8831], [-120.2271, 41.8825], [-120.2263, 41.8805], [-120.2257, 41.8814], [-120.2246, 41.8812], [-120.2244, 41.8805], [-120.2265, 41.8799], [-120.2256, 41.8777], [-120.2245, 41.8774], [-120.2228, 41.8783], [-120.2208, 41.8784], [-120.2205, 41.88], [-120.218, 41.879], [-120.2172, 41.8781], [-120.2176, 41.8773], [-120.2188, 41.8769], [-120.2195, 41.8775], [-120.2215, 41.8757], [-120.2215, 41.8745], [-120.2234, 41.8748], [-120.2233, 41.8725], [-120.226, 41.8722], [-120.2239, 41.8698], [-120.226, 41.8688], [-120.2244, 41.868], [-120.2242, 41.8659], [-120.2255, 41.8655], [-120.224, 41.8648], [-120.2245, 41.8623], [-120.2275, 41.8616], [-120.2291, 41.8599], [-120.2318, 41.8593], [-120.2332, 41.857], [-120.2312, 41.8538], [-120.2332, 41.8538], [-120.2332, 41.8529], [-120.2363, 41.8513], [-120.2369, 41.8518], [-120.236, 41.8524], [-120.2374, 41.8515], [-120.2381, 41.8524], [-120.2392, 41.8497], [-120.2411, 41.8505], [-120.2433, 41.8484], [-120.2464, 41.8476], [-120.2481, 41.8465], [-120.2493, 41.8473], [-120.2486, 41.8481], [-120.2507, 41.8491], [-120.2547, 41.849], [-120.2554, 41.85], [-120.2569, 41.8489], [-120.2569, 41.8479], [-120.2555, 41.8472], [-120.2559, 41.8467], [-120.258, 41.846], [-120.2598, 41.8462], [-120.261, 41.8452], [-120.2647, 41.8495], [-120.2692, 41.8528], [-120.2702, 41.8522], [-120.274, 41.8528], [-120.2744, 41.854], [-120.2766, 41.8526], [-120.2764, 41.8518], [-120.2786, 41.8517], [-120.2815, 41.8525], [-120.282, 41.8537], [-120.2813, 41.8551], [-120.2836, 41.8547], [-120.2845, 41.8554], [-120.2844, 41.8571], [-120.2825, 41.858], [-120.2802, 41.8561], [-120.2786, 41.8561], [-120.2785, 41.8552], [-120.2773, 41.8561], [-120.2773, 41.8598], [-120.2797, 41.8599], [-120.2795, 41.8611], [-120.2816, 41.8607], [-120.2808, 41.8622], [-120.2832, 41.8618], [-120.2841, 41.8639], [-120.2857, 41.8632], [-120.2863, 41.8647], [-120.2871, 41.8645], [-120.2877, 41.866], [-120.2908, 41.8688], [-120.2958, 41.8671], [-120.2975, 41.8674], [-120.2973, 41.8658], [-120.3003, 41.8661], [-120.3003, 41.867], [-120.3018, 41.8673], [-120.3009, 41.8692], [-120.3021, 41.8693], [-120.302, 41.8706], [-120.3038, 41.8713], [-120.3034, 41.8734], [-120.2999, 41.8718], [-120.3004, 41.871], [-120.2998, 41.8702], [-120.2988, 41.8721], [-120.2964, 41.8717], [-120.2962, 41.8728], [-120.2951, 41.8723], [-120.2951, 41.8731], [-120.297, 41.8741], [-120.2989, 41.8739], [-120.3002, 41.8751], [-120.3012, 41.8746], [-120.3058, 41.8748], [-120.3103, 41.8769], [-120.3127, 41.8759], [-120.3167, 41.8775], [-120.3199, 41.8776], [-120.3203, 41.8785], [-120.3198, 41.88], [-120.314, 41.8816], [-120.3145, 41.8838], [-120.3088, 41.8855], [-120.3101, 41.8874], [-120.3115, 41.8883], [-120.3119, 41.8897], [-120.3109, 41.8907], [-120.3065, 41.8904], [-120.3002, 41.8929]]], [[[-120.2343, 41.8801], [-120.234, 41.8802], [-120.2341, 41.8801], [-120.2343, 41.8801]]], [[[-120.233, 41.8801], [-120.2327, 41.8803], [-120.2327, 41.8801], [-120.233, 41.8801]]], [[[-120.3103, 41.8867], [-120.3101, 41.8872], [-120.3099, 41.8866], [-120.3103, 41.8867]]], [[[-120.2198, 41.8606], [-120.2169, 41.8599], [-120.2172, 41.859], [-120.218, 41.8596], [-120.221, 41.8594], [-120.2198, 41.8606]]], [[[-120.2159, 41.8678], [-120.2154, 41.8674], [-120.2158, 41.8673], [-120.2159, 41.8678]]], [[[-120.214, 41.8678], [-120.2145, 41.868], [-120.2143, 41.8681], [-120.214, 41.8678]]], [[[-120.2129, 41.8686], [-120.2134, 41.8681], [-120.2149, 41.8694], [-120.2143, 41.8696], [-120.2129, 41.8686]]], [[[-120.2223, 41.8697], [-120.2216, 41.8691], [-120.2225, 41.8692], [-120.2223, 41.8697]]], [[[-120.216, 41.8706], [-120.2157, 41.8692], [-120.2163, 41.8692], [-120.216, 41.8706]]], [[[-120.2097, 41.8778], [-120.2107, 41.8709], [-120.2122, 41.87], [-120.2121, 41.8692], [-120.2132, 41.8694], [-120.214, 41.8713], [-120.2155, 41.872], [-120.2152, 41.8733], [-120.2165, 41.8751], [-120.2156, 41.8757], [-120.2146, 41.8748], [-120.2149, 41.8766], [-120.2125, 41.8764], [-120.2117, 41.8777], [-120.2097, 41.8778]]], [[[-120.2179, 41.8742], [-120.2178, 41.8738], [-120.2181, 41.8738], [-120.2179, 41.8742]]], [[[-120.2197, 41.8741], [-120.2204, 41.8737], [-120.2213, 41.8737], [-120.2203, 41.8743], [-120.2197, 41.8741]]], [[[-120.2208, 41.8755], [-120.2206, 41.8756], [-120.2205, 41.8756], [-120.2208, 41.8755]]], [[[-120.2208, 41.8758], [-120.2206, 41.8757], [-120.2208, 41.8757], [-120.2208, 41.8758]]]]}, "properties": {"layer": "perimeter"}}, {"type": "Feature", "geometry": {"type": "MultiPolygon", "coordinates": [[[[-120.2801, 41.8599], [-120.2804, 41.8601], [-120.2801, 41.86], [-120.2801, 41.8599]]], [[[-120.303, 41.8676], [-120.3016, 41.8661], [-120.3037, 41.8657], [-120.3042, 41.8668], [-120.303, 41.8676]]], [[[-120.2982, 41.8922], [-120.2935, 41.8916], [-120.2935, 41.8895], [-120.2983, 41.8895], [-120.2982, 41.8922]]], [[[-120.2583, 41.846], [-120.2598, 41.8462], [-120.261, 41.8452], [-120.2649, 41.849], [-120.2581, 41.849], [-120.2583, 41.846]]], [[[-120.2681, 41.8518], [-120.2692, 41.8528], [-120.2702, 41.8522], [-120.274, 41.8528], [-120.2744, 41.854], [-120.2763, 41.8527], [-120.2775, 41.8528], [-120.2771, 41.8597], [-120.2797, 41.8599], [-120.2795, 41.8611], [-120.2816, 41.8607], [-120.2808, 41.8622], [-120.2832, 41.8618], [-120.2841, 41.8639], [-120.2857, 41.8632], [-120.2877, 41.8661], [-120.2934, 41.8708], [-120.2934, 41.8681], [-120.2958, 41.8671], [-120.2975, 41.8674], [-120.2973, 41.8658], [-120.3003, 41.8661], [-120.3003, 41.867], [-120.3013, 41.8669], [-120.3021, 41.8679], [-120.3009, 41.8692], [-120.3021, 41.8693], [-120.3018, 41.8703], [-120.3037, 41.8712], [-120.3041, 41.8724], [-120.3028, 41.8735], [-120.3019, 41.8723], [-120.2998, 41.8717], [-120.3004, 41.871], [-120.2998, 41.8702], [-120.2988, 41.8721], [-120.2964, 41.8717], [-120.2962, 41.8728], [-120.2951, 41.8723], [-120.2951, 41.8731], [-120.297, 41.8741], [-120.2989, 41.8739], [-120.3002, 41.8751], [-120.3012, 41.8746], [-120.3058, 41.8748], [-120.3103, 41.8769], [-120.3127, 41.8759], [-120.3167, 41.8775], [-120.3199, 41.8776], [-120.3198, 41.88], [-120.3137, 41.8819], [-120.3145, 41.8838], [-120.3088, 41.8855], [-120.3101, 41.8874], [-120.3115, 41.8883], [-120.3119, 41.8897], [-120.3109, 41.8907], [-120.308, 41.8905], [-120.3079, 41.8858], [-120.3032, 41.8858], [-120.3031, 41.8786], [-120.2934, 41.8786], [-120.2934, 41.871], [-120.291, 41.8694], [-120.287, 41.8694], [-120.2808, 41.8715], [-120.273, 41.8709], [-120.2731, 41.8689], [-120.2751, 41.8672], [-120.2752, 41.8598], [-120.2728, 41.8598], [-120.2728, 41.8635], [-120.2679, 41.8635], [-120.2681, 41.8518]]], [[[-120.3009, 41.8931], [-120.3007, 41.8931], [-120.3007, 41.8931], [-120.3009, 41.8931]]], [[[-120.3103, 41.8867], [-120.31, 41.8871], [-120.3099, 41.8866], [-120.3103, 41.8867]]], [[[-120.258, 41.862], [-120.2584, 41.8686], [-120.2544, 41.8686], [-120.2497, 41.8571], [-120.2534, 41.8554], [-120.258, 41.862]]]]}, "properties": {"layer": "retained"}}, {"type": "Feature", "geometry": {"type": "Polygon", "coordinates": [[[-120.276, 41.8683], [-120.277, 41.8683], [-120.276, 41.8677], [-120.276, 41.8683]]]}, "properties": {"layer": "high_severity"}}]}
