{"type": "FeatureCollection", "features": [{"type": "Feature", "geometry": {"type": "Polygon", "coordinates": [[[-118.9655, 37.9488], [-118.9488, 37.9495], [-118.946, 37.9475], [-118.9461, 37.9462], [-118.9441, 37.9447], [-118.9454, 37.9454], [-118.9459, 37.945], [-118.9432, 37.9433], [-118.9413, 37.9394], [-118.945, 37.9404], [-118.9515, 37.9438], [-118.9578, 37.942], [-118.9601, 37.9406], [-118.9616, 37.9386], [-118.9639, 37.9375], [-118.9647, 37.936], [-118.9622, 37.9326], [-118.9623, 37.9316], [-118.9605, 37.9303], [-118.9606, 37.9278], [-118.9619, 37.9271], [-118.9681, 37.9274], [-118.968, 37.9245], [-118.969, 37.9238], [-118.9679, 37.9225], [-118.9706, 37.923], [-118.9729, 37.9225], [-118.9736, 37.9231], [-118.9735, 37.9215], [-118.9723, 37.9203], [-118.9724, 37.9185], [-118.9737, 37.9178], [-118.9769, 37.9178], [-118.9785, 37.9167], [-118.9795, 37.917], [-118.9818, 37.9157], [-118.9838, 37.916], [-118.9874, 37.9152], [-118.9888, 37.916], [-118.9893, 37.9153], [-118.991, 37.9159], [-118.9921, 37.9151], [-118.9931, 37.9153], [-118.9919, 37.9164], [-118.9937, 37.9165], [-118.9936, 37.9171], [-118.9951, 37.9179], [-118.9951, 37.9175], [-118.9966, 37.9174], [-118.9992, 37.9181], [-118.9996, 37.9193], [-119.0006, 37.9188], [-119.0091, 37.926], [-119.0146, 37.9235], [-119.016, 37.9222], [-119.0229, 37.9263], [-119.0232, 37.9288], [-119.0247, 37.9295], [-119.0246, 37.9305], [-119.0263, 37.9318], [-119.0261, 37.9337], [-119.0276, 37.9363], [-119.0262, 37.9367], [-119.0262, 37.9382], [-119.0249, 37.9375], [-119.0253, 37.9382], [-119.0235, 37.9397], [-119.0255, 37.9405], [-119.0263, 37.9418], [-119.0245, 37.941], [-119.0203, 37.9409], [-119.0178, 37.9391], [-119.0158, 37.9387], [-119.0147, 37.9372], [-119.013, 37.9387], [-119.0113, 37.9387], [-119.0109, 37.9397], [-119.0085, 37.9392], [-119.0036, 37.9399], [-118.9991, 37.9392], [-118.9933, 37.9422], [-118.9762, 37.9476], [-118.9712, 37.948], [-118.9676, 37.9492], [-118.9655, 37.9488]]]}, "properties": {"layer": "perimeter"}}, {"type": "Feature", "geometry": {"type": "MultiPolygon", "coordinates": [[[[-119.0245, 37.939], [-119.0235, 37.9397], [-119.0255, 37.9405], [-119.0263, 37.9418], [-119.0245, 37.941], [-119.0203, 37.9409], [-119.0185, 37.9395], [-119.0245, 37.939]]], [[[-119.0135, 37.9383], [-119.0113, 37.9387], [-119.0107, 37.9397], [-119.0085, 37.9392], [-119.0036, 37.9399], [-118.9991, 37.9392], [-118.9957, 37.9411], [-118.9957, 37.9383], [-119.0135, 37.9383]]]]}, "properties": {"layer": "retained"}}]}
