{"type": "FeatureCollection", "features": [{"type": "Feature", "geometry": {"type": "MultiPolygon", "coordinates": [[[[-118.6436, 35.3153], [-118.6411, 35.3148], [-118.6356, 35.3159], [-118.6329, 35.3172], [-118.6316, 35.3166], [-118.6331, 35.3142], [-118.6323, 35.3136], [-118.6304, 35.314], [-118.6285, 35.3167], [-118.6245, 35.3153], [-118.624, 35.3143], [-118.6252, 35.3101], [-118.6218, 35.3028], [-118.619, 35.2989], [-118.6196, 35.2966], [-118.6239, 35.2968], [-118.6284, 35.2921], [-118.636, 35.294], [-118.6617, 35.2971], [-118.6676, 35.2958], [-118.6718, 35.3015], [-118.6781, 35.3048], [-118.6798, 35.3078], [-118.6793, 35.3095], [-118.6731, 35.3149], [-118.6716, 35.3155], [-118.6682, 35.3154], [-118.6656, 35.3174], [-118.6642, 35.3209], [-118.6593, 35.3219], [-118.6521, 35.32], [-118.649, 35.3189], [-118.6436, 35.3153]]], [[[-118.7034, 35.317], [-118.7036, 35.3171], [-118.7036, 35.3173], [-118.7034, 35.317]]], [[[-118.7036, 35.3173], [-118.7055, 35.3194], [-118.7096, 35.3216], [-118.7067, 35.3215], [-118.7035, 35.3192], [-118.7036, 35.3173]]]]}, "properties": {"layer": "perimeter"}}, {"type": "Feature", "geometry": {"type": "MultiPolygon", "coordinates": [[[[-118.6432, 35.3151], [-118.6407, 35.3148], [-118.6356, 35.3159], [-118.6329, 35.3172], [-118.6316, 35.3166], [-118.6331, 35.3142], [-118.6323, 35.3136], [-118.6304, 35.314], [-118.6285, 35.3167], [-118.6245, 35.3153], [-118.624, 35.3143], [-118.6252, 35.3101], [-118.6218, 35.3028], [-118.619, 35.2989], [-118.6196, 35.2966], [-118.6239, 35.2968], [-118.6284, 35.2921], [-118.636, 35.294], [-118.6617, 35.2971], [-118.6676, 35.2958], [-118.6718, 35.3015], [-118.6781, 35.3048], [-118.6798, 35.3078], [-118.6793, 35.3095], [-118.6731, 35.3149], [-118.6716, 35.3155], [-118.6679, 35.3155], [-118.6656, 35.3174], [-118.6642, 35.3209], [-118.6598, 35.3218], [-118.6496, 35.3192], [-118.6432, 35.3151]]], [[[-118.7036, 35.3171], [-118.7034, 35.317], [-118.7036, 35.3169], [-118.7036, 35.3171]]], [[[-118.7036, 35.3173], [-118.7061, 35.3197], [-118.7096, 35.3216], [-118.7069, 35.3216], [-118.7035, 35.3192], [-118.7036, 35.3173]]]]}, "properties": {"layer": "retained"}}]}
