{"type": "FeatureCollection", "features": [{"type": "Feature", "geometry": {"type": "Polygon", "coordinates": [[[-117.7368, 33.9416], [-117.7343, 33.9409], [-117.734, 33.9418], [-117.7334, 33.9418], [-117.7329, 33.9463], [-117.7323, 33.9469], [-117.7254, 33.9481], [-117.7222, 33.9477], [-117.7219, 33.9499], [-117.7172, 33.9497], [-117.7147, 33.9515], [-117.7127, 33.951], [-117.7117, 33.9522], [-117.7091, 33.9511], [-117.7085, 33.9523], [-117.7069, 33.951], [-117.7058, 33.9531], [-117.7068, 33.9539], [-117.7051, 33.9565], [-117.7027, 33.9558], [-117.7024, 33.9546], [-117.6994, 33.9532], [-117.7004, 33.9521], [-117.6993, 33.9506], [-117.6963, 33.9523], [-117.6952, 33.9522], [-117.6968, 33.9514], [-117.699, 33.9486], [-117.7013, 33.9484], [-117.7022, 33.9469], [-117.703, 33.9467], [-117.7036, 33.9482], [-117.7051, 33.9481], [-117.7051, 33.9466], [-117.7003, 33.9375], [-117.699, 33.938], [-117.6987, 33.9371], [-117.6975, 33.9369], [-117.697, 33.9405], [-117.6938, 33.9366], [-117.6924, 33.9364], [-117.689, 33.9397], [-117.687, 33.9402], [-117.6861, 33.9399], [-117.6833, 33.9415], [-117.6809, 33.9403], [-117.6805, 33.9382], [-117.6805, 33.9392], [-117.6789, 33.9399], [-117.6785, 33.9411], [-117.6775, 33.9378], [-117.6779, 33.9351], [-117.6745, 33.933], [-117.6748, 33.9324], [-117.6728, 33.9314], [-117.6724, 33.9304], [-117.6716, 33.9305], [-117.6713, 33.9288], [-117.6689, 33.9263], [-117.663, 33.9228], [-117.66, 33.922], [-117.6586, 33.9194], [-117.6569, 33.9203], [-117.6556, 33.9198], [-117.6535, 33.921], [-117.6465, 33.9004], [-117.647, 33.8978], [-117.6485, 33.8963], [-117.6485, 33.897], [-117.6528, 33.8981], [-117.6536, 33.8978], [-117.6546, 33.8959], [-117.6535, 33.8945], [-117.6502, 33.8936], [-117.6495, 33.8921], [-117.6492, 33.891], [-117.6505, 33.8902], [-117.6496, 33.8879], [-117.6504, 33.8878], [-117.6514, 33.8854], [-117.6636, 33.8878], [-117.6674, 33.8879], [-117.6691, 33.887], [-117.6732, 33.8747], [-117.6783, 33.8728], [-117.6821, 33.8733], [-117.6829, 33.8723], [-117.6853, 33.8729], [-117.6857, 33.8738], [-117.6901, 33.8761], [-117.6954, 33.8756], [-117.695, 33.8769], [-117.6936, 33.8774], [-117.6982, 33.8775], [-117.6981, 33.8784], [-117.6905, 33.8783], [-117.6917, 33.88], [-117.6971, 33.8807], [-117.7035, 33.8801], [-117.7049, 33.8817], [-117.7066, 33.8816], [-117.7069, 33.8821], [-117.7056, 33.8831], [-117.7058, 33.8866], [-117.7051, 33.8873], [-117.7047, 33.886], [-117.7024, 33.8851], [-117.7038, 33.89], [-117.7069, 33.8896], [-117.7085, 33.8906], [-117.7084, 33.893], [-117.7117, 33.8903], [-117.7119, 33.8889], [-117.7176, 33.8828], [-117.7176, 33.882], [-117.7187, 33.8815], [-117.7204, 33.8836], [-117.7235, 33.8839], [-117.7304, 33.8864], [-117.7312, 33.8873], [-117.7355, 33.8874], [-117.7367, 33.8889], [-117.7369, 33.8903], [-117.7285, 33.8957], [-117.729, 33.8966], [-117.7313, 33.8962], [-117.7336, 33.8967], [-117.7427, 33.8956], [-117.7469, 33.8944], [-117.7482, 33.8948], [-117.7493, 33.8934], [-117.7517, 33.8929], [-117.7617, 33.8941], [-117.7604, 33.8942], [-117.7589, 33.8963], [-117.759, 33.8973], [-117.7617, 33.8995], [-117.7616, 33.903], [-117.7605, 33.902], [-117.7593, 33.9037], [-117.7584, 33.9038], [-117.7584, 33.9027], [-117.7566, 33.9029], [-117.7583, 33.9022], [-117.7548, 33.9019], [-117.7538, 33.9011], [-117.7444, 33.9031], [-117.7426, 33.9048], [-117.7403, 33.9051], [-117.739, 33.9063], [-117.7417, 33.906], [-117.7426, 33.907], [-117.7387, 33.9111], [-117.7401, 33.9123], [-117.7452, 33.9131], [-117.7454, 33.9142], [-117.7466, 33.9147], [-117.7479, 33.914], [-117.75, 33.9141], [-117.7556, 33.9169], [-117.7529, 33.9204], [-117.7503, 33.9218], [-117.7507, 33.9223], [-117.7495, 33.9224], [-117.7509, 33.9251], [-117.7523, 33.9249], [-117.7519, 33.9252], [-117.7543, 33.9269], [-117.7539, 33.9305], [-117.7506, 33.9329], [-117.7482, 33.9315], [-117.7466, 33.9318], [-117.7454, 33.9309], [-117.745, 33.932], [-117.7441, 33.932], [-117.7429, 33.931], [-117.7431, 33.9339], [-117.739, 33.9385], [-117.7371, 33.9393], [-117.7368, 33.9416]]]}, "properties": {"layer": "perimeter"}}, {"type": "Feature", "geometry": {"type": "MultiPolygon", "coordinates": [[[[-117.6526, 33.9187], [-117.6487, 33.9065], [-117.6509, 33.9064], [-117.6509, 33.9031], [-117.6497, 33.9032], [-117.6498, 33.8992], [-117.6544, 33.8993], [-117.6542, 33.9031], [-117.6556, 33.9099], [-117.6554, 33.9187], [-117.6526, 33.9187]]], [[[-117.6476, 33.8974], [-117.6485, 33.8963], [-117.6485, 33.897], [-117.6511, 33.8975], [-117.6476, 33.8974]]], [[[-117.6537, 33.8975], [-117.6546, 33.8959], [-117.6542, 33.8949], [-117.6502, 33.8936], [-117.6492, 33.891], [-117.6504, 33.8906], [-117.6496, 33.8879], [-117.6504, 33.8878], [-117.6514, 33.8854], [-117.6636, 33.8878], [-117.6674, 33.8879], [-117.6691, 33.887], [-117.6705, 33.8831], [-117.6728, 33.8853], [-117.6729, 33.8866], [-117.6765, 33.8889], [-117.655, 33.8887], [-117.6545, 33.8975], [-117.6537, 33.8975]]], [[[-117.6758, 33.8739], [-117.6783, 33.8728], [-117.6821, 33.8733], [-117.6829, 33.8723], [-117.6843, 33.8728], [-117.6844, 33.874], [-117.6856, 33.8749], [-117.6851, 33.8757], [-117.6876, 33.8767], [-117.6879, 33.8829], [-117.6793, 33.8776], [-117.6758, 33.8739]]], [[[-117.7469, 33.8944], [-117.7482, 33.8948], [-117.7493, 33.8934], [-117.7517, 33.8929], [-117.7564, 33.8937], [-117.7566, 33.8954], [-117.7586, 33.8954], [-117.7589, 33.9034], [-117.7584, 33.9027], [-117.7566, 33.9029], [-117.7579, 33.902], [-117.7548, 33.9019], [-117.7538, 33.9011], [-117.7465, 33.9025], [-117.746, 33.8948], [-117.7469, 33.8944]]], [[[-117.7444, 33.9031], [-117.7426, 33.9048], [-117.7403, 33.9051], [-117.739, 33.9063], [-117.7417, 33.906], [-117.7426, 33.907], [-117.7387, 33.9111], [-117.7407, 33.9125], [-117.7413, 33.9121], [-117.7452, 33.9131], [-117.7454, 33.9142], [-117.7466, 33.9147], [-117.7479, 33.914], [-117.75, 33.9141], [-117.7553, 33.9163], [-117.7556, 33.9169], [-117.7529, 33.9204], [-117.7503, 33.9218], [-117.7504, 33.9224], [-117.7326, 33.9104], [-117.7326, 33.9031], [-117.7444, 33.9031]]]]}, "properties": {"layer": "retained"}}]}
