{"type": "FeatureCollection", "features": [{"type": "Feature", "geometry": {"type": "Polygon", "coordinates": [[[-117.642, 33.7478], [-117.6373, 33.7442], [-117.6366, 33.7449], [-117.6358, 33.7441], [-117.6341, 33.7465], [-117.6322, 33.7472], [-117.6281, 33.7461], [-117.6231, 33.7472], [-117.6228, 33.7461], [-117.6158, 33.747], [-117.6149, 33.7462], [-117.6153, 33.7456], [-117.6143, 33.7457], [-117.615, 33.7446], [-117.6143, 33.7436], [-117.6116, 33.7422], [-117.6098, 33.7403], [-117.6074, 33.7394], [-117.6045, 33.7365], [-117.6066, 33.7356], [-117.6073, 33.7342], [-117.6095, 33.7338], [-117.6095, 33.7318], [-117.6117, 33.7311], [-117.6123, 33.7299], [-117.6118, 33.7299], [-117.6114, 33.7294], [-117.6133, 33.7297], [-117.6137, 33.7291], [-117.6127, 33.7283], [-117.6159, 33.7265], [-117.6175, 33.7274], [-117.6228, 33.7284], [-117.6218, 33.7275], [-117.6222, 33.7267], [-117.6211, 33.7268], [-117.6202, 33.7253], [-117.6195, 33.725], [-117.6191, 33.7255], [-117.6186, 33.725], [-117.6189, 33.7245], [-117.6201, 33.7246], [-117.6199, 33.7251], [-117.6216, 33.7258], [-117.623, 33.7246], [-117.6244, 33.7252], [-117.6251, 33.7246], [-117.6251, 33.719], [-117.6228, 33.7143], [-117.6203, 33.7137], [-117.6208, 33.7132], [-117.6239, 33.7126], [-117.6246, 33.7134], [-117.627, 33.7134], [-117.6271, 33.7118], [-117.6279, 33.7116], [-117.6282, 33.71], [-117.6293, 33.7093], [-117.6329, 33.7098], [-117.6353, 33.7087], [-117.6379, 33.7094], [-117.6401, 33.711], [-117.6458, 33.7105], [-117.6498, 33.7086], [-117.6516, 33.7085], [-117.6522, 33.707], [-117.6533, 33.7073], [-117.6548, 33.7066], [-117.6564, 33.7093], [-117.6551, 33.7101], [-117.6544, 33.712], [-117.657, 33.7147], [-117.6598, 33.7163], [-117.66, 33.7171], [-117.661, 33.7173], [-117.6612, 33.7181], [-117.6603, 33.7182], [-117.6596, 33.7203], [-117.6619, 33.7227], [-117.662, 33.725], [-117.667, 33.7331], [-117.6676, 33.7358], [-117.6697, 33.738], [-117.6713, 33.7408], [-117.6721, 33.7411], [-117.6746, 33.7399], [-117.6785, 33.7417], [-117.6814, 33.7398], [-117.6833, 33.7443], [-117.6859, 33.7449], [-117.6897, 33.744], [-117.6904, 33.7447], [-117.6899, 33.7464], [-117.6858, 33.7491], [-117.6855, 33.7515], [-117.6845, 33.7518], [-117.6848, 33.7526], [-117.6928, 33.7528], [-117.7027, 33.75], [-117.7165, 33.75], [-117.7194, 33.7513], [-117.7261, 33.7523], [-117.7279, 33.7531], [-117.728, 33.7564], [-117.729, 33.7574], [-117.7328, 33.7571], [-117.7328, 33.7591], [-117.7361, 33.7589], [-117.735, 33.7599], [-117.7337, 33.7599], [-117.7333, 33.7593], [-117.7324, 33.7599], [-117.7323, 33.7653], [-117.7332, 33.7668], [-117.7327, 33.7684], [-117.726, 33.7676], [-117.7173, 33.7692], [-117.7165, 33.7698], [-117.7175, 33.7711], [-117.7169, 33.7721], [-117.7179, 33.7731], [-117.7124, 33.7695], [-117.708, 33.7711], [-117.705, 33.7704], [-117.7029, 33.7684], [-117.7011, 33.7693], [-117.699, 33.7693], [-117.6998, 33.7684], [-117.6987, 33.768], [-117.6991, 33.7673], [-117.6979, 33.7667], [-117.6974, 33.7677], [-117.6972, 33.7667], [-117.6948, 33.7657], [-117.6922, 33.7625], [-117.6867, 33.76], [-117.6851, 33.7584], [-117.6814, 33.758], [-117.6818, 33.7562], [-117.6787, 33.7526], [-117.6784, 33.7505], [-117.6777, 33.7505], [-117.6783, 33.7498], [-117.677, 33.7505], [-117.676, 33.7503], [-117.6749, 33.7483], [-117.6719, 33.7494], [-117.6709, 33.7491], [-117.6656, 33.7459], [-117.6598, 33.7438], [-117.6597, 33.7429], [-117.6555, 33.7449], [-117.6539, 33.7444], [-117.6497, 33.7459], [-117.6457, 33.7462], [-117.642, 33.7478]]]}, "properties": {"layer": "perimeter"}}, {"type": "Feature", "geometry": {"type": "Polygon", "coordinates": [[[-117.6373, 33.7442], [-117.6366, 33.7449], [-117.6358, 33.7441], [-117.6341, 33.7465], [-117.6322, 33.7472], [-117.6281, 33.7461], [-117.6231, 33.7472], [-117.6228, 33.7461], [-117.6158, 33.747], [-117.6149, 33.7462], [-117.6153, 33.7456], [-117.6143, 33.7457], [-117.6147, 33.744], [-117.616, 33.7441], [-117.6163, 33.7293], [-117.6133, 33.7291], [-117.6127, 33.7283], [-117.6159, 33.7265], [-117.6226, 33.7286], [-117.6229, 33.7282], [-117.6217, 33.7271], [-117.6222, 33.7267], [-117.6211, 33.7268], [-117.6202, 33.7253], [-117.6195, 33.725], [-117.6191, 33.7255], [-117.6186, 33.7247], [-117.6201, 33.7246], [-117.6199, 33.7251], [-117.6216, 33.7258], [-117.623, 33.7246], [-117.6244, 33.7252], [-117.6251, 33.7246], [-117.6251, 33.719], [-117.6228, 33.7143], [-117.6206, 33.7138], [-117.6208, 33.7132], [-117.6239, 33.7126], [-117.6246, 33.7134], [-117.627, 33.7134], [-117.6271, 33.7118], [-117.6279, 33.7116], [-117.6282, 33.71], [-117.6293, 33.7093], [-117.6329, 33.7098], [-117.6353, 33.7087], [-117.6379, 33.7094], [-117.6401, 33.711], [-117.6458, 33.7105], [-117.6498, 33.7086], [-117.6516, 33.7085], [-117.6522, 33.707], [-117.6533, 33.7073], [-117.6549, 33.7067], [-117.6564, 33.7093], [-117.6551, 33.7101], [-117.6544, 33.712], [-117.657, 33.7147], [-117.6598, 33.7163], [-117.66, 33.7171], [-117.661, 33.7173], [-117.6612, 33.7181], [-117.6603, 33.7182], [-117.6596, 33.7203], [-117.6619, 33.7227], [-117.662, 33.725], [-117.667, 33.7331], [-117.6676, 33.7358], [-117.6697, 33.738], [-117.6713, 33.7408], [-117.6721, 33.7411], [-117.6746, 33.7399], [-117.6785, 33.7417], [-117.6814, 33.7398], [-117.6833, 33.7443], [-117.6859, 33.7449], [-117.6897, 33.744], [-117.6904, 33.7447], [-117.6899, 33.7464], [-117.6858, 33.7491], [-117.6855, 33.7515], [-117.6845, 33.7518], [-117.6848, 33.7526], [-117.6928, 33.7528], [-117.7027, 33.75], [-117.7165, 33.75], [-117.7194, 33.7513], [-117.7261, 33.7523], [-117.7279, 33.7531], [-117.728, 33.7564], [-117.729, 33.7574], [-117.7328, 33.7571], [-117.7328, 33.7591], [-117.7361, 33.7589], [-117.735, 33.7599], [-117.7337, 33.7599], [-117.7333, 33.7593], [-117.7324, 33.7599], [-117.7323, 33.7653], [-117.7332, 33.7668], [-117.7327, 33.7684], [-117.726, 33.7676], [-117.7173, 33.7692], [-117.7165, 33.7698], [-117.7175, 33.7711], [-117.7169, 33.7721], [-117.7179, 33.7731], [-117.7124, 33.7695], [-117.708, 33.7711], [-117.705, 33.7704], [-117.7029, 33.7684], [-117.7011, 33.7693], [-117.699, 33.7693], [-117.6998, 33.7684], [-117.6987, 33.768], [-117.6991, 33.7673], [-117.6979, 33.7667], [-117.6974, 33.7677], [-117.6972, 33.7667], [-117.6948, 33.7657], [-117.6922, 33.7625], [-117.6867, 33.76], [-117.6851, 33.7584], [-117.6814, 33.758], [-117.6818, 33.7562], [-117.6787, 33.7526], [-117.6784, 33.7505], [-117.6777, 33.7505], [-117.6783, 33.7498], [-117.677, 33.7505], [-117.676, 33.7503], [-117.6749, 33.7483], [-117.6719, 33.7494], [-117.6709, 33.7491], [-117.6656, 33.7459], [-117.6598, 33.7438], [-117.6602, 33.7426], [-117.6588, 33.7425], [-117.6586, 33.7436], [-117.6555, 33.7449], [-117.6539, 33.7444], [-117.6497, 33.7459], [-117.6457, 33.7462], [-117.642, 33.7478], [-117.6373, 33.7442]]]}, "properties": {"layer": "retained"}}]}
