{"type": "FeatureCollection", "features": [{"type": "Feature", "geometry": {"type": "Polygon", "coordinates": [[[-116.6794, 33.4515], [-116.6796, 33.453], [-116.6803, 33.4527], [-116.6808, 33.4533], [-116.6805, 33.4528], [-116.6812, 33.4526], [-116.6882, 33.4541], [-116.689, 33.4549], [-116.6884, 33.4555], [-116.6897, 33.4569], [-116.6911, 33.456], [-116.6903, 33.4552], [-116.6959, 33.4552], [-116.6972, 33.4561], [-116.6976, 33.4557], [-116.6999, 33.4581], [-116.6988, 33.4592], [-116.7002, 33.4592], [-116.6997, 33.4596], [-116.7006, 33.46], [-116.7004, 33.4614], [-116.703, 33.463], [-116.7083, 33.4684], [-116.7136, 33.4696], [-116.715, 33.4709], [-116.7163, 33.4707], [-116.7206, 33.4737], [-116.7239, 33.4746], [-116.7238, 33.4756], [-116.7197, 33.4749], [-116.7174, 33.4754], [-116.7166, 33.4751], [-116.7176, 33.4748], [-116.7134, 33.4736], [-116.7087, 33.4727], [-116.7029, 33.4727], [-116.7009, 33.4719], [-116.7009, 33.4713], [-116.6994, 33.4718], [-116.6973, 33.4711], [-116.699, 33.4731], [-116.6879, 33.4768], [-116.6857, 33.477], [-116.6854, 33.4758], [-116.6839, 33.4753], [-116.6819, 33.4768], [-116.6768, 33.4776], [-116.6759, 33.4791], [-116.6743, 33.4789], [-116.6735, 33.4799], [-116.6706, 33.4797], [-116.6683, 33.4806], [-116.6673, 33.4803], [-116.6655, 33.4808], [-116.6607, 33.4804], [-116.6597, 33.4796], [-116.6595, 33.4769], [-116.6629, 33.4767], [-116.6626, 33.4763], [-116.6637, 33.4767], [-116.6629, 33.4751], [-116.6639, 33.4739], [-116.6611, 33.4708], [-116.658, 33.471], [-116.6545, 33.4691], [-116.6552, 33.4675], [-116.653, 33.4631], [-116.6582, 33.4623], [-116.6589, 33.4633], [-116.6601, 33.4629], [-116.6657, 33.4644], [-116.6666, 33.4638], [-116.6716, 33.4646], [-116.6735, 33.4634], [-116.679, 33.4647], [-116.6772, 33.46], [-116.6738, 33.4601], [-116.6729, 33.4595], [-116.6744, 33.4592], [-116.6744, 33.4583], [-116.6752, 33.4584], [-116.6752, 33.4565], [-116.6758, 33.4565], [-116.6763, 33.458], [-116.6761, 33.4559], [-116.6768, 33.455], [-116.6748, 33.4551], [-116.6759, 33.4536], [-116.6749, 33.4527], [-116.6756, 33.4526], [-116.6752, 33.4519], [-116.6769, 33.4526], [-116.6756, 33.4505], [-116.6777, 33.451], [-116.6774, 33.4502], [-116.6794, 33.4515]]]}, "properties": {"layer": "perimeter"}}, {"type": "Feature", "geometry": {"type": "MultiPolygon", "coordinates": [[[[-116.703, 33.463], [-116.7083, 33.4684], [-116.7136, 33.4696], [-116.715, 33.4709], [-116.7159, 33.4707], [-116.7159, 33.4739], [-116.7218, 33.4738], [-116.7239, 33.4746], [-116.7238, 33.4756], [-116.7197, 33.4749], [-116.7174, 33.4754], [-116.7166, 33.4751], [-116.7176, 33.4748], [-116.7134, 33.4736], [-116.7087, 33.4727], [-116.7069, 33.4731], [-116.7069, 33.471], [-116.7027, 33.4713], [-116.703, 33.463]]], [[[-116.7027, 33.4725], [-116.7009, 33.4719], [-116.7009, 33.4713], [-116.7027, 33.4713], [-116.7027, 33.4725]]], [[[-116.7007, 33.4714], [-116.7004, 33.4713], [-116.7009, 33.4713], [-116.7007, 33.4714]]], [[[-116.6994, 33.4718], [-116.6986, 33.4713], [-116.6975, 33.4713], [-116.6999, 33.4713], [-116.6994, 33.4718]]], [[[-116.6971, 33.4713], [-116.6984, 33.4719], [-116.699, 33.4731], [-116.6879, 33.4768], [-116.6854, 33.4769], [-116.6852, 33.4713], [-116.6894, 33.4713], [-116.6894, 33.4605], [-116.6981, 33.4604], [-116.6981, 33.4641], [-116.6937, 33.4641], [-116.6938, 33.4712], [-116.6971, 33.4713]]], [[[-116.6759, 33.4791], [-116.6743, 33.4789], [-116.6735, 33.4799], [-116.6724, 33.48], [-116.6706, 33.4797], [-116.6683, 33.4806], [-116.6607, 33.4804], [-116.6597, 33.4796], [-116.6595, 33.4769], [-116.6629, 33.4767], [-116.6626, 33.4763], [-116.6637, 33.4767], [-116.6629, 33.4751], [-116.6639, 33.4739], [-116.6611, 33.4708], [-116.658, 33.471], [-116.6562, 33.4702], [-116.668, 33.4702], [-116.668, 33.4775], [-116.6767, 33.4775], [-116.6759, 33.4791]]], [[[-116.6545, 33.4691], [-116.6552, 33.4675], [-116.6532, 33.4629], [-116.6557, 33.4629], [-116.6557, 33.4699], [-116.6545, 33.4691]]], [[[-116.6681, 33.4641], [-116.6716, 33.4646], [-116.6735, 33.4634], [-116.6791, 33.4645], [-116.6772, 33.46], [-116.673, 33.4598], [-116.673, 33.4593], [-116.6744, 33.4592], [-116.6744, 33.4583], [-116.6752, 33.4584], [-116.6752, 33.4565], [-116.6758, 33.4565], [-116.6763, 33.458], [-116.6765, 33.4565], [-116.6852, 33.4569], [-116.6852, 33.4713], [-116.668, 33.4702], [-116.6681, 33.4641]]]]}, "properties": {"layer": "retained"}}, {"type": "Feature", "geometry": {"type": "Polygon", "coordinates": [[[-116.692, 33.4709], [-116.6924, 33.4704], [-116.6921, 33.4704], [-116.692, 33.4709]]]}, "properties": {"layer": "high_severity"}}]}
