{"type": "FeatureCollection", "features": [{"type": "Feature", "geometry": {"type": "MultiPolygon", "coordinates": [[[[-119.4279, 38.4036], [-119.4264, 38.4021], [-119.4268, 38.4029], [-119.4222, 38.4085], [-119.4239, 38.4124], [-119.4234, 38.4128], [-119.4214, 38.4112], [-119.4197, 38.4109], [-119.4193, 38.4059], [-119.4172, 38.4083], [-119.416, 38.4114], [-119.4158, 38.4093], [-119.4143, 38.4101], [-119.4147, 38.4071], [-119.4141, 38.4066], [-119.4132, 38.4075], [-119.4106, 38.4049], [-119.4097, 38.4051], [-119.4086, 38.4073], [-119.4054, 38.4092], [-119.4039, 38.4093], [-119.4015, 38.4082], [-119.4017, 38.4063], [-119.4001, 38.4073], [-119.3997, 38.406], [-119.4021, 38.4039], [-119.4009, 38.3976], [-119.4045, 38.3958], [-119.4058, 38.3945], [-119.3998, 38.3931], [-119.398, 38.3913], [-119.3984, 38.3876], [-119.4022, 38.3847], [-119.4068, 38.3846], [-119.4082, 38.384], [-119.4104, 38.3844], [-119.4137, 38.3835], [-119.4174, 38.3835], [-119.4193, 38.3818], [-119.4106, 38.3804], [-119.4056, 38.3773], [-119.4029, 38.3786], [-119.4055, 38.3771], [-119.4056, 38.3764], [-119.4038, 38.3757], [-119.4054, 38.3719], [-119.4056, 38.3683], [-119.4037, 38.368], [-119.4038, 38.3671], [-119.4016, 38.3658], [-119.4008, 38.3645], [-119.3993, 38.364], [-119.3972, 38.3654], [-119.397, 38.3667], [-119.3948, 38.3673], [-119.3945, 38.3687], [-119.3909, 38.3705], [-119.3895, 38.3703], [-119.3884, 38.3712], [-119.3898, 38.3728], [-119.3876, 38.3749], [-119.3852, 38.3741], [-119.3841, 38.3705], [-119.3814, 38.3711], [-119.3802, 38.3723], [-119.3774, 38.3733], [-119.3764, 38.3748], [-119.3729, 38.3751], [-119.3727, 38.3744], [-119.3766, 38.3721], [-119.3746, 38.3726], [-119.3762, 38.3706], [-119.3751, 38.3702], [-119.3771, 38.3687], [-119.3768, 38.3665], [-119.3755, 38.3657], [-119.3763, 38.3635], [-119.3779, 38.3636], [-119.3768, 38.3645], [-119.3771, 38.3651], [-119.3819, 38.3631], [-119.3846, 38.3631], [-119.386, 38.3625], [-119.3869, 38.363], [-119.3886, 38.362], [-119.3902, 38.3626], [-119.3939, 38.3611], [-119.3952, 38.3611], [-119.3956, 38.3617], [-119.3976, 38.3606], [-119.398, 38.3611], [-119.3989, 38.3595], [-119.3998, 38.3593], [-119.399, 38.3585], [-119.4002, 38.3573], [-119.4032, 38.3569], [-119.4047, 38.3579], [-119.4054, 38.3577], [-119.4066, 38.361], [-119.4085, 38.3613], [-119.4105, 38.3606], [-119.414, 38.3645], [-119.4146, 38.3645], [-119.4142, 38.3634], [-119.4161, 38.3654], [-119.4184, 38.3664], [-119.4229, 38.3741], [-119.4252, 38.3728], [-119.4251, 38.3722], [-119.4264, 38.372], [-119.4277, 38.3749], [-119.432, 38.3799], [-119.4325, 38.3833], [-119.4341, 38.3832], [-119.4347, 38.3838], [-119.4356, 38.387], [-119.4362, 38.387], [-119.4372, 38.3851], [-119.4379, 38.3857], [-119.4406, 38.3851], [-119.4424, 38.3868], [-119.4423, 38.3827], [-119.4442, 38.3832], [-119.4497, 38.3828], [-119.4511, 38.38], [-119.4549, 38.3765], [-119.4551, 38.374], [-119.4541, 38.371], [-119.455, 38.37], [-119.4598, 38.3702], [-119.4625, 38.3658], [-119.4632, 38.3655], [-119.4648, 38.3665], [-119.4668, 38.3662], [-119.4675, 38.3644], [-119.4719, 38.3662], [-119.4712, 38.3702], [-119.4766, 38.3716], [-119.4775, 38.3711], [-119.4775, 38.3742], [-119.4814, 38.3782], [-119.4798, 38.3801], [-119.4802, 38.3809], [-119.4828, 38.3815], [-119.4845, 38.3828], [-119.481, 38.3851], [-119.4815, 38.3896], [-119.4785, 38.3903], [-119.4756, 38.3892], [-119.4744, 38.3896], [-119.475, 38.3919], [-119.474, 38.3949], [-119.4764, 38.3967], [-119.476, 38.3977], [-119.477, 38.3975], [-119.4749, 38.4006], [-119.4788, 38.4027], [-119.4756, 38.4016], [-119.4722, 38.4026], [-119.4721, 38.4039], [-119.469, 38.4037], [-119.4628, 38.4128], [-119.4621, 38.4126], [-119.4624, 38.412], [-119.4578, 38.4145], [-119.4533, 38.4183], [-119.4514, 38.4188], [-119.4512, 38.4139], [-119.4433, 38.4161], [-119.4369, 38.4137], [-119.4352, 38.4142], [-119.4343, 38.4137], [-119.4395, 38.4029], [-119.4413, 38.4026], [-119.4407, 38.4019], [-119.4382, 38.4008], [-119.4362, 38.4031], [-119.4342, 38.4012], [-119.4312, 38.4012], [-119.4298, 38.4001], [-119.4279, 38.4036]], [[-119.3875, 38.3654], [-119.3856, 38.3683], [-119.3851, 38.3685], [-119.3843, 38.3691], [-119.3843, 38.3691], [-119.3867, 38.3689], [-119.3887, 38.3679], [-119.3875, 38.3654]], [[-119.4462, 38.4034], [-119.4417, 38.404], [-119.44, 38.4058], [-119.4396, 38.4048], [-119.4384, 38.4066], [-119.4389, 38.4069], [-119.4399, 38.4061], [-119.4411, 38.4072], [-119.4417, 38.4071], [-119.4418, 38.408], [-119.4427, 38.4082], [-119.4456, 38.407], [-119.4471, 38.4042], [-119.4462, 38.4034]], [[-119.4424, 38.4099], [-119.4406, 38.4105], [-119.4416, 38.4111], [-119.4424, 38.4099]]], [[[-119.4763, 38.4002], [-119.4758, 38.3997], [-119.4764, 38.3996], [-119.4763, 38.4002]]], [[[-119.4403, 38.4064], [-119.4405, 38.4056], [-119.4409, 38.4057], [-119.4403, 38.4064]]], [[[-119.468, 38.4063], [-119.4673, 38.4065], [-119.4676, 38.4062], [-119.468, 38.4063]]], [[[-119.4639, 38.4117], [-119.4642, 38.412], [-119.4638, 38.4122], [-119.4639, 38.4117]]], [[[-119.4642, 38.4123], [-119.4638, 38.4124], [-119.4641, 38.4122], [-119.4642, 38.4123]]], [[[-119.4374, 38.4161], [-119.4374, 38.4165], [-119.4371, 38.4163], [-119.4374, 38.4161]]]]}, "properties": {"layer": "perimeter"}}, {"type": "Feature", "geometry": {"type": "MultiPolygon", "coordinates": [[[[-119.4024, 38.4088], [-119.4036, 38.4086], [-119.4037, 38.4092], [-119.4024, 38.4088]]], [[[-119.4023, 38.3664], [-119.4, 38.3641], [-119.3984, 38.3642], [-119.398, 38.3648], [-119.398, 38.3628], [-119.4023, 38.3629], [-119.4023, 38.3664]]], [[[-119.4161, 38.3654], [-119.4184, 38.3664], [-119.4207, 38.3701], [-119.4162, 38.3702], [-119.4161, 38.3654]]], [[[-119.4208, 38.3702], [-119.4221, 38.3734], [-119.4224, 38.3737], [-119.4208, 38.3737], [-119.4208, 38.3702]]], [[[-119.424, 38.3736], [-119.4252, 38.3728], [-119.4254, 38.3722], [-119.4254, 38.3736], [-119.424, 38.3736]]], [[[-119.4272, 38.3737], [-119.4277, 38.3749], [-119.4299, 38.3767], [-119.432, 38.3799], [-119.4325, 38.3833], [-119.4341, 38.3832], [-119.4347, 38.3838], [-119.4349, 38.3878], [-119.4257, 38.3878], [-119.4256, 38.3843], [-119.4302, 38.3842], [-119.4301, 38.3771], [-119.4255, 38.3772], [-119.4254, 38.3736], [-119.4272, 38.3737]]], [[[-119.4418, 38.384], [-119.4423, 38.3827], [-119.4442, 38.3832], [-119.4497, 38.3828], [-119.4511, 38.38], [-119.4527, 38.3787], [-119.4528, 38.3841], [-119.4418, 38.384]]], [[[-119.4546, 38.377], [-119.4551, 38.374], [-119.4541, 38.371], [-119.455, 38.37], [-119.4571, 38.3702], [-119.4572, 38.377], [-119.4546, 38.377]]], [[[-119.462, 38.3664], [-119.4632, 38.3655], [-119.4647, 38.3664], [-119.462, 38.3664]]], [[[-119.4653, 38.3664], [-119.4662, 38.3663], [-119.4662, 38.3664], [-119.4653, 38.3664]]], [[[-119.453, 38.3914], [-119.4484, 38.3913], [-119.4484, 38.3877], [-119.4529, 38.3878], [-119.453, 38.3914]]], [[[-119.4116, 38.3739], [-119.4116, 38.3703], [-119.4162, 38.3702], [-119.4162, 38.3738], [-119.4116, 38.3739]]]]}, "properties": {"layer": "retained"}}]}
