{"type": "FeatureCollection", "features": [{"type": "Feature", "geometry": {"type": "Polygon", "coordinates": [[[-119.9254, 35.3213], [-119.9257, 35.3126], [-119.9269, 35.3136], [-119.9265, 35.3141], [-119.9295, 35.3155], [-119.9325, 35.3181], [-119.9325, 35.3198], [-119.9336, 35.3198], [-119.9341, 35.323], [-119.9341, 35.3162], [-119.9352, 35.3171], [-119.9365, 35.3153], [-119.9352, 35.3156], [-119.935, 35.3149], [-119.934, 35.3149], [-119.934, 35.3076], [-119.9427, 35.3077], [-119.9427, 35.3213], [-119.9405, 35.3218], [-119.94, 35.3226], [-119.9404, 35.3235], [-119.942, 35.3241], [-119.9421, 35.3232], [-119.9433, 35.326], [-119.9427, 35.326], [-119.9427, 35.3272], [-119.9395, 35.3295], [-119.9375, 35.3302], [-119.934, 35.3302], [-119.9338, 35.3309], [-119.933, 35.331], [-119.9303, 35.3293], [-119.9304, 35.3284], [-119.9293, 35.3283], [-119.9273, 35.3315], [-119.9246, 35.3318], [-119.9233, 35.3338], [-119.9208, 35.3333], [-119.9205, 35.3323], [-119.9184, 35.3308], [-119.9166, 35.3275], [-119.9171, 35.3241], [-119.9162, 35.3236], [-119.9162, 35.3226], [-119.9172, 35.3217], [-119.916, 35.3215], [-119.9161, 35.3107], [-119.9196, 35.3112], [-119.9196, 35.3159], [-119.9214, 35.3165], [-119.9216, 35.3186], [-119.9225, 35.3189], [-119.9225, 35.3208], [-119.9254, 35.3213]]]}, "properties": {"layer": "perimeter"}}, {"type": "Feature", "geometry": {"type": "Polygon", "coordinates": [[[-119.9254, 35.3213], [-119.9257, 35.3126], [-119.9269, 35.3136], [-119.9265, 35.3141], [-119.9295, 35.3155], [-119.9325, 35.3181], [-119.9325, 35.3198], [-119.9336, 35.3198], [-119.9341, 35.323], [-119.9341, 35.3162], [-119.9352, 35.3171], [-119.9365, 35.3153], [-119.9352, 35.3156], [-119.935, 35.3149], [-119.934, 35.3149], [-119.934, 35.3076], [-119.9427, 35.3077], [-119.9427, 35.3213], [-119.9405, 35.3218], [-119.94, 35.3226], [-119.9404, 35.3235], [-119.942, 35.3241], [-119.9421, 35.3232], [-119.9433, 35.326], [-119.9427, 35.326], [-119.9427, 35.3272], [-119.9395, 35.3295], [-119.9375, 35.3302], [-119.934, 35.3302], [-119.9338, 35.3309], [-119.933, 35.331], [-119.9303, 35.3293], [-119.9304, 35.3284], [-119.9293, 35.3283], [-119.9273, 35.3315], [-119.9246, 35.3318], [-119.9233, 35.3338], [-119.9208, 35.3333], [-119.9205, 35.3323], [-119.9184, 35.3308], [-119.9166, 35.3275], [-119.9171, 35.3241], [-119.9162, 35.3236], [-119.9162, 35.3226], [-119.9172, 35.3217], [-119.916, 35.3215], [-119.9161, 35.3107], [-119.9196, 35.3112], [-119.9196, 35.3159], [-119.9214, 35.3165], [-119.9216, 35.3186], [-119.9225, 35.3189], [-119.9225, 35.3208], [-119.9254, 35.3213]]]}, "properties": {"layer": "retained"}}]}
