{"type": "FeatureCollection", "features": [{"type": "Feature", "geometry": {"type": "Polygon", "coordinates": [[[-121.8264, 39.2093], [-121.82, 39.2095], [-121.8191, 39.2075], [-121.8214, 39.2061], [-121.8215, 39.205], [-121.8188, 39.2027], [-121.8169, 39.2029], [-121.8175, 39.2024], [-121.8156, 39.2015], [-121.8161, 39.2012], [-121.8137, 39.2015], [-121.8142, 39.2009], [-121.8122, 39.202], [-121.8124, 39.2026], [-121.811, 39.2019], [-121.8124, 39.1984], [-121.8143, 39.1977], [-121.8111, 39.196], [-121.8123, 39.1959], [-121.8115, 39.1934], [-121.8101, 39.1911], [-121.8081, 39.1906], [-121.8077, 39.1897], [-121.8085, 39.1879], [-121.8059, 39.1844], [-121.8099, 39.1839], [-121.8133, 39.1845], [-121.8291, 39.1844], [-121.8346, 39.1854], [-121.8337, 39.1866], [-121.8304, 39.1882], [-121.8343, 39.1904], [-121.8365, 39.1929], [-121.8353, 39.1966], [-121.8361, 39.197], [-121.8359, 39.1985], [-121.8326, 39.1982], [-121.834, 39.2028], [-121.8313, 39.2057], [-121.8325, 39.2095], [-121.8303, 39.2107], [-121.8264, 39.2093]]]}, "properties": {"layer": "perimeter"}}]}
