{"type": "FeatureCollection", "features": [{"type": "Feature", "geometry": {"type": "MultiPolygon", "coordinates": [[[[-120.2131, 38.6861], [-120.2143, 38.686], [-120.2135, 38.6866], [-120.2131, 38.6861]]], [[[-120.1924, 38.6913], [-120.1929, 38.6917], [-120.1923, 38.6917], [-120.1924, 38.6913]]], [[[-120.196, 38.691], [-120.1956, 38.6926], [-120.1952, 38.6926], [-120.1947, 38.6919], [-120.196, 38.691]]], [[[-120.192, 38.6926], [-120.1917, 38.6927], [-120.1917, 38.6926], [-120.192, 38.6926]]], [[[-120.1936, 38.6925], [-120.1942, 38.6929], [-120.1936, 38.6932], [-120.1936, 38.6925]]], [[[-120.1307, 38.7287], [-120.1246, 38.724], [-120.1245, 38.722], [-120.1238, 38.7224], [-120.1223, 38.7217], [-120.1205, 38.7224], [-120.1201, 38.7205], [-120.1234, 38.7196], [-120.1219, 38.7195], [-120.1209, 38.7182], [-120.1262, 38.7181], [-120.1255, 38.7179], [-120.1256, 38.7171], [-120.1288, 38.716], [-120.1272, 38.7159], [-120.1284, 38.715], [-120.128, 38.7139], [-120.1305, 38.7148], [-120.1336, 38.7141], [-120.1354, 38.7129], [-120.1363, 38.7131], [-120.1374, 38.7115], [-120.1348, 38.7119], [-120.1345, 38.7102], [-120.1357, 38.7098], [-120.1361, 38.7109], [-120.1372, 38.711], [-120.1402, 38.7082], [-120.1384, 38.7089], [-120.1382, 38.7083], [-120.1366, 38.7079], [-120.1333, 38.7039], [-120.1344, 38.7039], [-120.1348, 38.7029], [-120.1329, 38.7019], [-120.1254, 38.7031], [-120.1235, 38.7029], [-120.1238, 38.7023], [-120.1252, 38.7029], [-120.1311, 38.7018], [-120.1364, 38.6998], [-120.1372, 38.7001], [-120.1384, 38.6983], [-120.1405, 38.6985], [-120.1422, 38.6974], [-120.1485, 38.6967], [-120.1531, 38.6955], [-120.1542, 38.6946], [-120.1558, 38.6946], [-120.1624, 38.6881], [-120.1646, 38.6887], [-120.1673, 38.6867], [-120.1697, 38.6861], [-120.174, 38.687], [-120.176, 38.6881], [-120.1794, 38.6879], [-120.18, 38.6862], [-120.1823, 38.6843], [-120.1838, 38.6843], [-120.1844, 38.6852], [-120.1874, 38.6865], [-120.1875, 38.6871], [-120.1857, 38.6883], [-120.1871, 38.688], [-120.1885, 38.6886], [-120.1877, 38.6896], [-120.1863, 38.6894], [-120.1859, 38.691], [-120.1844, 38.6906], [-120.1849, 38.6918], [-120.1874, 38.6918], [-120.1875, 38.6925], [-120.1885, 38.6919], [-120.1893, 38.6926], [-120.1911, 38.6925], [-120.1911, 38.6932], [-120.1933, 38.694], [-120.1947, 38.6932], [-120.1956, 38.6948], [-120.1969, 38.6956], [-120.1984, 38.6946], [-120.199, 38.6953], [-120.2006, 38.6952], [-120.1998, 38.6976], [-120.1936, 38.7015], [-120.1939, 38.7022], [-120.1914, 38.7014], [-120.1856, 38.7022], [-120.1837, 38.7044], [-120.1828, 38.7038], [-120.1807, 38.7062], [-120.1781, 38.7067], [-120.1775, 38.7075], [-120.173, 38.7078], [-120.1721, 38.7089], [-120.1707, 38.7088], [-120.1713, 38.7093], [-120.17, 38.7098], [-120.1703, 38.7103], [-120.1692, 38.7101], [-120.1655, 38.712], [-120.164, 38.7121], [-120.1629, 38.7149], [-120.1615, 38.7163], [-120.1611, 38.716], [-120.1581, 38.718], [-120.1551, 38.7184], [-120.1544, 38.7196], [-120.1513, 38.7205], [-120.1508, 38.7215], [-120.1469, 38.7227], [-120.1455, 38.724], [-120.139, 38.7245], [-120.1365, 38.724], [-120.1339, 38.7251], [-120.1337, 38.7262], [-120.1346, 38.7274], [-120.1331, 38.7274], [-120.1307, 38.7287]]], [[[-120.1234, 38.7278], [-120.1236, 38.727], [-120.1239, 38.7271], [-120.1243, 38.7277], [-120.1234, 38.7278]]], [[[-120.1232, 38.7284], [-120.1233, 38.7286], [-120.1231, 38.7285], [-120.1232, 38.7284]]]]}, "properties": {"layer": "perimeter"}}]}
