{"type": "FeatureCollection", "features": [{"type": "Feature", "geometry": {"type": "MultiPolygon", "coordinates": [[[[-119.7626, 34.4651], [-119.7623, 34.461], [-119.7615, 34.4612], [-119.7619, 34.4622], [-119.7614, 34.462], [-119.761, 34.4634], [-119.7602, 34.4635], [-119.7609, 34.4642], [-119.7605, 34.4649], [-119.7595, 34.465], [-119.7591, 34.4642], [-119.7576, 34.4648], [-119.7561, 34.4643], [-119.7553, 34.4637], [-119.7552, 34.462], [-119.754, 34.4613], [-119.7547, 34.4606], [-119.7542, 34.46], [-119.7551, 34.4601], [-119.7561, 34.463], [-119.7573, 34.4634], [-119.7579, 34.4631], [-119.7572, 34.462], [-119.7578, 34.4607], [-119.7589, 34.4603], [-119.7587, 34.4614], [-119.7592, 34.4607], [-119.7596, 34.4615], [-119.7598, 34.4609], [-119.7604, 34.4613], [-119.7592, 34.4602], [-119.7593, 34.4591], [-119.7601, 34.4588], [-119.7609, 34.4595], [-119.7619, 34.458], [-119.7627, 34.4591], [-119.7627, 34.4583], [-119.7641, 34.4583], [-119.7669, 34.4608], [-119.7674, 34.4604], [-119.7669, 34.4592], [-119.7677, 34.4592], [-119.7687, 34.4575], [-119.7709, 34.4604], [-119.7704, 34.4611], [-119.7714, 34.4649], [-119.7634, 34.4645], [-119.7626, 34.4651]]], [[[-119.7749, 34.5117], [-119.7721, 34.5104], [-119.7715, 34.5086], [-119.7707, 34.5083], [-119.7713, 34.5082], [-119.7711, 34.5073], [-119.7731, 34.505], [-119.7728, 34.5038], [-119.7741, 34.5034], [-119.7729, 34.503], [-119.772, 34.5043], [-119.7724, 34.502], [-119.7715, 34.5016], [-119.77, 34.5018], [-119.769, 34.5034], [-119.7692, 34.5048], [-119.7685, 34.5054], [-119.7691, 34.5062], [-119.7688, 34.507], [-119.7683, 34.5066], [-119.768, 34.5084], [-119.7646, 34.5071], [-119.758, 34.5063], [-119.7565, 34.5052], [-119.7557, 34.5055], [-119.755, 34.5041], [-119.7566, 34.5024], [-119.7564, 34.5015], [-119.7576, 34.5013], [-119.7574, 34.4997], [-119.7522, 34.5002], [-119.748, 34.4935], [-119.7471, 34.4909], [-119.7475, 34.4898], [-119.7458, 34.4895], [-119.7458, 34.4888], [-119.7478, 34.4886], [-119.7448, 34.4878], [-119.7462, 34.4872], [-119.7474, 34.4879], [-119.7481, 34.4871], [-119.7499, 34.4873], [-119.7499, 34.4867], [-119.749, 34.4871], [-119.7482, 34.4866], [-119.7489, 34.4861], [-119.7472, 34.4864], [-119.7465, 34.4856], [-119.7472, 34.4843], [-119.7485, 34.4837], [-119.749, 34.4842], [-119.7511, 34.4839], [-119.7498, 34.4836], [-119.7498, 34.4823], [-119.7519, 34.4805], [-119.7529, 34.4825], [-119.7537, 34.4824], [-119.7547, 34.4815], [-119.7538, 34.4787], [-119.7561, 34.4784], [-119.7562, 34.4776], [-119.7576, 34.4773], [-119.7569, 34.4771], [-119.7576, 34.4767], [-119.7555, 34.476], [-119.7552, 34.4772], [-119.7546, 34.4775], [-119.7534, 34.4768], [-119.7533, 34.4776], [-119.7524, 34.4777], [-119.7532, 34.4762], [-119.7521, 34.4754], [-119.7541, 34.4748], [-119.7545, 34.4741], [-119.7541, 34.4728], [-119.7529, 34.4727], [-119.7526, 34.4715], [-119.7514, 34.4711], [-119.7519, 34.47], [-119.7543, 34.4697], [-119.7532, 34.4679], [-119.7551, 34.4677], [-119.7554, 34.4684], [-119.7566, 34.4679], [-119.757, 34.4685], [-119.7568, 34.4707], [-119.7557, 34.4706], [-119.7556, 34.4712], [-119.7565, 34.4747], [-119.7556, 34.4745], [-119.7534, 34.4756], [-119.7543, 34.4759], [-119.7554, 34.4753], [-119.7558, 34.4759], [-119.7571, 34.4757], [-119.7577, 34.4743], [-119.7599, 34.4733], [-119.7578, 34.4734], [-119.7588, 34.4719], [-119.7646, 34.4709], [-119.7665, 34.4696], [-119.7671, 34.4708], [-119.7687, 34.4698], [-119.7685, 34.4685], [-119.7718, 34.4661], [-119.7742, 34.4663], [-119.7733, 34.468], [-119.7741, 34.4677], [-119.7741, 34.4684], [-119.7752, 34.4685], [-119.7752, 34.4712], [-119.7761, 34.4709], [-119.7762, 34.4716], [-119.7748, 34.4732], [-119.776, 34.4736], [-119.7744, 34.4738], [-119.7737, 34.4764], [-119.7731, 34.4766], [-119.7729, 34.4758], [-119.7723, 34.4765], [-119.7721, 34.476], [-119.7711, 34.4764], [-119.771, 34.4777], [-119.7717, 34.4781], [-119.7733, 34.4772], [-119.7749, 34.4774], [-119.7757, 34.4759], [-119.7771, 34.477], [-119.7762, 34.4785], [-119.7706, 34.4822], [-119.7703, 34.483], [-119.769, 34.4828], [-119.7685, 34.4837], [-119.7689, 34.4855], [-119.7698, 34.4863], [-119.7728, 34.4859], [-119.7736, 34.4866], [-119.7721, 34.4885], [-119.7729, 34.4886], [-119.7727, 34.4893], [-119.77, 34.4887], [-119.7698, 34.4899], [-119.7706, 34.4901], [-119.7697, 34.4908], [-119.7711, 34.4911], [-119.77, 34.4915], [-119.7703, 34.4925], [-119.7697, 34.4928], [-119.7696, 34.4946], [-119.7707, 34.4945], [-119.7714, 34.4958], [-119.7701, 34.4962], [-119.7705, 34.4974], [-119.7737, 34.4972], [-119.7744, 34.4952], [-119.7773, 34.4947], [-119.7788, 34.4931], [-119.7801, 34.4928], [-119.779, 34.492], [-119.7804, 34.4907], [-119.7822, 34.491], [-119.7812, 34.4921], [-119.7815, 34.4931], [-119.7834, 34.4928], [-119.7831, 34.4921], [-119.7859, 34.4914], [-119.7863, 34.4906], [-119.7858, 34.4899], [-119.7868, 34.4883], [-119.7884, 34.4877], [-119.789, 34.488], [-119.7891, 34.4872], [-119.7908, 34.4888], [-119.7917, 34.4889], [-119.7907, 34.4897], [-119.7915, 34.4912], [-119.7907, 34.4921], [-119.7926, 34.4919], [-119.7924, 34.493], [-119.7909, 34.4937], [-119.791, 34.4946], [-119.788, 34.4953], [-119.7893, 34.4959], [-119.7894, 34.4966], [-119.7904, 34.4966], [-119.7891, 34.4981], [-119.7882, 34.4973], [-119.7849, 34.4981], [-119.7851, 34.4996], [-119.7877, 34.5016], [-119.7867, 34.5038], [-119.786, 34.5037], [-119.7871, 34.5016], [-119.7841, 34.5038], [-119.7838, 34.503], [-119.7853, 34.502], [-119.7849, 34.5011], [-119.7837, 34.5021], [-119.7834, 34.5006], [-119.7804, 34.5031], [-119.7798, 34.506], [-119.7792, 34.5057], [-119.7797, 34.505], [-119.7779, 34.5062], [-119.7786, 34.5066], [-119.7783, 34.5079], [-119.7768, 34.5088], [-119.7765, 34.508], [-119.7757, 34.5082], [-119.7749, 34.5117]]]]}, "properties": {"layer": "perimeter"}}, {"type": "Feature", "geometry": {"type": "MultiPolygon", "coordinates": [[[[-119.7623, 34.4632], [-119.7628, 34.4622], [-119.7623, 34.461], [-119.7615, 34.4612], [-119.7619, 34.4622], [-119.7614, 34.462], [-119.761, 34.4634], [-119.7602, 34.4635], [-119.7609, 34.4642], [-119.7605, 34.4649], [-119.7595, 34.465], [-119.7591, 34.4642], [-119.7576, 34.4648], [-119.7561, 34.4643], [-119.7553, 34.4637], [-119.7552, 34.462], [-119.754, 34.4613], [-119.7547, 34.4606], [-119.7542, 34.46], [-119.7551, 34.4601], [-119.7561, 34.463], [-119.7573, 34.4634], [-119.7579, 34.4631], [-119.7572, 34.462], [-119.7578, 34.4607], [-119.7589, 34.4603], [-119.7587, 34.4614], [-119.7592, 34.4607], [-119.7596, 34.4615], [-119.7598, 34.4609], [-119.7604, 34.4613], [-119.7592, 34.4602], [-119.7593, 34.4591], [-119.7601, 34.4588], [-119.7609, 34.4595], [-119.7619, 34.458], [-119.7627, 34.4591], [-119.7627, 34.4583], [-119.7641, 34.4583], [-119.7669, 34.4608], [-119.7674, 34.4604], [-119.7669, 34.4592], [-119.7677, 34.4592], [-119.7687, 34.4575], [-119.7709, 34.4604], [-119.7704, 34.4611], [-119.7714, 34.4649], [-119.7634, 34.4645], [-119.7626, 34.4651], [-119.7623, 34.4632]]], [[[-119.748, 34.4935], [-119.7471, 34.4909], [-119.7475, 34.4898], [-119.7458, 34.4895], [-119.7458, 34.4888], [-119.7478, 34.4886], [-119.7448, 34.4878], [-119.7462, 34.4872], [-119.7474, 34.4879], [-119.7481, 34.4871], [-119.7499, 34.4873], [-119.7499, 34.4867], [-119.749, 34.4871], [-119.7482, 34.4866], [-119.7489, 34.4861], [-119.7472, 34.4864], [-119.7465, 34.4856], [-119.7472, 34.4843], [-119.7485, 34.4837], [-119.749, 34.4842], [-119.7511, 34.4839], [-119.7498, 34.4836], [-119.7498, 34.4823], [-119.7519, 34.4805], [-119.7529, 34.4825], [-119.7537, 34.4824], [-119.7547, 34.4815], [-119.7538, 34.4787], [-119.7561, 34.4784], [-119.7562, 34.4776], [-119.7576, 34.4773], [-119.7569, 34.4771], [-119.7576, 34.4767], [-119.7555, 34.476], [-119.7552, 34.4772], [-119.7546, 34.4775], [-119.7534, 34.4768], [-119.7533, 34.4776], [-119.7524, 34.4777], [-119.7532, 34.4762], [-119.7521, 34.4754], [-119.7541, 34.4748], [-119.7545, 34.4741], [-119.7541, 34.4728], [-119.7529, 34.4727], [-119.7526, 34.4715], [-119.7514, 34.4711], [-119.7519, 34.47], [-119.7543, 34.4697], [-119.7532, 34.4679], [-119.7551, 34.4677], [-119.7554, 34.4684], [-119.7566, 34.4679], [-119.757, 34.4685], [-119.7568, 34.4707], [-119.7557, 34.4706], [-119.7556, 34.4712], [-119.7565, 34.4747], [-119.7556, 34.4745], [-119.7534, 34.4756], [-119.7543, 34.4759], [-119.7554, 34.4753], [-119.7558, 34.4759], [-119.7571, 34.4757], [-119.7577, 34.4743], [-119.7599, 34.4733], [-119.7578, 34.4734], [-119.7588, 34.4719], [-119.7646, 34.4709], [-119.7665, 34.4696], [-119.7671, 34.4708], [-119.7687, 34.4698], [-119.7685, 34.4685], [-119.7718, 34.4661], [-119.7741, 34.4661], [-119.7733, 34.468], [-119.7741, 34.4677], [-119.7741, 34.4684], [-119.7752, 34.4685], [-119.7752, 34.4712], [-119.7761, 34.4709], [-119.7762, 34.4716], [-119.7748, 34.4732], [-119.776, 34.4736], [-119.7744, 34.4738], [-119.7737, 34.4764], [-119.7731, 34.4766], [-119.7729, 34.4758], [-119.7723, 34.4765], [-119.7721, 34.476], [-119.7711, 34.4764], [-119.771, 34.4777], [-119.7717, 34.4781], [-119.7733, 34.4772], [-119.7749, 34.4774], [-119.7757, 34.4759], [-119.7771, 34.477], [-119.777, 34.4777], [-119.7752, 34.4792], [-119.7665, 34.4791], [-119.7665, 34.5009], [-119.7621, 34.5009], [-119.762, 34.4863], [-119.7576, 34.4864], [-119.7576, 34.4826], [-119.7542, 34.4826], [-119.7544, 34.4936], [-119.748, 34.4935]]], [[[-119.7793, 34.4931], [-119.7801, 34.4928], [-119.7793, 34.4915], [-119.7804, 34.4907], [-119.7822, 34.491], [-119.7811, 34.4924], [-119.7824, 34.4932], [-119.7834, 34.4928], [-119.7831, 34.4921], [-119.7859, 34.4914], [-119.7863, 34.4906], [-119.7858, 34.4899], [-119.7868, 34.4883], [-119.7882, 34.4877], [-119.7883, 34.4931], [-119.7921, 34.4931], [-119.7909, 34.4937], [-119.791, 34.4946], [-119.788, 34.4953], [-119.7893, 34.4959], [-119.7894, 34.4966], [-119.7904, 34.4966], [-119.7883, 34.4967], [-119.7884, 34.4976], [-119.7849, 34.4981], [-119.7851, 34.4996], [-119.7877, 34.5016], [-119.7867, 34.5038], [-119.786, 34.5037], [-119.7871, 34.5016], [-119.7839, 34.5038], [-119.7842, 34.5025], [-119.7853, 34.502], [-119.7849, 34.5011], [-119.7839, 34.5017], [-119.7839, 34.4968], [-119.7793, 34.4968], [-119.7793, 34.4931]]]]}, "properties": {"layer": "retained"}}]}
