{"type": "FeatureCollection", "features": [{"type": "Feature", "geometry": {"type": "Polygon", "coordinates": [[[-117.3912, 33.4809], [-117.4, 33.4801], [-117.3998, 33.4829], [-117.399, 33.4834], [-117.4002, 33.4837], [-117.4011, 33.4856], [-117.4, 33.4863], [-117.4, 33.4878], [-117.3986, 33.4895], [-117.3972, 33.4897], [-117.397, 33.491], [-117.3961, 33.4912], [-117.3972, 33.4929], [-117.3961, 33.493], [-117.3959, 33.4942], [-117.3979, 33.4949], [-117.4009, 33.4984], [-117.4006, 33.5002], [-117.4023, 33.4997], [-117.4018, 33.5007], [-117.4, 33.5003], [-117.4006, 33.4998], [-117.4001, 33.4991], [-117.3981, 33.499], [-117.3975, 33.497], [-117.3961, 33.4979], [-117.3947, 33.4969], [-117.3927, 33.4973], [-117.3912, 33.4991], [-117.382, 33.5029], [-117.3782, 33.5039], [-117.3763, 33.5037], [-117.3749, 33.5025], [-117.3754, 33.5036], [-117.3747, 33.504], [-117.374, 33.5019], [-117.3715, 33.5002], [-117.3716, 33.4995], [-117.369, 33.4991], [-117.3662, 33.4965], [-117.3648, 33.4962], [-117.3649, 33.4926], [-117.3661, 33.4924], [-117.367, 33.4932], [-117.3666, 33.4936], [-117.3675, 33.4937], [-117.3686, 33.4926], [-117.3687, 33.4932], [-117.3701, 33.4924], [-117.3702, 33.4903], [-117.3679, 33.4871], [-117.3686, 33.4857], [-117.3708, 33.4839], [-117.3707, 33.4831], [-117.3721, 33.4822], [-117.375, 33.4814], [-117.3748, 33.4827], [-117.3756, 33.4825], [-117.3766, 33.4835], [-117.3749, 33.4849], [-117.3785, 33.4851], [-117.3828, 33.4831], [-117.3884, 33.4821], [-117.3912, 33.4809]]]}, "properties": {"layer": "perimeter"}}, {"type": "Feature", "geometry": {"type": "MultiPolygon", "coordinates": [[[[-117.3997, 33.4824], [-117.399, 33.4834], [-117.4002, 33.4837], [-117.4002, 33.4843], [-117.3962, 33.4843], [-117.3962, 33.4858], [-117.3947, 33.4858], [-117.3947, 33.4849], [-117.3891, 33.4848], [-117.3892, 33.4872], [-117.3843, 33.4872], [-117.3843, 33.4838], [-117.3907, 33.4839], [-117.3907, 33.482], [-117.3997, 33.4824]]], [[[-117.4005, 33.4846], [-117.4011, 33.4854], [-117.4005, 33.4862], [-117.4005, 33.4846]]], [[[-117.3996, 33.4881], [-117.3991, 33.4884], [-117.3992, 33.4881], [-117.3996, 33.4881]]], [[[-117.395, 33.4973], [-117.3951, 33.4973], [-117.3951, 33.4973], [-117.395, 33.4973]]], [[[-117.3936, 33.4974], [-117.3934, 33.4975], [-117.3933, 33.4975], [-117.3936, 33.4974]]], [[[-117.3926, 33.4976], [-117.3912, 33.4991], [-117.3869, 33.5008], [-117.3848, 33.4993], [-117.3818, 33.4992], [-117.382, 33.4983], [-117.3809, 33.4973], [-117.3791, 33.4973], [-117.3792, 33.4951], [-117.377, 33.495], [-117.3771, 33.4937], [-117.3792, 33.4937], [-117.3792, 33.4946], [-117.3877, 33.4947], [-117.3876, 33.4965], [-117.3911, 33.4967], [-117.3926, 33.4976]]], [[[-117.3735, 33.5017], [-117.3726, 33.5005], [-117.3715, 33.5002], [-117.3716, 33.4995], [-117.369, 33.4991], [-117.3684, 33.4974], [-117.3753, 33.4975], [-117.3753, 33.4966], [-117.3781, 33.4968], [-117.3779, 33.5004], [-117.3736, 33.5003], [-117.3735, 33.5017]]], [[[-117.3676, 33.4978], [-117.3662, 33.4965], [-117.3648, 33.4962], [-117.3648, 33.4928], [-117.3659, 33.4923], [-117.367, 33.4932], [-117.3666, 33.4936], [-117.3675, 33.4937], [-117.3686, 33.4926], [-117.3687, 33.4932], [-117.37, 33.4924], [-117.3676, 33.4978]]], [[[-117.3703, 33.4905], [-117.3694, 33.49], [-117.3681, 33.4877], [-117.3716, 33.4889], [-117.3703, 33.4918], [-117.3703, 33.4905]]], [[[-117.3739, 33.4817], [-117.375, 33.4814], [-117.3748, 33.4827], [-117.3765, 33.4831], [-117.3759, 33.4831], [-117.3758, 33.484], [-117.3737, 33.4839], [-117.3739, 33.4817]]]]}, "properties": {"layer": "retained"}}]}
