{"type": "FeatureCollection", "features": [{"type": "Feature", "geometry": {"type": "Polygon", "coordinates": [[[-118.554, 34.5], [-118.5619, 34.4961], [-118.5668, 34.497], [-118.5682, 34.498], [-118.5696, 34.4978], [-118.5703, 34.4963], [-118.5728, 34.4956], [-118.575, 34.4929], [-118.5747, 34.4915], [-118.5771, 34.49], [-118.583, 34.494], [-118.5826, 34.4967], [-118.5835, 34.499], [-118.5823, 34.5011], [-118.5806, 34.5016], [-118.5795, 34.5026], [-118.5783, 34.5082], [-118.5774, 34.5094], [-118.5776, 34.5106], [-118.5767, 34.5116], [-118.5749, 34.512], [-118.5754, 34.5124], [-118.5745, 34.5126], [-118.5736, 34.5144], [-118.5733, 34.5165], [-118.5708, 34.517], [-118.5714, 34.5183], [-118.5698, 34.5191], [-118.57, 34.52], [-118.5689, 34.5201], [-118.566, 34.5225], [-118.5661, 34.5237], [-118.5637, 34.5248], [-118.5624, 34.5288], [-118.5607, 34.5295], [-118.5606, 34.5307], [-118.5599, 34.5309], [-118.5598, 34.5328], [-118.5576, 34.5336], [-118.5593, 34.5346], [-118.5585, 34.5362], [-118.559, 34.5371], [-118.557, 34.5373], [-118.5547, 34.5356], [-118.554, 34.5361], [-118.554, 34.5369], [-118.5547, 34.5373], [-118.5543, 34.5374], [-118.5542, 34.5376], [-118.5558, 34.5376], [-118.5567, 34.5382], [-118.5551, 34.5392], [-118.5548, 34.5404], [-118.5575, 34.5404], [-118.5562, 34.5408], [-118.5566, 34.5415], [-118.5547, 34.5432], [-118.5556, 34.544], [-118.551, 34.5456], [-118.5485, 34.5434], [-118.5473, 34.5445], [-118.5441, 34.5453], [-118.5419, 34.5476], [-118.5406, 34.5475], [-118.5391, 34.5464], [-118.5389, 34.547], [-118.5369, 34.5469], [-118.5345, 34.5444], [-118.5345, 34.5427], [-118.5361, 34.54], [-118.5353, 34.5382], [-118.5366, 34.535], [-118.5367, 34.5308], [-118.5376, 34.5281], [-118.5372, 34.5273], [-118.5368, 34.528], [-118.5357, 34.5272], [-118.5361, 34.5259], [-118.5386, 34.5243], [-118.543, 34.525], [-118.5433, 34.5244], [-118.5419, 34.5238], [-118.539, 34.5207], [-118.5407, 34.5211], [-118.5414, 34.5152], [-118.5416, 34.5159], [-118.544, 34.5155], [-118.5441, 34.5126], [-118.5434, 34.5117], [-118.5444, 34.5108], [-118.5441, 34.5102], [-118.5455, 34.5094], [-118.546, 34.5075], [-118.5477, 34.5084], [-118.5499, 34.5074], [-118.5496, 34.5055], [-118.5516, 34.5031], [-118.5491, 34.5023], [-118.5485, 34.5007], [-118.5491, 34.5002], [-118.554, 34.5]]]}, "properties": {"layer": "perimeter"}}, {"type": "Feature", "geometry": {"type": "Polygon", "coordinates": [[[-118.5602, 34.4973], [-118.5619, 34.4961], [-118.5668, 34.497], [-118.5682, 34.498], [-118.5696, 34.4978], [-118.5703, 34.4963], [-118.5728, 34.4956], [-118.575, 34.4929], [-118.5747, 34.4915], [-118.5771, 34.49], [-118.583, 34.494], [-118.5826, 34.4967], [-118.5835, 34.499], [-118.5823, 34.5011], [-118.5806, 34.5016], [-118.5792, 34.5037], [-118.5516, 34.5036], [-118.5516, 34.5031], [-118.5491, 34.5023], [-118.5485, 34.5007], [-118.5491, 34.5002], [-118.56, 34.5], [-118.5602, 34.4973]]]}, "properties": {"layer": "retained"}}]}
