{"type": "FeatureCollection", "features": [{"type": "Feature", "geometry": {"type": "Polygon", "coordinates": [[[-122.5833, 39.6307], [-122.5851, 39.6344], [-122.579, 39.6364], [-122.5773, 39.6342], [-122.5782, 39.6333], [-122.5765, 39.6318], [-122.5734, 39.6326], [-122.567, 39.6328], [-122.5563, 39.6297], [-122.5451, 39.6319], [-122.5405, 39.6314], [-122.5401, 39.6293], [-122.5421, 39.6275], [-122.5439, 39.627], [-122.5444, 39.6257], [-122.5407, 39.6241], [-122.5348, 39.6237], [-122.5333, 39.6231], [-122.5334, 39.6215], [-122.5355, 39.6196], [-122.5349, 39.6168], [-122.5372, 39.616], [-122.539, 39.6132], [-122.5383, 39.6109], [-122.536, 39.6097], [-122.541, 39.6103], [-122.5453, 39.6085], [-122.5532, 39.6102], [-122.5607, 39.6096], [-122.5642, 39.6106], [-122.5692, 39.6137], [-122.5723, 39.6137], [-122.576, 39.6121], [-122.58, 39.6127], [-122.5818, 39.6109], [-122.5825, 39.6128], [-122.5848, 39.6143], [-122.582, 39.6221], [-122.5844, 39.6275], [-122.5833, 39.6307]]]}, "properties": {"layer": "perimeter"}}, {"type": "Feature", "geometry": {"type": "Polygon", "coordinates": [[[-122.5833, 39.6308], [-122.5851, 39.6344], [-122.579, 39.6364], [-122.5773, 39.6342], [-122.5782, 39.6333], [-122.5765, 39.6318], [-122.5734, 39.6326], [-122.567, 39.6328], [-122.5563, 39.6297], [-122.5451, 39.6319], [-122.5405, 39.6314], [-122.5401, 39.6293], [-122.5421, 39.6275], [-122.5439, 39.627], [-122.5444, 39.6257], [-122.5407, 39.6241], [-122.5348, 39.6237], [-122.5333, 39.6231], [-122.5334, 39.6215], [-122.5355, 39.6196], [-122.5349, 39.6168], [-122.5372, 39.616], [-122.539, 39.6132], [-122.5383, 39.6109], [-122.536, 39.6097], [-122.541, 39.6103], [-122.5453, 39.6085], [-122.5532, 39.6102], [-122.5607, 39.6096], [-122.5642, 39.6106], [-122.5692, 39.6137], [-122.5723, 39.6137], [-122.576, 39.6121], [-122.58, 39.6127], [-122.5818, 39.6109], [-122.5825, 39.6128], [-122.5848, 39.6143], [-122.582, 39.6221], [-122.5829, 39.6249], [-122.5828, 39.6284], [-122.5838, 39.6284], [-122.5833, 39.6308]]]}, "properties": {"layer": "retained"}}]}
