{"type": "FeatureCollection", "features": [{"type": "Feature", "geometry": {"type": "Polygon", "coordinates": [[[-124.0048, 41.9559], [-124.0051, 41.9545], [-124.0066, 41.9536], [-124.0069, 41.9525], [-124.0046, 41.9533], [-124.0022, 41.9522], [-123.998, 41.9524], [-123.9964, 41.9515], [-123.997, 41.9512], [-123.9923, 41.9492], [-123.9882, 41.9483], [-123.99, 41.9478], [-123.9913, 41.9459], [-123.9913, 41.9432], [-123.9902, 41.9407], [-123.9923, 41.9381], [-123.9954, 41.9386], [-123.9949, 41.9362], [-123.9969, 41.9359], [-123.9972, 41.9346], [-124.001, 41.9354], [-124.0015, 41.9337], [-123.9997, 41.9326], [-124.002, 41.9311], [-124.0019, 41.9302], [-123.9989, 41.9295], [-124.0011, 41.9278], [-124.004, 41.9283], [-124.0046, 41.9277], [-124.0124, 41.9275], [-124.0148, 41.9297], [-124.0188, 41.9294], [-124.0195, 41.9299], [-124.0194, 41.9324], [-124.0165, 41.9354], [-124.0159, 41.9384], [-124.0141, 41.9413], [-124.0162, 41.9411], [-124.0169, 41.9428], [-124.0156, 41.9441], [-124.0127, 41.9435], [-124.0105, 41.9446], [-124.0103, 41.947], [-124.0089, 41.9482], [-124.0079, 41.9512], [-124.0078, 41.9548], [-124.0048, 41.9559]]]}, "properties": {"layer": "perimeter"}}]}
