{"type": "FeatureCollection", "features": [{"type": "Feature", "geometry": {"type": "Polygon", "coordinates": [[[-118.2232, 36.302], [-118.2204, 36.3013], [-118.2177, 36.3017], [-118.2134, 36.3007], [-118.2091, 36.3013], [-118.209, 36.3005], [-118.2063, 36.3003], [-118.2062, 36.2995], [-118.2081, 36.2986], [-118.2085, 36.2964], [-118.21, 36.2944], [-118.2043, 36.2978], [-118.2029, 36.2975], [-118.1969, 36.2986], [-118.1945, 36.2977], [-118.1905, 36.2973], [-118.1904, 36.2958], [-118.1871, 36.2956], [-118.1858, 36.2947], [-118.1852, 36.2932], [-118.1831, 36.2936], [-118.1825, 36.2932], [-118.1829, 36.2909], [-118.1856, 36.2899], [-118.1876, 36.2911], [-118.1968, 36.2915], [-118.2032, 36.2906], [-118.2182, 36.2798], [-118.2228, 36.2719], [-118.2258, 36.2716], [-118.2296, 36.2742], [-118.2323, 36.2753], [-118.2338, 36.2801], [-118.2328, 36.2832], [-118.2352, 36.2854], [-118.2364, 36.2906], [-118.2347, 36.2943], [-118.2331, 36.2955], [-118.2311, 36.299], [-118.2271, 36.3017], [-118.2232, 36.302]]]}, "properties": {"layer": "perimeter"}}]}
