{"type": "FeatureCollection", "features": [{"type": "Feature", "geometry": {"type": "Polygon", "coordinates": [[[-120.9885, 36.6658], [-120.9875, 36.6669], [-120.9879, 36.6674], [-120.9917, 36.6677], [-120.9922, 36.6659], [-120.9906, 36.665], [-120.9917, 36.6646], [-120.9912, 36.6642], [-120.9918, 36.6638], [-120.9951, 36.6642], [-120.999, 36.6634], [-120.9995, 36.6637], [-120.9986, 36.6644], [-121.0008, 36.6648], [-121.0018, 36.6663], [-121.0029, 36.6655], [-121.0053, 36.6663], [-121.0066, 36.6656], [-121.0071, 36.6664], [-121.0105, 36.6672], [-121.0144, 36.6706], [-121.0188, 36.6727], [-121.0206, 36.6749], [-121.0214, 36.6744], [-121.0232, 36.6753], [-121.024, 36.6775], [-121.0211, 36.6786], [-121.0192, 36.678], [-121.0177, 36.6786], [-121.0161, 36.6778], [-121.0125, 36.6789], [-121.0103, 36.6789], [-121.007, 36.6824], [-121.0071, 36.6837], [-121.0051, 36.6848], [-121.0046, 36.6843], [-121.003, 36.6857], [-121.0007, 36.6852], [-120.9991, 36.6858], [-120.9954, 36.6854], [-120.9939, 36.6845], [-120.9929, 36.6826], [-120.9894, 36.6835], [-120.9829, 36.6824], [-120.9804, 36.6816], [-120.9812, 36.6783], [-120.9831, 36.677], [-120.982, 36.6772], [-120.9814, 36.675], [-120.982, 36.6751], [-120.9828, 36.6737], [-120.9816, 36.6713], [-120.9817, 36.6691], [-120.9823, 36.6677], [-120.9841, 36.6669], [-120.985, 36.6657], [-120.9885, 36.6658]]]}, "properties": {"layer": "perimeter"}}, {"type": "Feature", "geometry": {"type": "Polygon", "coordinates": [[[-120.9885, 36.6659], [-120.9875, 36.6669], [-120.9879, 36.6674], [-120.9917, 36.6677], [-120.9922, 36.6659], [-120.9906, 36.665], [-120.9917, 36.6646], [-120.9912, 36.6642], [-120.9918, 36.6638], [-120.9951, 36.6642], [-120.999, 36.6634], [-120.9995, 36.6637], [-120.9986, 36.6644], [-121.0008, 36.6648], [-121.0018, 36.6663], [-121.0029, 36.6655], [-121.0053, 36.6663], [-121.0066, 36.6656], [-121.0071, 36.6664], [-121.0105, 36.6672], [-121.0144, 36.6706], [-121.0188, 36.6727], [-121.0206, 36.6749], [-121.0214, 36.6744], [-121.0232, 36.6753], [-121.024, 36.6775], [-121.0211, 36.6786], [-121.0192, 36.678], [-121.0177, 36.6786], [-121.0161, 36.6778], [-121.0125, 36.6789], [-121.0103, 36.6789], [-121.007, 36.6824], [-121.0071, 36.6837], [-121.0051, 36.6848], [-121.0046, 36.6843], [-121.003, 36.6857], [-121.0007, 36.6852], [-120.9991, 36.6858], [-120.9954, 36.6854], [-120.9939, 36.6845], [-120.9929, 36.6826], [-120.9894, 36.6835], [-120.9829, 36.6824], [-120.9804, 36.6816], [-120.9812, 36.6783], [-120.9831, 36.677], [-120.982, 36.6772], [-120.9814, 36.675], [-120.982, 36.6751], [-120.9828, 36.6737], [-120.9816, 36.6713], [-120.9817, 36.6691], [-120.9823, 36.6677], [-120.9841, 36.6669], [-120.985, 36.6657], [-120.9885, 36.6659]]]}, "properties": {"layer": "retained"}}]}
