{"type": "FeatureCollection", "features": [{"type": "Feature", "geometry": {"type": "Polygon", "coordinates": [[[-117.2756, 33.4054], [-117.272, 33.4038], [-117.2689, 33.4042], [-117.2679, 33.4014], [-117.2669, 33.4021], [-117.265, 33.4002], [-117.2641, 33.3943], [-117.2618, 33.394], [-117.2615, 33.3929], [-117.2627, 33.3921], [-117.2631, 33.3901], [-117.2658, 33.389], [-117.2659, 33.3883], [-117.264, 33.3878], [-117.265, 33.3847], [-117.2681, 33.3845], [-117.2701, 33.3832], [-117.2706, 33.3817], [-117.2724, 33.3799], [-117.2736, 33.3803], [-117.2748, 33.3796], [-117.2752, 33.3776], [-117.279, 33.3747], [-117.2792, 33.3734], [-117.2809, 33.3716], [-117.2802, 33.3717], [-117.2801, 33.3708], [-117.2815, 33.3663], [-117.2835, 33.3653], [-117.2845, 33.3656], [-117.2849, 33.3681], [-117.2834, 33.3696], [-117.2857, 33.3691], [-117.2878, 33.3651], [-117.2916, 33.3648], [-117.2911, 33.3678], [-117.2939, 33.3662], [-117.293, 33.3649], [-117.295, 33.3649], [-117.2953, 33.3663], [-117.2977, 33.3629], [-117.2961, 33.3626], [-117.2952, 33.3609], [-117.2998, 33.3579], [-117.2986, 33.3564], [-117.2998, 33.3547], [-117.3017, 33.3546], [-117.3008, 33.3532], [-117.3019, 33.3494], [-117.3047, 33.3487], [-117.3059, 33.3468], [-117.3087, 33.3473], [-117.3072, 33.3491], [-117.3088, 33.3509], [-117.3095, 33.3507], [-117.3088, 33.349], [-117.3111, 33.349], [-117.3095, 33.3502], [-117.3115, 33.3511], [-117.3101, 33.3538], [-117.3104, 33.3581], [-117.3117, 33.36], [-117.3073, 33.3658], [-117.3047, 33.3679], [-117.304, 33.3675], [-117.3032, 33.368], [-117.3048, 33.3714], [-117.3024, 33.3759], [-117.3008, 33.3778], [-117.2996, 33.3775], [-117.2995, 33.3806], [-117.2979, 33.3827], [-117.2982, 33.3836], [-117.2974, 33.3834], [-117.2963, 33.3872], [-117.2946, 33.3891], [-117.2897, 33.3904], [-117.2903, 33.3925], [-117.2879, 33.3926], [-117.2887, 33.3941], [-117.2875, 33.3949], [-117.2903, 33.3955], [-117.2935, 33.3933], [-117.2952, 33.3945], [-117.2952, 33.396], [-117.2931, 33.3973], [-117.2924, 33.397], [-117.2926, 33.4001], [-117.2904, 33.4016], [-117.2883, 33.4011], [-117.2867, 33.403], [-117.2857, 33.4022], [-117.2842, 33.4028], [-117.2829, 33.4018], [-117.2818, 33.4018], [-117.2807, 33.4032], [-117.2756, 33.4054]]]}, "properties": {"layer": "perimeter"}}]}
