{"type": "FeatureCollection", "features": [{"type": "Feature", "geometry": {"type": "MultiPolygon", "coordinates": [[[[-121.4176, 37.0105], [-121.4176, 37.0105], [-121.4176, 37.0105], [-121.4176, 37.0105]]], [[[-121.488, 37.0267], [-121.4846, 37.0266], [-121.4818, 37.0275], [-121.4805, 37.026], [-121.4809, 37.029], [-121.4798, 37.0302], [-121.4779, 37.0303], [-121.4771, 37.032], [-121.4701, 37.0318], [-121.4714, 37.0311], [-121.4714, 37.0301], [-121.4697, 37.0315], [-121.4675, 37.0313], [-121.4616, 37.0328], [-121.4611, 37.034], [-121.4579, 37.0329], [-121.4577, 37.0336], [-121.4563, 37.0335], [-121.4507, 37.0308], [-121.4437, 37.0319], [-121.4401, 37.033], [-121.4364, 37.0318], [-121.4349, 37.0302], [-121.4327, 37.0297], [-121.4259, 37.03], [-121.4257, 37.0331], [-121.4214, 37.0333], [-121.4222, 37.0324], [-121.4201, 37.0307], [-121.4167, 37.026], [-121.4172, 37.0236], [-121.4127, 37.0216], [-121.4099, 37.0193], [-121.4088, 37.0171], [-121.4105, 37.0171], [-121.4111, 37.016], [-121.4118, 37.0166], [-121.4125, 37.0163], [-121.4138, 37.0151], [-121.4135, 37.0141], [-121.415, 37.0134], [-121.4177, 37.0141], [-121.4199, 37.0136], [-121.4247, 37.0147], [-121.4277, 37.0143], [-121.4267, 37.0129], [-121.4278, 37.0119], [-121.4258, 37.0111], [-121.4167, 37.013], [-121.4177, 37.0109], [-121.4176, 37.0102], [-121.4215, 37.0073], [-121.4269, 37.007], [-121.4269, 37.0061], [-121.4258, 37.0066], [-121.4258, 37.0058], [-121.4248, 37.007], [-121.4232, 37.0062], [-121.4244, 37.0051], [-121.4232, 37.0051], [-121.4233, 37.0031], [-121.4254, 37.0018], [-121.4247, 37.0005], [-121.427, 37.0003], [-121.4291, 36.9988], [-121.4296, 36.9992], [-121.4311, 36.9986], [-121.4328, 36.9989], [-121.4329, 36.9997], [-121.4355, 36.9998], [-121.4363, 37.0005], [-121.4354, 37.0013], [-121.4356, 37.0018], [-121.4373, 37.0007], [-121.4393, 37.0017], [-121.4441, 36.9992], [-121.4447, 36.9972], [-121.4486, 36.9965], [-121.4541, 36.9972], [-121.4557, 36.997], [-121.4562, 36.9955], [-121.4591, 36.9961], [-121.4604, 36.9946], [-121.4635, 36.9963], [-121.4663, 36.9959], [-121.4673, 36.9967], [-121.4657, 36.9982], [-121.4658, 36.9989], [-121.4677, 37.0002], [-121.4685, 37.0019], [-121.4681, 37.0025], [-121.4689, 37.0032], [-121.4723, 37.004], [-121.4736, 37.0072], [-121.4749, 37.0075], [-121.4747, 37.0043], [-121.4768, 37.004], [-121.4805, 37.0074], [-121.484, 37.0131], [-121.4868, 37.0135], [-121.4897, 37.0154], [-121.4893, 37.0173], [-121.4901, 37.0179], [-121.4908, 37.0178], [-121.4921, 37.0193], [-121.4934, 37.0188], [-121.4949, 37.0197], [-121.497, 37.0198], [-121.5011, 37.0233], [-121.5005, 37.0242], [-121.5008, 37.0249], [-121.5019, 37.0249], [-121.5015, 37.0254], [-121.5036, 37.028], [-121.5034, 37.0299], [-121.5054, 37.0296], [-121.5069, 37.0305], [-121.5073, 37.0317], [-121.5085, 37.0316], [-121.5102, 37.0335], [-121.51, 37.0346], [-121.5106, 37.0345], [-121.5096, 37.0349], [-121.5082, 37.0336], [-121.5056, 37.0341], [-121.5015, 37.0329], [-121.5007, 37.0312], [-121.4975, 37.0308], [-121.4953, 37.0268], [-121.4926, 37.0288], [-121.4906, 37.0274], [-121.488, 37.0267]]], [[[-121.488, 37.0268], [-121.488, 37.0268], [-121.488, 37.0268], [-121.488, 37.0268]]]]}, "properties": {"layer": "perimeter"}}, {"type": "Feature", "geometry": {"type": "MultiPolygon", "coordinates": [[[[-121.4176, 37.0105], [-121.4176, 37.0105], [-121.4176, 37.0105], [-121.4176, 37.0105]]], [[[-121.488, 37.0267], [-121.4846, 37.0266], [-121.4818, 37.0275], [-121.4805, 37.026], [-121.4809, 37.029], [-121.4798, 37.0302], [-121.4779, 37.0303], [-121.4771, 37.032], [-121.4701, 37.0318], [-121.4714, 37.0311], [-121.4714, 37.0301], [-121.4697, 37.0315], [-121.4675, 37.0313], [-121.4616, 37.0328], [-121.4611, 37.034], [-121.4579, 37.0329], [-121.4577, 37.0336], [-121.4563, 37.0335], [-121.4507, 37.0308], [-121.4437, 37.0319], [-121.4401, 37.033], [-121.4364, 37.0318], [-121.4349, 37.0302], [-121.4327, 37.0297], [-121.4259, 37.03], [-121.4257, 37.0331], [-121.4214, 37.0333], [-121.4222, 37.0324], [-121.4201, 37.0307], [-121.4167, 37.026], [-121.4172, 37.0236], [-121.4127, 37.0216], [-121.4099, 37.0193], [-121.4088, 37.0171], [-121.4105, 37.0171], [-121.4111, 37.016], [-121.4118, 37.0166], [-121.4125, 37.0163], [-121.4138, 37.0151], [-121.4135, 37.0141], [-121.415, 37.0134], [-121.4177, 37.0141], [-121.4199, 37.0136], [-121.4247, 37.0147], [-121.4277, 37.0143], [-121.4267, 37.0129], [-121.4278, 37.0119], [-121.4258, 37.0111], [-121.4167, 37.013], [-121.4177, 37.0109], [-121.4176, 37.0102], [-121.4215, 37.0073], [-121.4269, 37.007], [-121.4269, 37.0061], [-121.4258, 37.0066], [-121.4258, 37.0058], [-121.4248, 37.007], [-121.4232, 37.0062], [-121.4244, 37.0051], [-121.4232, 37.0051], [-121.4233, 37.0031], [-121.4254, 37.0018], [-121.4247, 37.0005], [-121.427, 37.0003], [-121.4291, 36.9988], [-121.4296, 36.9992], [-121.4311, 36.9986], [-121.4328, 36.9989], [-121.4329, 36.9997], [-121.4355, 36.9998], [-121.4363, 37.0005], [-121.4354, 37.0013], [-121.4356, 37.0018], [-121.4373, 37.0007], [-121.4393, 37.0017], [-121.4441, 36.9992], [-121.4447, 36.9972], [-121.4486, 36.9965], [-121.4541, 36.9972], [-121.4557, 36.997], [-121.4562, 36.9955], [-121.4591, 36.9961], [-121.4604, 36.9946], [-121.4635, 36.9963], [-121.4663, 36.9959], [-121.4673, 36.9967], [-121.4657, 36.9982], [-121.4658, 36.9989], [-121.4677, 37.0002], [-121.4685, 37.0019], [-121.4681, 37.0025], [-121.4689, 37.0032], [-121.4723, 37.004], [-121.4736, 37.0072], [-121.4749, 37.0075], [-121.4747, 37.0043], [-121.4768, 37.004], [-121.4805, 37.0074], [-121.484, 37.0131], [-121.4868, 37.0135], [-121.4897, 37.0154], [-121.4893, 37.0173], [-121.4901, 37.0179], [-121.4908, 37.0178], [-121.4921, 37.0193], [-121.4934, 37.0188], [-121.4949, 37.0197], [-121.497, 37.0198], [-121.5011, 37.0233], [-121.5005, 37.0242], [-121.5008, 37.0249], [-121.5019, 37.0249], [-121.5015, 37.0254], [-121.5036, 37.028], [-121.5034, 37.0299], [-121.5054, 37.0296], [-121.5069, 37.0305], [-121.5073, 37.0317], [-121.5085, 37.0316], [-121.5102, 37.0335], [-121.51, 37.0346], [-121.5106, 37.0345], [-121.5096, 37.0349], [-121.5082, 37.0336], [-121.5056, 37.0341], [-121.5015, 37.0329], [-121.5007, 37.0312], [-121.4975, 37.0308], [-121.4953, 37.0268], [-121.4926, 37.0288], [-121.4906, 37.0274], [-121.488, 37.0267]]], [[[-121.488, 37.0268], [-121.488, 37.0268], [-121.488, 37.0268], [-121.488, 37.0268]]]]}, "properties": {"layer": "retained"}}]}
