{"type": "FeatureCollection", "features": [{"type": "Feature", "geometry": {"type": "MultiPolygon", "coordinates": [[[[-123.184, 41.9724], [-123.1836, 41.9712], [-123.1817, 41.97], [-123.1809, 41.9686], [-123.18, 41.9685], [-123.18, 41.9675], [-123.1817, 41.9667], [-123.1828, 41.9671], [-123.1841, 41.9666], [-123.1885, 41.9628], [-123.1905, 41.9625], [-123.1913, 41.9612], [-123.1906, 41.9589], [-123.1919, 41.9571], [-123.1907, 41.9533], [-123.1924, 41.9517], [-123.1915, 41.9504], [-123.1922, 41.95], [-123.1917, 41.9492], [-123.1925, 41.9489], [-123.1917, 41.9483], [-123.1912, 41.9451], [-123.1899, 41.9448], [-123.1882, 41.9428], [-123.1864, 41.9423], [-123.1857, 41.9409], [-123.1863, 41.9404], [-123.1877, 41.9411], [-123.1877, 41.9401], [-123.189, 41.9395], [-123.189, 41.9385], [-123.1898, 41.938], [-123.1897, 41.9367], [-123.1942, 41.9374], [-123.1933, 41.9368], [-123.1932, 41.9353], [-123.1936, 41.9345], [-123.1947, 41.9347], [-123.194, 41.9338], [-123.1915, 41.936], [-123.1899, 41.9349], [-123.1891, 41.935], [-123.189, 41.9336], [-123.1903, 41.9328], [-123.1904, 41.9341], [-123.1915, 41.9344], [-123.193, 41.9326], [-123.1957, 41.9347], [-123.1956, 41.9355], [-123.1965, 41.9356], [-123.1965, 41.9342], [-123.1982, 41.9357], [-123.1985, 41.9329], [-123.1976, 41.9319], [-123.1985, 41.9318], [-123.1985, 41.9304], [-123.2002, 41.9295], [-123.2019, 41.9298], [-123.202, 41.9287], [-123.2038, 41.9283], [-123.2026, 41.9278], [-123.2015, 41.9287], [-123.2012, 41.9253], [-123.2034, 41.9264], [-123.2037, 41.9259], [-123.2024, 41.9254], [-123.2035, 41.9238], [-123.2026, 41.9228], [-123.2032, 41.9229], [-123.2035, 41.9218], [-123.2058, 41.9217], [-123.2075, 41.9194], [-123.2095, 41.9193], [-123.2099, 41.9215], [-123.2139, 41.9212], [-123.214, 41.9238], [-123.2125, 41.9256], [-123.2106, 41.926], [-123.2117, 41.9262], [-123.2122, 41.9274], [-123.2116, 41.9282], [-123.2156, 41.9277], [-123.2161, 41.9286], [-123.2166, 41.9276], [-123.2171, 41.9286], [-123.2182, 41.9285], [-123.2168, 41.9294], [-123.2172, 41.9301], [-123.2181, 41.9301], [-123.2204, 41.9332], [-123.2216, 41.9331], [-123.2218, 41.9323], [-123.2238, 41.9317], [-123.2222, 41.9306], [-123.2239, 41.9269], [-123.2206, 41.925], [-123.2206, 41.9244], [-123.224, 41.9219], [-123.2242, 41.9208], [-123.2273, 41.9203], [-123.2289, 41.9172], [-123.2269, 41.9148], [-123.2235, 41.9159], [-123.2221, 41.9159], [-123.2215, 41.9148], [-123.2203, 41.9148], [-123.2189, 41.9171], [-123.2182, 41.9171], [-123.2191, 41.9139], [-123.2164, 41.9093], [-123.2122, 41.9099], [-123.2107, 41.911], [-123.2064, 41.9119], [-123.2013, 41.912], [-123.1992, 41.9125], [-123.1973, 41.9141], [-123.1966, 41.9139], [-123.1969, 41.9115], [-123.1997, 41.9096], [-123.2001, 41.8989], [-123.2032, 41.8974], [-123.208, 41.8968], [-123.2066, 41.8953], [-123.2101, 41.8889], [-123.2136, 41.8879], [-123.2152, 41.8886], [-123.2139, 41.892], [-123.2144, 41.8931], [-123.2172, 41.8922], [-123.2182, 41.8884], [-123.2257, 41.8919], [-123.2275, 41.892], [-123.2278, 41.8926], [-123.2299, 41.8911], [-123.2319, 41.8925], [-123.2313, 41.8959], [-123.2351, 41.8958], [-123.2365, 41.897], [-123.2395, 41.8966], [-123.2404, 41.8973], [-123.2466, 41.8969], [-123.2472, 41.8946], [-123.246, 41.8924], [-123.2478, 41.8916], [-123.2493, 41.8921], [-123.2511, 41.895], [-123.2508, 41.8959], [-123.2521, 41.8968], [-123.2591, 41.8969], [-123.2627, 41.8957], [-123.2639, 41.8946], [-123.2638, 41.8932], [-123.268, 41.8944], [-123.27, 41.8933], [-123.2711, 41.8933], [-123.2727, 41.8951], [-123.2759, 41.8931], [-123.277, 41.8936], [-123.2774, 41.8961], [-123.2808, 41.8966], [-123.2818, 41.8976], [-123.2818, 41.8992], [-123.2841, 41.9009], [-123.284, 41.9027], [-123.2817, 41.9049], [-123.2801, 41.9054], [-123.2776, 41.9049], [-123.2762, 41.9024], [-123.2736, 41.9012], [-123.2735, 41.9018], [-123.2706, 41.9015], [-123.2691, 41.9021], [-123.2667, 41.9017], [-123.266, 41.9009], [-123.2642, 41.9026], [-123.2648, 41.903], [-123.2631, 41.9037], [-123.2631, 41.9051], [-123.2643, 41.9054], [-123.2639, 41.9066], [-123.2671, 41.9069], [-123.2674, 41.9075], [-123.2699, 41.9072], [-123.2704, 41.9077], [-123.2673, 41.9085], [-123.2675, 41.9092], [-123.2722, 41.9108], [-123.2711, 41.9132], [-123.2698, 41.9136], [-123.2685, 41.9126], [-123.2665, 41.9127], [-123.2662, 41.9111], [-123.2652, 41.9107], [-123.2625, 41.9132], [-123.26, 41.9123], [-123.2577, 41.9124], [-123.2572, 41.912], [-123.2587, 41.911], [-123.2584, 41.9094], [-123.2562, 41.9093], [-123.2569, 41.9088], [-123.2552, 41.9081], [-123.2547, 41.9086], [-123.2559, 41.91], [-123.2558, 41.9115], [-123.2526, 41.9123], [-123.2586, 41.9169], [-123.2587, 41.919], [-123.2608, 41.9198], [-123.2612, 41.9188], [-123.2624, 41.9194], [-123.2624, 41.9206], [-123.2608, 41.9217], [-123.2606, 41.923], [-123.2596, 41.9232], [-123.2601, 41.9244], [-123.2619, 41.924], [-123.2633, 41.9226], [-123.2639, 41.923], [-123.2648, 41.9219], [-123.2658, 41.9227], [-123.2675, 41.9215], [-123.2688, 41.9218], [-123.2692, 41.9213], [-123.2701, 41.9219], [-123.27, 41.921], [-123.2713, 41.9207], [-123.2707, 41.9199], [-123.2712, 41.9196], [-123.2737, 41.9198], [-123.2741, 41.9206], [-123.2748, 41.9202], [-123.2745, 41.9213], [-123.275, 41.9221], [-123.2758, 41.9217], [-123.2752, 41.9253], [-123.2737, 41.9262], [-123.2735, 41.9255], [-123.2726, 41.9255], [-123.2728, 41.9274], [-123.2714, 41.9274], [-123.2702, 41.9285], [-123.2684, 41.9288], [-123.268, 41.93], [-123.2666, 41.9297], [-123.2671, 41.9324], [-123.266, 41.9333], [-123.2644, 41.9333], [-123.2613, 41.9363], [-123.264, 41.9378], [-123.2634, 41.9386], [-123.2628, 41.9382], [-123.2616, 41.9387], [-123.2608, 41.9426], [-123.2575, 41.9459], [-123.2547, 41.9463], [-123.2544, 41.9457], [-123.2532, 41.9465], [-123.2518, 41.9453], [-123.2513, 41.9424], [-123.2481, 41.943], [-123.2446, 41.9421], [-123.243, 41.9425], [-123.235, 41.9392], [-123.2328, 41.9407], [-123.2291, 41.9414], [-123.2268, 41.9428], [-123.2235, 41.9428], [-123.2221, 41.9462], [-123.2223, 41.9477], [-123.2212, 41.9486], [-123.2224, 41.9503], [-123.2212, 41.9517], [-123.2214, 41.9556], [-123.2189, 41.9571], [-123.219, 41.9582], [-123.2179, 41.9594], [-123.212, 41.9624], [-123.209, 41.9623], [-123.2091, 41.9631], [-123.2077, 41.9619], [-123.199, 41.9628], [-123.2001, 41.9635], [-123.1998, 41.9658], [-123.1955, 41.9656], [-123.1915, 41.9642], [-123.1888, 41.9651], [-123.1857, 41.9675], [-123.184, 41.9724]], [[-123.203, 41.9318], [-123.203, 41.9308], [-123.2023, 41.9311], [-123.203, 41.9318]], [[-123.2078, 41.9312], [-123.2069, 41.9292], [-123.2053, 41.9297], [-123.2053, 41.931], [-123.204, 41.9314], [-123.207, 41.9321], [-123.2078, 41.9312]], [[-123.2526, 41.9326], [-123.2536, 41.9336], [-123.2553, 41.9329], [-123.2552, 41.9323], [-123.254, 41.9324], [-123.2547, 41.9318], [-123.2538, 41.9303], [-123.2564, 41.9277], [-123.2549, 41.926], [-123.2509, 41.927], [-123.2498, 41.9266], [-123.2465, 41.9232], [-123.245, 41.925], [-123.2482, 41.928], [-123.2471, 41.93], [-123.2492, 41.932], [-123.2517, 41.9323], [-123.2523, 41.9338], [-123.2526, 41.9326]]], [[[-123.1956, 41.9339], [-123.1951, 41.9337], [-123.1955, 41.9336], [-123.1956, 41.9339]]], [[[-123.2904, 41.9427], [-123.2881, 41.9413], [-123.2851, 41.9417], [-123.2839, 41.9406], [-123.2843, 41.9386], [-123.2865, 41.9388], [-123.2868, 41.9366], [-123.281, 41.9373], [-123.2796, 41.9365], [-123.2798, 41.9343], [-123.279, 41.9336], [-123.2759, 41.9334], [-123.2744, 41.9338], [-123.2728, 41.9289], [-123.2757, 41.9286], [-123.2768, 41.9278], [-123.2779, 41.9282], [-123.2766, 41.925], [-123.2775, 41.9238], [-123.2786, 41.9234], [-123.2796, 41.924], [-123.2806, 41.9233], [-123.2839, 41.924], [-123.286, 41.9231], [-123.2872, 41.9234], [-123.2881, 41.9226], [-123.2879, 41.9236], [-123.289, 41.9235], [-123.2892, 41.926], [-123.2902, 41.9259], [-123.2943, 41.9307], [-123.2932, 41.9352], [-123.294, 41.9367], [-123.2962, 41.9378], [-123.2947, 41.9413], [-123.2952, 41.9414], [-123.2904, 41.9427]]]]}, "properties": {"layer": "perimeter"}}]}
