{"type": "FeatureCollection", "features": [{"type": "Feature", "geometry": {"type": "MultiPolygon", "coordinates": [[[[-118.9029, 37.79], [-118.901, 37.7905], [-118.9011, 37.7897], [-118.9029, 37.79]]], [[[-118.9072, 37.7957], [-118.9067, 37.7962], [-118.9069, 37.7956], [-118.9072, 37.7957]]], [[[-118.9076, 37.7994], [-118.9075, 37.7995], [-118.9076, 37.7994], [-118.9076, 37.7994]]], [[[-118.8516, 37.8028], [-118.8522, 37.8028], [-118.8516, 37.8032], [-118.8516, 37.8028]]], [[[-118.8537, 37.8323], [-118.8522, 37.8297], [-118.8496, 37.831], [-118.848, 37.8307], [-118.8469, 37.8299], [-118.8469, 37.8279], [-118.8454, 37.8275], [-118.8455, 37.8258], [-118.844, 37.8232], [-118.848, 37.8192], [-118.8484, 37.818], [-118.8447, 37.8136], [-118.8417, 37.8119], [-118.8424, 37.8109], [-118.8452, 37.8098], [-118.8466, 37.8076], [-118.8498, 37.8058], [-118.8506, 37.8045], [-118.8532, 37.8044], [-118.8531, 37.8023], [-118.8581, 37.8005], [-118.8584, 37.7998], [-118.8571, 37.7997], [-118.8569, 37.7992], [-118.8652, 37.7967], [-118.8665, 37.7957], [-118.8686, 37.7955], [-118.8753, 37.7917], [-118.8801, 37.7932], [-118.8854, 37.7936], [-118.8869, 37.7931], [-118.8874, 37.7937], [-118.8896, 37.7934], [-118.8902, 37.7922], [-118.8908, 37.7924], [-118.8906, 37.7936], [-118.8914, 37.7926], [-118.8929, 37.7937], [-118.8934, 37.793], [-118.8975, 37.7921], [-118.8998, 37.7929], [-118.9006, 37.7923], [-118.9018, 37.7931], [-118.9012, 37.7937], [-118.9053, 37.7954], [-118.9062, 37.7972], [-118.9082, 37.7975], [-118.9064, 37.7988], [-118.9071, 37.7998], [-118.9059, 37.8011], [-118.9024, 37.8013], [-118.9017, 37.8025], [-118.9024, 37.803], [-118.9002, 37.803], [-118.9002, 37.8037], [-118.8973, 37.8032], [-118.8968, 37.8039], [-118.8967, 37.803], [-118.8956, 37.8033], [-118.896, 37.8042], [-118.894, 37.8048], [-118.8931, 37.8067], [-118.8902, 37.8095], [-118.8891, 37.8093], [-118.8856, 37.8045], [-118.884, 37.804], [-118.8793, 37.8069], [-118.876, 37.8071], [-118.8724, 37.8085], [-118.872, 37.8105], [-118.87, 37.8122], [-118.8704, 37.8146], [-118.8693, 37.8186], [-118.8683, 37.8191], [-118.8702, 37.8204], [-118.8698, 37.8231], [-118.8714, 37.8254], [-118.8698, 37.8274], [-118.8694, 37.8307], [-118.8657, 37.8299], [-118.8647, 37.8318], [-118.8631, 37.8326], [-118.8594, 37.8367], [-118.8537, 37.8323]]], [[[-118.8528, 37.8408], [-118.853, 37.8405], [-118.8532, 37.8405], [-118.8528, 37.8408]]]]}, "properties": {"layer": "perimeter"}}]}
