{"type": "FeatureCollection", "features": [{"type": "Feature", "geometry": {"type": "Polygon", "coordinates": [[[-118.8995, 34.9008], [-118.8942, 34.8942], [-118.8924, 34.8931], [-118.8922, 34.8921], [-118.888, 34.8892], [-118.8861, 34.8856], [-118.8833, 34.8841], [-118.8823, 34.8819], [-118.8829, 34.881], [-118.8871, 34.8793], [-118.8895, 34.8769], [-118.8904, 34.8785], [-118.8917, 34.877], [-118.8953, 34.8777], [-118.8983, 34.8803], [-118.8994, 34.8828], [-118.9019, 34.8857], [-118.9154, 34.893], [-118.919, 34.8957], [-118.9178, 34.897], [-118.918, 34.8989], [-118.9164, 34.8992], [-118.916, 34.9008], [-118.9148, 34.9013], [-118.9124, 34.8998], [-118.9099, 34.9018], [-118.9086, 34.9011], [-118.9087, 34.9006], [-118.9049, 34.8998], [-118.9051, 34.8993], [-118.9043, 34.8991], [-118.9022, 34.8994], [-118.8995, 34.9008]]]}, "properties": {"layer": "perimeter"}}, {"type": "Feature", "geometry": {"type": "Polygon", "coordinates": [[[-118.8994, 34.9008], [-118.8942, 34.8942], [-118.8924, 34.8931], [-118.8922, 34.8921], [-118.888, 34.8892], [-118.8861, 34.8856], [-118.8833, 34.8841], [-118.8823, 34.8819], [-118.8829, 34.881], [-118.8871, 34.8793], [-118.8895, 34.8769], [-118.8904, 34.8785], [-118.8917, 34.877], [-118.8953, 34.8777], [-118.8983, 34.8803], [-118.8994, 34.8828], [-118.9019, 34.8857], [-118.9154, 34.893], [-118.919, 34.8957], [-118.9178, 34.897], [-118.918, 34.8989], [-118.9164, 34.8992], [-118.916, 34.9008], [-118.9148, 34.9013], [-118.9124, 34.8998], [-118.9099, 34.9018], [-118.9086, 34.9011], [-118.9087, 34.9006], [-118.9049, 34.8998], [-118.9051, 34.8993], [-118.9043, 34.8991], [-118.9022, 34.8994], [-118.8994, 34.9008]]]}, "properties": {"layer": "retained"}}]}
