{"type": "FeatureCollection", "features": [{"type": "Feature", "geometry": {"type": "Polygon", "coordinates": [[[-115.5399, 35.3667], [-115.5487, 35.3603], [-115.5503, 35.3551], [-115.5494, 35.3537], [-115.5474, 35.3536], [-115.5444, 35.3518], [-115.5461, 35.3503], [-115.5435, 35.35], [-115.5433, 35.3506], [-115.5415, 35.3507], [-115.5393, 35.3487], [-115.5361, 35.3481], [-115.5349, 35.3453], [-115.5364, 35.3452], [-115.5329, 35.3427], [-115.5325, 35.3386], [-115.5278, 35.3375], [-115.5253, 35.3356], [-115.5199, 35.336], [-115.5175, 35.3349], [-115.5161, 35.3329], [-115.5157, 35.3261], [-115.5211, 35.3182], [-115.5218, 35.3151], [-115.52, 35.3109], [-115.5168, 35.3084], [-115.5164, 35.3065], [-115.5176, 35.302], [-115.5153, 35.2993], [-115.5139, 35.2961], [-115.5104, 35.2967], [-115.508, 35.296], [-115.5062, 35.2969], [-115.4966, 35.2973], [-115.4946, 35.298], [-115.4938, 35.3], [-115.4947, 35.3007], [-115.4932, 35.3013], [-115.4945, 35.2943], [-115.4937, 35.2935], [-115.4975, 35.2814], [-115.4986, 35.2549], [-115.498, 35.246], [-115.4988, 35.2439], [-115.5071, 35.2437], [-115.5078, 35.2448], [-115.5088, 35.2443], [-115.512, 35.2453], [-115.512, 35.2467], [-115.5152, 35.2479], [-115.5164, 35.2492], [-115.5171, 35.2506], [-115.516, 35.2525], [-115.5176, 35.2536], [-115.5194, 35.253], [-115.5198, 35.2518], [-115.521, 35.252], [-115.521, 35.2511], [-115.5226, 35.251], [-115.5238, 35.2497], [-115.5247, 35.2501], [-115.5256, 35.2488], [-115.5278, 35.2488], [-115.5308, 35.2468], [-115.5315, 35.247], [-115.5334, 35.2461], [-115.5334, 35.244], [-115.5408, 35.2407], [-115.5523, 35.2432], [-115.5628, 35.2442], [-115.5729, 35.2467], [-115.5769, 35.2458], [-115.5821, 35.2421], [-115.5838, 35.2424], [-115.5887, 35.2409], [-115.5891, 35.2402], [-115.5851, 35.2375], [-115.5818, 35.2372], [-115.5802, 35.2355], [-115.5801, 35.2338], [-115.5817, 35.2328], [-115.5939, 35.2325], [-115.5929, 35.2311], [-115.5825, 35.2272], [-115.5793, 35.2242], [-115.5798, 35.2223], [-115.5811, 35.2219], [-115.5902, 35.2224], [-115.6127, 35.2303], [-115.6169, 35.2292], [-115.6226, 35.2319], [-115.6245, 35.2307], [-115.6234, 35.2273], [-115.6261, 35.2274], [-115.6339, 35.2308], [-115.6403, 35.2327], [-115.6507, 35.2418], [-115.6503, 35.2468], [-115.6531, 35.2505], [-115.6589, 35.2514], [-115.663, 35.2554], [-115.6686, 35.259], [-115.6727, 35.2603], [-115.675, 35.2601], [-115.6806, 35.2635], [-115.6813, 35.2647], [-115.6807, 35.2673], [-115.6792, 35.2676], [-115.6784, 35.2685], [-115.6791, 35.269], [-115.6784, 35.2689], [-115.6787, 35.2698], [-115.6792, 35.2696], [-115.6808, 35.2708], [-115.6816, 35.2733], [-115.6831, 35.2739], [-115.6815, 35.2748], [-115.6814, 35.2774], [-115.6794, 35.2825], [-115.6809, 35.2842], [-115.6846, 35.2865], [-115.6846, 35.289], [-115.6803, 35.2914], [-115.6712, 35.2941], [-115.6495, 35.3056], [-115.648, 35.3135], [-115.6404, 35.3216], [-115.6402, 35.3263], [-115.6407, 35.3265], [-115.6354, 35.3388], [-115.632, 35.3409], [-115.6289, 35.3441], [-115.6225, 35.3449], [-115.6211, 35.3467], [-115.6137, 35.3514], [-115.6103, 35.3546], [-115.6022, 35.3543], [-115.5908, 35.3524], [-115.5895, 35.353], [-115.5888, 35.3538], [-115.5902, 35.3611], [-115.5885, 35.3621], [-115.5881, 35.367], [-115.5718, 35.367], [-115.5686, 35.3709], [-115.5667, 35.3767], [-115.5642, 35.3784], [-115.5546, 35.3781], [-115.5466, 35.382], [-115.544, 35.3815], [-115.5437, 35.3803], [-115.5465, 35.377], [-115.5366, 35.3774], [-115.5316, 35.3788], [-115.5309, 35.3775], [-115.5365, 35.3701], [-115.5399, 35.3667]]]}, "properties": {"layer": "perimeter"}}]}
