{"type": "FeatureCollection", "features": [{"type": "Feature", "geometry": {"type": "Polygon", "coordinates": [[[-119.7541, 38.3556], [-119.7534, 38.3542], [-119.7508, 38.3559], [-119.7503, 38.3551], [-119.7494, 38.3555], [-119.7478, 38.354], [-119.7482, 38.3525], [-119.7461, 38.3516], [-119.7457, 38.3523], [-119.7448, 38.352], [-119.7445, 38.353], [-119.7455, 38.3562], [-119.7452, 38.3582], [-119.743, 38.358], [-119.7423, 38.3536], [-119.7432, 38.3528], [-119.7409, 38.3528], [-119.7415, 38.3562], [-119.7393, 38.3573], [-119.7383, 38.354], [-119.7344, 38.3525], [-119.733, 38.3528], [-119.7323, 38.3542], [-119.7291, 38.3528], [-119.7297, 38.3554], [-119.7282, 38.3543], [-119.728, 38.3582], [-119.727, 38.3585], [-119.7271, 38.3559], [-119.7238, 38.3542], [-119.7229, 38.3519], [-119.7213, 38.3511], [-119.7224, 38.3494], [-119.725, 38.3479], [-119.7236, 38.3454], [-119.7222, 38.3457], [-119.7221, 38.3452], [-119.7237, 38.3445], [-119.7245, 38.3451], [-119.7283, 38.3444], [-119.7305, 38.3446], [-119.7288, 38.3431], [-119.7297, 38.3429], [-119.7296, 38.342], [-119.7323, 38.3421], [-119.7312, 38.3439], [-119.7333, 38.342], [-119.7323, 38.342], [-119.7313, 38.3401], [-119.7313, 38.3397], [-119.7326, 38.3402], [-119.7337, 38.3397], [-119.7324, 38.3363], [-119.7364, 38.3374], [-119.736, 38.3354], [-119.7368, 38.3351], [-119.7355, 38.335], [-119.7368, 38.3331], [-119.7348, 38.3321], [-119.7375, 38.3295], [-119.736, 38.328], [-119.7375, 38.3268], [-119.736, 38.3247], [-119.7365, 38.3212], [-119.7398, 38.3215], [-119.7392, 38.3208], [-119.7407, 38.3207], [-119.7422, 38.3225], [-119.7477, 38.3221], [-119.7468, 38.3244], [-119.7485, 38.3248], [-119.7537, 38.328], [-119.7544, 38.3279], [-119.757, 38.3304], [-119.7608, 38.3318], [-119.7622, 38.333], [-119.7701, 38.3359], [-119.7696, 38.3366], [-119.7678, 38.3372], [-119.7694, 38.3385], [-119.7759, 38.3403], [-119.7784, 38.3387], [-119.78, 38.3387], [-119.7834, 38.3409], [-119.7873, 38.3409], [-119.79, 38.3423], [-119.7919, 38.3413], [-119.792, 38.34], [-119.7904, 38.3388], [-119.7869, 38.34], [-119.7856, 38.3397], [-119.7847, 38.337], [-119.7835, 38.337], [-119.7862, 38.3347], [-119.7848, 38.3331], [-119.7827, 38.3322], [-119.7817, 38.3304], [-119.7804, 38.3298], [-119.7791, 38.3304], [-119.779, 38.3333], [-119.7773, 38.3354], [-119.7761, 38.3357], [-119.7759, 38.3348], [-119.7737, 38.3346], [-119.7668, 38.3305], [-119.7655, 38.3292], [-119.7658, 38.3275], [-119.7641, 38.3269], [-119.7641, 38.3276], [-119.763, 38.3279], [-119.7626, 38.3258], [-119.7632, 38.324], [-119.7616, 38.3228], [-119.7629, 38.3229], [-119.7638, 38.3217], [-119.7647, 38.3228], [-119.7653, 38.3217], [-119.7667, 38.3219], [-119.7658, 38.3207], [-119.7676, 38.3197], [-119.7698, 38.3213], [-119.7706, 38.3212], [-119.7708, 38.3219], [-119.7729, 38.3225], [-119.775, 38.3206], [-119.775, 38.3196], [-119.7761, 38.3193], [-119.7789, 38.3203], [-119.779, 38.3196], [-119.7805, 38.3193], [-119.7824, 38.3198], [-119.7827, 38.3209], [-119.7848, 38.3207], [-119.7861, 38.3218], [-119.7882, 38.3209], [-119.7882, 38.319], [-119.7903, 38.3172], [-119.7921, 38.3172], [-119.7921, 38.3163], [-119.7931, 38.3158], [-119.796, 38.3159], [-119.7955, 38.3141], [-119.7998, 38.3134], [-119.8017, 38.3141], [-119.8027, 38.316], [-119.8044, 38.3153], [-119.806, 38.3108], [-119.8091, 38.3111], [-119.8115, 38.3081], [-119.8166, 38.3102], [-119.8184, 38.3117], [-119.8233, 38.3126], [-119.8261, 38.3097], [-119.828, 38.3093], [-119.8313, 38.3101], [-119.8335, 38.3124], [-119.8359, 38.308], [-119.8389, 38.3083], [-119.8436, 38.3131], [-119.8478, 38.3149], [-119.8492, 38.3175], [-119.8485, 38.3209], [-119.85, 38.3231], [-119.8583, 38.3302], [-119.8606, 38.3304], [-119.8625, 38.3333], [-119.8649, 38.335], [-119.8664, 38.3351], [-119.8682, 38.3379], [-119.8694, 38.3386], [-119.8696, 38.3402], [-119.8709, 38.3402], [-119.8749, 38.338], [-119.8771, 38.3379], [-119.8792, 38.3409], [-119.8848, 38.3424], [-119.8863, 38.3437], [-119.8872, 38.346], [-119.889, 38.3472], [-119.8893, 38.3492], [-119.8886, 38.3502], [-119.8902, 38.3522], [-119.9008, 38.3543], [-119.9059, 38.3529], [-119.9064, 38.3521], [-119.9103, 38.353], [-119.9136, 38.3523], [-119.9171, 38.3495], [-119.9183, 38.3498], [-119.9239, 38.3483], [-119.9278, 38.3488], [-119.9301, 38.3469], [-119.9317, 38.347], [-119.9318, 38.349], [-119.9328, 38.35], [-119.9354, 38.3501], [-119.9372, 38.3513], [-119.9376, 38.353], [-119.9363, 38.3548], [-119.937, 38.3555], [-119.9382, 38.3551], [-119.9395, 38.3563], [-119.9381, 38.3601], [-119.9366, 38.3608], [-119.9382, 38.3629], [-119.9393, 38.3633], [-119.9403, 38.3629], [-119.941, 38.3635], [-119.9412, 38.363], [-119.944, 38.3654], [-119.9486, 38.3647], [-119.9509, 38.3662], [-119.9508, 38.3668], [-119.9496, 38.3663], [-119.9493, 38.368], [-119.9506, 38.3692], [-119.9492, 38.3701], [-119.9501, 38.3708], [-119.9493, 38.3727], [-119.9509, 38.3732], [-119.951, 38.3744], [-119.9525, 38.3742], [-119.9541, 38.3754], [-119.9546, 38.3769], [-119.9537, 38.3764], [-119.9524, 38.3773], [-119.9543, 38.3788], [-119.9536, 38.3811], [-119.954, 38.3815], [-119.9547, 38.381], [-119.9553, 38.3816], [-119.9549, 38.3848], [-119.9538, 38.3858], [-119.9535, 38.3878], [-119.9529, 38.3875], [-119.9524, 38.3882], [-119.9534, 38.3884], [-119.9533, 38.3892], [-119.9521, 38.3899], [-119.9499, 38.3897], [-119.9493, 38.3887], [-119.9485, 38.3889], [-119.9489, 38.3904], [-119.946, 38.3902], [-119.9444, 38.3938], [-119.9456, 38.3932], [-119.9463, 38.3935], [-119.9475, 38.3959], [-119.9449, 38.397], [-119.9417, 38.397], [-119.9402, 38.399], [-119.9376, 38.4], [-119.9372, 38.4012], [-119.9346, 38.4033], [-119.9342, 38.404], [-119.9377, 38.4042], [-119.9365, 38.4058], [-119.9352, 38.4058], [-119.9333, 38.407], [-119.9328, 38.4092], [-119.9339, 38.4102], [-119.9317, 38.4112], [-119.9317, 38.4133], [-119.9287, 38.4133], [-119.9264, 38.4182], [-119.9256, 38.4182], [-119.9248, 38.417], [-119.9243, 38.4174], [-119.9236, 38.4185], [-119.9249, 38.4191], [-119.9246, 38.4198], [-119.9235, 38.4196], [-119.9232, 38.4207], [-119.9221, 38.4206], [-119.9221, 38.4198], [-119.9213, 38.4201], [-119.9201, 38.4219], [-119.9177, 38.4233], [-119.9147, 38.4239], [-119.9142, 38.4248], [-119.9116, 38.4253], [-119.9101, 38.4246], [-119.907, 38.4265], [-119.904, 38.4265], [-119.9032, 38.4269], [-119.9042, 38.4276], [-119.9031, 38.4296], [-119.9005, 38.4294], [-119.8981, 38.4304], [-119.8978, 38.43], [-119.8958, 38.4311], [-119.8925, 38.4302], [-119.8918, 38.4307], [-119.8882, 38.4282], [-119.8856, 38.4286], [-119.884, 38.4275], [-119.8835, 38.4282], [-119.8827, 38.4279], [-119.8809, 38.4287], [-119.8797, 38.4281], [-119.8768, 38.4286], [-119.8769, 38.4281], [-119.8739, 38.4266], [-119.8738, 38.4243], [-119.8748, 38.4244], [-119.8753, 38.4229], [-119.8744, 38.4228], [-119.8728, 38.4198], [-119.8754, 38.4184], [-119.8751, 38.4176], [-119.8771, 38.4175], [-119.878, 38.4181], [-119.8805, 38.4163], [-119.8801, 38.4158], [-119.8825, 38.4153], [-119.8842, 38.4155], [-119.8883, 38.4182], [-119.8915, 38.4178], [-119.8922, 38.4172], [-119.8908, 38.4162], [-119.8915, 38.4151], [-119.8906, 38.4153], [-119.8901, 38.4147], [-119.8904, 38.4137], [-119.8917, 38.4131], [-119.8911, 38.4125], [-119.8936, 38.4128], [-119.8948, 38.4123], [-119.8951, 38.4137], [-119.8989, 38.4129], [-119.9007, 38.4108], [-119.9001, 38.4088], [-119.8987, 38.4089], [-119.8981, 38.4102], [-119.8978, 38.4094], [-119.8964, 38.4095], [-119.8962, 38.409], [-119.8958, 38.4096], [-119.8954, 38.4089], [-119.8974, 38.4081], [-119.8977, 38.4068], [-119.899, 38.4075], [-119.8993, 38.407], [-119.901, 38.4069], [-119.9018, 38.406], [-119.901, 38.4056], [-119.9016, 38.4051], [-119.9043, 38.4054], [-119.9046, 38.4041], [-119.9055, 38.4034], [-119.9065, 38.4037], [-119.9063, 38.4032], [-119.9077, 38.4036], [-119.9083, 38.4031], [-119.9113, 38.4044], [-119.9126, 38.404], [-119.9122, 38.4036], [-119.9126, 38.403], [-119.916, 38.405], [-119.9162, 38.4042], [-119.9143, 38.4027], [-119.9151, 38.4021], [-119.9167, 38.4023], [-119.9159, 38.4009], [-119.9188, 38.3986], [-119.9176, 38.3976], [-119.9192, 38.3948], [-119.921, 38.3933], [-119.925, 38.3921], [-119.9231, 38.3916], [-119.9225, 38.3904], [-119.9234, 38.3902], [-119.9226, 38.389], [-119.9211, 38.39], [-119.9204, 38.3895], [-119.9185, 38.3902], [-119.9186, 38.3891], [-119.9173, 38.3895], [-119.9169, 38.3889], [-119.916, 38.3894], [-119.9171, 38.3905], [-119.9169, 38.3911], [-119.9156, 38.3911], [-119.9154, 38.3902], [-119.9134, 38.3912], [-119.9117, 38.3903], [-119.9118, 38.3932], [-119.9106, 38.3924], [-119.9106, 38.3937], [-119.9089, 38.3942], [-119.9083, 38.3928], [-119.9096, 38.3913], [-119.9101, 38.3878], [-119.9119, 38.3871], [-119.9111, 38.3853], [-119.9127, 38.3843], [-119.9134, 38.3827], [-119.9159, 38.3811], [-119.9187, 38.3804], [-119.9195, 38.3809], [-119.9204, 38.3798], [-119.9197, 38.3791], [-119.9216, 38.3764], [-119.9186, 38.3727], [-119.9199, 38.3717], [-119.9204, 38.3683], [-119.9157, 38.3675], [-119.9132, 38.3677], [-119.9114, 38.366], [-119.9015, 38.3672], [-119.8974, 38.3671], [-119.896, 38.3694], [-119.896, 38.3716], [-119.8939, 38.3718], [-119.8923, 38.3694], [-119.8927, 38.369], [-119.8901, 38.3658], [-119.8872, 38.3693], [-119.8844, 38.3676], [-119.8812, 38.3673], [-119.8763, 38.3708], [-119.8746, 38.3711], [-119.8741, 38.3731], [-119.8711, 38.3722], [-119.866, 38.3749], [-119.8643, 38.3729], [-119.8634, 38.3692], [-119.8617, 38.3696], [-119.8615, 38.3707], [-119.8607, 38.371], [-119.8598, 38.3704], [-119.8598, 38.369], [-119.8581, 38.3691], [-119.8513, 38.3715], [-119.8423, 38.3761], [-119.8412, 38.3794], [-119.8389, 38.3806], [-119.8314, 38.3826], [-119.8323, 38.384], [-119.8303, 38.3858], [-119.8272, 38.3859], [-119.8255, 38.3884], [-119.8235, 38.3879], [-119.8235, 38.3896], [-119.8213, 38.3907], [-119.8227, 38.3969], [-119.8212, 38.399], [-119.8218, 38.3996], [-119.8243, 38.3982], [-119.8241, 38.4002], [-119.8264, 38.4031], [-119.8246, 38.405], [-119.8233, 38.4046], [-119.8249, 38.4065], [-119.8258, 38.4062], [-119.8249, 38.4081], [-119.8236, 38.4082], [-119.8244, 38.4087], [-119.8236, 38.4088], [-119.8264, 38.4097], [-119.8276, 38.4112], [-119.8272, 38.4125], [-119.8263, 38.4126], [-119.8265, 38.4136], [-119.8255, 38.4142], [-119.8259, 38.4149], [-119.8239, 38.4188], [-119.821, 38.4194], [-119.8199, 38.4215], [-119.8192, 38.4213], [-119.8184, 38.4225], [-119.8156, 38.4239], [-119.816, 38.4251], [-119.8208, 38.4255], [-119.8223, 38.4275], [-119.8235, 38.4313], [-119.8229, 38.4332], [-119.8235, 38.437], [-119.8281, 38.4393], [-119.8295, 38.4391], [-119.8296, 38.4401], [-119.8306, 38.4395], [-119.8322, 38.4397], [-119.833, 38.4406], [-119.8317, 38.4409], [-119.8309, 38.4433], [-119.8302, 38.443], [-119.8283, 38.4443], [-119.8274, 38.4433], [-119.8262, 38.4438], [-119.8261, 38.4426], [-119.8248, 38.4414], [-119.8244, 38.4422], [-119.8214, 38.4389], [-119.8182, 38.4383], [-119.8174, 38.437], [-119.8153, 38.4373], [-119.8188, 38.4425], [-119.8187, 38.444], [-119.8171, 38.4464], [-119.8156, 38.4465], [-119.8153, 38.4451], [-119.8114, 38.4483], [-119.8077, 38.4486], [-119.8065, 38.4473], [-119.8063, 38.4455], [-119.8034, 38.4456], [-119.802, 38.4449], [-119.803, 38.4481], [-119.8023, 38.4507], [-119.8016, 38.4516], [-119.7965, 38.4535], [-119.7966, 38.4557], [-119.7951, 38.4569], [-119.7922, 38.4571], [-119.7901, 38.4564], [-119.7889, 38.4548], [-119.7878, 38.4551], [-119.7874, 38.4537], [-119.7901, 38.4516], [-119.7929, 38.4522], [-119.7904, 38.451], [-119.7919, 38.4487], [-119.7889, 38.4491], [-119.7882, 38.4501], [-119.7877, 38.4497], [-119.7887, 38.4466], [-119.7929, 38.4464], [-119.7918, 38.4454], [-119.793, 38.4437], [-119.7926, 38.4429], [-119.7916, 38.4417], [-119.7877, 38.4398], [-119.7859, 38.4365], [-119.7823, 38.4355], [-119.782, 38.433], [-119.7807, 38.4327], [-119.7805, 38.431], [-119.7782, 38.4301], [-119.7789, 38.4287], [-119.7778, 38.4285], [-119.777, 38.4294], [-119.7732, 38.4304], [-119.7725, 38.4296], [-119.7715, 38.4296], [-119.7727, 38.4283], [-119.774, 38.4281], [-119.7735, 38.4293], [-119.7739, 38.4296], [-119.7751, 38.4276], [-119.7736, 38.4273], [-119.7735, 38.4255], [-119.7728, 38.4257], [-119.7725, 38.4246], [-119.7714, 38.425], [-119.7712, 38.4266], [-119.7718, 38.4268], [-119.771, 38.4279], [-119.7685, 38.4278], [-119.768, 38.4265], [-119.7664, 38.4268], [-119.7666, 38.4286], [-119.7647, 38.4271], [-119.7634, 38.4282], [-119.7641, 38.4307], [-119.7627, 38.4313], [-119.7626, 38.4333], [-119.7634, 38.4339], [-119.7621, 38.4362], [-119.764, 38.4369], [-119.7626, 38.439], [-119.7611, 38.4388], [-119.7603, 38.4376], [-119.7594, 38.4376], [-119.7592, 38.4354], [-119.7564, 38.4347], [-119.7569, 38.4338], [-119.756, 38.4332], [-119.7548, 38.4338], [-119.7531, 38.4328], [-119.7503, 38.4359], [-119.7506, 38.4381], [-119.7518, 38.44], [-119.7545, 38.4412], [-119.7555, 38.441], [-119.7567, 38.4438], [-119.7556, 38.4448], [-119.7571, 38.4467], [-119.7521, 38.4465], [-119.7528, 38.4457], [-119.7506, 38.4456], [-119.7498, 38.4464], [-119.7512, 38.4475], [-119.7508, 38.4483], [-119.7489, 38.4485], [-119.7478, 38.4477], [-119.7475, 38.4445], [-119.7409, 38.4412], [-119.7406, 38.4393], [-119.7397, 38.4387], [-119.7357, 38.4383], [-119.7322, 38.4359], [-119.7326, 38.4329], [-119.7366, 38.4315], [-119.7343, 38.4281], [-119.7328, 38.4276], [-119.731, 38.4279], [-119.7291, 38.4311], [-119.7268, 38.4307], [-119.7252, 38.4337], [-119.7236, 38.4322], [-119.7232, 38.4307], [-119.7215, 38.431], [-119.7204, 38.4303], [-119.7163, 38.4333], [-119.7141, 38.431], [-119.7156, 38.43], [-119.7134, 38.4291], [-119.7121, 38.43], [-119.7116, 38.4321], [-119.7095, 38.4332], [-119.7075, 38.4329], [-119.7085, 38.4322], [-119.7081, 38.4312], [-119.7068, 38.4314], [-119.7057, 38.4303], [-119.7045, 38.4325], [-119.7027, 38.4308], [-119.7, 38.4306], [-119.6935, 38.4322], [-119.692, 38.4298], [-119.6907, 38.4297], [-119.6894, 38.4271], [-119.6883, 38.4267], [-119.6892, 38.4258], [-119.6913, 38.4262], [-119.6921, 38.4251], [-119.6955, 38.4235], [-119.6962, 38.4221], [-119.6999, 38.4219], [-119.7034, 38.4226], [-119.7052, 38.4201], [-119.7054, 38.418], [-119.708, 38.417], [-119.717, 38.4188], [-119.7224, 38.4174], [-119.7265, 38.418], [-119.7346, 38.417], [-119.7344, 38.4146], [-119.7335, 38.415], [-119.7324, 38.4144], [-119.7329, 38.4121], [-119.7346, 38.4102], [-119.7349, 38.4082], [-119.7341, 38.4075], [-119.7355, 38.4045], [-119.7382, 38.4052], [-119.7422, 38.4045], [-119.7427, 38.4052], [-119.744, 38.4055], [-119.7458, 38.405], [-119.7467, 38.4059], [-119.7455, 38.4077], [-119.7463, 38.4086], [-119.7477, 38.4045], [-119.7488, 38.4052], [-119.7511, 38.405], [-119.7514, 38.4041], [-119.7497, 38.4032], [-119.7526, 38.4025], [-119.7526, 38.3995], [-119.7536, 38.3999], [-119.7543, 38.3988], [-119.7551, 38.4], [-119.757, 38.4007], [-119.7586, 38.3995], [-119.7606, 38.4003], [-119.7604, 38.3984], [-119.7625, 38.3979], [-119.7609, 38.3966], [-119.7599, 38.3975], [-119.7575, 38.3967], [-119.7569, 38.3971], [-119.7565, 38.3963], [-119.7575, 38.3958], [-119.7572, 38.3949], [-119.758, 38.3937], [-119.7606, 38.3923], [-119.759, 38.3917], [-119.7554, 38.3923], [-119.7553, 38.3912], [-119.7537, 38.391], [-119.7528, 38.3892], [-119.7514, 38.3894], [-119.7498, 38.3885], [-119.749, 38.3873], [-119.7495, 38.386], [-119.7523, 38.3863], [-119.753, 38.3848], [-119.7528, 38.3864], [-119.7547, 38.3864], [-119.7547, 38.3852], [-119.7575, 38.3838], [-119.7579, 38.3827], [-119.7601, 38.3847], [-119.7606, 38.3836], [-119.7612, 38.3857], [-119.7628, 38.3867], [-119.7632, 38.385], [-119.7657, 38.3858], [-119.7654, 38.3873], [-119.7672, 38.3871], [-119.7676, 38.389], [-119.7687, 38.3886], [-119.7679, 38.3855], [-119.769, 38.3835], [-119.77, 38.3881], [-119.7703, 38.3874], [-119.7721, 38.3873], [-119.7722, 38.3896], [-119.7738, 38.3915], [-119.7736, 38.3933], [-119.7746, 38.3933], [-119.7754, 38.3924], [-119.7775, 38.3923], [-119.7776, 38.3916], [-119.7788, 38.3915], [-119.7783, 38.3879], [-119.78, 38.3866], [-119.7805, 38.3845], [-119.7816, 38.384], [-119.78, 38.3812], [-119.7807, 38.3808], [-119.7808, 38.3816], [-119.782, 38.3819], [-119.7836, 38.3808], [-119.783, 38.3773], [-119.7846, 38.3776], [-119.785, 38.3771], [-119.785, 38.3785], [-119.7854, 38.3781], [-119.7872, 38.3791], [-119.7867, 38.3781], [-119.7882, 38.3775], [-119.7893, 38.3781], [-119.7906, 38.3773], [-119.7897, 38.3766], [-119.7904, 38.3759], [-119.7916, 38.3772], [-119.7926, 38.3773], [-119.7932, 38.3772], [-119.7932, 38.3764], [-119.7951, 38.3765], [-119.7972, 38.3758], [-119.7975, 38.3741], [-119.7991, 38.3746], [-119.8003, 38.373], [-119.7999, 38.3721], [-119.8035, 38.3738], [-119.8052, 38.3726], [-119.8067, 38.3731], [-119.8076, 38.3713], [-119.811, 38.3713], [-119.812, 38.3693], [-119.8165, 38.3675], [-119.8172, 38.365], [-119.819, 38.3647], [-119.8201, 38.3654], [-119.8201, 38.3646], [-119.8215, 38.3647], [-119.8211, 38.3631], [-119.8226, 38.3619], [-119.8204, 38.3617], [-119.8204, 38.3632], [-119.8191, 38.3631], [-119.819, 38.3636], [-119.8171, 38.3632], [-119.8174, 38.3624], [-119.8185, 38.3622], [-119.8178, 38.3623], [-119.8173, 38.3613], [-119.8147, 38.3616], [-119.8141, 38.3649], [-119.8129, 38.3638], [-119.8137, 38.3618], [-119.8129, 38.362], [-119.8123, 38.3614], [-119.8118, 38.3622], [-119.8092, 38.363], [-119.8093, 38.3648], [-119.806, 38.3667], [-119.8052, 38.3692], [-119.804, 38.369], [-119.8039, 38.368], [-119.8029, 38.3685], [-119.8026, 38.3681], [-119.8037, 38.3657], [-119.8029, 38.3647], [-119.8016, 38.3653], [-119.8006, 38.3696], [-119.7994, 38.3692], [-119.7991, 38.3699], [-119.797, 38.3688], [-119.7965, 38.3697], [-119.7946, 38.3692], [-119.7938, 38.3702], [-119.7935, 38.3693], [-119.7945, 38.3677], [-119.7965, 38.368], [-119.7956, 38.3664], [-119.7969, 38.3657], [-119.7972, 38.3647], [-119.8011, 38.3639], [-119.7987, 38.3631], [-119.7997, 38.361], [-119.7989, 38.3607], [-119.798, 38.3618], [-119.7984, 38.3627], [-119.796, 38.3654], [-119.7936, 38.3633], [-119.7922, 38.3643], [-119.792, 38.3655], [-119.7885, 38.3662], [-119.7893, 38.3652], [-119.7887, 38.3644], [-119.7896, 38.3617], [-119.7886, 38.3619], [-119.7872, 38.3641], [-119.7851, 38.3638], [-119.7841, 38.363], [-119.7839, 38.3638], [-119.7838, 38.3627], [-119.7818, 38.3648], [-119.7793, 38.3622], [-119.7801, 38.3588], [-119.7795, 38.3594], [-119.7783, 38.3591], [-119.7789, 38.358], [-119.7773, 38.3566], [-119.7755, 38.3569], [-119.7748, 38.3584], [-119.7753, 38.3587], [-119.7741, 38.3592], [-119.7745, 38.3597], [-119.7754, 38.3591], [-119.7751, 38.3607], [-119.7763, 38.3598], [-119.7776, 38.36], [-119.7765, 38.3607], [-119.7765, 38.3623], [-119.7751, 38.3625], [-119.7723, 38.3611], [-119.7721, 38.3581], [-119.7716, 38.3584], [-119.7715, 38.3574], [-119.7706, 38.3578], [-119.769, 38.3568], [-119.7682, 38.3553], [-119.7661, 38.3556], [-119.7672, 38.3559], [-119.7672, 38.357], [-119.766, 38.357], [-119.7653, 38.3591], [-119.7639, 38.3592], [-119.7632, 38.3604], [-119.759, 38.3613], [-119.7564, 38.359], [-119.7572, 38.3579], [-119.7564, 38.3557], [-119.7541, 38.3556]], [[-119.7494, 38.3875], [-119.7494, 38.3875], [-119.7494, 38.3875], [-119.7494, 38.3875]], [[-119.8034, 38.3929], [-119.7999, 38.3945], [-119.7994, 38.3968], [-119.7983, 38.397], [-119.7982, 38.3979], [-119.7927, 38.4015], [-119.7879, 38.4026], [-119.7854, 38.4023], [-119.7834, 38.4032], [-119.7862, 38.4042], [-119.7864, 38.4054], [-119.7882, 38.4064], [-119.7909, 38.4071], [-119.7913, 38.4063], [-119.7906, 38.4049], [-119.7936, 38.4051], [-119.798, 38.4024], [-119.7991, 38.4024], [-119.8007, 38.4044], [-119.8022, 38.4046], [-119.8049, 38.4024], [-119.8023, 38.4012], [-119.8058, 38.3969], [-119.8048, 38.3958], [-119.8057, 38.3935], [-119.8038, 38.3936], [-119.8034, 38.3929]]]}, "properties": {"layer": "perimeter"}}, {"type": "Feature", "geometry": {"type": "MultiPolygon", "coordinates": [[[[-119.7805, 38.3389], [-119.7831, 38.3408], [-119.7847, 38.341], [-119.7846, 38.3428], [-119.7801, 38.3426], [-119.7805, 38.3389]]], [[[-119.7847, 38.3382], [-119.7848, 38.3382], [-119.7848, 38.3382], [-119.7847, 38.3382]]]]}, "properties": {"layer": "retained"}}]}
