{"type": "FeatureCollection", "features": [{"type": "Feature", "geometry": {"type": "Polygon", "coordinates": [[[-119.7371, 38.7787], [-119.7359, 38.7781], [-119.734, 38.7783], [-119.7335, 38.7762], [-119.7332, 38.777], [-119.7318, 38.7769], [-119.7305, 38.7776], [-119.7283, 38.7754], [-119.726, 38.7771], [-119.7241, 38.7771], [-119.7244, 38.7778], [-119.7214, 38.7782], [-119.7219, 38.7766], [-119.7212, 38.7755], [-119.7227, 38.774], [-119.7217, 38.7725], [-119.7226, 38.7714], [-119.7261, 38.7705], [-119.728, 38.7721], [-119.7271, 38.7732], [-119.7277, 38.7736], [-119.7292, 38.7721], [-119.7289, 38.7712], [-119.7355, 38.7691], [-119.7353, 38.7684], [-119.7334, 38.7683], [-119.7345, 38.7674], [-119.733, 38.7675], [-119.7311, 38.7665], [-119.7316, 38.7671], [-119.7303, 38.7681], [-119.7313, 38.769], [-119.731, 38.7698], [-119.7299, 38.7683], [-119.7293, 38.7684], [-119.7298, 38.7695], [-119.7289, 38.7697], [-119.7269, 38.7679], [-119.7249, 38.7677], [-119.7249, 38.7653], [-119.7255, 38.7646], [-119.7257, 38.7654], [-119.7263, 38.7651], [-119.7278, 38.7619], [-119.7261, 38.7604], [-119.7265, 38.7593], [-119.7243, 38.7583], [-119.7243, 38.7572], [-119.7235, 38.7569], [-119.7242, 38.757], [-119.7254, 38.7547], [-119.727, 38.7541], [-119.7257, 38.7535], [-119.7262, 38.7528], [-119.7276, 38.7528], [-119.728, 38.7536], [-119.7296, 38.753], [-119.7299, 38.754], [-119.7308, 38.7539], [-119.7307, 38.7548], [-119.7319, 38.7552], [-119.7315, 38.7544], [-119.7351, 38.7534], [-119.7353, 38.7529], [-119.7373, 38.753], [-119.7393, 38.7518], [-119.7402, 38.752], [-119.7413, 38.7501], [-119.7425, 38.7506], [-119.743, 38.7519], [-119.7421, 38.7525], [-119.744, 38.7541], [-119.7452, 38.757], [-119.745, 38.7582], [-119.7425, 38.7587], [-119.7435, 38.7601], [-119.7461, 38.761], [-119.7461, 38.7629], [-119.7476, 38.764], [-119.7479, 38.7653], [-119.747, 38.7664], [-119.7472, 38.7674], [-119.7463, 38.7675], [-119.7469, 38.7678], [-119.746, 38.77], [-119.7465, 38.771], [-119.7461, 38.7706], [-119.7455, 38.7719], [-119.7447, 38.7716], [-119.7425, 38.7775], [-119.7394, 38.7776], [-119.7371, 38.7787]]]}, "properties": {"layer": "perimeter"}}, {"type": "Feature", "geometry": {"type": "Polygon", "coordinates": [[[-119.727, 38.7682], [-119.7249, 38.7677], [-119.7248, 38.7658], [-119.727, 38.7657], [-119.727, 38.7682]]]}, "properties": {"layer": "retained"}}]}
