{"type": "FeatureCollection", "features": [{"type": "Feature", "geometry": {"type": "MultiPolygon", "coordinates": [[[[-118.8331, 34.2653], [-118.8325, 34.2652], [-118.8333, 34.2651], [-118.8331, 34.2653]]], [[[-118.8575, 34.2665], [-118.8582, 34.2663], [-118.859, 34.2661], [-118.8579, 34.2666], [-118.8575, 34.2665]]], [[[-118.8409, 34.2676], [-118.8401, 34.2655], [-118.8425, 34.2653], [-118.8446, 34.267], [-118.843, 34.2684], [-118.8409, 34.2676]]], [[[-118.808, 34.2838], [-118.8075, 34.282], [-118.8039, 34.279], [-118.8045, 34.2793], [-118.8059, 34.2778], [-118.8134, 34.2749], [-118.8146, 34.2738], [-118.8102, 34.2724], [-118.8076, 34.2699], [-118.8112, 34.2628], [-118.8096, 34.2629], [-118.8096, 34.2618], [-118.8123, 34.2601], [-118.8144, 34.2606], [-118.8151, 34.2601], [-118.8153, 34.2591], [-118.8132, 34.2586], [-118.8157, 34.2559], [-118.817, 34.255], [-118.8184, 34.2556], [-118.8201, 34.254], [-118.8197, 34.2529], [-118.8221, 34.2518], [-118.8226, 34.2524], [-118.824, 34.2522], [-118.8246, 34.2508], [-118.8261, 34.2503], [-118.8304, 34.2499], [-118.8325, 34.2489], [-118.8347, 34.2512], [-118.8333, 34.2537], [-118.8332, 34.2573], [-118.8302, 34.2577], [-118.8313, 34.2586], [-118.8326, 34.2579], [-118.8344, 34.258], [-118.8355, 34.2561], [-118.8354, 34.2595], [-118.8341, 34.2599], [-118.8353, 34.2629], [-118.8395, 34.2624], [-118.8403, 34.2594], [-118.8424, 34.2594], [-118.843, 34.2601], [-118.8406, 34.2614], [-118.8404, 34.263], [-118.8383, 34.263], [-118.8358, 34.2645], [-118.8348, 34.2618], [-118.8327, 34.2621], [-118.8329, 34.2627], [-118.8301, 34.2642], [-118.8311, 34.2652], [-118.8309, 34.267], [-118.8284, 34.2675], [-118.8283, 34.2706], [-118.8312, 34.27], [-118.8313, 34.2716], [-118.8354, 34.2738], [-118.8398, 34.2724], [-118.8407, 34.2711], [-118.8429, 34.2736], [-118.8456, 34.272], [-118.8527, 34.2704], [-118.8532, 34.2697], [-118.8542, 34.2709], [-118.8539, 34.2719], [-118.8507, 34.2733], [-118.845, 34.2738], [-118.8431, 34.2758], [-118.8394, 34.277], [-118.8303, 34.2761], [-118.8272, 34.2767], [-118.8259, 34.2779], [-118.8271, 34.2816], [-118.8258, 34.2834], [-118.8246, 34.2838], [-118.8212, 34.2841], [-118.8183, 34.2836], [-118.8167, 34.282], [-118.8129, 34.2815], [-118.8099, 34.2847], [-118.808, 34.2838]]], [[[-118.8539, 34.2695], [-118.8539, 34.2694], [-118.8539, 34.2694], [-118.8539, 34.2695]]], [[[-118.854, 34.2694], [-118.8548, 34.2699], [-118.8547, 34.2706], [-118.8541, 34.2699], [-118.854, 34.2694]]], [[[-118.8048, 34.2776], [-118.805, 34.2776], [-118.8048, 34.2777], [-118.8048, 34.2776]]]]}, "properties": {"layer": "perimeter"}}, {"type": "Feature", "geometry": {"type": "MultiPolygon", "coordinates": [[[[-118.833, 34.2654], [-118.833, 34.265], [-118.8333, 34.2651], [-118.833, 34.2654]]], [[[-118.8409, 34.2674], [-118.8401, 34.2655], [-118.8421, 34.2652], [-118.8446, 34.2671], [-118.843, 34.2684], [-118.8409, 34.2674]]], [[[-118.8144, 34.2606], [-118.8153, 34.2591], [-118.8138, 34.2583], [-118.8173, 34.2575], [-118.8164, 34.2583], [-118.8161, 34.2611], [-118.8208, 34.263], [-118.8222, 34.2645], [-118.8245, 34.2645], [-118.8246, 34.2508], [-118.8272, 34.2501], [-118.8332, 34.2499], [-118.8347, 34.2512], [-118.8333, 34.2537], [-118.8333, 34.2572], [-118.8302, 34.2577], [-118.8304, 34.2581], [-118.832, 34.2586], [-118.8326, 34.2579], [-118.8346, 34.2579], [-118.8355, 34.2561], [-118.8354, 34.2595], [-118.8341, 34.2599], [-118.8353, 34.2629], [-118.8395, 34.2624], [-118.8403, 34.2594], [-118.8424, 34.2594], [-118.843, 34.2601], [-118.8406, 34.2614], [-118.8404, 34.263], [-118.8383, 34.263], [-118.8358, 34.2645], [-118.8348, 34.2618], [-118.8327, 34.2621], [-118.8329, 34.2627], [-118.8301, 34.2642], [-118.8311, 34.2652], [-118.8309, 34.267], [-118.8284, 34.2675], [-118.8283, 34.2706], [-118.8312, 34.27], [-118.8313, 34.2716], [-118.8354, 34.2738], [-118.8398, 34.2724], [-118.8407, 34.2711], [-118.8429, 34.2736], [-118.8447, 34.2723], [-118.8499, 34.2714], [-118.8531, 34.2699], [-118.8539, 34.2719], [-118.8507, 34.2733], [-118.845, 34.2738], [-118.8431, 34.2758], [-118.8394, 34.277], [-118.8303, 34.2761], [-118.8154, 34.2762], [-118.8156, 34.2645], [-118.8138, 34.2645], [-118.8138, 34.2605], [-118.8144, 34.2606]]]]}, "properties": {"layer": "retained"}}]}
