{"type": "FeatureCollection", "features": [{"type": "Feature", "geometry": {"type": "Polygon", "coordinates": [[[-118.7372, 36.4134], [-118.7368, 36.4153], [-118.734, 36.4152], [-118.735, 36.4176], [-118.7289, 36.4202], [-118.7304, 36.421], [-118.7285, 36.4221], [-118.7288, 36.4226], [-118.7258, 36.4225], [-118.7252, 36.4232], [-118.7227, 36.4235], [-118.7226, 36.4241], [-118.7178, 36.424], [-118.7127, 36.4205], [-118.7111, 36.4172], [-118.713, 36.4146], [-118.7128, 36.4121], [-118.717, 36.4114], [-118.722, 36.4063], [-118.7285, 36.4012], [-118.7332, 36.3952], [-118.7428, 36.3943], [-118.7467, 36.3956], [-118.7479, 36.3984], [-118.7494, 36.3998], [-118.7501, 36.4024], [-118.7521, 36.4034], [-118.7526, 36.4062], [-118.7542, 36.4068], [-118.753, 36.4076], [-118.7553, 36.4107], [-118.7514, 36.4142], [-118.7472, 36.4143], [-118.7464, 36.4158], [-118.743, 36.4162], [-118.7372, 36.4134]]]}, "properties": {"layer": "perimeter"}}]}
