{"type": "FeatureCollection", "features": [{"type": "Feature", "geometry": {"type": "MultiPolygon", "coordinates": [[[[-116.9248, 34.0214], [-116.9253, 34.0221], [-116.9244, 34.022], [-116.9248, 34.0214]]], [[[-116.9218, 34.0267], [-116.9226, 34.0261], [-116.9237, 34.0272], [-116.922, 34.0275], [-116.9218, 34.0267]]], [[[-116.9138, 34.0305], [-116.9145, 34.0309], [-116.9135, 34.0312], [-116.9138, 34.0305]]], [[[-116.9152, 34.0617], [-116.915, 34.0621], [-116.9148, 34.0618], [-116.9152, 34.0617]]], [[[-116.9402, 34.1183], [-116.9421, 34.1182], [-116.9414, 34.1165], [-116.9421, 34.1156], [-116.9412, 34.1147], [-116.9423, 34.1131], [-116.9462, 34.1125], [-116.9469, 34.1112], [-116.9476, 34.1124], [-116.9486, 34.1113], [-116.95, 34.1123], [-116.9515, 34.1138], [-116.951, 34.115], [-116.9542, 34.1136], [-116.9559, 34.1137], [-116.9579, 34.1121], [-116.9579, 34.1109], [-116.9626, 34.1058], [-116.9636, 34.1029], [-116.9602, 34.102], [-116.9587, 34.0987], [-116.9591, 34.0973], [-116.9584, 34.0961], [-116.9602, 34.0958], [-116.9602, 34.0946], [-116.9474, 34.0933], [-116.9433, 34.0915], [-116.9397, 34.0884], [-116.9352, 34.088], [-116.9355, 34.0864], [-116.935, 34.0859], [-116.9285, 34.0847], [-116.9265, 34.0831], [-116.9258, 34.081], [-116.9243, 34.0806], [-116.9229, 34.0811], [-116.9215, 34.0801], [-116.9199, 34.0801], [-116.9188, 34.0825], [-116.9204, 34.0817], [-116.9207, 34.0829], [-116.9188, 34.0844], [-116.9169, 34.0833], [-116.9155, 34.084], [-116.9131, 34.0819], [-116.9121, 34.0793], [-116.9122, 34.0751], [-116.9139, 34.074], [-116.912, 34.0683], [-116.9122, 34.0656], [-116.9132, 34.0647], [-116.9146, 34.0653], [-116.9148, 34.0643], [-116.9155, 34.0646], [-116.9186, 34.0574], [-116.9168, 34.0564], [-116.9174, 34.0555], [-116.9169, 34.0545], [-116.9144, 34.0533], [-116.9123, 34.0536], [-116.9138, 34.0513], [-116.9119, 34.0493], [-116.9146, 34.048], [-116.9189, 34.0443], [-116.9161, 34.0416], [-116.9104, 34.0381], [-116.9096, 34.0389], [-116.9095, 34.0384], [-116.91, 34.0369], [-116.9114, 34.0359], [-116.9143, 34.0351], [-116.9139, 34.0335], [-116.9166, 34.0346], [-116.9208, 34.0347], [-116.9205, 34.0335], [-116.9215, 34.0326], [-116.9249, 34.0308], [-116.9256, 34.0311], [-116.9279, 34.0285], [-116.9311, 34.0277], [-116.9334, 34.0208], [-116.9382, 34.0141], [-116.9534, 34.0028], [-116.9563, 34.0026], [-116.9603, 34.0032], [-116.9595, 34.0053], [-116.9621, 34.0088], [-116.9615, 34.0124], [-116.9631, 34.0139], [-116.9628, 34.0159], [-116.9606, 34.0183], [-116.9588, 34.019], [-116.9547, 34.0249], [-116.9481, 34.0272], [-116.9427, 34.0302], [-116.9409, 34.0299], [-116.9396, 34.031], [-116.9369, 34.0314], [-116.9365, 34.0331], [-116.9384, 34.0344], [-116.9373, 34.0366], [-116.9356, 34.0375], [-116.9318, 34.0381], [-116.9313, 34.0388], [-116.9359, 34.0414], [-116.9353, 34.0451], [-116.9369, 34.044], [-116.9364, 34.0454], [-116.9354, 34.046], [-116.9404, 34.0499], [-116.9441, 34.0505], [-116.9469, 34.0526], [-116.9486, 34.0524], [-116.9529, 34.0547], [-116.9558, 34.0552], [-116.9576, 34.0568], [-116.9578, 34.0581], [-116.9609, 34.0578], [-116.9638, 34.0593], [-116.9651, 34.0591], [-116.9653, 34.0585], [-116.9693, 34.0589], [-116.9711, 34.0581], [-116.9728, 34.0587], [-116.9734, 34.058], [-116.9749, 34.059], [-116.9757, 34.0586], [-116.9783, 34.0593], [-116.9789, 34.0591], [-116.9784, 34.0574], [-116.976, 34.0571], [-116.978, 34.0559], [-116.98, 34.0558], [-116.98, 34.0551], [-116.9823, 34.056], [-116.9842, 34.0556], [-116.988, 34.0564], [-116.9894, 34.0546], [-116.9985, 34.0532], [-117.0026, 34.0549], [-117.0054, 34.0535], [-117.0071, 34.0486], [-117.01, 34.0494], [-117.0112, 34.0489], [-117.015, 34.0498], [-117.0172, 34.0494], [-117.0169, 34.0659], [-117.0178, 34.067], [-117.0174, 34.0678], [-117.0131, 34.0692], [-117.0151, 34.0703], [-117.0166, 34.0693], [-117.0172, 34.0707], [-117.0135, 34.0738], [-117.0173, 34.0731], [-117.016, 34.074], [-117.0169, 34.0745], [-117.02, 34.0741], [-117.0205, 34.0728], [-117.0211, 34.0739], [-117.0275, 34.073], [-117.0253, 34.074], [-117.0252, 34.0754], [-117.0269, 34.0756], [-117.0273, 34.0749], [-117.0285, 34.075], [-117.0283, 34.0767], [-117.0268, 34.0782], [-117.0268, 34.0791], [-117.0259, 34.0793], [-117.0256, 34.0838], [-117.0208, 34.0869], [-117.0225, 34.0883], [-117.0211, 34.0916], [-117.0218, 34.0925], [-117.0211, 34.0948], [-117.0226, 34.0963], [-117.0222, 34.0981], [-117.0239, 34.0991], [-117.0232, 34.1005], [-117.0215, 34.1004], [-117.0209, 34.1011], [-117.0198, 34.1008], [-117.0197, 34.1014], [-117.0163, 34.1021], [-117.0152, 34.101], [-117.0121, 34.1019], [-117.0069, 34.0996], [-117.0038, 34.0991], [-116.9946, 34.0993], [-116.9945, 34.1024], [-116.9933, 34.1038], [-116.9908, 34.1035], [-116.9902, 34.1042], [-116.989, 34.1037], [-116.9841, 34.1049], [-116.9797, 34.1049], [-116.9779, 34.106], [-116.9737, 34.1066], [-116.974, 34.109], [-116.9767, 34.1106], [-116.9772, 34.1125], [-116.9807, 34.1137], [-116.9808, 34.1145], [-116.9792, 34.1154], [-116.977, 34.1194], [-116.9779, 34.12], [-116.981, 34.1198], [-116.9825, 34.1226], [-116.9822, 34.1245], [-116.9843, 34.125], [-116.9848, 34.1259], [-116.9834, 34.1275], [-116.9835, 34.1293], [-116.9817, 34.1303], [-116.9814, 34.1315], [-116.9828, 34.1313], [-116.9834, 34.1347], [-116.9809, 34.136], [-116.9811, 34.1379], [-116.9802, 34.1393], [-116.9791, 34.139], [-116.9788, 34.1406], [-116.9797, 34.1423], [-116.9787, 34.1444], [-116.9793, 34.145], [-116.9769, 34.146], [-116.9754, 34.1494], [-116.9735, 34.1496], [-116.9733, 34.1513], [-116.9711, 34.1519], [-116.9683, 34.1516], [-116.9674, 34.1553], [-116.965, 34.1564], [-116.9621, 34.1538], [-116.9612, 34.1543], [-116.9605, 34.1569], [-116.9591, 34.157], [-116.9563, 34.1584], [-116.9538, 34.1572], [-116.9496, 34.158], [-116.9487, 34.159], [-116.9472, 34.1593], [-116.9434, 34.1595], [-116.9412, 34.1584], [-116.9397, 34.1598], [-116.9367, 34.1597], [-116.9346, 34.1578], [-116.9323, 34.1571], [-116.9296, 34.1593], [-116.9262, 34.1576], [-116.926, 34.1591], [-116.9247, 34.1605], [-116.9178, 34.1592], [-116.9165, 34.1602], [-116.9139, 34.1601], [-116.9103, 34.1611], [-116.9085, 34.1595], [-116.9088, 34.159], [-116.9055, 34.1593], [-116.9001, 34.1574], [-116.8982, 34.1578], [-116.8974, 34.1585], [-116.8981, 34.1591], [-116.8974, 34.1596], [-116.8948, 34.159], [-116.8929, 34.1593], [-116.8923, 34.1604], [-116.8904, 34.1607], [-116.8874, 34.1591], [-116.8882, 34.1576], [-116.8872, 34.1564], [-116.8901, 34.1566], [-116.8922, 34.1557], [-116.8931, 34.1539], [-116.8928, 34.1529], [-116.8932, 34.1535], [-116.8939, 34.153], [-116.8936, 34.1518], [-116.8928, 34.1517], [-116.8948, 34.151], [-116.8939, 34.15], [-116.8964, 34.1489], [-116.8967, 34.1475], [-116.8975, 34.1475], [-116.8973, 34.1467], [-116.8987, 34.1455], [-116.8993, 34.1437], [-116.8982, 34.1431], [-116.899, 34.1429], [-116.8973, 34.1415], [-116.8955, 34.1419], [-116.8955, 34.1395], [-116.8945, 34.1384], [-116.895, 34.1379], [-116.8928, 34.1386], [-116.8936, 34.1374], [-116.8932, 34.1362], [-116.8968, 34.1369], [-116.8962, 34.1311], [-116.8973, 34.1295], [-116.8995, 34.1289], [-116.8992, 34.128], [-116.9026, 34.1279], [-116.9035, 34.1287], [-116.9033, 34.1303], [-116.9067, 34.1312], [-116.9089, 34.1297], [-116.9114, 34.1307], [-116.9127, 34.1301], [-116.9129, 34.1289], [-116.9107, 34.1267], [-116.911, 34.1261], [-116.9139, 34.1253], [-116.9141, 34.1266], [-116.9163, 34.1283], [-116.916, 34.1263], [-116.9172, 34.1262], [-116.9173, 34.1255], [-116.9185, 34.1268], [-116.9199, 34.1272], [-116.9204, 34.1268], [-116.9201, 34.126], [-116.919, 34.1258], [-116.9193, 34.1248], [-116.9219, 34.1257], [-116.9226, 34.1234], [-116.9236, 34.1238], [-116.9236, 34.1231], [-116.9248, 34.1232], [-116.9247, 34.1226], [-116.927, 34.1215], [-116.931, 34.1215], [-116.9323, 34.1198], [-116.9345, 34.1195], [-116.935, 34.1181], [-116.9379, 34.1172], [-116.9395, 34.1174], [-116.9402, 34.1183]]], [[[-116.9539, 34.158], [-116.9542, 34.1584], [-116.9539, 34.1584], [-116.9539, 34.158]]], [[[-116.9189, 34.1602], [-116.9187, 34.1606], [-116.9183, 34.1604], [-116.9189, 34.1602]]], [[[-116.9137, 34.1615], [-116.9146, 34.1623], [-116.9138, 34.1628], [-116.9131, 34.1623], [-116.9137, 34.1615]]], [[[-116.9145, 34.1632], [-116.9142, 34.1636], [-116.9142, 34.1632], [-116.9145, 34.1632]]]]}, "properties": {"layer": "perimeter"}}, {"type": "Feature", "geometry": {"type": "MultiPolygon", "coordinates": [[[[-116.9254, 34.0215], [-116.9251, 34.0221], [-116.9251, 34.0215], [-116.9254, 34.0215]]], [[[-116.959, 34.0992], [-116.9584, 34.0963], [-116.9589, 34.0957], [-116.9604, 34.0954], [-116.9631, 34.0964], [-116.9677, 34.0966], [-116.9604, 34.0953], [-116.9601, 34.0946], [-116.9474, 34.0933], [-116.9463, 34.0928], [-116.9463, 34.092], [-116.9638, 34.092], [-116.9638, 34.081], [-116.9725, 34.081], [-116.9725, 34.0774], [-116.9818, 34.0774], [-116.9818, 34.0916], [-116.9995, 34.0913], [-116.9995, 34.0993], [-116.9946, 34.0993], [-116.9945, 34.1024], [-116.9932, 34.1039], [-116.9906, 34.1035], [-116.9902, 34.1042], [-116.989, 34.1037], [-116.9821, 34.1049], [-116.9819, 34.0999], [-116.973, 34.0999], [-116.973, 34.0991], [-116.959, 34.0992]]], [[[-116.9443, 34.092], [-116.9397, 34.0884], [-116.9352, 34.088], [-116.9355, 34.0864], [-116.935, 34.0859], [-116.9333, 34.086], [-116.9291, 34.0847], [-116.9292, 34.0782], [-116.9464, 34.0782], [-116.9463, 34.092], [-116.9443, 34.092]]], [[[-116.929, 34.0845], [-116.9285, 34.0847], [-116.9284, 34.0845], [-116.929, 34.0845]]], [[[-116.9274, 34.0836], [-116.9274, 34.0836], [-116.9274, 34.0836], [-116.9274, 34.0836]]], [[[-116.9202, 34.0836], [-116.9188, 34.0844], [-116.917, 34.0836], [-116.9202, 34.0836]]], [[[-116.9162, 34.0836], [-116.9158, 34.084], [-116.9155, 34.084], [-116.9155, 34.0836], [-116.9162, 34.0836]]], [[[-116.9122, 34.0772], [-116.9122, 34.0751], [-116.9139, 34.074], [-116.9121, 34.0685], [-116.9122, 34.0654], [-116.9136, 34.0646], [-116.9146, 34.0653], [-116.9147, 34.0644], [-116.9155, 34.0646], [-116.9165, 34.0628], [-116.9292, 34.0628], [-116.9294, 34.0498], [-116.9293, 34.0487], [-116.9136, 34.0486], [-116.9189, 34.0443], [-116.9122, 34.0392], [-116.9122, 34.0355], [-116.9143, 34.0351], [-116.9143, 34.034], [-116.9208, 34.0347], [-116.9207, 34.034], [-116.9229, 34.034], [-116.9229, 34.0321], [-116.9249, 34.0308], [-116.9256, 34.0311], [-116.9279, 34.0285], [-116.9311, 34.0277], [-116.9334, 34.0208], [-116.935, 34.018], [-116.9403, 34.0121], [-116.9417, 34.0119], [-116.9534, 34.0028], [-116.9603, 34.0032], [-116.9595, 34.0053], [-116.9621, 34.0088], [-116.9615, 34.0124], [-116.9629, 34.0136], [-116.9625, 34.0165], [-116.9599, 34.0188], [-116.9588, 34.019], [-116.9547, 34.0249], [-116.9481, 34.0272], [-116.9427, 34.0302], [-116.9409, 34.0299], [-116.9396, 34.031], [-116.9369, 34.0314], [-116.9365, 34.0331], [-116.9384, 34.0344], [-116.9373, 34.0366], [-116.9356, 34.0375], [-116.9318, 34.0381], [-116.9313, 34.0388], [-116.9359, 34.0414], [-116.9353, 34.0451], [-116.9369, 34.044], [-116.9364, 34.0454], [-116.9353, 34.0459], [-116.9395, 34.0494], [-116.9441, 34.0505], [-116.947, 34.0526], [-116.9493, 34.0528], [-116.9472, 34.0528], [-116.9472, 34.0642], [-116.9292, 34.064], [-116.9291, 34.0772], [-116.9122, 34.0772]], [[-116.9506, 34.0233], [-116.9506, 34.0215], [-116.9547, 34.0213], [-116.9546, 34.0195], [-116.9464, 34.0198], [-116.9464, 34.0236], [-116.9506, 34.0233]], [[-116.9464, 34.0196], [-116.9461, 34.0123], [-116.942, 34.0123], [-116.9422, 34.0198], [-116.9464, 34.0196]]], [[[-116.9122, 34.0495], [-116.9119, 34.0493], [-116.9122, 34.0491], [-116.9122, 34.0495]]], [[[-116.9496, 34.053], [-116.9529, 34.0547], [-116.9558, 34.0552], [-116.9576, 34.0568], [-116.9578, 34.0579], [-116.9526, 34.058], [-116.9526, 34.0561], [-116.9515, 34.0562], [-116.9515, 34.0543], [-116.9493, 34.0544], [-116.9496, 34.053]]], [[[-116.9596, 34.0579], [-116.9609, 34.0578], [-116.9612, 34.0579], [-116.9596, 34.0579]]], [[[-116.963, 34.0588], [-116.9635, 34.0606], [-116.9614, 34.0606], [-116.9613, 34.0579], [-116.963, 34.0588]]], [[[-116.9653, 34.0585], [-116.9654, 34.0587], [-116.9651, 34.0587], [-116.9653, 34.0585]]], [[[-116.966, 34.0587], [-116.9663, 34.0586], [-116.9667, 34.0587], [-116.966, 34.0587]]], [[[-116.9688, 34.0586], [-116.9688, 34.0586], [-116.9688, 34.0586], [-116.9688, 34.0586]]], [[[-116.9693, 34.0589], [-116.9711, 34.0581], [-116.9728, 34.0587], [-116.9734, 34.058], [-116.9749, 34.059], [-116.9757, 34.0586], [-116.9783, 34.0593], [-116.9789, 34.0591], [-116.9784, 34.0574], [-116.976, 34.0571], [-116.9809, 34.0551], [-116.9823, 34.056], [-116.9842, 34.0556], [-116.9873, 34.0562], [-116.9864, 34.0563], [-116.9864, 34.0634], [-117.0082, 34.0628], [-117.0083, 34.0772], [-116.9907, 34.0774], [-116.9907, 34.0705], [-116.9821, 34.071], [-116.9822, 34.0637], [-116.9734, 34.0639], [-116.9734, 34.0603], [-116.969, 34.0604], [-116.9693, 34.0589]]], [[[-116.9882, 34.0562], [-116.9894, 34.0546], [-116.9908, 34.0543], [-116.9908, 34.056], [-116.9882, 34.0562]]], [[[-117.0273, 34.0777], [-117.0268, 34.0791], [-117.0256, 34.08], [-117.0256, 34.0775], [-117.0273, 34.0777]]], [[[-117.0212, 34.0918], [-117.0218, 34.0925], [-117.0211, 34.0948], [-117.0226, 34.0963], [-117.0221, 34.0979], [-117.0239, 34.0998], [-117.0229, 34.1006], [-117.0215, 34.1004], [-117.0209, 34.1011], [-117.0198, 34.1008], [-117.0197, 34.1014], [-117.017, 34.102], [-117.017, 34.0917], [-117.0212, 34.0918]]], [[[-116.9825, 34.1353], [-116.9809, 34.136], [-116.9808, 34.137], [-116.9808, 34.1351], [-116.9825, 34.1353]]], [[[-116.9808, 34.1374], [-116.9811, 34.1379], [-116.9808, 34.1381], [-116.9808, 34.1374]]], [[[-116.9312, 34.158], [-116.9313, 34.1582], [-116.9312, 34.1583], [-116.9312, 34.158]]], [[[-116.9995, 34.0913], [-116.9994, 34.0878], [-117.0171, 34.0881], [-117.017, 34.0917], [-116.9995, 34.0913]]]]}, "properties": {"layer": "retained"}}, {"type": "Feature", "geometry": {"type": "MultiPolygon", "coordinates": [[[[-116.9451, 34.083], [-116.9455, 34.0822], [-116.9448, 34.0819], [-116.9445, 34.0824], [-116.9451, 34.083]]], [[[-116.9413, 34.0815], [-116.9419, 34.0813], [-116.9419, 34.0807], [-116.941, 34.081], [-116.9413, 34.0815]]], [[[-116.9455, 34.08], [-116.9456, 34.0792], [-116.9459, 34.0789], [-116.9453, 34.0789], [-116.9449, 34.0797], [-116.9455, 34.08]]], [[[-116.9167, 34.0771], [-116.9168, 34.076], [-116.9158, 34.0757], [-116.9161, 34.0771], [-116.9167, 34.0771]]], [[[-116.9292, 34.0666], [-116.9285, 34.0658], [-116.9279, 34.066], [-116.9279, 34.0666], [-116.9292, 34.0666]]], [[[-116.9132, 34.0667], [-116.9132, 34.0662], [-116.9145, 34.0662], [-116.9143, 34.0651], [-116.9126, 34.0656], [-116.9132, 34.0667]]], [[[-116.9276, 34.066], [-116.9286, 34.0652], [-116.9276, 34.0649], [-116.9276, 34.066]]], [[[-116.9374, 34.0638], [-116.9391, 34.0631], [-116.9368, 34.0625], [-116.9371, 34.0636], [-116.9374, 34.0636], [-116.9374, 34.0638]], [[-116.9377, 34.0633], [-116.9374, 34.0636], [-116.9374, 34.0633], [-116.9377, 34.0633]]], [[[-116.9319, 34.0626], [-116.9323, 34.061], [-116.9317, 34.0604], [-116.9319, 34.0626]]], [[[-116.9407, 34.0618], [-116.9404, 34.0607], [-116.9385, 34.0603], [-116.9381, 34.0614], [-116.9391, 34.0609], [-116.9391, 34.0614], [-116.9407, 34.0618]]], [[[-116.9411, 34.0596], [-116.9415, 34.0585], [-116.9399, 34.059], [-116.9398, 34.0593], [-116.9411, 34.0596]]], [[[-116.9311, 34.0577], [-116.9305, 34.0569], [-116.9299, 34.0569], [-116.9305, 34.0577], [-116.9311, 34.0577]]], [[[-116.9325, 34.0561], [-116.9325, 34.0556], [-116.9312, 34.0556], [-116.9315, 34.0561], [-116.9325, 34.0561]]]]}, "properties": {"layer": "high_severity"}}]}
