{"type": "FeatureCollection", "features": [{"type": "Feature", "geometry": {"type": "MultiPolygon", "coordinates": [[[[-123.5316, 41.6188], [-123.5306, 41.6204], [-123.5295, 41.6199], [-123.5279, 41.6201], [-123.5278, 41.6211], [-123.53, 41.6235], [-123.5306, 41.6256], [-123.5315, 41.6259], [-123.5313, 41.6249], [-123.5333, 41.625], [-123.5329, 41.6276], [-123.5344, 41.6283], [-123.5345, 41.6294], [-123.5359, 41.6295], [-123.5358, 41.6309], [-123.5353, 41.632], [-123.5337, 41.6325], [-123.5327, 41.635], [-123.5303, 41.6357], [-123.5285, 41.6375], [-123.5259, 41.6384], [-123.5257, 41.6395], [-123.5222, 41.6409], [-123.5222, 41.6447], [-123.5238, 41.6452], [-123.5236, 41.6461], [-123.5208, 41.6469], [-123.5219, 41.6476], [-123.5209, 41.6478], [-123.5216, 41.6484], [-123.5203, 41.6496], [-123.5222, 41.6515], [-123.5215, 41.652], [-123.5242, 41.6529], [-123.5236, 41.6535], [-123.5245, 41.6543], [-123.5305, 41.6517], [-123.5327, 41.6526], [-123.5311, 41.6531], [-123.5317, 41.6524], [-123.5303, 41.6524], [-123.5299, 41.6536], [-123.5332, 41.6528], [-123.5333, 41.6536], [-123.5351, 41.6524], [-123.5344, 41.6517], [-123.5361, 41.6518], [-123.5349, 41.6531], [-123.5318, 41.6548], [-123.5297, 41.6549], [-123.5275, 41.6541], [-123.5251, 41.6547], [-123.5233, 41.6542], [-123.5233, 41.655], [-123.522, 41.6549], [-123.5222, 41.6557], [-123.519, 41.6553], [-123.5166, 41.658], [-123.5175, 41.66], [-123.5141, 41.6619], [-123.5067, 41.6627], [-123.4977, 41.6617], [-123.4896, 41.6671], [-123.4854, 41.6663], [-123.4839, 41.6676], [-123.4809, 41.6669], [-123.4788, 41.669], [-123.4795, 41.6717], [-123.4733, 41.6733], [-123.4727, 41.68], [-123.4717, 41.6791], [-123.4711, 41.6794], [-123.4702, 41.678], [-123.4668, 41.6776], [-123.465, 41.676], [-123.4648, 41.6748], [-123.4614, 41.6753], [-123.4611, 41.673], [-123.4624, 41.6712], [-123.4636, 41.6702], [-123.4701, 41.6682], [-123.4699, 41.6663], [-123.4716, 41.6626], [-123.4696, 41.6612], [-123.4702, 41.6603], [-123.4711, 41.6604], [-123.4709, 41.6586], [-123.4677, 41.6585], [-123.4678, 41.6579], [-123.467, 41.6579], [-123.4679, 41.6558], [-123.4662, 41.6541], [-123.467, 41.6535], [-123.4664, 41.6519], [-123.4652, 41.6521], [-123.4641, 41.6498], [-123.4657, 41.6415], [-123.4656, 41.6378], [-123.4636, 41.6349], [-123.464, 41.6329], [-123.467, 41.6272], [-123.4681, 41.6266], [-123.468, 41.6252], [-123.4701, 41.6228], [-123.4702, 41.6214], [-123.476, 41.6195], [-123.4786, 41.6199], [-123.4823, 41.6193], [-123.4826, 41.6183], [-123.4833, 41.6186], [-123.4841, 41.6179], [-123.4852, 41.6185], [-123.4877, 41.6185], [-123.4897, 41.6175], [-123.4946, 41.6168], [-123.4962, 41.6177], [-123.4973, 41.6159], [-123.4969, 41.6129], [-123.5014, 41.6088], [-123.5049, 41.6035], [-123.5058, 41.6039], [-123.5072, 41.6029], [-123.5129, 41.6033], [-123.5149, 41.5981], [-123.5137, 41.5947], [-123.512, 41.5952], [-123.5105, 41.5934], [-123.5105, 41.5918], [-123.5117, 41.5903], [-123.5136, 41.5896], [-123.5145, 41.59], [-123.5144, 41.5895], [-123.5171, 41.5886], [-123.5194, 41.5888], [-123.5211, 41.5882], [-123.5176, 41.5866], [-123.5178, 41.5855], [-123.523, 41.5839], [-123.5259, 41.5808], [-123.5304, 41.5806], [-123.5314, 41.5812], [-123.5338, 41.5804], [-123.5363, 41.581], [-123.5389, 41.5788], [-123.5419, 41.5775], [-123.5405, 41.5752], [-123.541, 41.5745], [-123.544, 41.5743], [-123.5446, 41.5729], [-123.5432, 41.5727], [-123.5432, 41.5719], [-123.5439, 41.571], [-123.5437, 41.569], [-123.5451, 41.5673], [-123.5466, 41.5674], [-123.5481, 41.5699], [-123.5499, 41.5696], [-123.5506, 41.5687], [-123.5525, 41.5727], [-123.5538, 41.572], [-123.5541, 41.5695], [-123.5547, 41.5709], [-123.5553, 41.5705], [-123.5592, 41.5738], [-123.5599, 41.5728], [-123.5608, 41.5732], [-123.5615, 41.5724], [-123.5617, 41.5729], [-123.5634, 41.5727], [-123.5637, 41.572], [-123.565, 41.5735], [-123.5674, 41.573], [-123.5682, 41.5734], [-123.5658, 41.5766], [-123.5664, 41.5783], [-123.5685, 41.5794], [-123.5687, 41.5788], [-123.569, 41.5794], [-123.5699, 41.5788], [-123.5701, 41.5797], [-123.5715, 41.5801], [-123.5716, 41.5826], [-123.5704, 41.5831], [-123.5717, 41.5832], [-123.572, 41.5856], [-123.5746, 41.586], [-123.5748, 41.5886], [-123.5764, 41.5883], [-123.576, 41.5875], [-123.5771, 41.588], [-123.5786, 41.5865], [-123.58, 41.5866], [-123.5801, 41.5885], [-123.5791, 41.5886], [-123.5796, 41.5891], [-123.578, 41.5898], [-123.579, 41.5896], [-123.5805, 41.5905], [-123.5808, 41.5923], [-123.5821, 41.5921], [-123.5831, 41.5929], [-123.5836, 41.5924], [-123.5838, 41.5934], [-123.5853, 41.593], [-123.5857, 41.5939], [-123.5871, 41.5943], [-123.5878, 41.5931], [-123.5896, 41.5947], [-123.5913, 41.5951], [-123.5918, 41.5971], [-123.5904, 41.5975], [-123.5906, 41.6001], [-123.5927, 41.5999], [-123.5946, 41.6007], [-123.5932, 41.6016], [-123.5933, 41.6043], [-123.591, 41.6046], [-123.5909, 41.6055], [-123.5935, 41.6065], [-123.592, 41.6079], [-123.5962, 41.6088], [-123.5964, 41.6096], [-123.5952, 41.6103], [-123.5957, 41.6113], [-123.5933, 41.6116], [-123.5929, 41.6106], [-123.5915, 41.6122], [-123.5922, 41.6136], [-123.5888, 41.6138], [-123.59, 41.6154], [-123.5915, 41.6152], [-123.5903, 41.6165], [-123.5892, 41.6165], [-123.5907, 41.6169], [-123.5903, 41.6176], [-123.5924, 41.6204], [-123.5912, 41.6212], [-123.5885, 41.62], [-123.586, 41.6212], [-123.5861, 41.6199], [-123.5797, 41.6186], [-123.5789, 41.6193], [-123.5806, 41.6201], [-123.5791, 41.6205], [-123.5789, 41.6199], [-123.5776, 41.62], [-123.5768, 41.619], [-123.5713, 41.6194], [-123.5706, 41.6202], [-123.5695, 41.619], [-123.5665, 41.6182], [-123.5641, 41.6206], [-123.5618, 41.6191], [-123.5603, 41.6203], [-123.559, 41.6189], [-123.5587, 41.62], [-123.5599, 41.6206], [-123.5593, 41.6212], [-123.5579, 41.6208], [-123.5572, 41.6222], [-123.5556, 41.6206], [-123.5547, 41.6214], [-123.5516, 41.6214], [-123.5507, 41.623], [-123.5488, 41.6217], [-123.5495, 41.6212], [-123.5483, 41.6213], [-123.5481, 41.6205], [-123.55, 41.6192], [-123.5497, 41.6187], [-123.5504, 41.6188], [-123.5503, 41.6177], [-123.5466, 41.6185], [-123.5466, 41.6173], [-123.5453, 41.6176], [-123.5453, 41.617], [-123.5436, 41.6162], [-123.5419, 41.616], [-123.5407, 41.6171], [-123.5399, 41.6161], [-123.5382, 41.6158], [-123.5355, 41.6174], [-123.5354, 41.6181], [-123.5316, 41.6188]]], [[[-123.484, 41.6692], [-123.4842, 41.6694], [-123.4839, 41.6694], [-123.484, 41.6692]]], [[[-123.4727, 41.686], [-123.4722, 41.6848], [-123.4708, 41.6843], [-123.4725, 41.6832], [-123.4717, 41.6816], [-123.4727, 41.6807], [-123.4755, 41.6815], [-123.4746, 41.6832], [-123.4736, 41.6832], [-123.4732, 41.6842], [-123.474, 41.6851], [-123.4728, 41.6851], [-123.4735, 41.686], [-123.4727, 41.686]]]]}, "properties": {"layer": "perimeter"}}, {"type": "Feature", "geometry": {"type": "MultiPolygon", "coordinates": [[[[-123.5276, 41.6161], [-123.528, 41.6235], [-123.5263, 41.6236], [-123.5243, 41.6167], [-123.5276, 41.6161]]], [[[-123.4707, 41.6622], [-123.4696, 41.6612], [-123.4702, 41.6603], [-123.4708, 41.6604], [-123.4707, 41.6622]]], [[[-123.4708, 41.6601], [-123.4708, 41.6601], [-123.4708, 41.6601], [-123.4708, 41.6601]]], [[[-123.4709, 41.6586], [-123.4698, 41.6587], [-123.469, 41.6586], [-123.4709, 41.6586]]], [[[-123.4687, 41.6586], [-123.4686, 41.6586], [-123.4688, 41.6586], [-123.4687, 41.6586]]], [[[-123.4641, 41.6331], [-123.4669, 41.6277], [-123.4706, 41.6289], [-123.4641, 41.6331]]], [[[-123.4683, 41.6245], [-123.4701, 41.6226], [-123.472, 41.6238], [-123.4746, 41.6274], [-123.4737, 41.6278], [-123.4683, 41.6245]]], [[[-123.5482, 41.585], [-123.5482, 41.5862], [-123.546, 41.5866], [-123.545, 41.5887], [-123.5434, 41.5879], [-123.543, 41.5897], [-123.5438, 41.59], [-123.5431, 41.5907], [-123.5424, 41.5905], [-123.5423, 41.588], [-123.5443, 41.5858], [-123.5482, 41.585]]], [[[-123.5463, 41.6034], [-123.5477, 41.6007], [-123.5456, 41.5976], [-123.5461, 41.5972], [-123.5481, 41.5991], [-123.5484, 41.6005], [-123.5482, 41.6025], [-123.5467, 41.6041], [-123.5463, 41.6034]]], [[[-123.5347, 41.6009], [-123.533, 41.6017], [-123.5333, 41.6001], [-123.5347, 41.6009]]]]}, "properties": {"layer": "retained"}}, {"type": "Feature", "geometry": {"type": "Polygon", "coordinates": [[[-123.5457, 41.5863], [-123.546, 41.586], [-123.5456, 41.586], [-123.5457, 41.5863]]]}, "properties": {"layer": "high_severity"}}]}
