{"type": "FeatureCollection", "features": [{"type": "Feature", "geometry": {"type": "MultiPolygon", "coordinates": [[[[-122.3228, 40.6722], [-122.3228, 40.6725], [-122.3226, 40.6724], [-122.3228, 40.6722]]], [[[-122.2729, 40.7067], [-122.276, 40.7001], [-122.2785, 40.6994], [-122.2795, 40.6984], [-122.2824, 40.6977], [-122.2838, 40.6981], [-122.2847, 40.6975], [-122.2854, 40.6955], [-122.2845, 40.695], [-122.2841, 40.6925], [-122.285, 40.692], [-122.2885, 40.6925], [-122.2888, 40.6901], [-122.2918, 40.6895], [-122.2915, 40.6884], [-122.2886, 40.688], [-122.2881, 40.6872], [-122.2895, 40.6862], [-122.292, 40.686], [-122.2921, 40.6844], [-122.294, 40.6843], [-122.2953, 40.6853], [-122.297, 40.6824], [-122.2978, 40.6829], [-122.2972, 40.6836], [-122.3, 40.6822], [-122.3008, 40.6804], [-122.3024, 40.6792], [-122.3054, 40.6793], [-122.3053, 40.6788], [-122.3074, 40.6784], [-122.3076, 40.679], [-122.3086, 40.6782], [-122.3093, 40.6788], [-122.3098, 40.6777], [-122.3121, 40.6777], [-122.3124, 40.6767], [-122.314, 40.6765], [-122.3149, 40.6752], [-122.3148, 40.677], [-122.3176, 40.6784], [-122.3191, 40.6776], [-122.3186, 40.6771], [-122.3205, 40.6771], [-122.3225, 40.6747], [-122.3236, 40.6747], [-122.3246, 40.6758], [-122.3251, 40.6807], [-122.3224, 40.6809], [-122.3241, 40.6821], [-122.3225, 40.6824], [-122.3219, 40.6834], [-122.3221, 40.6867], [-122.3209, 40.6877], [-122.3204, 40.6864], [-122.3213, 40.6859], [-122.3192, 40.6857], [-122.3195, 40.6872], [-122.3167, 40.6875], [-122.3177, 40.6882], [-122.3167, 40.6884], [-122.3168, 40.69], [-122.318, 40.6903], [-122.3173, 40.6907], [-122.3172, 40.6933], [-122.3183, 40.6964], [-122.3175, 40.6965], [-122.3181, 40.698], [-122.3173, 40.6985], [-122.3184, 40.7], [-122.3174, 40.7008], [-122.3187, 40.7012], [-122.3185, 40.7023], [-122.3194, 40.7029], [-122.3181, 40.7043], [-122.3176, 40.7086], [-122.3142, 40.7129], [-122.3143, 40.7141], [-122.3154, 40.7137], [-122.3156, 40.7142], [-122.3151, 40.7152], [-122.3164, 40.7167], [-122.316, 40.7181], [-122.3168, 40.7192], [-122.3132, 40.73], [-122.3139, 40.7302], [-122.3135, 40.7317], [-122.3123, 40.7322], [-122.3112, 40.7315], [-122.3089, 40.7341], [-122.3029, 40.7363], [-122.3002, 40.7401], [-122.2984, 40.74], [-122.2974, 40.7381], [-122.2957, 40.7395], [-122.2973, 40.7428], [-122.2945, 40.7437], [-122.2941, 40.7448], [-122.292, 40.745], [-122.2925, 40.7474], [-122.2904, 40.7502], [-122.29, 40.7568], [-122.2877, 40.7591], [-122.288, 40.7614], [-122.287, 40.7612], [-122.2861, 40.7621], [-122.2831, 40.7604], [-122.2803, 40.7598], [-122.2777, 40.7576], [-122.2745, 40.7564], [-122.2755, 40.7546], [-122.274, 40.7523], [-122.2734, 40.7535], [-122.2725, 40.7516], [-122.2736, 40.7515], [-122.2737, 40.7508], [-122.2722, 40.7495], [-122.2709, 40.7496], [-122.2686, 40.7487], [-122.2683, 40.7496], [-122.2676, 40.7495], [-122.2684, 40.7485], [-122.2675, 40.7472], [-122.2678, 40.746], [-122.2704, 40.7451], [-122.2701, 40.7441], [-122.2694, 40.7449], [-122.2684, 40.7445], [-122.2683, 40.7431], [-122.2674, 40.7428], [-122.2667, 40.7442], [-122.2651, 40.7434], [-122.2653, 40.745], [-122.264, 40.7449], [-122.2643, 40.7461], [-122.2624, 40.7476], [-122.261, 40.747], [-122.2614, 40.7489], [-122.2599, 40.7481], [-122.2591, 40.749], [-122.2602, 40.7497], [-122.2595, 40.7509], [-122.2584, 40.7505], [-122.2559, 40.7469], [-122.2543, 40.7483], [-122.2537, 40.7462], [-122.253, 40.7471], [-122.2512, 40.7456], [-122.2493, 40.7453], [-122.2494, 40.7463], [-122.2509, 40.7465], [-122.2518, 40.7476], [-122.2511, 40.7482], [-122.252, 40.7487], [-122.2515, 40.7494], [-122.2525, 40.7503], [-122.253, 40.7532], [-122.2512, 40.753], [-122.2498, 40.7539], [-122.2462, 40.7539], [-122.2479, 40.7525], [-122.2479, 40.7512], [-122.2459, 40.7462], [-122.2468, 40.7435], [-122.2461, 40.7429], [-122.2479, 40.7423], [-122.2452, 40.7421], [-122.2445, 40.7413], [-122.2455, 40.7404], [-122.2468, 40.7358], [-122.2461, 40.7341], [-122.2485, 40.7336], [-122.2492, 40.7321], [-122.2474, 40.7302], [-122.2484, 40.7297], [-122.2486, 40.7285], [-122.2472, 40.7255], [-122.2438, 40.7234], [-122.2442, 40.7224], [-122.2417, 40.7215], [-122.2454, 40.7194], [-122.2463, 40.7179], [-122.2522, 40.7139], [-122.2563, 40.7092], [-122.2596, 40.7071], [-122.259, 40.7051], [-122.2606, 40.7035], [-122.2626, 40.7029], [-122.2625, 40.7037], [-122.2605, 40.7053], [-122.262, 40.7072], [-122.2636, 40.7071], [-122.2635, 40.7079], [-122.2667, 40.7051], [-122.2687, 40.7048], [-122.2691, 40.7054], [-122.2709, 40.705], [-122.272, 40.7066], [-122.2729, 40.7067]]], [[[-122.2756, 40.7575], [-122.2756, 40.7577], [-122.2754, 40.7576], [-122.2756, 40.7575]]], [[[-122.2752, 40.7581], [-122.2753, 40.7579], [-122.2755, 40.7579], [-122.2752, 40.7581]]], [[[-122.2789, 40.7598], [-122.2792, 40.7599], [-122.2789, 40.7599], [-122.2789, 40.7598]]], [[[-122.2801, 40.7611], [-122.2801, 40.761], [-122.2802, 40.7611], [-122.2801, 40.7611]]], [[[-122.271, 40.7037], [-122.2713, 40.7035], [-122.2712, 40.7039], [-122.271, 40.7037]]], [[[-122.2672, 40.7041], [-122.268, 40.7034], [-122.2685, 40.7034], [-122.268, 40.7041], [-122.2672, 40.7041]]], [[[-122.2713, 40.7042], [-122.2712, 40.7045], [-122.2709, 40.7045], [-122.2713, 40.7042]]], [[[-122.267, 40.7542], [-122.2663, 40.7526], [-122.2668, 40.7516], [-122.2689, 40.7519], [-122.2693, 40.7533], [-122.2711, 40.7532], [-122.2717, 40.7542], [-122.2689, 40.7549], [-122.267, 40.7542]]], [[[-122.2752, 40.7571], [-122.2753, 40.7573], [-122.2752, 40.7573], [-122.2752, 40.7571]]], [[[-122.2747, 40.7579], [-122.2747, 40.7578], [-122.2749, 40.7578], [-122.2747, 40.7579]]]]}, "properties": {"layer": "perimeter"}}, {"type": "Feature", "geometry": {"type": "MultiPolygon", "coordinates": [[[[-122.3226, 40.6724], [-122.3228, 40.6723], [-122.3227, 40.6724], [-122.3226, 40.6724]]], [[[-122.2731, 40.7065], [-122.276, 40.7001], [-122.2785, 40.6994], [-122.2795, 40.6984], [-122.2824, 40.6977], [-122.2838, 40.6981], [-122.2847, 40.6975], [-122.2854, 40.6955], [-122.2845, 40.695], [-122.2841, 40.6925], [-122.285, 40.692], [-122.2885, 40.6925], [-122.2888, 40.6901], [-122.2918, 40.6895], [-122.2915, 40.6884], [-122.2886, 40.688], [-122.2881, 40.6872], [-122.2895, 40.6862], [-122.292, 40.686], [-122.2921, 40.6844], [-122.294, 40.6843], [-122.2953, 40.6853], [-122.297, 40.6824], [-122.2978, 40.6829], [-122.2972, 40.6836], [-122.3, 40.6822], [-122.3008, 40.6804], [-122.3024, 40.6792], [-122.3054, 40.6793], [-122.3053, 40.6788], [-122.3074, 40.6784], [-122.3076, 40.679], [-122.3086, 40.6782], [-122.3093, 40.6788], [-122.3098, 40.6777], [-122.3121, 40.6777], [-122.3124, 40.6767], [-122.314, 40.6765], [-122.3149, 40.6752], [-122.3148, 40.677], [-122.3171, 40.6784], [-122.3191, 40.6776], [-122.3186, 40.6771], [-122.3205, 40.6771], [-122.3211, 40.6762], [-122.3183, 40.6806], [-122.3251, 40.6806], [-122.3251, 40.6807], [-122.3224, 40.6809], [-122.3241, 40.6821], [-122.3225, 40.6824], [-122.3219, 40.6834], [-122.3221, 40.6867], [-122.3214, 40.6876], [-122.3204, 40.687], [-122.3213, 40.6859], [-122.3192, 40.6857], [-122.3195, 40.6872], [-122.3167, 40.6875], [-122.3177, 40.6882], [-122.3167, 40.6884], [-122.3168, 40.69], [-122.318, 40.6903], [-122.3173, 40.6907], [-122.3172, 40.6933], [-122.3183, 40.6964], [-122.3175, 40.6965], [-122.3181, 40.698], [-122.3173, 40.6985], [-122.3184, 40.7], [-122.3174, 40.7008], [-122.3187, 40.7012], [-122.3185, 40.7023], [-122.3194, 40.7029], [-122.3181, 40.7043], [-122.3176, 40.7086], [-122.3142, 40.7129], [-122.3143, 40.7141], [-122.3154, 40.7137], [-122.3156, 40.7142], [-122.3151, 40.7152], [-122.3164, 40.7167], [-122.316, 40.7181], [-122.3168, 40.7192], [-122.3132, 40.73], [-122.3139, 40.7302], [-122.3135, 40.7317], [-122.3123, 40.7322], [-122.3112, 40.7315], [-122.3089, 40.7341], [-122.3029, 40.7363], [-122.3002, 40.7401], [-122.2984, 40.74], [-122.2982, 40.739], [-122.2969, 40.7383], [-122.2957, 40.7404], [-122.297, 40.7412], [-122.2973, 40.7428], [-122.2945, 40.7437], [-122.2941, 40.7448], [-122.292, 40.745], [-122.2925, 40.7474], [-122.2918, 40.7481], [-122.2891, 40.7481], [-122.2857, 40.7506], [-122.2855, 40.7516], [-122.2855, 40.7505], [-122.2888, 40.7481], [-122.2792, 40.7481], [-122.2784, 40.7237], [-122.2611, 40.7236], [-122.2607, 40.7381], [-122.246, 40.7381], [-122.2468, 40.7358], [-122.2461, 40.7341], [-122.2485, 40.7336], [-122.2492, 40.7327], [-122.2474, 40.7302], [-122.2484, 40.7297], [-122.2484, 40.728], [-122.2472, 40.7255], [-122.2438, 40.7234], [-122.2442, 40.7224], [-122.2417, 40.7215], [-122.2454, 40.7194], [-122.2463, 40.7179], [-122.2522, 40.7139], [-122.2563, 40.7092], [-122.2596, 40.7071], [-122.259, 40.7051], [-122.2606, 40.7035], [-122.2626, 40.7029], [-122.2625, 40.7037], [-122.2605, 40.7053], [-122.262, 40.7072], [-122.2636, 40.7071], [-122.2635, 40.7079], [-122.2667, 40.7051], [-122.2687, 40.7048], [-122.2691, 40.7054], [-122.2709, 40.705], [-122.272, 40.7066], [-122.2731, 40.7065]], [[-122.298, 40.7094], [-122.2788, 40.7094], [-122.2788, 40.7236], [-122.2882, 40.7238], [-122.2883, 40.7165], [-122.298, 40.7166], [-122.298, 40.7094]]], [[[-122.2912, 40.7485], [-122.2904, 40.7523], [-122.2897, 40.7523], [-122.2897, 40.7484], [-122.2912, 40.7485]]], [[[-122.271, 40.7037], [-122.2713, 40.7036], [-122.2712, 40.7039], [-122.271, 40.7037]]], [[[-122.2677, 40.7042], [-122.268, 40.7034], [-122.2685, 40.7034], [-122.2677, 40.7042]]], [[[-122.2713, 40.7043], [-122.2709, 40.7045], [-122.2713, 40.7042], [-122.2713, 40.7043]]]]}, "properties": {"layer": "retained"}}, {"type": "Feature", "geometry": {"type": "MultiPolygon", "coordinates": [[[[-122.2911, 40.736], [-122.2911, 40.7352], [-122.29, 40.7352], [-122.29, 40.7357], [-122.2911, 40.736]]], [[[-122.2941, 40.7294], [-122.2944, 40.7286], [-122.2934, 40.7284], [-122.2934, 40.7289], [-122.2941, 40.7294]]], [[[-122.31, 40.7286], [-122.3107, 40.728], [-122.3104, 40.7272], [-122.309, 40.7281], [-122.31, 40.7286]]], [[[-122.2873, 40.7285], [-122.2862, 40.7277], [-122.2855, 40.7277], [-122.2863, 40.7285], [-122.2873, 40.7285]]], [[[-122.2898, 40.7279], [-122.2901, 40.7268], [-122.2912, 40.7268], [-122.2908, 40.7262], [-122.2887, 40.7268], [-122.2898, 40.7279]]], [[[-122.2936, 40.7259], [-122.2954, 40.7253], [-122.2943, 40.7254], [-122.2947, 40.7245], [-122.2936, 40.7246], [-122.2936, 40.7259]], [[-122.2943, 40.7248], [-122.294, 40.7251], [-122.2939, 40.7248], [-122.2943, 40.7248]]], [[[-122.2865, 40.7263], [-122.2858, 40.7258], [-122.2869, 40.7252], [-122.2861, 40.7239], [-122.2847, 40.7245], [-122.2851, 40.725], [-122.2829, 40.7248], [-122.2833, 40.7261], [-122.2844, 40.7258], [-122.2844, 40.7261], [-122.2851, 40.7261], [-122.2851, 40.7263], [-122.2865, 40.7263]], [[-122.2855, 40.7258], [-122.2851, 40.7261], [-122.2851, 40.7258], [-122.2855, 40.7258]], [[-122.2847, 40.7253], [-122.284, 40.7255], [-122.284, 40.7253], [-122.2847, 40.7253]], [[-122.2858, 40.7244], [-122.2854, 40.7247], [-122.2854, 40.7244], [-122.2858, 40.7244]]], [[[-122.2957, 40.724], [-122.2971, 40.724], [-122.2971, 40.7234], [-122.2957, 40.724]]], [[[-122.3053, 40.7246], [-122.3053, 40.7238], [-122.306, 40.723], [-122.3042, 40.7238], [-122.3053, 40.7246]]], [[[-122.2939, 40.7243], [-122.2939, 40.7229], [-122.2932, 40.7229], [-122.2929, 40.7243], [-122.2939, 40.7243]]], [[[-122.2935, 40.7213], [-122.2934, 40.7202], [-122.292, 40.7197], [-122.2921, 40.7213], [-122.2935, 40.7213]]], [[[-122.2902, 40.7195], [-122.2899, 40.719], [-122.2906, 40.7187], [-122.2895, 40.7187], [-122.2895, 40.7195], [-122.2902, 40.7195]]], [[[-122.3051, 40.7189], [-122.3051, 40.7179], [-122.3044, 40.7179], [-122.3044, 40.719], [-122.3051, 40.7189]]], [[[-122.3053, 40.7014], [-122.3056, 40.7019], [-122.3067, 40.7016], [-122.3053, 40.7014]]]]}, "properties": {"layer": "high_severity"}}, {"type": "Feature", "geometry": {"type": "Polygon", "coordinates": [[[-122.3057, 40.7243], [-122.3053, 40.7238], [-122.3046, 40.7238], [-122.3046, 40.7244], [-122.3057, 40.7243]]]}, "properties": {"layer": "interior"}}, {"type": "Feature", "geometry": {"type": "Polygon", "coordinates": [[[-122.3057, 40.7243], [-122.3053, 40.7238], [-122.3046, 40.7238], [-122.3046, 40.7244], [-122.3057, 40.7243]]]}, "properties": {"layer": "cell", "cell_id": "521_1000", "seed_zone": "521", "elevation_band": "1000–1500 ft"}}, {"type": "Feature", "geometry": {"type": "Polygon", "coordinates": [[[-122.2844, 40.7253], [-122.2851, 40.725], [-122.2844, 40.725], [-122.2844, 40.7253]]]}, "properties": {"layer": "cell", "cell_id": "521_1500", "seed_zone": "521", "elevation_band": "1500–2000 ft"}}]}
