{"type": "FeatureCollection", "features": [{"type": "Feature", "geometry": {"type": "Polygon", "coordinates": [[[-120.0973, 35.1227], [-120.0927, 35.1231], [-120.0914, 35.1248], [-120.0895, 35.1254], [-120.0891, 35.1266], [-120.0872, 35.1272], [-120.0854, 35.1276], [-120.0846, 35.1273], [-120.0848, 35.1268], [-120.0829, 35.1271], [-120.0789, 35.1262], [-120.076, 35.1226], [-120.0775, 35.118], [-120.0762, 35.1141], [-120.0782, 35.1133], [-120.0777, 35.1157], [-120.0812, 35.1154], [-120.0816, 35.1147], [-120.081, 35.1138], [-120.0822, 35.1138], [-120.0831, 35.113], [-120.0831, 35.1113], [-120.0842, 35.1104], [-120.0889, 35.1118], [-120.0892, 35.1145], [-120.0923, 35.1146], [-120.0943, 35.1137], [-120.0966, 35.1137], [-120.097, 35.1112], [-120.0993, 35.1103], [-120.1003, 35.1141], [-120.104, 35.1135], [-120.1058, 35.1149], [-120.1095, 35.1151], [-120.1112, 35.1158], [-120.1135, 35.1187], [-120.1158, 35.1194], [-120.116, 35.1206], [-120.1175, 35.1221], [-120.1162, 35.122], [-120.1154, 35.1209], [-120.1108, 35.1225], [-120.1105, 35.1236], [-120.1078, 35.1226], [-120.1062, 35.1238], [-120.1047, 35.1237], [-120.1022, 35.1258], [-120.1018, 35.1247], [-120.1003, 35.1244], [-120.0999, 35.1232], [-120.0979, 35.1237], [-120.0966, 35.1256], [-120.0964, 35.1234], [-120.0973, 35.1227]]]}, "properties": {"layer": "perimeter"}}, {"type": "Feature", "geometry": {"type": "Polygon", "coordinates": [[[-120.0812, 35.1137], [-120.0822, 35.1138], [-120.0831, 35.113], [-120.0831, 35.1113], [-120.0842, 35.1104], [-120.0892, 35.1122], [-120.089, 35.1132], [-120.0828, 35.1142], [-120.0815, 35.1142], [-120.0812, 35.1137]]]}, "properties": {"layer": "retained"}}]}
