{"type": "FeatureCollection", "features": [{"type": "Feature", "geometry": {"type": "MultiPolygon", "coordinates": [[[[-118.2508, 36.6276], [-118.2511, 36.6281], [-118.251, 36.6281], [-118.2508, 36.6276]]], [[[-118.2498, 36.6299], [-118.2495, 36.6306], [-118.2493, 36.6299], [-118.2498, 36.6299]]], [[[-118.2545, 36.6303], [-118.2541, 36.6302], [-118.2544, 36.6302], [-118.2545, 36.6303]]], [[[-118.2542, 36.6309], [-118.2541, 36.631], [-118.254, 36.6309], [-118.2542, 36.6309]]], [[[-118.2526, 36.6315], [-118.2516, 36.6307], [-118.2528, 36.6312], [-118.2526, 36.6315]]], [[[-118.2398, 36.676], [-118.2368, 36.676], [-118.2355, 36.674], [-118.2334, 36.673], [-118.2323, 36.6738], [-118.2311, 36.6733], [-118.2284, 36.6704], [-118.2283, 36.6691], [-118.2273, 36.6688], [-118.2269, 36.6674], [-118.2242, 36.6659], [-118.2233, 36.6639], [-118.2222, 36.664], [-118.2228, 36.6622], [-118.2218, 36.6609], [-118.2206, 36.6616], [-118.2212, 36.6599], [-118.2203, 36.6591], [-118.222, 36.6567], [-118.2207, 36.6547], [-118.2199, 36.6511], [-118.2194, 36.6504], [-118.2174, 36.6511], [-118.2155, 36.6479], [-118.2143, 36.649], [-118.2119, 36.6492], [-118.2114, 36.6475], [-118.2127, 36.6449], [-118.2113, 36.6435], [-118.2164, 36.6409], [-118.2164, 36.6402], [-118.2152, 36.6412], [-118.2133, 36.6408], [-118.2152, 36.6382], [-118.2144, 36.6365], [-118.2156, 36.6363], [-118.218, 36.6331], [-118.2262, 36.6339], [-118.2274, 36.6348], [-118.2274, 36.6338], [-118.231, 36.6313], [-118.2357, 36.6304], [-118.2369, 36.6292], [-118.2387, 36.6291], [-118.2392, 36.6285], [-118.2414, 36.6285], [-118.2422, 36.6272], [-118.2436, 36.6274], [-118.2436, 36.6257], [-118.2458, 36.6252], [-118.2457, 36.6243], [-118.2469, 36.6243], [-118.2483, 36.6233], [-118.2512, 36.6239], [-118.2515, 36.6247], [-118.2511, 36.6257], [-118.2489, 36.6268], [-118.2486, 36.6293], [-118.2477, 36.6307], [-118.2521, 36.6318], [-118.2521, 36.6323], [-118.2479, 36.6357], [-118.2472, 36.6354], [-118.2469, 36.636], [-118.2468, 36.6353], [-118.2453, 36.6349], [-118.2431, 36.6351], [-118.2413, 36.6361], [-118.2419, 36.6371], [-118.2469, 36.6381], [-118.2505, 36.6397], [-118.2479, 36.642], [-118.2412, 36.6432], [-118.24, 36.6451], [-118.2425, 36.6471], [-118.242, 36.6479], [-118.2435, 36.65], [-118.2432, 36.651], [-118.2442, 36.6526], [-118.2481, 36.6519], [-118.2484, 36.6531], [-118.2493, 36.6531], [-118.25, 36.6517], [-118.25, 36.6529], [-118.2493, 36.6543], [-118.2474, 36.6544], [-118.245, 36.6559], [-118.2444, 36.6571], [-118.242, 36.6568], [-118.242, 36.6576], [-118.2431, 36.6575], [-118.2425, 36.6583], [-118.2398, 36.6581], [-118.2404, 36.6605], [-118.2419, 36.6597], [-118.243, 36.6612], [-118.2457, 36.6603], [-118.2452, 36.6612], [-118.2467, 36.6613], [-118.2477, 36.6594], [-118.2488, 36.662], [-118.2504, 36.6598], [-118.2501, 36.6594], [-118.2521, 36.6584], [-118.2525, 36.6572], [-118.2539, 36.6571], [-118.2532, 36.6574], [-118.2544, 36.6579], [-118.2528, 36.6584], [-118.2521, 36.6595], [-118.2532, 36.6652], [-118.2503, 36.6657], [-118.2482, 36.6712], [-118.2444, 36.6739], [-118.2423, 36.6742], [-118.2398, 36.676]]]]}, "properties": {"layer": "perimeter"}}, {"type": "Feature", "geometry": {"type": "Polygon", "coordinates": [[[-118.2259, 36.6666], [-118.2239, 36.6653], [-118.2236, 36.6594], [-118.2327, 36.6593], [-118.2327, 36.6666], [-118.2259, 36.6666]]]}, "properties": {"layer": "retained"}}]}
