{"type": "FeatureCollection", "features": [{"type": "Feature", "geometry": {"type": "Polygon", "coordinates": [[[-121.1869, 38.5347], [-121.1865, 38.5366], [-121.1819, 38.5421], [-121.1823, 38.5428], [-121.1814, 38.5455], [-121.1823, 38.5464], [-121.1826, 38.5489], [-121.1805, 38.5536], [-121.1824, 38.5541], [-121.1777, 38.5541], [-121.179, 38.5568], [-121.1788, 38.5641], [-121.1806, 38.568], [-121.1796, 38.5713], [-121.1768, 38.5726], [-121.1727, 38.5728], [-121.1691, 38.5759], [-121.1675, 38.5761], [-121.1681, 38.5771], [-121.1649, 38.5799], [-121.1631, 38.5803], [-121.1607, 38.5879], [-121.1532, 38.5908], [-121.146, 38.591], [-121.146, 38.598], [-121.1469, 38.599], [-121.1446, 38.5996], [-121.1433, 38.5993], [-121.1429, 38.5981], [-121.1358, 38.5981], [-121.1311, 38.6052], [-121.1297, 38.6051], [-121.129, 38.6037], [-121.1279, 38.6037], [-121.1297, 38.6001], [-121.131, 38.6002], [-121.1307, 38.5995], [-121.1357, 38.5982], [-121.1327, 38.598], [-121.1312, 38.5971], [-121.1293, 38.5933], [-121.1306, 38.5867], [-121.1302, 38.5801], [-121.1292, 38.5771], [-121.1305, 38.5684], [-121.1282, 38.5637], [-121.1284, 38.5622], [-121.1318, 38.5613], [-121.1321, 38.5599], [-121.135, 38.558], [-121.1388, 38.5569], [-121.14, 38.5557], [-121.1401, 38.5535], [-121.1435, 38.5516], [-121.144, 38.5502], [-121.1461, 38.5485], [-121.1636, 38.5412], [-121.1728, 38.5391], [-121.1859, 38.5334], [-121.1869, 38.5347]]]}, "properties": {"layer": "perimeter"}}, {"type": "Feature", "geometry": {"type": "Polygon", "coordinates": [[[-121.1872, 38.5344], [-121.1819, 38.5421], [-121.1823, 38.5428], [-121.1814, 38.5455], [-121.1823, 38.5464], [-121.1826, 38.5489], [-121.1805, 38.5536], [-121.1824, 38.5541], [-121.1777, 38.5541], [-121.179, 38.5568], [-121.1788, 38.5641], [-121.1806, 38.568], [-121.1796, 38.5713], [-121.1768, 38.5726], [-121.1727, 38.5728], [-121.1691, 38.5759], [-121.1675, 38.5761], [-121.1681, 38.5771], [-121.1649, 38.5799], [-121.1631, 38.5803], [-121.1607, 38.5879], [-121.1532, 38.5908], [-121.146, 38.591], [-121.146, 38.598], [-121.1469, 38.599], [-121.1446, 38.5996], [-121.1433, 38.5993], [-121.1429, 38.5981], [-121.1358, 38.5981], [-121.1311, 38.6052], [-121.1297, 38.6051], [-121.129, 38.6037], [-121.1279, 38.6037], [-121.1297, 38.6001], [-121.131, 38.6002], [-121.1307, 38.5995], [-121.1357, 38.5982], [-121.1327, 38.598], [-121.1312, 38.5971], [-121.1293, 38.5933], [-121.1306, 38.5867], [-121.1302, 38.5801], [-121.1292, 38.5771], [-121.1305, 38.5684], [-121.1282, 38.5637], [-121.1284, 38.5622], [-121.1318, 38.5613], [-121.1321, 38.5599], [-121.135, 38.558], [-121.1388, 38.5569], [-121.14, 38.5557], [-121.1401, 38.5535], [-121.1435, 38.5516], [-121.144, 38.5502], [-121.1461, 38.5485], [-121.1636, 38.5412], [-121.1728, 38.5391], [-121.1859, 38.5334], [-121.1872, 38.5344]]]}, "properties": {"layer": "retained"}}]}
