{"type": "FeatureCollection", "features": [{"type": "Feature", "geometry": {"type": "MultiPolygon", "coordinates": [[[[-123.2988, 41.4591], [-123.296, 41.46], [-123.295, 41.461], [-123.2897, 41.4634], [-123.2833, 41.4613], [-123.2822, 41.4577], [-123.2791, 41.457], [-123.2785, 41.456], [-123.2774, 41.4559], [-123.2779, 41.4547], [-123.2764, 41.4542], [-123.2766, 41.4521], [-123.2743, 41.4518], [-123.2743, 41.4498], [-123.2732, 41.4483], [-123.2676, 41.447], [-123.2652, 41.4445], [-123.2642, 41.4464], [-123.2628, 41.4456], [-123.2631, 41.4436], [-123.2623, 41.4428], [-123.2646, 41.4402], [-123.2645, 41.4391], [-123.2634, 41.4384], [-123.264, 41.4375], [-123.2679, 41.4369], [-123.2702, 41.4344], [-123.2728, 41.4331], [-123.2771, 41.4322], [-123.2797, 41.4336], [-123.282, 41.4365], [-123.2854, 41.4367], [-123.2893, 41.4385], [-123.2896, 41.4402], [-123.2918, 41.4414], [-123.297, 41.4422], [-123.2976, 41.4435], [-123.3013, 41.4426], [-123.3013, 41.4433], [-123.3045, 41.4445], [-123.3042, 41.447], [-123.3088, 41.4511], [-123.3087, 41.4527], [-123.3032, 41.4558], [-123.3024, 41.4556], [-123.2988, 41.4591]]], [[[-123.266, 41.4497], [-123.2664, 41.45], [-123.2662, 41.45], [-123.266, 41.4497]]], [[[-123.2781, 41.4576], [-123.2787, 41.4579], [-123.2781, 41.458], [-123.2781, 41.4576]]]]}, "properties": {"layer": "perimeter"}}]}
