{"type": "FeatureCollection", "features": [{"type": "Feature", "geometry": {"type": "Polygon", "coordinates": [[[-116.8719, 33.4578], [-116.8715, 33.4604], [-116.8725, 33.4611], [-116.8731, 33.4604], [-116.8734, 33.4611], [-116.8727, 33.4624], [-116.8743, 33.4619], [-116.8735, 33.4616], [-116.8739, 33.4612], [-116.875, 33.4612], [-116.8758, 33.4624], [-116.877, 33.4625], [-116.8776, 33.4619], [-116.8787, 33.462], [-116.8801, 33.4608], [-116.8803, 33.4591], [-116.8814, 33.4591], [-116.8825, 33.4575], [-116.8843, 33.4581], [-116.8853, 33.4576], [-116.8886, 33.4579], [-116.8891, 33.4584], [-116.893, 33.4576], [-116.8948, 33.4584], [-116.8961, 33.4572], [-116.8988, 33.4566], [-116.9007, 33.4585], [-116.901, 33.4601], [-116.9029, 33.4607], [-116.9066, 33.4604], [-116.909, 33.4632], [-116.9116, 33.4631], [-116.9129, 33.4646], [-116.9113, 33.4654], [-116.9089, 33.464], [-116.907, 33.4645], [-116.9059, 33.4641], [-116.9051, 33.4668], [-116.9056, 33.4673], [-116.9049, 33.4674], [-116.9019, 33.466], [-116.8973, 33.4656], [-116.8971, 33.4648], [-116.8939, 33.4635], [-116.8937, 33.4628], [-116.894, 33.4637], [-116.89, 33.4649], [-116.8887, 33.4642], [-116.8875, 33.4644], [-116.8872, 33.4629], [-116.886, 33.4626], [-116.8853, 33.4629], [-116.886, 33.463], [-116.8855, 33.4655], [-116.884, 33.4646], [-116.8813, 33.4653], [-116.8783, 33.4651], [-116.8774, 33.4658], [-116.8759, 33.4652], [-116.8753, 33.4636], [-116.8731, 33.4641], [-116.8697, 33.4627], [-116.8663, 33.4639], [-116.8677, 33.4641], [-116.8684, 33.4652], [-116.87, 33.4659], [-116.8668, 33.4663], [-116.8643, 33.4653], [-116.8629, 33.4629], [-116.8594, 33.4648], [-116.8578, 33.4639], [-116.858, 33.4627], [-116.8575, 33.4624], [-116.8529, 33.4646], [-116.8494, 33.4627], [-116.8458, 33.4618], [-116.8426, 33.4635], [-116.8387, 33.4622], [-116.8388, 33.4603], [-116.8398, 33.4597], [-116.84, 33.4587], [-116.8418, 33.4582], [-116.8414, 33.4577], [-116.8399, 33.4583], [-116.8393, 33.4579], [-116.8379, 33.4597], [-116.8381, 33.4608], [-116.8365, 33.4613], [-116.8343, 33.4611], [-116.834, 33.4607], [-116.8347, 33.4598], [-116.8338, 33.4594], [-116.8332, 33.4608], [-116.8316, 33.4608], [-116.8282, 33.4589], [-116.8271, 33.4562], [-116.8252, 33.4563], [-116.8241, 33.4501], [-116.8249, 33.4487], [-116.8236, 33.4474], [-116.8259, 33.4473], [-116.8274, 33.446], [-116.8283, 33.4467], [-116.83, 33.4449], [-116.8298, 33.4435], [-116.8328, 33.4424], [-116.8331, 33.4416], [-116.8314, 33.4393], [-116.8276, 33.4387], [-116.8264, 33.4376], [-116.8295, 33.4367], [-116.8328, 33.4383], [-116.835, 33.4407], [-116.838, 33.4397], [-116.8433, 33.441], [-116.8441, 33.4404], [-116.8465, 33.4411], [-116.8471, 33.4408], [-116.8486, 33.4416], [-116.8497, 33.4412], [-116.8507, 33.4424], [-116.8524, 33.4428], [-116.8527, 33.4445], [-116.8554, 33.4442], [-116.8554, 33.4459], [-116.8562, 33.4452], [-116.8579, 33.4454], [-116.8595, 33.4441], [-116.8642, 33.447], [-116.866, 33.4466], [-116.869, 33.447], [-116.869, 33.4478], [-116.8723, 33.4487], [-116.8695, 33.45], [-116.8689, 33.4494], [-116.8672, 33.4494], [-116.8668, 33.4486], [-116.8657, 33.4487], [-116.8645, 33.4498], [-116.8578, 33.4495], [-116.857, 33.4502], [-116.8564, 33.4491], [-116.8548, 33.4486], [-116.8563, 33.4515], [-116.8576, 33.4515], [-116.8569, 33.4518], [-116.8576, 33.4525], [-116.8579, 33.4521], [-116.8579, 33.453], [-116.857, 33.4523], [-116.8543, 33.4527], [-116.8546, 33.455], [-116.8534, 33.4572], [-116.8539, 33.4584], [-116.855, 33.4588], [-116.8546, 33.4597], [-116.8532, 33.46], [-116.8548, 33.4606], [-116.8546, 33.4612], [-116.8572, 33.4613], [-116.8572, 33.4595], [-116.861, 33.4594], [-116.8627, 33.4576], [-116.8653, 33.4573], [-116.8658, 33.4561], [-116.8664, 33.4566], [-116.8693, 33.4564], [-116.8678, 33.4576], [-116.8702, 33.4571], [-116.8696, 33.4582], [-116.8719, 33.4578]]]}, "properties": {"layer": "perimeter"}}, {"type": "Feature", "geometry": {"type": "MultiPolygon", "coordinates": [[[[-116.8724, 33.4582], [-116.8715, 33.4604], [-116.8725, 33.4611], [-116.8731, 33.4604], [-116.8734, 33.4611], [-116.8727, 33.4624], [-116.8743, 33.4619], [-116.8735, 33.4616], [-116.8739, 33.4612], [-116.875, 33.4612], [-116.8758, 33.4624], [-116.877, 33.4625], [-116.8776, 33.4619], [-116.8787, 33.462], [-116.8801, 33.4608], [-116.8803, 33.4591], [-116.8814, 33.4591], [-116.8825, 33.4575], [-116.8843, 33.4581], [-116.8853, 33.4576], [-116.8886, 33.4579], [-116.8891, 33.4584], [-116.893, 33.4576], [-116.8948, 33.4584], [-116.8961, 33.4572], [-116.8988, 33.4566], [-116.9007, 33.4585], [-116.901, 33.4601], [-116.9029, 33.4607], [-116.9066, 33.4604], [-116.909, 33.4632], [-116.9116, 33.4631], [-116.9129, 33.4646], [-116.9113, 33.4654], [-116.9089, 33.464], [-116.907, 33.4645], [-116.9059, 33.4641], [-116.9051, 33.4668], [-116.9056, 33.4673], [-116.9049, 33.4674], [-116.9019, 33.466], [-116.8973, 33.4656], [-116.8971, 33.4648], [-116.8939, 33.4635], [-116.8937, 33.4628], [-116.894, 33.4637], [-116.89, 33.4649], [-116.8887, 33.4642], [-116.8875, 33.4644], [-116.8872, 33.4629], [-116.886, 33.4626], [-116.8853, 33.4629], [-116.886, 33.463], [-116.8855, 33.4655], [-116.884, 33.4646], [-116.8813, 33.4653], [-116.8783, 33.4651], [-116.8774, 33.4658], [-116.8759, 33.4652], [-116.8753, 33.4636], [-116.8731, 33.4641], [-116.8697, 33.4627], [-116.8663, 33.4639], [-116.8677, 33.4641], [-116.8684, 33.4652], [-116.87, 33.4659], [-116.8668, 33.4663], [-116.8643, 33.4653], [-116.8629, 33.4629], [-116.8594, 33.4648], [-116.8578, 33.4639], [-116.858, 33.4627], [-116.8575, 33.4624], [-116.8529, 33.4646], [-116.8494, 33.4627], [-116.8458, 33.4618], [-116.8426, 33.4635], [-116.8387, 33.4622], [-116.8388, 33.4603], [-116.8447, 33.4598], [-116.8445, 33.4562], [-116.849, 33.4562], [-116.8488, 33.4524], [-116.8445, 33.4524], [-116.8444, 33.4449], [-116.8297, 33.4453], [-116.8298, 33.4435], [-116.8304, 33.4437], [-116.8331, 33.442], [-116.8321, 33.4408], [-116.8324, 33.44], [-116.8276, 33.4387], [-116.8264, 33.4376], [-116.8295, 33.4367], [-116.8328, 33.4383], [-116.835, 33.4407], [-116.838, 33.4397], [-116.8433, 33.441], [-116.8441, 33.4404], [-116.8465, 33.4411], [-116.8471, 33.4408], [-116.8486, 33.4416], [-116.8497, 33.4412], [-116.8507, 33.4424], [-116.8524, 33.4428], [-116.8527, 33.4445], [-116.8554, 33.4442], [-116.8554, 33.4459], [-116.8562, 33.4452], [-116.8579, 33.4454], [-116.8595, 33.4441], [-116.8642, 33.447], [-116.866, 33.4466], [-116.869, 33.447], [-116.869, 33.4478], [-116.8723, 33.4487], [-116.8695, 33.45], [-116.8689, 33.4494], [-116.8672, 33.4494], [-116.8668, 33.4486], [-116.8657, 33.4487], [-116.8645, 33.4498], [-116.8578, 33.4495], [-116.857, 33.4502], [-116.8564, 33.4491], [-116.8548, 33.4486], [-116.8563, 33.4515], [-116.8576, 33.4515], [-116.8569, 33.4518], [-116.8576, 33.4525], [-116.8579, 33.4521], [-116.8579, 33.453], [-116.857, 33.4523], [-116.8543, 33.4527], [-116.8546, 33.455], [-116.8534, 33.4572], [-116.8539, 33.4584], [-116.855, 33.4588], [-116.8546, 33.4597], [-116.8532, 33.46], [-116.8548, 33.4606], [-116.8546, 33.4612], [-116.8572, 33.4613], [-116.8572, 33.4595], [-116.861, 33.4594], [-116.8627, 33.4576], [-116.8653, 33.4573], [-116.8658, 33.4561], [-116.8664, 33.4566], [-116.8693, 33.4564], [-116.8678, 33.4576], [-116.8702, 33.4571], [-116.8696, 33.4582], [-116.8719, 33.4578], [-116.8724, 33.4582]]], [[[-116.8381, 33.4608], [-116.835, 33.4615], [-116.834, 33.4607], [-116.8347, 33.4598], [-116.8379, 33.4598], [-116.8381, 33.4608]]], [[[-116.8332, 33.4608], [-116.8316, 33.4608], [-116.8293, 33.4597], [-116.8336, 33.4598], [-116.8332, 33.4608]]]]}, "properties": {"layer": "retained"}}]}
