{"type": "FeatureCollection", "features": [{"type": "Feature", "geometry": {"type": "Polygon", "coordinates": [[[-118.9736, 34.1837], [-118.9791, 34.1826], [-118.9802, 34.1831], [-118.9798, 34.1826], [-118.9798, 34.1822], [-118.9806, 34.1831], [-118.9828, 34.1836], [-118.9819, 34.184], [-118.9821, 34.1852], [-118.9843, 34.1884], [-118.9815, 34.1889], [-118.9807, 34.1883], [-118.9789, 34.1892], [-118.977, 34.1888], [-118.9771, 34.19], [-118.9756, 34.1922], [-118.977, 34.197], [-118.9763, 34.201], [-118.9739, 34.201], [-118.9739, 34.2027], [-118.9717, 34.2046], [-118.9702, 34.2034], [-118.9704, 34.2041], [-118.9683, 34.2038], [-118.9691, 34.2048], [-118.9672, 34.2058], [-118.9671, 34.2053], [-118.9641, 34.2054], [-118.9666, 34.2061], [-118.9667, 34.2073], [-118.9678, 34.2074], [-118.9675, 34.2066], [-118.9692, 34.206], [-118.9695, 34.2064], [-118.9681, 34.207], [-118.9691, 34.2085], [-118.9699, 34.2061], [-118.9709, 34.2059], [-118.9715, 34.2065], [-118.9728, 34.2084], [-118.9717, 34.211], [-118.9723, 34.2119], [-118.971, 34.2126], [-118.9705, 34.2138], [-118.9726, 34.2125], [-118.9761, 34.2122], [-118.9766, 34.2123], [-118.9761, 34.2143], [-118.9773, 34.2152], [-118.9803, 34.2144], [-118.9814, 34.2149], [-118.9801, 34.2166], [-118.9778, 34.2177], [-118.979, 34.2207], [-118.9781, 34.221], [-118.9786, 34.2232], [-118.9766, 34.2253], [-118.9764, 34.2269], [-118.9759, 34.227], [-118.9738, 34.2242], [-118.9738, 34.2266], [-118.9725, 34.2272], [-118.9703, 34.2265], [-118.9702, 34.2274], [-118.9696, 34.2269], [-118.9669, 34.2275], [-118.9645, 34.2264], [-118.9655, 34.2274], [-118.9617, 34.2251], [-118.9614, 34.2255], [-118.9627, 34.2272], [-118.9648, 34.2279], [-118.9645, 34.229], [-118.9638, 34.2292], [-118.9632, 34.228], [-118.9618, 34.2282], [-118.9616, 34.2307], [-118.9627, 34.2315], [-118.96, 34.2312], [-118.9584, 34.2319], [-118.958, 34.2317], [-118.9594, 34.2308], [-118.9566, 34.2302], [-118.9565, 34.2278], [-118.9574, 34.2265], [-118.9557, 34.2256], [-118.9544, 34.2258], [-118.9526, 34.2275], [-118.9514, 34.2273], [-118.9516, 34.2281], [-118.9505, 34.2286], [-118.9482, 34.2274], [-118.945, 34.2272], [-118.9446, 34.2264], [-118.9425, 34.2267], [-118.9414, 34.2294], [-118.9389, 34.2281], [-118.9375, 34.2292], [-118.9346, 34.2301], [-118.9337, 34.2293], [-118.9337, 34.2282], [-118.9306, 34.2263], [-118.9299, 34.2295], [-118.9292, 34.2295], [-118.9278, 34.2316], [-118.9268, 34.2322], [-118.9251, 34.231], [-118.9237, 34.231], [-118.9234, 34.2305], [-118.9254, 34.2274], [-118.9258, 34.2226], [-118.9251, 34.2201], [-118.9224, 34.2191], [-118.9235, 34.2184], [-118.9244, 34.2147], [-118.9262, 34.2143], [-118.9275, 34.2131], [-118.9266, 34.2115], [-118.9282, 34.2117], [-118.9297, 34.2108], [-118.9292, 34.2094], [-118.9306, 34.2064], [-118.9312, 34.2068], [-118.9323, 34.2059], [-118.9362, 34.2068], [-118.9339, 34.2038], [-118.934, 34.203], [-118.9328, 34.2044], [-118.931, 34.2034], [-118.9341, 34.2002], [-118.935, 34.2004], [-118.9347, 34.1987], [-118.9319, 34.1985], [-118.9313, 34.1991], [-118.9325, 34.1975], [-118.935, 34.1975], [-118.9366, 34.1962], [-118.9394, 34.1974], [-118.9401, 34.1955], [-118.9464, 34.1944], [-118.9502, 34.195], [-118.9546, 34.1978], [-118.9527, 34.1939], [-118.9544, 34.1929], [-118.9569, 34.194], [-118.9575, 34.1931], [-118.958, 34.1948], [-118.9566, 34.1958], [-118.9579, 34.1963], [-118.957, 34.1973], [-118.9581, 34.1981], [-118.958, 34.1996], [-118.9586, 34.1995], [-118.9602, 34.1962], [-118.9636, 34.1968], [-118.9634, 34.194], [-118.9617, 34.1938], [-118.9612, 34.191], [-118.9605, 34.1907], [-118.9614, 34.1874], [-118.9651, 34.1876], [-118.9662, 34.1866], [-118.9672, 34.1872], [-118.9685, 34.1868], [-118.9724, 34.1842], [-118.9736, 34.1843], [-118.9736, 34.1837]]]}, "properties": {"layer": "perimeter"}}, {"type": "Feature", "geometry": {"type": "MultiPolygon", "coordinates": [[[[-118.9735, 34.1837], [-118.9788, 34.1828], [-118.9813, 34.1837], [-118.9843, 34.1884], [-118.9815, 34.1889], [-118.9807, 34.1883], [-118.9789, 34.1892], [-118.977, 34.1888], [-118.9771, 34.19], [-118.9756, 34.1922], [-118.9769, 34.1969], [-118.9643, 34.1989], [-118.9643, 34.191], [-118.9666, 34.1907], [-118.9667, 34.1877], [-118.9726, 34.1842], [-118.9737, 34.1843], [-118.9735, 34.1837]]], [[[-118.9736, 34.2019], [-118.9739, 34.2027], [-118.9717, 34.2046], [-118.9702, 34.2034], [-118.9704, 34.2041], [-118.9683, 34.2038], [-118.9691, 34.2048], [-118.9672, 34.2058], [-118.9671, 34.2053], [-118.9641, 34.2054], [-118.9666, 34.2061], [-118.9667, 34.2073], [-118.9678, 34.2074], [-118.9675, 34.2066], [-118.9692, 34.206], [-118.9695, 34.2064], [-118.9681, 34.207], [-118.9691, 34.2085], [-118.9699, 34.2061], [-118.9709, 34.2059], [-118.9715, 34.2065], [-118.9728, 34.2084], [-118.9717, 34.211], [-118.9723, 34.2119], [-118.971, 34.2126], [-118.9705, 34.2138], [-118.9726, 34.2125], [-118.9761, 34.2122], [-118.9766, 34.2123], [-118.9761, 34.2143], [-118.9773, 34.2152], [-118.9803, 34.2144], [-118.9814, 34.2149], [-118.9801, 34.2166], [-118.9778, 34.2177], [-118.979, 34.2202], [-118.9781, 34.221], [-118.9786, 34.2232], [-118.9766, 34.2253], [-118.9763, 34.2269], [-118.9738, 34.2242], [-118.9738, 34.2266], [-118.9725, 34.2272], [-118.9703, 34.2265], [-118.9702, 34.2274], [-118.9696, 34.2269], [-118.9669, 34.2275], [-118.9645, 34.2264], [-118.9655, 34.2274], [-118.9617, 34.2251], [-118.9614, 34.2255], [-118.9627, 34.2272], [-118.9648, 34.2279], [-118.9645, 34.229], [-118.9638, 34.2292], [-118.9632, 34.228], [-118.9618, 34.2282], [-118.9616, 34.2307], [-118.9627, 34.2315], [-118.96, 34.2312], [-118.9584, 34.2319], [-118.958, 34.2317], [-118.9594, 34.2308], [-118.9566, 34.2302], [-118.9565, 34.2278], [-118.9574, 34.2265], [-118.9557, 34.2256], [-118.9544, 34.2258], [-118.9526, 34.2275], [-118.9514, 34.2273], [-118.9516, 34.2281], [-118.9505, 34.2286], [-118.9482, 34.2274], [-118.945, 34.2272], [-118.9446, 34.2264], [-118.9425, 34.2267], [-118.9414, 34.2294], [-118.9389, 34.2281], [-118.9375, 34.2292], [-118.9346, 34.2301], [-118.9337, 34.2293], [-118.9337, 34.2282], [-118.9308, 34.2265], [-118.9308, 34.2258], [-118.9417, 34.2258], [-118.9578, 34.2005], [-118.9585, 34.201], [-118.9609, 34.2006], [-118.9621, 34.2015], [-118.9642, 34.2011], [-118.965, 34.2019], [-118.9662, 34.2014], [-118.9671, 34.2022], [-118.9691, 34.2014], [-118.9736, 34.2019]]], [[[-118.9298, 34.2258], [-118.9301, 34.2291], [-118.9278, 34.2316], [-118.9268, 34.2322], [-118.9251, 34.231], [-118.9236, 34.231], [-118.9234, 34.2305], [-118.9254, 34.2274], [-118.9253, 34.2258], [-118.9298, 34.2258]]]]}, "properties": {"layer": "retained"}}]}
