{"type": "FeatureCollection", "features": [{"type": "Feature", "geometry": {"type": "Polygon", "coordinates": [[[-120.2984, 35.9945], [-120.2919, 35.9938], [-120.2832, 35.9888], [-120.2841, 35.9876], [-120.2866, 35.9863], [-120.2868, 35.9853], [-120.286, 35.9841], [-120.2807, 35.9811], [-120.2804, 35.9802], [-120.2807, 35.9778], [-120.2824, 35.975], [-120.2821, 35.9706], [-120.2873, 35.9711], [-120.2905, 35.9697], [-120.2921, 35.9677], [-120.2941, 35.9672], [-120.2964, 35.9679], [-120.2981, 35.9674], [-120.2982, 35.9659], [-120.296, 35.9618], [-120.2966, 35.9595], [-120.3021, 35.9604], [-120.305, 35.962], [-120.3097, 35.9623], [-120.3108, 35.9634], [-120.3202, 35.9657], [-120.32, 35.9677], [-120.3221, 35.9672], [-120.3226, 35.9681], [-120.3232, 35.9718], [-120.3204, 35.9768], [-120.3174, 35.9742], [-120.3173, 35.9719], [-120.3135, 35.9709], [-120.311, 35.9716], [-120.3076, 35.9764], [-120.307, 35.9806], [-120.3103, 35.9811], [-120.3123, 35.9828], [-120.3119, 35.9867], [-120.3145, 35.9895], [-120.3146, 35.9913], [-120.3138, 35.992], [-120.3071, 35.9902], [-120.3056, 35.9913], [-120.3035, 35.9952], [-120.3018, 35.9958], [-120.2984, 35.9945]]]}, "properties": {"layer": "perimeter"}}, {"type": "Feature", "geometry": {"type": "Polygon", "coordinates": [[[-120.2984, 35.9945], [-120.2919, 35.9938], [-120.2832, 35.9888], [-120.2841, 35.9876], [-120.2866, 35.9863], [-120.2868, 35.9853], [-120.286, 35.9841], [-120.2807, 35.9811], [-120.2804, 35.9802], [-120.2807, 35.9778], [-120.2824, 35.975], [-120.2821, 35.9706], [-120.2873, 35.9711], [-120.2905, 35.9697], [-120.2921, 35.9677], [-120.2941, 35.9672], [-120.2964, 35.9679], [-120.2981, 35.9674], [-120.2972, 35.9622], [-120.296, 35.9618], [-120.2966, 35.9595], [-120.3021, 35.9604], [-120.305, 35.962], [-120.3097, 35.9623], [-120.3108, 35.9634], [-120.3205, 35.9659], [-120.32, 35.9677], [-120.3221, 35.9672], [-120.3232, 35.9702], [-120.323, 35.9728], [-120.321, 35.9764], [-120.3204, 35.9768], [-120.3174, 35.9742], [-120.3173, 35.9719], [-120.3143, 35.971], [-120.3118, 35.971], [-120.3076, 35.9764], [-120.3071, 35.9784], [-120.307, 35.9806], [-120.3103, 35.9811], [-120.3123, 35.9828], [-120.3119, 35.9867], [-120.3145, 35.9895], [-120.3146, 35.9913], [-120.3138, 35.992], [-120.3071, 35.9902], [-120.3056, 35.9913], [-120.3043, 35.9945], [-120.3018, 35.9958], [-120.2984, 35.9945]]]}, "properties": {"layer": "retained"}}]}
