{"type": "FeatureCollection", "features": [{"type": "Feature", "geometry": {"type": "MultiPolygon", "coordinates": [[[[-117.5238, 33.7097], [-117.5276, 33.7089], [-117.5287, 33.7094], [-117.5291, 33.7105], [-117.5311, 33.7117], [-117.5294, 33.7146], [-117.5341, 33.7144], [-117.5381, 33.7176], [-117.5429, 33.7186], [-117.5439, 33.7195], [-117.5438, 33.7205], [-117.5461, 33.7215], [-117.5452, 33.7226], [-117.5467, 33.7241], [-117.5456, 33.7254], [-117.5461, 33.728], [-117.5447, 33.7291], [-117.5457, 33.7302], [-117.5477, 33.7306], [-117.5465, 33.7322], [-117.5435, 33.7318], [-117.543, 33.7334], [-117.5401, 33.7334], [-117.5406, 33.7334], [-117.5386, 33.7358], [-117.5387, 33.7369], [-117.5357, 33.7385], [-117.5344, 33.7383], [-117.5316, 33.7405], [-117.5268, 33.7408], [-117.5278, 33.7398], [-117.5274, 33.7392], [-117.5254, 33.7388], [-117.5189, 33.7429], [-117.5166, 33.7465], [-117.512, 33.7479], [-117.5116, 33.7495], [-117.5088, 33.7516], [-117.5085, 33.7512], [-117.5045, 33.7541], [-117.5016, 33.7547], [-117.4971, 33.7546], [-117.4928, 33.7536], [-117.4907, 33.7526], [-117.4909, 33.7512], [-117.4897, 33.7517], [-117.4874, 33.7508], [-117.4867, 33.7493], [-117.4843, 33.7501], [-117.4846, 33.7492], [-117.4821, 33.7489], [-117.4801, 33.7476], [-117.4804, 33.7464], [-117.4752, 33.7425], [-117.4699, 33.7417], [-117.4663, 33.7399], [-117.4662, 33.7386], [-117.4655, 33.7388], [-117.464, 33.7367], [-117.4622, 33.7376], [-117.4625, 33.7394], [-117.4612, 33.7389], [-117.4595, 33.7399], [-117.4569, 33.7398], [-117.4568, 33.7407], [-117.4556, 33.7409], [-117.4516, 33.7403], [-117.4508, 33.7395], [-117.4512, 33.7351], [-117.4557, 33.7345], [-117.4545, 33.7332], [-117.4555, 33.7326], [-117.4545, 33.7323], [-117.453, 33.733], [-117.4523, 33.7317], [-117.4513, 33.7322], [-117.4506, 33.7317], [-117.4496, 33.7299], [-117.4473, 33.73], [-117.4471, 33.7292], [-117.4486, 33.7278], [-117.4464, 33.7263], [-117.447, 33.725], [-117.4449, 33.7247], [-117.4422, 33.723], [-117.4421, 33.7252], [-117.441, 33.726], [-117.44, 33.7243], [-117.4385, 33.7237], [-117.4408, 33.7206], [-117.4386, 33.7204], [-117.4378, 33.7212], [-117.4382, 33.7204], [-117.4335, 33.7201], [-117.4315, 33.7188], [-117.4298, 33.7187], [-117.4275, 33.7153], [-117.4253, 33.7163], [-117.424, 33.7153], [-117.4222, 33.7152], [-117.4205, 33.7169], [-117.417, 33.7186], [-117.4166, 33.7208], [-117.4137, 33.7222], [-117.413, 33.7215], [-117.412, 33.7221], [-117.4116, 33.7213], [-117.4134, 33.7197], [-117.4111, 33.7194], [-117.409, 33.7204], [-117.4074, 33.7238], [-117.4066, 33.7241], [-117.4061, 33.7232], [-117.4043, 33.7233], [-117.404, 33.724], [-117.4015, 33.7242], [-117.4047, 33.721], [-117.4067, 33.7207], [-117.407, 33.7191], [-117.404, 33.7167], [-117.4042, 33.7135], [-117.403, 33.7106], [-117.4034, 33.7096], [-117.4003, 33.7097], [-117.3998, 33.7114], [-117.3969, 33.7065], [-117.3958, 33.7063], [-117.3967, 33.7039], [-117.3978, 33.7037], [-117.398, 33.7029], [-117.4011, 33.7008], [-117.4007, 33.6986], [-117.4029, 33.6986], [-117.4039, 33.6979], [-117.403, 33.698], [-117.3987, 33.6945], [-117.4011, 33.6941], [-117.4057, 33.6921], [-117.4075, 33.6929], [-117.4066, 33.6939], [-117.4081, 33.6951], [-117.4098, 33.6945], [-117.4143, 33.6946], [-117.4153, 33.6901], [-117.4088, 33.688], [-117.4086, 33.6885], [-117.4056, 33.6887], [-117.3999, 33.6878], [-117.3986, 33.6851], [-117.3968, 33.6834], [-117.3968, 33.6818], [-117.3982, 33.6814], [-117.3988, 33.6804], [-117.3998, 33.6809], [-117.4017, 33.6804], [-117.4042, 33.6773], [-117.4096, 33.6764], [-117.4095, 33.6749], [-117.4123, 33.6742], [-117.4119, 33.673], [-117.4107, 33.6732], [-117.4114, 33.6705], [-117.4109, 33.6697], [-117.4087, 33.6696], [-117.4067, 33.6701], [-117.4038, 33.6725], [-117.3985, 33.6712], [-117.3969, 33.6678], [-117.3952, 33.6673], [-117.397, 33.6651], [-117.3963, 33.6639], [-117.3972, 33.663], [-117.3924, 33.662], [-117.3913, 33.6601], [-117.3872, 33.6581], [-117.389, 33.6545], [-117.3929, 33.6512], [-117.3946, 33.651], [-117.3956, 33.6518], [-117.3958, 33.6545], [-117.3969, 33.6563], [-117.3989, 33.6578], [-117.4077, 33.655], [-117.414, 33.656], [-117.4167, 33.6581], [-117.4178, 33.6571], [-117.4189, 33.6575], [-117.4205, 33.6571], [-117.4214, 33.658], [-117.4242, 33.6565], [-117.4249, 33.6568], [-117.4287, 33.656], [-117.431, 33.6536], [-117.4351, 33.6514], [-117.4365, 33.6542], [-117.4372, 33.6545], [-117.4381, 33.6539], [-117.4378, 33.6553], [-117.4401, 33.6554], [-117.4405, 33.6564], [-117.4444, 33.658], [-117.4455, 33.66], [-117.4475, 33.6609], [-117.4504, 33.6611], [-117.4502, 33.6601], [-117.4512, 33.6596], [-117.4529, 33.6618], [-117.453, 33.6645], [-117.4522, 33.6651], [-117.4532, 33.6668], [-117.4541, 33.6679], [-117.4559, 33.6682], [-117.4588, 33.6712], [-117.4627, 33.6686], [-117.4655, 33.6693], [-117.4668, 33.6687], [-117.4676, 33.6661], [-117.4691, 33.6653], [-117.4687, 33.6635], [-117.4698, 33.6602], [-117.4734, 33.6573], [-117.4822, 33.6548], [-117.486, 33.6548], [-117.4876, 33.653], [-117.492, 33.6525], [-117.4925, 33.6558], [-117.4935, 33.6565], [-117.4934, 33.6584], [-117.4947, 33.6607], [-117.4965, 33.6612], [-117.4964, 33.6617], [-117.5003, 33.6608], [-117.5005, 33.6612], [-117.4982, 33.6626], [-117.4969, 33.6626], [-117.4935, 33.6659], [-117.492, 33.669], [-117.4894, 33.6702], [-117.4887, 33.6723], [-117.4945, 33.6745], [-117.5025, 33.6708], [-117.5049, 33.6726], [-117.5154, 33.6762], [-117.5161, 33.6773], [-117.515, 33.6783], [-117.5155, 33.6804], [-117.5148, 33.682], [-117.5041, 33.6901], [-117.5019, 33.6936], [-117.5068, 33.6939], [-117.5092, 33.6933], [-117.5096, 33.6939], [-117.5115, 33.6939], [-117.5119, 33.6946], [-117.5106, 33.6975], [-117.5115, 33.6984], [-117.5099, 33.7001], [-117.5075, 33.705], [-117.508, 33.7074], [-117.509, 33.7083], [-117.5117, 33.709], [-117.512, 33.7097], [-117.5158, 33.7105], [-117.5186, 33.7119], [-117.5187, 33.7112], [-117.5226, 33.711], [-117.5238, 33.7097]]], [[[-117.519, 33.7098], [-117.5189, 33.7107], [-117.5181, 33.7105], [-117.5182, 33.7102], [-117.519, 33.7098]]]]}, "properties": {"layer": "perimeter"}}, {"type": "Feature", "geometry": {"type": "MultiPolygon", "coordinates": [[[[-117.5026, 33.7542], [-117.5016, 33.7547], [-117.4955, 33.7543], [-117.491, 33.7528], [-117.4909, 33.7512], [-117.4897, 33.7517], [-117.4874, 33.7508], [-117.4867, 33.7493], [-117.4843, 33.7501], [-117.4846, 33.7492], [-117.4821, 33.7489], [-117.4804, 33.7477], [-117.4804, 33.7464], [-117.4786, 33.7452], [-117.4771, 33.7428], [-117.4751, 33.7418], [-117.4689, 33.7412], [-117.4669, 33.7402], [-117.4663, 33.7396], [-117.4671, 33.7378], [-117.466, 33.7377], [-117.4657, 33.7383], [-117.464, 33.7367], [-117.4622, 33.7376], [-117.4625, 33.7394], [-117.4612, 33.7389], [-117.4595, 33.7399], [-117.4595, 33.7349], [-117.4682, 33.735], [-117.4682, 33.7386], [-117.4726, 33.7387], [-117.4726, 33.735], [-117.477, 33.735], [-117.4769, 33.7422], [-117.4853, 33.7422], [-117.4854, 33.7458], [-117.4898, 33.7458], [-117.4899, 33.7495], [-117.5027, 33.7495], [-117.5026, 33.7542]]], [[[-117.4508, 33.7393], [-117.4508, 33.7392], [-117.4508, 33.7391], [-117.4508, 33.7393]]], [[[-117.4508, 33.7388], [-117.4508, 33.7388], [-117.4508, 33.7389], [-117.4508, 33.7388]]], [[[-117.4508, 33.7387], [-117.4508, 33.7387], [-117.4508, 33.7387], [-117.4508, 33.7387]]], [[[-117.4508, 33.7383], [-117.4508, 33.7383], [-117.4508, 33.7383], [-117.4508, 33.7383]]], [[[-117.4531, 33.7349], [-117.4557, 33.7345], [-117.4545, 33.7332], [-117.4555, 33.7326], [-117.4545, 33.7323], [-117.453, 33.733], [-117.4523, 33.7317], [-117.4513, 33.7322], [-117.4506, 33.7317], [-117.4496, 33.7299], [-117.4473, 33.73], [-117.4471, 33.7292], [-117.4486, 33.7278], [-117.4464, 33.7263], [-117.447, 33.725], [-117.4449, 33.7247], [-117.4422, 33.723], [-117.4421, 33.7252], [-117.441, 33.726], [-117.44, 33.7243], [-117.4385, 33.7237], [-117.4408, 33.7206], [-117.4386, 33.7204], [-117.4378, 33.7212], [-117.4382, 33.7204], [-117.4338, 33.7202], [-117.432, 33.719], [-117.4297, 33.7186], [-117.4275, 33.7153], [-117.4253, 33.7163], [-117.424, 33.7153], [-117.4222, 33.7152], [-117.4205, 33.7169], [-117.417, 33.7186], [-117.4162, 33.7209], [-117.4164, 33.7131], [-117.4376, 33.7129], [-117.4375, 33.7051], [-117.4418, 33.7051], [-117.4418, 33.7015], [-117.4461, 33.7015], [-117.4462, 33.7088], [-117.4419, 33.7088], [-117.442, 33.7129], [-117.4506, 33.713], [-117.4508, 33.7313], [-117.4595, 33.7313], [-117.4595, 33.7349], [-117.4531, 33.7349]]], [[[-117.3968, 33.6834], [-117.3968, 33.6818], [-117.3982, 33.6814], [-117.3988, 33.6804], [-117.3998, 33.6809], [-117.4017, 33.6804], [-117.4042, 33.6773], [-117.4096, 33.6764], [-117.4095, 33.6749], [-117.4123, 33.6742], [-117.4123, 33.6735], [-117.4119, 33.673], [-117.4107, 33.6732], [-117.4114, 33.6705], [-117.4109, 33.6697], [-117.4067, 33.6701], [-117.4065, 33.6709], [-117.4038, 33.6725], [-117.3982, 33.6709], [-117.4064, 33.6706], [-117.4063, 33.6633], [-117.3978, 33.6634], [-117.3979, 33.6703], [-117.3969, 33.6678], [-117.3952, 33.6673], [-117.397, 33.6651], [-117.3963, 33.6639], [-117.3972, 33.663], [-117.3924, 33.662], [-117.3913, 33.6601], [-117.3872, 33.6581], [-117.389, 33.6545], [-117.3929, 33.6512], [-117.3946, 33.651], [-117.3956, 33.6518], [-117.396, 33.6549], [-117.3983, 33.6577], [-117.4004, 33.6576], [-117.4044, 33.656], [-117.4141, 33.6561], [-117.4153, 33.6571], [-117.4149, 33.6704], [-117.4327, 33.6711], [-117.4339, 33.6836], [-117.3987, 33.6842], [-117.3968, 33.6834]]], [[[-117.4237, 33.6566], [-117.4244, 33.6564], [-117.4247, 33.6566], [-117.4237, 33.6566]]], [[[-117.4253, 33.6567], [-117.4287, 33.656], [-117.431, 33.6536], [-117.4328, 33.653], [-117.4328, 33.6571], [-117.4253, 33.6567]]], [[[-117.4328, 33.6571], [-117.4422, 33.657], [-117.4424, 33.6713], [-117.4327, 33.6711], [-117.4328, 33.6571]]], [[[-117.4481, 33.6836], [-117.4517, 33.6836], [-117.4517, 33.6861], [-117.4514, 33.6859], [-117.4481, 33.6836]]], [[[-117.446, 33.6877], [-117.4461, 33.6909], [-117.4422, 33.6908], [-117.442, 33.6943], [-117.4441, 33.6943], [-117.4439, 33.6979], [-117.433, 33.6977], [-117.4339, 33.6836], [-117.4426, 33.6836], [-117.4423, 33.6877], [-117.446, 33.6877]]]]}, "properties": {"layer": "retained"}}]}
