{"type": "FeatureCollection", "features": [{"type": "Feature", "geometry": {"type": "Polygon", "coordinates": [[[-123.7708, 41.8193], [-123.7699, 41.8174], [-123.7681, 41.8167], [-123.7685, 41.8156], [-123.7673, 41.8152], [-123.7656, 41.8164], [-123.7666, 41.819], [-123.7636, 41.8193], [-123.7602, 41.817], [-123.7602, 41.8177], [-123.7594, 41.8179], [-123.7577, 41.8156], [-123.7519, 41.8152], [-123.7506, 41.816], [-123.7495, 41.8153], [-123.7464, 41.8154], [-123.7457, 41.8143], [-123.7469, 41.8134], [-123.7446, 41.813], [-123.7448, 41.8119], [-123.7436, 41.8107], [-123.7421, 41.8096], [-123.7413, 41.8099], [-123.7412, 41.8079], [-123.7439, 41.8064], [-123.7443, 41.8023], [-123.7473, 41.7991], [-123.747, 41.7977], [-123.7496, 41.7946], [-123.7491, 41.7937], [-123.7469, 41.7936], [-123.7445, 41.795], [-123.7429, 41.7949], [-123.7364, 41.7889], [-123.7355, 41.7887], [-123.7344, 41.7864], [-123.7357, 41.7865], [-123.7375, 41.7848], [-123.7419, 41.7839], [-123.7421, 41.7832], [-123.7443, 41.783], [-123.7455, 41.7821], [-123.7481, 41.7815], [-123.7507, 41.7824], [-123.7512, 41.7842], [-123.7481, 41.7851], [-123.7514, 41.786], [-123.7516, 41.7872], [-123.7535, 41.7865], [-123.7546, 41.7873], [-123.755, 41.7858], [-123.754, 41.785], [-123.756, 41.7807], [-123.7571, 41.7807], [-123.7594, 41.7787], [-123.7621, 41.7784], [-123.7625, 41.7792], [-123.7654, 41.7801], [-123.7662, 41.7814], [-123.7672, 41.7808], [-123.7676, 41.7777], [-123.7688, 41.7776], [-123.769, 41.7783], [-123.7702, 41.7779], [-123.7695, 41.7813], [-123.7704, 41.7815], [-123.772, 41.78], [-123.7727, 41.7804], [-123.7728, 41.7818], [-123.7715, 41.784], [-123.7744, 41.7833], [-123.7758, 41.7845], [-123.7751, 41.7897], [-123.7714, 41.7914], [-123.7742, 41.7927], [-123.7755, 41.7947], [-123.7723, 41.7958], [-123.7721, 41.7967], [-123.7704, 41.7957], [-123.7674, 41.7951], [-123.766, 41.7977], [-123.7664, 41.7989], [-123.7638, 41.7995], [-123.7672, 41.8009], [-123.7741, 41.8003], [-123.7749, 41.8013], [-123.7747, 41.8028], [-123.7763, 41.8027], [-123.7762, 41.8035], [-123.7768, 41.8026], [-123.7779, 41.8024], [-123.7793, 41.8032], [-123.7798, 41.8027], [-123.7809, 41.8049], [-123.7825, 41.8051], [-123.7836, 41.807], [-123.7811, 41.8082], [-123.7812, 41.8103], [-123.7794, 41.8103], [-123.7805, 41.8125], [-123.7789, 41.8128], [-123.7787, 41.814], [-123.7773, 41.8145], [-123.7759, 41.8164], [-123.777, 41.82], [-123.7767, 41.8222], [-123.7752, 41.8212], [-123.775, 41.8195], [-123.7739, 41.8193], [-123.7733, 41.8205], [-123.7719, 41.8202], [-123.771, 41.8209], [-123.7702, 41.8193], [-123.7708, 41.8193]]]}, "properties": {"layer": "perimeter"}}, {"type": "Feature", "geometry": {"type": "Polygon", "coordinates": [[[-123.7388, 41.7846], [-123.7435, 41.783], [-123.7435, 41.7884], [-123.7386, 41.7884], [-123.7388, 41.7846]]]}, "properties": {"layer": "retained"}}, {"type": "Feature", "geometry": {"type": "Polygon", "coordinates": [[[-123.7435, 41.7874], [-123.7435, 41.7869], [-123.7428, 41.7869], [-123.7428, 41.7871], [-123.7435, 41.7874]]]}, "properties": {"layer": "high_severity"}}]}
