{"type": "FeatureCollection", "features": [{"type": "Feature", "geometry": {"type": "Polygon", "coordinates": [[[-115.1733, 35.1934], [-115.1739, 35.1925], [-115.1758, 35.1921], [-115.1766, 35.1883], [-115.1706, 35.1834], [-115.1701, 35.1819], [-115.172, 35.1786], [-115.1744, 35.1781], [-115.1773, 35.1788], [-115.1807, 35.1806], [-115.1868, 35.1814], [-115.1893, 35.1825], [-115.1945, 35.1879], [-115.1944, 35.1945], [-115.1974, 35.1968], [-115.1969, 35.1973], [-115.1938, 35.1967], [-115.1927, 35.1971], [-115.1953, 35.202], [-115.1936, 35.2034], [-115.1893, 35.2028], [-115.1884, 35.2002], [-115.1871, 35.1997], [-115.1853, 35.1998], [-115.1845, 35.2014], [-115.1802, 35.2022], [-115.179, 35.201], [-115.176, 35.2004], [-115.1751, 35.1995], [-115.1734, 35.197], [-115.1733, 35.1934]]]}, "properties": {"layer": "perimeter"}}]}
