{"type": "FeatureCollection", "features": [{"type": "Feature", "geometry": {"type": "Polygon", "coordinates": [[[-123.5038, 40.6413], [-123.5026, 40.6423], [-123.501, 40.6414], [-123.4984, 40.6417], [-123.4976, 40.6403], [-123.496, 40.6397], [-123.4959, 40.6383], [-123.4971, 40.6378], [-123.4977, 40.6333], [-123.4969, 40.6317], [-123.4957, 40.6313], [-123.4969, 40.6286], [-123.4953, 40.6276], [-123.4955, 40.624], [-123.4974, 40.6225], [-123.4989, 40.6224], [-123.4991, 40.6211], [-123.5014, 40.6198], [-123.4996, 40.6192], [-123.4965, 40.6199], [-123.4945, 40.6167], [-123.4972, 40.6157], [-123.4989, 40.6123], [-123.5021, 40.6131], [-123.5029, 40.6129], [-123.5021, 40.6128], [-123.5026, 40.6124], [-123.504, 40.6122], [-123.5051, 40.613], [-123.5074, 40.612], [-123.5097, 40.6126], [-123.5104, 40.6099], [-123.5158, 40.6067], [-123.5161, 40.6078], [-123.5181, 40.6089], [-123.5185, 40.6107], [-123.5214, 40.6124], [-123.5214, 40.6132], [-123.5234, 40.6136], [-123.523, 40.6147], [-123.525, 40.6163], [-123.5245, 40.6172], [-123.527, 40.6185], [-123.5268, 40.6201], [-123.5292, 40.621], [-123.5249, 40.6233], [-123.5263, 40.6237], [-123.5255, 40.6261], [-123.5269, 40.6303], [-123.5261, 40.6308], [-123.5252, 40.6305], [-123.5244, 40.6336], [-123.5226, 40.6337], [-123.5225, 40.6329], [-123.519, 40.634], [-123.5188, 40.6353], [-123.5173, 40.6356], [-123.5139, 40.6342], [-123.5145, 40.6337], [-123.5132, 40.6333], [-123.5136, 40.6318], [-123.5149, 40.6317], [-123.5142, 40.631], [-123.5125, 40.6314], [-123.5102, 40.63], [-123.5099, 40.6323], [-123.508, 40.6319], [-123.5078, 40.6323], [-123.5088, 40.6325], [-123.5086, 40.6337], [-123.5096, 40.634], [-123.5091, 40.6371], [-123.512, 40.6368], [-123.5126, 40.6375], [-123.5121, 40.639], [-123.5128, 40.6396], [-123.5113, 40.6409], [-123.5131, 40.6426], [-123.5113, 40.6438], [-123.5096, 40.6423], [-123.5079, 40.6421], [-123.5072, 40.6427], [-123.5038, 40.6413]]]}, "properties": {"layer": "perimeter"}}, {"type": "Feature", "geometry": {"type": "MultiPolygon", "coordinates": [[[[-123.5038, 40.6413], [-123.5026, 40.6423], [-123.501, 40.6414], [-123.4984, 40.6417], [-123.4976, 40.6403], [-123.4961, 40.6399], [-123.4959, 40.6383], [-123.4969, 40.6381], [-123.4977, 40.6355], [-123.4974, 40.6326], [-123.4957, 40.631], [-123.4966, 40.6295], [-123.4967, 40.6309], [-123.5098, 40.6306], [-123.5099, 40.6323], [-123.508, 40.6319], [-123.5078, 40.6323], [-123.5088, 40.6325], [-123.5086, 40.6337], [-123.5096, 40.634], [-123.5091, 40.6371], [-123.512, 40.6368], [-123.5126, 40.6375], [-123.5121, 40.639], [-123.5128, 40.6396], [-123.5113, 40.6409], [-123.5131, 40.6426], [-123.5113, 40.6438], [-123.5096, 40.6423], [-123.5079, 40.6421], [-123.5072, 40.6427], [-123.5038, 40.6413]]], [[[-123.4966, 40.6281], [-123.4956, 40.6278], [-123.4955, 40.6274], [-123.4966, 40.6273], [-123.4966, 40.6281]]], [[[-123.4947, 40.6169], [-123.495, 40.6164], [-123.4965, 40.6162], [-123.4965, 40.6169], [-123.4947, 40.6169]]], [[[-123.5157, 40.6066], [-123.5161, 40.6078], [-123.5181, 40.6089], [-123.5185, 40.6107], [-123.5214, 40.6124], [-123.5214, 40.6132], [-123.5234, 40.6136], [-123.523, 40.6147], [-123.5249, 40.6162], [-123.5245, 40.6172], [-123.5256, 40.618], [-123.5157, 40.618], [-123.5157, 40.6066]]], [[[-123.5153, 40.6347], [-123.5153, 40.6325], [-123.5153, 40.6325], [-123.5153, 40.6347]]], [[[-123.5153, 40.6347], [-123.5139, 40.6342], [-123.5145, 40.6337], [-123.513, 40.6329], [-123.5148, 40.6315], [-123.5137, 40.6308], [-123.5125, 40.6314], [-123.511, 40.6306], [-123.5152, 40.6304], [-123.5153, 40.6347]]], [[[-123.5059, 40.6307], [-123.5059, 40.6307], [-123.5071, 40.6307], [-123.5059, 40.6307]]]]}, "properties": {"layer": "retained"}}, {"type": "Feature", "geometry": {"type": "MultiPolygon", "coordinates": [[[[-123.5067, 40.6401], [-123.507, 40.6392], [-123.5056, 40.6393], [-123.5056, 40.6398], [-123.5067, 40.6401]]], [[[-123.496, 40.6387], [-123.4974, 40.6395], [-123.4974, 40.6384], [-123.496, 40.6387]]], [[[-123.5035, 40.6396], [-123.5041, 40.6385], [-123.503, 40.6383], [-123.5027, 40.6394], [-123.5035, 40.6396]], [[-123.5034, 40.6388], [-123.5031, 40.6391], [-123.5031, 40.6388], [-123.5034, 40.6388]]], [[[-123.4995, 40.6381], [-123.5006, 40.6386], [-123.5005, 40.6378], [-123.4995, 40.6381]]], [[[-123.5082, 40.636], [-123.5082, 40.6352], [-123.5079, 40.6357], [-123.5068, 40.6355], [-123.5068, 40.636], [-123.5082, 40.636]]], [[[-123.5019, 40.6359], [-123.5021, 40.6345], [-123.5007, 40.6346], [-123.5008, 40.6351], [-123.5019, 40.6359]]], [[[-123.5064, 40.6352], [-123.5064, 40.6347], [-123.5075, 40.6346], [-123.5074, 40.6338], [-123.506, 40.6344], [-123.5064, 40.6352]]]]}, "properties": {"layer": "high_severity"}}]}
