{"type": "FeatureCollection", "features": [{"type": "Feature", "geometry": {"type": "MultiPolygon", "coordinates": [[[[-118.8242, 36.6463], [-118.8239, 36.6461], [-118.8242, 36.6461], [-118.8242, 36.6463]]], [[[-118.8221, 36.6484], [-118.8219, 36.6485], [-118.8219, 36.6484], [-118.8221, 36.6484]]], [[[-118.8606, 36.6558], [-118.8602, 36.6557], [-118.8604, 36.6557], [-118.8606, 36.6558]]], [[[-118.8396, 36.6573], [-118.8384, 36.657], [-118.839, 36.6566], [-118.8396, 36.6573]]], [[[-118.8375, 36.6582], [-118.8372, 36.6585], [-118.837, 36.6582], [-118.8375, 36.6582]]], [[[-118.8443, 36.6587], [-118.844, 36.6585], [-118.8444, 36.6586], [-118.8443, 36.6587]]], [[[-118.8408, 36.6586], [-118.8411, 36.6588], [-118.8409, 36.6589], [-118.8408, 36.6586]]], [[[-118.8773, 36.6987], [-118.8776, 36.6989], [-118.8773, 36.6989], [-118.8773, 36.6987]]], [[[-118.8843, 36.7065], [-118.8841, 36.7066], [-118.884, 36.7065], [-118.8843, 36.7065]]], [[[-118.8833, 36.707], [-118.8843, 36.7068], [-118.8836, 36.7074], [-118.8833, 36.707]]], [[[-118.9427, 36.7159], [-118.9432, 36.7159], [-118.9428, 36.7162], [-118.9427, 36.7159]]], [[[-118.904, 36.717], [-118.9034, 36.7171], [-118.9039, 36.7169], [-118.904, 36.717]]], [[[-118.8998, 36.7208], [-118.9, 36.7212], [-118.8997, 36.7211], [-118.8998, 36.7208]]], [[[-118.9436, 36.7248], [-118.9441, 36.7249], [-118.9438, 36.7249], [-118.9436, 36.7248]]], [[[-118.9246, 36.7271], [-118.9243, 36.7271], [-118.9244, 36.727], [-118.9246, 36.7271]]], [[[-118.9169, 36.7271], [-118.917, 36.7271], [-118.9169, 36.7271], [-118.9169, 36.7271]]], [[[-118.7611, 36.5433], [-118.7607, 36.5431], [-118.7609, 36.543], [-118.7611, 36.5433]]], [[[-118.7679, 36.563], [-118.7677, 36.5629], [-118.7679, 36.5629], [-118.7679, 36.563]]], [[[-118.922, 36.7298], [-118.918, 36.7288], [-118.9178, 36.727], [-118.9169, 36.7267], [-118.9165, 36.7254], [-118.9155, 36.7254], [-118.9152, 36.7234], [-118.9161, 36.7217], [-118.9135, 36.7208], [-118.9098, 36.7214], [-118.9078, 36.7211], [-118.9062, 36.7176], [-118.9028, 36.716], [-118.9013, 36.7166], [-118.9008, 36.718], [-118.8972, 36.7191], [-118.8965, 36.716], [-118.8946, 36.7142], [-118.8914, 36.7134], [-118.8893, 36.7093], [-118.8867, 36.7085], [-118.8854, 36.7068], [-118.8788, 36.7036], [-118.878, 36.7019], [-118.8785, 36.7005], [-118.8782, 36.6949], [-118.8763, 36.6945], [-118.8763, 36.6938], [-118.8772, 36.6941], [-118.8781, 36.6936], [-118.878, 36.6893], [-118.8807, 36.6856], [-118.8796, 36.6837], [-118.8801, 36.6833], [-118.8791, 36.6831], [-118.8798, 36.6825], [-118.879, 36.6804], [-118.8783, 36.6797], [-118.8776, 36.6799], [-118.8781, 36.6772], [-118.8764, 36.6761], [-118.8788, 36.6748], [-118.8784, 36.6733], [-118.8768, 36.6731], [-118.877, 36.6724], [-118.8793, 36.6715], [-118.8799, 36.6702], [-118.8775, 36.6691], [-118.8761, 36.6712], [-118.8748, 36.6693], [-118.8719, 36.669], [-118.8724, 36.6677], [-118.8718, 36.6668], [-118.8703, 36.6668], [-118.8707, 36.666], [-118.8701, 36.6658], [-118.8715, 36.6625], [-118.8708, 36.663], [-118.8703, 36.6614], [-118.8699, 36.6617], [-118.8695, 36.6608], [-118.868, 36.6603], [-118.8695, 36.6588], [-118.8678, 36.6587], [-118.8672, 36.6577], [-118.8664, 36.6582], [-118.8665, 36.6577], [-118.8649, 36.6576], [-118.8652, 36.6557], [-118.8633, 36.6557], [-118.8623, 36.6547], [-118.8609, 36.6554], [-118.8609, 36.6543], [-118.8595, 36.6541], [-118.8592, 36.6534], [-118.8584, 36.6543], [-118.857, 36.6535], [-118.8568, 36.6549], [-118.8561, 36.655], [-118.8557, 36.6543], [-118.8549, 36.6554], [-118.8547, 36.6541], [-118.8512, 36.6562], [-118.8511, 36.6577], [-118.8504, 36.6569], [-118.8495, 36.6577], [-118.8508, 36.6583], [-118.8512, 36.6597], [-118.8504, 36.659], [-118.85, 36.6596], [-118.8506, 36.6602], [-118.8494, 36.6606], [-118.8482, 36.6588], [-118.8478, 36.6595], [-118.8485, 36.66], [-118.8475, 36.6608], [-118.8467, 36.6606], [-118.8466, 36.6588], [-118.8447, 36.6581], [-118.8436, 36.6558], [-118.8401, 36.6553], [-118.8391, 36.6545], [-118.8379, 36.655], [-118.8364, 36.6537], [-118.8361, 36.6548], [-118.8351, 36.6543], [-118.8345, 36.655], [-118.8352, 36.6558], [-118.8342, 36.6572], [-118.8349, 36.658], [-118.8342, 36.6595], [-118.8332, 36.6593], [-118.8332, 36.6603], [-118.8319, 36.6594], [-118.8321, 36.6584], [-118.8311, 36.6598], [-118.8302, 36.6584], [-118.8289, 36.6583], [-118.8288, 36.6605], [-118.8268, 36.6613], [-118.8277, 36.6627], [-118.8265, 36.6632], [-118.8269, 36.664], [-118.825, 36.6631], [-118.824, 36.6633], [-118.8237, 36.6641], [-118.8221, 36.6633], [-118.8216, 36.6643], [-118.8207, 36.6632], [-118.8205, 36.661], [-118.8235, 36.6599], [-118.8243, 36.6588], [-118.8236, 36.6571], [-118.8221, 36.6563], [-118.8231, 36.6547], [-118.8273, 36.6527], [-118.8276, 36.6515], [-118.8261, 36.6505], [-118.8269, 36.649], [-118.8234, 36.644], [-118.8214, 36.643], [-118.8185, 36.6429], [-118.8162, 36.6442], [-118.8151, 36.6465], [-118.814, 36.6468], [-118.811, 36.6441], [-118.8097, 36.6437], [-118.8048, 36.6464], [-118.8043, 36.6451], [-118.8072, 36.6421], [-118.8074, 36.6406], [-118.8067, 36.6391], [-118.804, 36.6396], [-118.8026, 36.6388], [-118.8027, 36.6379], [-118.8046, 36.6362], [-118.8041, 36.6303], [-118.803, 36.63], [-118.8027, 36.6312], [-118.8011, 36.632], [-118.7992, 36.6321], [-118.7982, 36.6314], [-118.7972, 36.6319], [-118.7965, 36.631], [-118.7955, 36.6313], [-118.7942, 36.6296], [-118.7927, 36.6307], [-118.7906, 36.6292], [-118.7896, 36.6302], [-118.7902, 36.6309], [-118.7896, 36.633], [-118.7866, 36.6317], [-118.7839, 36.6329], [-118.7833, 36.632], [-118.7843, 36.6318], [-118.7823, 36.6297], [-118.7847, 36.6289], [-118.7848, 36.6281], [-118.7841, 36.6278], [-118.7841, 36.6284], [-118.7831, 36.6278], [-118.7828, 36.6248], [-118.7822, 36.6247], [-118.7796, 36.6253], [-118.7803, 36.6265], [-118.7785, 36.6269], [-118.7786, 36.6278], [-118.7773, 36.629], [-118.7772, 36.6314], [-118.7747, 36.6332], [-118.7742, 36.635], [-118.7732, 36.6353], [-118.7737, 36.6358], [-118.773, 36.6382], [-118.772, 36.6376], [-118.7717, 36.6383], [-118.7694, 36.6358], [-118.7684, 36.6361], [-118.7709, 36.6386], [-118.7727, 36.6391], [-118.773, 36.6415], [-118.77, 36.6409], [-118.7701, 36.642], [-118.7665, 36.6435], [-118.7651, 36.6425], [-118.7638, 36.6433], [-118.7641, 36.6438], [-118.7626, 36.6436], [-118.7594, 36.6462], [-118.758, 36.646], [-118.7597, 36.643], [-118.7577, 36.6439], [-118.7582, 36.645], [-118.7572, 36.6458], [-118.7588, 36.6471], [-118.757, 36.648], [-118.7554, 36.6478], [-118.7552, 36.6471], [-118.7536, 36.6473], [-118.7548, 36.648], [-118.7542, 36.6493], [-118.7554, 36.6512], [-118.7548, 36.6522], [-118.7544, 36.6515], [-118.7541, 36.6522], [-118.7531, 36.652], [-118.7533, 36.6529], [-118.7518, 36.6516], [-118.7512, 36.6522], [-118.7517, 36.6525], [-118.7507, 36.6519], [-118.7517, 36.651], [-118.7513, 36.6504], [-118.7493, 36.6506], [-118.7485, 36.6498], [-118.7494, 36.6491], [-118.7494, 36.6487], [-118.7486, 36.6482], [-118.7484, 36.6461], [-118.7504, 36.6464], [-118.7504, 36.6456], [-118.7521, 36.6453], [-118.752, 36.6446], [-118.7509, 36.6447], [-118.7516, 36.6438], [-118.7501, 36.6446], [-118.7498, 36.6439], [-118.7509, 36.6435], [-118.7504, 36.6427], [-118.7496, 36.6438], [-118.7473, 36.6445], [-118.7472, 36.6433], [-118.7456, 36.6437], [-118.7445, 36.6431], [-118.7443, 36.6438], [-118.7429, 36.6425], [-118.7428, 36.6436], [-118.7424, 36.643], [-118.7417, 36.6435], [-118.7418, 36.6448], [-118.7408, 36.6441], [-118.7407, 36.643], [-118.7392, 36.644], [-118.7369, 36.6436], [-118.7374, 36.6418], [-118.7385, 36.6417], [-118.7376, 36.6405], [-118.7367, 36.6425], [-118.7357, 36.6428], [-118.7359, 36.6434], [-118.7365, 36.643], [-118.737, 36.6444], [-118.7352, 36.6452], [-118.7347, 36.647], [-118.7336, 36.6464], [-118.7326, 36.6467], [-118.7332, 36.6453], [-118.7322, 36.6462], [-118.7307, 36.6453], [-118.7306, 36.644], [-118.7315, 36.6435], [-118.7299, 36.6433], [-118.7314, 36.6421], [-118.7313, 36.6409], [-118.7304, 36.6408], [-118.7308, 36.6395], [-118.7315, 36.6396], [-118.7314, 36.6372], [-118.7301, 36.639], [-118.7296, 36.6384], [-118.7308, 36.6374], [-118.7305, 36.6361], [-118.7285, 36.6377], [-118.728, 36.6364], [-118.7272, 36.6375], [-118.7277, 36.6381], [-118.7269, 36.638], [-118.725, 36.6369], [-118.726, 36.6354], [-118.725, 36.6355], [-118.7246, 36.635], [-118.7284, 36.6334], [-118.7282, 36.632], [-118.7278, 36.6329], [-118.7272, 36.6331], [-118.7267, 36.6325], [-118.7275, 36.6322], [-118.7269, 36.6317], [-118.7284, 36.6312], [-118.7289, 36.6276], [-118.7324, 36.6268], [-118.7345, 36.6283], [-118.7364, 36.6268], [-118.7365, 36.624], [-118.7349, 36.6233], [-118.7343, 36.6222], [-118.7367, 36.6156], [-118.7394, 36.615], [-118.74, 36.6128], [-118.7426, 36.6119], [-118.7432, 36.6103], [-118.7451, 36.6106], [-118.7469, 36.6072], [-118.7478, 36.608], [-118.7477, 36.6092], [-118.7479, 36.6092], [-118.7479, 36.6095], [-118.7485, 36.6099], [-118.7489, 36.6092], [-118.7481, 36.6092], [-118.748, 36.6083], [-118.749, 36.6084], [-118.751, 36.605], [-118.7533, 36.6037], [-118.7503, 36.6043], [-118.748, 36.6066], [-118.7468, 36.6059], [-118.7465, 36.6072], [-118.7431, 36.6055], [-118.7429, 36.6037], [-118.7458, 36.6029], [-118.7474, 36.6012], [-118.7477, 36.602], [-118.7492, 36.6018], [-118.7482, 36.604], [-118.7493, 36.6032], [-118.7508, 36.6038], [-118.7502, 36.603], [-118.7518, 36.6022], [-118.7516, 36.6014], [-118.7533, 36.6], [-118.753, 36.5992], [-118.7523, 36.5998], [-118.7509, 36.5997], [-118.7507, 36.6003], [-118.7507, 36.5992], [-118.7531, 36.5979], [-118.7545, 36.5984], [-118.7549, 36.5973], [-118.7564, 36.5969], [-118.757, 36.5949], [-118.7596, 36.5934], [-118.7601, 36.5893], [-118.7588, 36.5887], [-118.7582, 36.5865], [-118.7588, 36.5833], [-118.7572, 36.5824], [-118.7541, 36.5824], [-118.7516, 36.5796], [-118.7539, 36.5771], [-118.7572, 36.5765], [-118.7581, 36.5754], [-118.7617, 36.5746], [-118.7636, 36.5733], [-118.7655, 36.5733], [-118.766, 36.5746], [-118.7668, 36.5725], [-118.7685, 36.571], [-118.7711, 36.5703], [-118.7722, 36.5664], [-118.7735, 36.5665], [-118.774, 36.5649], [-118.7753, 36.5641], [-118.7757, 36.5648], [-118.7772, 36.5634], [-118.7764, 36.5631], [-118.7738, 36.5641], [-118.7737, 36.5633], [-118.7725, 36.5631], [-118.7729, 36.5622], [-118.7722, 36.5619], [-118.7715, 36.5624], [-118.77, 36.561], [-118.7709, 36.5595], [-118.7689, 36.5594], [-118.7684, 36.557], [-118.7697, 36.5545], [-118.7694, 36.552], [-118.7664, 36.5504], [-118.7671, 36.5489], [-118.7637, 36.5495], [-118.764, 36.5507], [-118.7629, 36.552], [-118.7554, 36.5529], [-118.7534, 36.5546], [-118.7511, 36.5542], [-118.7494, 36.5553], [-118.7487, 36.554], [-118.7497, 36.5529], [-118.7492, 36.5517], [-118.7479, 36.5522], [-118.7469, 36.5509], [-118.7463, 36.5524], [-118.7468, 36.5532], [-118.7461, 36.5541], [-118.7449, 36.5539], [-118.7448, 36.5546], [-118.7442, 36.5538], [-118.745, 36.5527], [-118.7447, 36.5516], [-118.7432, 36.5529], [-118.7425, 36.5522], [-118.7435, 36.5507], [-118.7444, 36.5512], [-118.7451, 36.5502], [-118.747, 36.5506], [-118.7467, 36.5495], [-118.7483, 36.5502], [-118.7482, 36.5487], [-118.7506, 36.5479], [-118.7519, 36.5457], [-118.7526, 36.5464], [-118.7569, 36.5445], [-118.7558, 36.5442], [-118.7565, 36.5433], [-118.7566, 36.544], [-118.7593, 36.5438], [-118.7607, 36.545], [-118.7616, 36.544], [-118.7641, 36.5443], [-118.7657, 36.5464], [-118.7653, 36.547], [-118.7671, 36.5461], [-118.7687, 36.5464], [-118.7689, 36.545], [-118.7671, 36.5445], [-118.7656, 36.5427], [-118.7661, 36.5419], [-118.7644, 36.5415], [-118.7641, 36.5408], [-118.7612, 36.5414], [-118.7611, 36.5397], [-118.7597, 36.5391], [-118.7592, 36.5408], [-118.7578, 36.5387], [-118.7586, 36.5382], [-118.7592, 36.5389], [-118.7598, 36.5385], [-118.7586, 36.5375], [-118.7569, 36.5376], [-118.7567, 36.5352], [-118.7559, 36.5354], [-118.7546, 36.5332], [-118.7574, 36.5292], [-118.7563, 36.5278], [-118.757, 36.5256], [-118.7608, 36.5243], [-118.7611, 36.5228], [-118.7634, 36.5225], [-118.7645, 36.5232], [-118.7659, 36.5227], [-118.7635, 36.5194], [-118.7609, 36.5192], [-118.7598, 36.5186], [-118.7599, 36.5197], [-118.7568, 36.5192], [-118.7566, 36.5201], [-118.7537, 36.521], [-118.7529, 36.5245], [-118.7515, 36.526], [-118.7464, 36.5268], [-118.7441, 36.5236], [-118.7432, 36.5237], [-118.7453, 36.5255], [-118.7447, 36.527], [-118.7453, 36.5275], [-118.7429, 36.5294], [-118.739, 36.5287], [-118.7392, 36.5261], [-118.7382, 36.5265], [-118.7365, 36.5254], [-118.7357, 36.5257], [-118.735, 36.5262], [-118.7366, 36.5267], [-118.7366, 36.5285], [-118.7378, 36.5292], [-118.7353, 36.5302], [-118.7339, 36.5292], [-118.7341, 36.5276], [-118.7333, 36.5266], [-118.7339, 36.5263], [-118.7327, 36.5257], [-118.7331, 36.5265], [-118.7324, 36.5273], [-118.7332, 36.5277], [-118.733, 36.5284], [-118.732, 36.5284], [-118.7316, 36.5276], [-118.7309, 36.5278], [-118.7292, 36.5248], [-118.7284, 36.5246], [-118.728, 36.5254], [-118.7267, 36.5254], [-118.7269, 36.5264], [-118.7292, 36.5273], [-118.7281, 36.5276], [-118.7305, 36.5279], [-118.7314, 36.5291], [-118.7325, 36.5292], [-118.7318, 36.5311], [-118.7306, 36.531], [-118.73, 36.5325], [-118.7285, 36.5324], [-118.729, 36.5335], [-118.7276, 36.5337], [-118.7265, 36.5355], [-118.7251, 36.5345], [-118.7238, 36.5349], [-118.7232, 36.5339], [-118.7201, 36.5366], [-118.7186, 36.5394], [-118.7167, 36.5383], [-118.7145, 36.5386], [-118.7128, 36.5376], [-118.7108, 36.5381], [-118.7079, 36.5377], [-118.7079, 36.5385], [-118.7067, 36.539], [-118.7037, 36.5373], [-118.6987, 36.538], [-118.6966, 36.5364], [-118.6943, 36.5377], [-118.6914, 36.5382], [-118.6895, 36.538], [-118.6871, 36.5388], [-118.685, 36.5383], [-118.6821, 36.5408], [-118.6782, 36.542], [-118.6757, 36.542], [-118.6732, 36.5414], [-118.6729, 36.5404], [-118.6671, 36.5355], [-118.6634, 36.5349], [-118.6628, 36.5333], [-118.6618, 36.533], [-118.6619, 36.5319], [-118.6602, 36.532], [-118.6612, 36.5336], [-118.6587, 36.5337], [-118.6592, 36.5344], [-118.6586, 36.5346], [-118.6577, 36.5337], [-118.6559, 36.5333], [-118.656, 36.5318], [-118.6548, 36.5318], [-118.6538, 36.5309], [-118.6546, 36.5287], [-118.6538, 36.528], [-118.6546, 36.5275], [-118.6539, 36.5251], [-118.6546, 36.5237], [-118.6523, 36.5233], [-118.6523, 36.5228], [-118.6537, 36.522], [-118.6547, 36.523], [-118.6549, 36.5226], [-118.6562, 36.523], [-118.6557, 36.5246], [-118.6567, 36.5247], [-118.6582, 36.5242], [-118.6583, 36.5218], [-118.6586, 36.5222], [-118.6596, 36.5217], [-118.6591, 36.5204], [-118.6616, 36.52], [-118.6602, 36.5185], [-118.6599, 36.517], [-118.6592, 36.5174], [-118.6587, 36.5165], [-118.656, 36.5184], [-118.6547, 36.5185], [-118.655, 36.5192], [-118.6559, 36.519], [-118.6551, 36.5198], [-118.6529, 36.5193], [-118.6525, 36.5197], [-118.652, 36.5191], [-118.6502, 36.5203], [-118.6518, 36.5188], [-118.6511, 36.5187], [-118.6516, 36.5179], [-118.6511, 36.5169], [-118.6518, 36.5172], [-118.6526, 36.5168], [-118.6516, 36.517], [-118.652, 36.5148], [-118.6538, 36.5146], [-118.6535, 36.5151], [-118.6543, 36.5153], [-118.6559, 36.5148], [-118.6568, 36.5133], [-118.6579, 36.5134], [-118.6583, 36.514], [-118.657, 36.5154], [-118.6581, 36.5164], [-118.659, 36.5152], [-118.6609, 36.5159], [-118.6603, 36.5143], [-118.6611, 36.5137], [-118.6628, 36.5141], [-118.6641, 36.5129], [-118.6646, 36.5134], [-118.6659, 36.5131], [-118.6665, 36.5121], [-118.664, 36.5114], [-118.6642, 36.5101], [-118.6657, 36.5101], [-118.6664, 36.5092], [-118.6676, 36.5098], [-118.6687, 36.5094], [-118.669, 36.5099], [-118.6711, 36.5086], [-118.671, 36.5078], [-118.6721, 36.5087], [-118.6742, 36.5076], [-118.674, 36.5056], [-118.6763, 36.505], [-118.6771, 36.5058], [-118.6775, 36.5043], [-118.6758, 36.5042], [-118.6756, 36.5037], [-118.6767, 36.5037], [-118.6763, 36.5032], [-118.6772, 36.5022], [-118.6766, 36.5012], [-118.6771, 36.5006], [-118.6776, 36.5012], [-118.6787, 36.5001], [-118.6785, 36.4989], [-118.68, 36.5001], [-118.6802, 36.4997], [-118.6803, 36.5004], [-118.6822, 36.5007], [-118.6831, 36.5028], [-118.6885, 36.5007], [-118.6903, 36.5009], [-118.6885, 36.4991], [-118.6896, 36.4986], [-118.6891, 36.4983], [-118.6902, 36.4989], [-118.6889, 36.4976], [-118.6897, 36.4977], [-118.6899, 36.4972], [-118.688, 36.4975], [-118.6876, 36.4967], [-118.6869, 36.4969], [-118.6867, 36.4982], [-118.6875, 36.4983], [-118.6876, 36.4993], [-118.6861, 36.4991], [-118.6861, 36.4985], [-118.6852, 36.4983], [-118.6857, 36.4965], [-118.6846, 36.4958], [-118.6854, 36.4955], [-118.6853, 36.495], [-118.6862, 36.4951], [-118.6853, 36.4946], [-118.685, 36.4931], [-118.686, 36.493], [-118.6872, 36.491], [-118.6886, 36.4903], [-118.689, 36.4888], [-118.6882, 36.4878], [-118.689, 36.4867], [-118.6927, 36.4867], [-118.6925, 36.4861], [-118.6945, 36.4853], [-118.6945, 36.4862], [-118.6951, 36.4862], [-118.6948, 36.4873], [-118.6953, 36.4875], [-118.6964, 36.4866], [-118.6956, 36.4859], [-118.6959, 36.484], [-118.6968, 36.4851], [-118.698, 36.4849], [-118.696, 36.4819], [-118.6972, 36.4823], [-118.696, 36.4806], [-118.6968, 36.4808], [-118.6966, 36.48], [-118.6955, 36.4798], [-118.6958, 36.4791], [-118.7007, 36.4806], [-118.6986, 36.4784], [-118.7013, 36.4788], [-118.7016, 36.4793], [-118.7008, 36.4796], [-118.7023, 36.4801], [-118.7015, 36.4803], [-118.7019, 36.4808], [-118.7031, 36.4808], [-118.7031, 36.4824], [-118.7049, 36.4821], [-118.7095, 36.4836], [-118.7082, 36.4848], [-118.7097, 36.4869], [-118.7104, 36.4866], [-118.7097, 36.4862], [-118.7114, 36.4863], [-118.71, 36.4859], [-118.7105, 36.4847], [-118.7127, 36.4858], [-118.7116, 36.4845], [-118.7084, 36.483], [-118.7086, 36.4825], [-118.7115, 36.4818], [-118.713, 36.4823], [-118.7138, 36.4845], [-118.7143, 36.4846], [-118.7144, 36.4827], [-118.7133, 36.4818], [-118.7138, 36.4805], [-118.7129, 36.479], [-118.7131, 36.4772], [-118.7104, 36.4768], [-118.7099, 36.4779], [-118.7075, 36.4778], [-118.7062, 36.4767], [-118.7061, 36.4755], [-118.7033, 36.4747], [-118.7036, 36.473], [-118.7061, 36.4711], [-118.7052, 36.4709], [-118.7044, 36.4716], [-118.7038, 36.4711], [-118.7049, 36.4698], [-118.7029, 36.4689], [-118.7031, 36.4682], [-118.702, 36.4675], [-118.7031, 36.4671], [-118.7024, 36.4658], [-118.7008, 36.4658], [-118.7001, 36.4681], [-118.6991, 36.467], [-118.6969, 36.4685], [-118.6963, 36.4677], [-118.6968, 36.4669], [-118.6973, 36.4671], [-118.6971, 36.4664], [-118.6966, 36.467], [-118.696, 36.4665], [-118.6941, 36.4671], [-118.6951, 36.466], [-118.6946, 36.4651], [-118.6938, 36.4652], [-118.6946, 36.4648], [-118.694, 36.4646], [-118.694, 36.4643], [-118.6954, 36.464], [-118.6947, 36.4638], [-118.6954, 36.4631], [-118.6946, 36.4621], [-118.6929, 36.4628], [-118.6926, 36.464], [-118.6918, 36.4633], [-118.6896, 36.4655], [-118.6896, 36.464], [-118.6881, 36.4645], [-118.6883, 36.4638], [-118.6863, 36.4629], [-118.6859, 36.4636], [-118.6871, 36.4643], [-118.6863, 36.4649], [-118.6868, 36.4676], [-118.6859, 36.4679], [-118.6871, 36.4686], [-118.6873, 36.47], [-118.6881, 36.4698], [-118.6889, 36.4706], [-118.6882, 36.4712], [-118.6864, 36.4698], [-118.6844, 36.47], [-118.682, 36.4685], [-118.682, 36.4675], [-118.6806, 36.467], [-118.6795, 36.4674], [-118.679, 36.466], [-118.6807, 36.4662], [-118.6812, 36.4655], [-118.6797, 36.4652], [-118.6777, 36.4625], [-118.6792, 36.4604], [-118.6763, 36.4616], [-118.6766, 36.4609], [-118.6755, 36.4591], [-118.676, 36.4588], [-118.6745, 36.4577], [-118.6733, 36.4587], [-118.6728, 36.4601], [-118.6736, 36.4604], [-118.6721, 36.4624], [-118.6711, 36.4628], [-118.6715, 36.4619], [-118.6701, 36.4615], [-118.6697, 36.4621], [-118.6704, 36.4624], [-118.6691, 36.4629], [-118.6692, 36.462], [-118.6684, 36.462], [-118.6677, 36.4607], [-118.6687, 36.4602], [-118.6699, 36.4605], [-118.6709, 36.4596], [-118.6699, 36.4592], [-118.6702, 36.4581], [-118.671, 36.4579], [-118.6707, 36.4569], [-118.6745, 36.4549], [-118.6753, 36.4519], [-118.6745, 36.4505], [-118.6754, 36.4497], [-118.6781, 36.4497], [-118.6783, 36.449], [-118.6789, 36.4499], [-118.6782, 36.4503], [-118.679, 36.4509], [-118.6783, 36.4512], [-118.6794, 36.4517], [-118.6811, 36.4498], [-118.6818, 36.4511], [-118.6836, 36.4494], [-118.6843, 36.4501], [-118.6861, 36.4494], [-118.6857, 36.4504], [-118.6867, 36.4505], [-118.6883, 36.4475], [-118.6905, 36.448], [-118.6927, 36.4474], [-118.6932, 36.4481], [-118.694, 36.4472], [-118.6946, 36.4476], [-118.6948, 36.4465], [-118.6957, 36.4461], [-118.6954, 36.4453], [-118.6966, 36.4448], [-118.6967, 36.4461], [-118.6974, 36.4465], [-118.6964, 36.4477], [-118.6972, 36.4495], [-118.6962, 36.45], [-118.6982, 36.4508], [-118.6977, 36.4518], [-118.7015, 36.4515], [-118.7035, 36.4534], [-118.7042, 36.4522], [-118.7036, 36.4495], [-118.702, 36.4489], [-118.7012, 36.4476], [-118.7043, 36.4471], [-118.7053, 36.4478], [-118.7068, 36.4466], [-118.7086, 36.4473], [-118.7103, 36.4446], [-118.714, 36.4459], [-118.7152, 36.4457], [-118.7173, 36.4441], [-118.7173, 36.4431], [-118.716, 36.4425], [-118.7168, 36.4411], [-118.7185, 36.4405], [-118.7191, 36.439], [-118.7173, 36.4388], [-118.7195, 36.4364], [-118.7195, 36.435], [-118.7216, 36.4334], [-118.7213, 36.4327], [-118.7247, 36.4308], [-118.7291, 36.4301], [-118.7313, 36.4308], [-118.7335, 36.4301], [-118.7357, 36.4312], [-118.7373, 36.4297], [-118.7421, 36.429], [-118.7414, 36.431], [-118.7424, 36.4319], [-118.7416, 36.4331], [-118.7426, 36.434], [-118.741, 36.4345], [-118.7424, 36.4357], [-118.7473, 36.4306], [-118.7482, 36.4309], [-118.7497, 36.43], [-118.7506, 36.4306], [-118.7527, 36.4307], [-118.7529, 36.4288], [-118.7557, 36.4296], [-118.7575, 36.4281], [-118.7598, 36.4286], [-118.761, 36.4296], [-118.7619, 36.4295], [-118.7622, 36.4258], [-118.7651, 36.4249], [-118.7666, 36.4266], [-118.7661, 36.4278], [-118.767, 36.4284], [-118.7674, 36.4302], [-118.7704, 36.4334], [-118.7703, 36.4364], [-118.7718, 36.438], [-118.7717, 36.4403], [-118.7732, 36.4418], [-118.7725, 36.4424], [-118.7707, 36.4424], [-118.7706, 36.4438], [-118.7727, 36.4451], [-118.7718, 36.446], [-118.7684, 36.448], [-118.7662, 36.4475], [-118.765, 36.4482], [-118.7655, 36.4494], [-118.7647, 36.4511], [-118.7654, 36.4513], [-118.7639, 36.4521], [-118.7633, 36.4539], [-118.7677, 36.4519], [-118.7676, 36.4505], [-118.7685, 36.4512], [-118.7704, 36.4498], [-118.7716, 36.45], [-118.7716, 36.4523], [-118.7683, 36.4549], [-118.7674, 36.4565], [-118.7642, 36.458], [-118.7638, 36.4616], [-118.7603, 36.4644], [-118.7612, 36.4657], [-118.7614, 36.4678], [-118.7634, 36.4694], [-118.762, 36.4701], [-118.7606, 36.4699], [-118.7614, 36.4703], [-118.7612, 36.4733], [-118.7654, 36.4692], [-118.7666, 36.4704], [-118.7664, 36.4714], [-118.7694, 36.4729], [-118.7711, 36.4717], [-118.7732, 36.472], [-118.7732, 36.4711], [-118.7748, 36.4725], [-118.7738, 36.4729], [-118.7738, 36.4742], [-118.7748, 36.4727], [-118.7765, 36.4719], [-118.7774, 36.473], [-118.779, 36.4733], [-118.7789, 36.4745], [-118.7802, 36.4745], [-118.7813, 36.4756], [-118.7827, 36.4756], [-118.7838, 36.4746], [-118.7868, 36.4748], [-118.7871, 36.476], [-118.7881, 36.4761], [-118.7877, 36.4766], [-118.7884, 36.4762], [-118.7878, 36.4752], [-118.7883, 36.4747], [-118.7894, 36.4748], [-118.789, 36.4758], [-118.7904, 36.4765], [-118.7915, 36.4764], [-118.7912, 36.4756], [-118.793, 36.4762], [-118.7978, 36.4715], [-118.8035, 36.4725], [-118.8033, 36.4729], [-118.8048, 36.4728], [-118.8042, 36.4724], [-118.8055, 36.4722], [-118.8134, 36.4796], [-118.8156, 36.4793], [-118.8169, 36.4817], [-118.8193, 36.4819], [-118.8195, 36.4813], [-118.8238, 36.4811], [-118.83, 36.4822], [-118.8358, 36.487], [-118.8312, 36.4853], [-118.8293, 36.4864], [-118.8275, 36.4866], [-118.8277, 36.488], [-118.8269, 36.4882], [-118.8251, 36.4879], [-118.8245, 36.487], [-118.8243, 36.4884], [-118.8232, 36.4883], [-118.8231, 36.49], [-118.8264, 36.4931], [-118.8279, 36.4924], [-118.8294, 36.4936], [-118.83, 36.4958], [-118.8292, 36.4967], [-118.8314, 36.5001], [-118.8323, 36.5051], [-118.835, 36.5061], [-118.8369, 36.5051], [-118.8407, 36.5069], [-118.8408, 36.5079], [-118.8436, 36.5077], [-118.8441, 36.5069], [-118.8449, 36.507], [-118.8467, 36.5087], [-118.846, 36.5091], [-118.8444, 36.5086], [-118.845, 36.5104], [-118.8465, 36.5101], [-118.8483, 36.513], [-118.8509, 36.5134], [-118.8529, 36.5146], [-118.8521, 36.5149], [-118.8529, 36.5165], [-118.8521, 36.5168], [-118.8518, 36.5158], [-118.849, 36.5153], [-118.8491, 36.5161], [-118.8472, 36.5186], [-118.8514, 36.518], [-118.854, 36.5166], [-118.8558, 36.5169], [-118.8592, 36.5162], [-118.8607, 36.5148], [-118.8618, 36.5151], [-118.8643, 36.5141], [-118.8652, 36.5166], [-118.8671, 36.5169], [-118.8673, 36.5183], [-118.8678, 36.5188], [-118.8685, 36.5183], [-118.8682, 36.519], [-118.8702, 36.5194], [-118.8707, 36.5209], [-118.8727, 36.5185], [-118.8757, 36.5204], [-118.8778, 36.525], [-118.8761, 36.5314], [-118.8773, 36.5322], [-118.8783, 36.5321], [-118.8785, 36.5311], [-118.8798, 36.5304], [-118.8806, 36.5286], [-118.8857, 36.5278], [-118.8892, 36.526], [-118.8914, 36.5265], [-118.8916, 36.5282], [-118.8904, 36.5289], [-118.8889, 36.5292], [-118.8875, 36.5286], [-118.8875, 36.529], [-118.8895, 36.5296], [-118.8905, 36.5312], [-118.8928, 36.532], [-118.8915, 36.5332], [-118.8914, 36.5344], [-118.892, 36.534], [-118.8928, 36.5351], [-118.896, 36.5366], [-118.8955, 36.5371], [-118.8937, 36.5358], [-118.8927, 36.5359], [-118.8938, 36.5365], [-118.8917, 36.537], [-118.8915, 36.5377], [-118.894, 36.538], [-118.8938, 36.5387], [-118.8924, 36.5388], [-118.8901, 36.5404], [-118.889, 36.5431], [-118.8872, 36.5419], [-118.8848, 36.5443], [-118.8923, 36.5438], [-118.8952, 36.5444], [-118.8938, 36.5453], [-118.8892, 36.5458], [-118.8881, 36.5483], [-118.8896, 36.5514], [-118.8913, 36.552], [-118.894, 36.555], [-118.8936, 36.557], [-118.8947, 36.5571], [-118.8949, 36.5582], [-118.8986, 36.5602], [-118.897, 36.5631], [-118.8957, 36.5632], [-118.8957, 36.5638], [-118.8937, 36.5652], [-118.8936, 36.5659], [-118.8959, 36.5659], [-118.8936, 36.5699], [-118.8942, 36.5705], [-118.8959, 36.5703], [-118.8961, 36.574], [-118.8959, 36.5751], [-118.893, 36.5759], [-118.8932, 36.5764], [-118.8956, 36.5787], [-118.8957, 36.5801], [-118.8984, 36.5822], [-118.8979, 36.5827], [-118.8988, 36.5855], [-118.8982, 36.5863], [-118.8988, 36.5869], [-118.9022, 36.5882], [-118.9025, 36.5895], [-118.9056, 36.5909], [-118.9083, 36.5914], [-118.9095, 36.5925], [-118.9143, 36.5941], [-118.9153, 36.5952], [-118.9148, 36.5962], [-118.9119, 36.5967], [-118.9121, 36.5984], [-118.914, 36.6], [-118.9118, 36.6008], [-118.9103, 36.6005], [-118.9104, 36.6013], [-118.9089, 36.6025], [-118.9094, 36.603], [-118.9116, 36.6019], [-118.9119, 36.6035], [-118.911, 36.604], [-118.9155, 36.6035], [-118.9165, 36.6057], [-118.9171, 36.6045], [-118.9192, 36.6048], [-118.9204, 36.6042], [-118.9212, 36.6049], [-118.9253, 36.6041], [-118.9252, 36.6033], [-118.9229, 36.6034], [-118.9212, 36.6011], [-118.9194, 36.6004], [-118.9205, 36.5989], [-118.9189, 36.5976], [-118.9171, 36.5979], [-118.9166, 36.5964], [-118.9178, 36.5972], [-118.9192, 36.5966], [-118.9211, 36.5976], [-118.9238, 36.5979], [-118.9254, 36.6003], [-118.927, 36.6011], [-118.9274, 36.6027], [-118.9289, 36.6036], [-118.9323, 36.6105], [-118.9309, 36.6117], [-118.9308, 36.6133], [-118.9326, 36.6178], [-118.932, 36.6208], [-118.9305, 36.622], [-118.9378, 36.6323], [-118.9414, 36.633], [-118.9434, 36.6324], [-118.9469, 36.6349], [-118.9468, 36.6359], [-118.9457, 36.6364], [-118.9461, 36.638], [-118.9451, 36.6403], [-118.9461, 36.6436], [-118.9493, 36.6462], [-118.9539, 36.6601], [-118.9509, 36.6722], [-118.949, 36.6739], [-118.9489, 36.6763], [-118.948, 36.6769], [-118.9489, 36.6767], [-118.9461, 36.6797], [-118.9446, 36.6835], [-118.943, 36.6847], [-118.9432, 36.6864], [-118.9422, 36.6865], [-118.9418, 36.6882], [-118.9424, 36.6888], [-118.9417, 36.6894], [-118.9428, 36.6915], [-118.9407, 36.6927], [-118.9409, 36.6948], [-118.9419, 36.6953], [-118.942, 36.6964], [-118.9449, 36.6933], [-118.9477, 36.6915], [-118.9521, 36.6951], [-118.9509, 36.6979], [-118.9497, 36.6983], [-118.9497, 36.7001], [-118.9474, 36.7027], [-118.9477, 36.7038], [-118.9463, 36.7071], [-118.9465, 36.7083], [-118.9451, 36.7095], [-118.9456, 36.7126], [-118.9446, 36.7141], [-118.9425, 36.7145], [-118.9416, 36.7155], [-118.9422, 36.7176], [-118.9507, 36.7193], [-118.9508, 36.7207], [-118.9484, 36.722], [-118.9485, 36.723], [-118.9459, 36.7254], [-118.9443, 36.7242], [-118.9429, 36.7247], [-118.9414, 36.7242], [-118.9407, 36.725], [-118.9409, 36.7245], [-118.9371, 36.7228], [-118.9359, 36.7239], [-118.9317, 36.7257], [-118.931, 36.7269], [-118.9294, 36.7263], [-118.9278, 36.7263], [-118.9268, 36.7272], [-118.9241, 36.7268], [-118.9233, 36.7277], [-118.923, 36.73], [-118.9221, 36.7306], [-118.922, 36.7298]], [[-118.6908, 36.461], [-118.6905, 36.4616], [-118.6914, 36.4619], [-118.6909, 36.4624], [-118.692, 36.4627], [-118.6922, 36.4605], [-118.6909, 36.4606], [-118.6913, 36.4613], [-118.6908, 36.461]], [[-118.7075, 36.4926], [-118.7084, 36.4882], [-118.7069, 36.4871], [-118.7074, 36.4866], [-118.7066, 36.4867], [-118.7063, 36.4873], [-118.7075, 36.4877], [-118.7069, 36.4881], [-118.7075, 36.4887], [-118.7057, 36.4913], [-118.7075, 36.4926]], [[-118.709, 36.4661], [-118.712, 36.4658], [-118.7117, 36.4648], [-118.7103, 36.4648], [-118.7098, 36.464], [-118.7073, 36.4674], [-118.7081, 36.4678], [-118.709, 36.4661]], [[-118.7081, 36.468], [-118.7086, 36.4688], [-118.7102, 36.4677], [-118.7096, 36.4675], [-118.7081, 36.468]], [[-118.7291, 36.5117], [-118.7266, 36.5067], [-118.7257, 36.5071], [-118.7251, 36.5095], [-118.7235, 36.5105], [-118.7248, 36.5113], [-118.7264, 36.5116], [-118.7272, 36.511], [-118.7291, 36.5117]], [[-118.7342, 36.5125], [-118.7359, 36.5122], [-118.7351, 36.5108], [-118.7358, 36.5099], [-118.7336, 36.51], [-118.7336, 36.5085], [-118.732, 36.5082], [-118.7314, 36.5065], [-118.7297, 36.5057], [-118.7302, 36.5045], [-118.7266, 36.5047], [-118.7301, 36.5118], [-118.7307, 36.5109], [-118.7323, 36.512], [-118.7329, 36.5115], [-118.7342, 36.5117], [-118.7342, 36.5125]], [[-118.7393, 36.5039], [-118.7382, 36.5064], [-118.7365, 36.5059], [-118.7361, 36.5052], [-118.7362, 36.5061], [-118.7387, 36.5073], [-118.7405, 36.5063], [-118.7413, 36.507], [-118.7412, 36.5063], [-118.7423, 36.5063], [-118.7416, 36.5044], [-118.7438, 36.5052], [-118.7461, 36.5042], [-118.7451, 36.5036], [-118.7453, 36.5024], [-118.7427, 36.502], [-118.7428, 36.503], [-118.7419, 36.502], [-118.7405, 36.5024], [-118.7412, 36.5037], [-118.7393, 36.5039]], [[-118.7387, 36.6305], [-118.7381, 36.6303], [-118.7376, 36.631], [-118.7386, 36.6312], [-118.7381, 36.6309], [-118.7387, 36.6305]], [[-118.7406, 36.6315], [-118.7391, 36.631], [-118.7408, 36.6322], [-118.7406, 36.6315]], [[-118.7404, 36.63], [-118.7412, 36.6284], [-118.7406, 36.6287], [-118.7404, 36.6271], [-118.7396, 36.628], [-118.7404, 36.63]], [[-118.7413, 36.6341], [-118.742, 36.6331], [-118.7406, 36.6331], [-118.7413, 36.6341]], [[-118.7462, 36.6383], [-118.7472, 36.6362], [-118.7445, 36.6361], [-118.7435, 36.6374], [-118.7447, 36.6375], [-118.7463, 36.6363], [-118.7454, 36.638], [-118.7462, 36.6383]], [[-118.7442, 36.63], [-118.7465, 36.6278], [-118.7466, 36.6253], [-118.7448, 36.6262], [-118.7451, 36.6277], [-118.7443, 36.6283], [-118.7438, 36.6279], [-118.7442, 36.63]], [[-118.745, 36.6221], [-118.7453, 36.6212], [-118.7452, 36.6208], [-118.7444, 36.6217], [-118.745, 36.6221]], [[-118.7511, 36.622], [-118.754, 36.6211], [-118.7533, 36.6205], [-118.7516, 36.6206], [-118.7515, 36.6188], [-118.7495, 36.6162], [-118.7513, 36.6176], [-118.7521, 36.6172], [-118.751, 36.6169], [-118.7511, 36.6161], [-118.7521, 36.6153], [-118.75, 36.6145], [-118.7484, 36.616], [-118.748, 36.6152], [-118.7486, 36.6144], [-118.7479, 36.6138], [-118.7464, 36.6149], [-118.7474, 36.6149], [-118.7463, 36.6161], [-118.747, 36.6172], [-118.7485, 36.6179], [-118.7495, 36.6172], [-118.7496, 36.6202], [-118.7479, 36.6246], [-118.7492, 36.6247], [-118.7479, 36.6268], [-118.7479, 36.6274], [-118.7486, 36.6275], [-118.748, 36.6294], [-118.7498, 36.6264], [-118.7514, 36.6275], [-118.7519, 36.6263], [-118.7521, 36.6267], [-118.7535, 36.6268], [-118.7518, 36.6251], [-118.751, 36.623], [-118.7511, 36.622]], [[-118.7516, 36.4856], [-118.7507, 36.485], [-118.7515, 36.4836], [-118.7499, 36.4849], [-118.7498, 36.484], [-118.7493, 36.4842], [-118.7497, 36.485], [-118.7504, 36.4854], [-118.7501, 36.4875], [-118.7516, 36.4856]], [[-118.7499, 36.6128], [-118.7537, 36.6126], [-118.7547, 36.6107], [-118.7549, 36.6063], [-118.7527, 36.6063], [-118.7532, 36.6053], [-118.7518, 36.6064], [-118.7538, 36.6067], [-118.7522, 36.6076], [-118.7526, 36.6089], [-118.7518, 36.6092], [-118.7518, 36.6071], [-118.7512, 36.6072], [-118.7509, 36.6063], [-118.7501, 36.6077], [-118.7511, 36.6074], [-118.7498, 36.6091], [-118.7529, 36.61], [-118.7528, 36.6108], [-118.752, 36.6109], [-118.751, 36.6107], [-118.751, 36.61], [-118.75, 36.6105], [-118.7514, 36.6117], [-118.7499, 36.6128]], [[-118.7498, 36.6302], [-118.751, 36.6295], [-118.7513, 36.6288], [-118.7498, 36.6302]], [[-118.7524, 36.6269], [-118.7522, 36.6293], [-118.7529, 36.6294], [-118.751, 36.6302], [-118.7512, 36.631], [-118.7527, 36.6299], [-118.7544, 36.6299], [-118.7551, 36.6284], [-118.7533, 36.6269], [-118.7524, 36.6269]], [[-118.7521, 36.6416], [-118.7517, 36.6426], [-118.7536, 36.6434], [-118.7527, 36.6424], [-118.7536, 36.6417], [-118.7536, 36.6422], [-118.7544, 36.6421], [-118.7544, 36.6411], [-118.7521, 36.6416]], [[-118.7535, 36.6367], [-118.7521, 36.6362], [-118.7522, 36.6369], [-118.7531, 36.6367], [-118.7522, 36.6377], [-118.754, 36.6378], [-118.7544, 36.6362], [-118.7535, 36.6367]], [[-118.7551, 36.6347], [-118.7556, 36.6361], [-118.7549, 36.6362], [-118.7556, 36.6366], [-118.7566, 36.6351], [-118.7559, 36.6342], [-118.7551, 36.6347]], [[-118.7742, 36.4944], [-118.7748, 36.4952], [-118.7749, 36.4937], [-118.7725, 36.4938], [-118.773, 36.4936], [-118.7718, 36.4905], [-118.7704, 36.4896], [-118.7708, 36.4892], [-118.7721, 36.4901], [-118.7726, 36.4896], [-118.7718, 36.489], [-118.7717, 36.4852], [-118.7709, 36.484], [-118.7717, 36.4825], [-118.771, 36.4827], [-118.7702, 36.4815], [-118.7686, 36.4837], [-118.765, 36.4774], [-118.7621, 36.4768], [-118.7615, 36.4771], [-118.7621, 36.4783], [-118.7613, 36.4788], [-118.7626, 36.4804], [-118.7611, 36.4812], [-118.7619, 36.4849], [-118.7629, 36.4857], [-118.763, 36.4847], [-118.764, 36.4847], [-118.7645, 36.4857], [-118.7655, 36.4857], [-118.7656, 36.4878], [-118.7664, 36.4881], [-118.7661, 36.4885], [-118.7643, 36.4876], [-118.7641, 36.4878], [-118.7646, 36.4899], [-118.766, 36.4903], [-118.7653, 36.4907], [-118.7665, 36.492], [-118.7673, 36.4903], [-118.7668, 36.4893], [-118.7681, 36.4897], [-118.7692, 36.491], [-118.7683, 36.4922], [-118.7691, 36.4921], [-118.7701, 36.4941], [-118.7733, 36.4952], [-118.7742, 36.4944]], [[-118.7621, 36.6373], [-118.7623, 36.6384], [-118.7646, 36.6384], [-118.7636, 36.6365], [-118.7621, 36.6373]], [[-118.768, 36.6331], [-118.7671, 36.6335], [-118.7668, 36.6352], [-118.7683, 36.6348], [-118.7696, 36.6323], [-118.7684, 36.632], [-118.768, 36.6331]], [[-118.7679, 36.6316], [-118.7689, 36.6314], [-118.7682, 36.6309], [-118.7679, 36.6316]], [[-118.7748, 36.5502], [-118.775, 36.5512], [-118.777, 36.5514], [-118.7758, 36.5499], [-118.7748, 36.5502]], [[-118.7989, 36.4816], [-118.7979, 36.4823], [-118.7991, 36.483], [-118.7986, 36.4837], [-118.7998, 36.4826], [-118.8008, 36.4843], [-118.8024, 36.4834], [-118.8009, 36.4813], [-118.7996, 36.482], [-118.7989, 36.4816]], [[-118.7993, 36.5264], [-118.7996, 36.5255], [-118.7989, 36.5262], [-118.7993, 36.5264]], [[-118.8003, 36.4782], [-118.8002, 36.4789], [-118.8013, 36.4793], [-118.8016, 36.4802], [-118.8036, 36.4802], [-118.8021, 36.4788], [-118.8046, 36.4785], [-118.8037, 36.4769], [-118.8042, 36.4757], [-118.8064, 36.4767], [-118.805, 36.4768], [-118.8057, 36.4777], [-118.8079, 36.4763], [-118.8047, 36.4752], [-118.8002, 36.4747], [-118.8015, 36.4773], [-118.8003, 36.4782]], [[-118.8096, 36.6149], [-118.8102, 36.615], [-118.8094, 36.6161], [-118.81, 36.6161], [-118.8103, 36.6178], [-118.8102, 36.6159], [-118.8108, 36.6152], [-118.8122, 36.6157], [-118.8128, 36.6134], [-118.8119, 36.6107], [-118.8153, 36.6085], [-118.813, 36.6085], [-118.814, 36.6077], [-118.8136, 36.6061], [-118.8145, 36.6063], [-118.8151, 36.6054], [-118.8131, 36.6048], [-118.8136, 36.6043], [-118.8128, 36.6039], [-118.813, 36.6029], [-118.8137, 36.6035], [-118.8155, 36.6028], [-118.8149, 36.6016], [-118.8133, 36.6026], [-118.8121, 36.6023], [-118.8109, 36.6011], [-118.8108, 36.6004], [-118.8115, 36.6002], [-118.8104, 36.599], [-118.8109, 36.5971], [-118.8096, 36.5969], [-118.8096, 36.595], [-118.8085, 36.5952], [-118.8086, 36.5946], [-118.8082, 36.5945], [-118.8073, 36.5958], [-118.8055, 36.5957], [-118.8049, 36.5951], [-118.8044, 36.5973], [-118.8029, 36.5984], [-118.8042, 36.5994], [-118.8036, 36.5994], [-118.8038, 36.5999], [-118.8045, 36.6], [-118.8049, 36.6011], [-118.806, 36.6015], [-118.8058, 36.6025], [-118.807, 36.6025], [-118.8065, 36.6039], [-118.8082, 36.6039], [-118.8078, 36.6046], [-118.8062, 36.6047], [-118.8063, 36.6057], [-118.8095, 36.6036], [-118.8109, 36.6052], [-118.8087, 36.606], [-118.8097, 36.6073], [-118.8103, 36.6068], [-118.8108, 36.6072], [-118.8101, 36.6076], [-118.8109, 36.6082], [-118.8105, 36.6094], [-118.8119, 36.6121], [-118.8113, 36.6141], [-118.8103, 36.6138], [-118.8104, 36.6126], [-118.8087, 36.6133], [-118.8101, 36.614], [-118.8096, 36.6149]], [[-118.8071, 36.4815], [-118.8064, 36.481], [-118.8067, 36.4819], [-118.8071, 36.4815]], [[-118.8084, 36.5937], [-118.8061, 36.5927], [-118.8054, 36.593], [-118.8055, 36.5935], [-118.807, 36.5935], [-118.8065, 36.5939], [-118.8073, 36.5943], [-118.8076, 36.5936], [-118.8084, 36.5937]], [[-118.8087, 36.4801], [-118.8077, 36.4808], [-118.8079, 36.481], [-118.8086, 36.4806], [-118.8087, 36.4801]], [[-118.8141, 36.6405], [-118.8164, 36.6397], [-118.8165, 36.6391], [-118.8176, 36.6391], [-118.8184, 36.638], [-118.8206, 36.638], [-118.8215, 36.6372], [-118.822, 36.6378], [-118.8228, 36.637], [-118.824, 36.6371], [-118.8263, 36.6383], [-118.8273, 36.6376], [-118.8262, 36.6366], [-118.8271, 36.636], [-118.8262, 36.635], [-118.8256, 36.6356], [-118.8253, 36.6345], [-118.8265, 36.6344], [-118.8274, 36.6334], [-118.8301, 36.6347], [-118.8312, 36.6337], [-118.831, 36.6327], [-118.8293, 36.6318], [-118.8262, 36.6333], [-118.8241, 36.6332], [-118.8236, 36.6347], [-118.823, 36.6342], [-118.8235, 36.6335], [-118.8215, 36.6324], [-118.8227, 36.6317], [-118.8205, 36.6311], [-118.8207, 36.6293], [-118.8198, 36.6293], [-118.8203, 36.628], [-118.8185, 36.6286], [-118.8174, 36.6276], [-118.8185, 36.6268], [-118.8149, 36.6271], [-118.8137, 36.6309], [-118.812, 36.6322], [-118.8133, 36.6331], [-118.8106, 36.6331], [-118.8095, 36.6342], [-118.8101, 36.6356], [-118.8113, 36.6363], [-118.8122, 36.6357], [-118.8156, 36.6357], [-118.8152, 36.6368], [-118.8127, 36.6374], [-118.8121, 36.6368], [-118.8109, 36.6381], [-118.8117, 36.6422], [-118.8138, 36.6453], [-118.8146, 36.6415], [-118.8141, 36.6405]], [[-118.8169, 36.6118], [-118.8143, 36.6159], [-118.8157, 36.6163], [-118.8164, 36.6159], [-118.8154, 36.6152], [-118.8176, 36.6143], [-118.8169, 36.6118]], [[-118.8201, 36.6203], [-118.8211, 36.621], [-118.8239, 36.6195], [-118.8256, 36.6214], [-118.8265, 36.6211], [-118.8261, 36.62], [-118.8268, 36.6193], [-118.8253, 36.6188], [-118.8256, 36.6175], [-118.8201, 36.6203]], [[-118.8304, 36.6442], [-118.8282, 36.6412], [-118.827, 36.6419], [-118.8279, 36.642], [-118.8283, 36.6432], [-118.829, 36.6433], [-118.8288, 36.6451], [-118.8294, 36.6454], [-118.8304, 36.6442]], [[-118.8367, 36.6134], [-118.8344, 36.6124], [-118.8314, 36.6122], [-118.8275, 36.6154], [-118.8284, 36.6162], [-118.8302, 36.6164], [-118.8309, 36.6151], [-118.832, 36.6148], [-118.8318, 36.6153], [-118.8333, 36.6158], [-118.8324, 36.6171], [-118.8332, 36.6175], [-118.8346, 36.6157], [-118.8335, 36.6157], [-118.8335, 36.6152], [-118.8365, 36.6141], [-118.838, 36.614], [-118.8385, 36.6146], [-118.8392, 36.6141], [-118.8375, 36.6119], [-118.8368, 36.6123], [-118.8367, 36.6134]], [[-118.8606, 36.6357], [-118.8574, 36.6359], [-118.8577, 36.637], [-118.8571, 36.6375], [-118.8557, 36.6364], [-118.8541, 36.6374], [-118.8549, 36.6384], [-118.8555, 36.6381], [-118.8571, 36.6391], [-118.8583, 36.6381], [-118.8583, 36.6392], [-118.8593, 36.64], [-118.8602, 36.6402], [-118.8609, 36.6395], [-118.8616, 36.6402], [-118.8623, 36.6372], [-118.8618, 36.6364], [-118.8606, 36.6375], [-118.8606, 36.6357]], [[-118.8679, 36.6522], [-118.8668, 36.6523], [-118.8674, 36.6508], [-118.8657, 36.6489], [-118.864, 36.6496], [-118.8648, 36.6513], [-118.8644, 36.6534], [-118.8652, 36.6532], [-118.8656, 36.6538], [-118.8649, 36.6542], [-118.8656, 36.6555], [-118.8679, 36.6544], [-118.8679, 36.6522]], [[-118.9484, 36.6571], [-118.9476, 36.6567], [-118.9466, 36.6542], [-118.9482, 36.6551], [-118.9486, 36.6532], [-118.9469, 36.6531], [-118.9458, 36.6523], [-118.9461, 36.6514], [-118.9472, 36.6514], [-118.9469, 36.6505], [-118.9459, 36.6508], [-118.9454, 36.6497], [-118.9443, 36.6501], [-118.9438, 36.6498], [-118.9443, 36.6495], [-118.9429, 36.6494], [-118.9398, 36.6507], [-118.9405, 36.6519], [-118.9434, 36.6529], [-118.9429, 36.6549], [-118.9437, 36.655], [-118.9439, 36.6571], [-118.9452, 36.6571], [-118.9457, 36.6582], [-118.9463, 36.6575], [-118.9484, 36.6571]]], [[[-118.7553, 36.5826], [-118.7555, 36.5829], [-118.7552, 36.5827], [-118.7553, 36.5826]]], [[[-118.7569, 36.5828], [-118.7572, 36.583], [-118.7571, 36.5831], [-118.7569, 36.5828]]], [[[-118.7533, 36.6092], [-118.7533, 36.609], [-118.7535, 36.6091], [-118.7533, 36.6092]]], [[[-118.7532, 36.6093], [-118.7526, 36.6093], [-118.7527, 36.609], [-118.7532, 36.6093]]], [[[-118.7537, 36.6101], [-118.7541, 36.6097], [-118.7541, 36.6101], [-118.7537, 36.6101]]], [[[-118.7529, 36.6116], [-118.7535, 36.6101], [-118.7539, 36.6105], [-118.7536, 36.6114], [-118.7529, 36.6116]]], [[[-118.753, 36.612], [-118.7534, 36.612], [-118.7532, 36.6122], [-118.753, 36.612]]], [[[-118.7905, 36.6302], [-118.7904, 36.6301], [-118.7905, 36.6301], [-118.7905, 36.6302]]], [[[-118.8213, 36.6335], [-118.8216, 36.6331], [-118.8218, 36.6334], [-118.8213, 36.6335]]], [[[-118.7524, 36.6366], [-118.7524, 36.6364], [-118.7525, 36.6364], [-118.7524, 36.6366]]], [[[-118.8029, 36.6484], [-118.8039, 36.6486], [-118.8036, 36.6493], [-118.8028, 36.649], [-118.8029, 36.6484]]], [[[-118.8215, 36.6566], [-118.8218, 36.6564], [-118.8218, 36.6566], [-118.8215, 36.6566]]], [[[-118.8212, 36.6581], [-118.8207, 36.6579], [-118.8212, 36.6579], [-118.8212, 36.6581]]], [[[-118.755, 36.4277], [-118.7517, 36.4281], [-118.7519, 36.4276], [-118.7533, 36.427], [-118.7554, 36.4271], [-118.755, 36.4277]]], [[[-118.6705, 36.4625], [-118.6707, 36.4625], [-118.6706, 36.4626], [-118.6705, 36.4625]]], [[[-118.6721, 36.463], [-118.6716, 36.463], [-118.6719, 36.4629], [-118.6721, 36.463]]], [[[-118.6944, 36.4662], [-118.6943, 36.466], [-118.6946, 36.466], [-118.6944, 36.4662]]], [[[-118.7019, 36.4702], [-118.7023, 36.4709], [-118.7016, 36.4703], [-118.7019, 36.4702]]], [[[-118.7101, 36.478], [-118.7104, 36.4781], [-118.7101, 36.4783], [-118.7101, 36.478]]], [[[-118.7093, 36.4844], [-118.7101, 36.4844], [-118.7101, 36.4845], [-118.7093, 36.4844]]], [[[-118.6848, 36.4945], [-118.6849, 36.4945], [-118.6849, 36.4945], [-118.6848, 36.4945]]], [[[-118.6852, 36.4955], [-118.6853, 36.4955], [-118.6853, 36.4955], [-118.6852, 36.4955]]], [[[-118.6608, 36.5138], [-118.6605, 36.5126], [-118.6615, 36.5133], [-118.6608, 36.5138]]], [[[-118.7426, 36.5605], [-118.7459, 36.5582], [-118.7475, 36.5595], [-118.7451, 36.5603], [-118.7454, 36.5613], [-118.7447, 36.5617], [-118.7426, 36.5605]]], [[[-118.7528, 36.5824], [-118.7526, 36.5831], [-118.7524, 36.5825], [-118.7528, 36.5824]]], [[[-118.7524, 36.5835], [-118.7529, 36.5841], [-118.7521, 36.5839], [-118.7524, 36.5835]]], [[[-118.7526, 36.6263], [-118.7522, 36.6264], [-118.7526, 36.6261], [-118.7526, 36.6263]]], [[[-118.751, 36.6264], [-118.7507, 36.6262], [-118.751, 36.6262], [-118.751, 36.6264]]]]}, "properties": {"layer": "perimeter"}}, {"type": "Feature", "geometry": {"type": "MultiPolygon", "coordinates": [[[[-118.7683, 36.431], [-118.7708, 36.4344], [-118.7703, 36.4364], [-118.7718, 36.438], [-118.7717, 36.4403], [-118.7732, 36.4418], [-118.7725, 36.4424], [-118.7707, 36.4424], [-118.7706, 36.4438], [-118.7727, 36.4451], [-118.7684, 36.448], [-118.7683, 36.431]]], [[[-118.7684, 36.4512], [-118.7698, 36.45], [-118.7716, 36.45], [-118.7716, 36.4523], [-118.7683, 36.4549], [-118.7684, 36.4512]]], [[[-118.7675, 36.4717], [-118.7694, 36.4729], [-118.7711, 36.4717], [-118.7732, 36.472], [-118.7732, 36.4711], [-118.7748, 36.4725], [-118.7738, 36.4729], [-118.7738, 36.4742], [-118.7747, 36.4727], [-118.7762, 36.472], [-118.7761, 36.4748], [-118.7804, 36.4748], [-118.7823, 36.4757], [-118.7836, 36.4748], [-118.7854, 36.4748], [-118.7854, 36.4784], [-118.7671, 36.4784], [-118.7675, 36.4717]]], [[[-118.8343, 36.486], [-118.834, 36.4861], [-118.8339, 36.4856], [-118.8343, 36.486]]], [[[-118.8935, 36.5388], [-118.8935, 36.5388], [-118.8935, 36.5388], [-118.8935, 36.5388]]], [[[-118.8924, 36.5388], [-118.8901, 36.5404], [-118.889, 36.5424], [-118.8872, 36.5419], [-118.8842, 36.5423], [-118.8834, 36.5407], [-118.8818, 36.5403], [-118.8818, 36.5386], [-118.8924, 36.5388]]], [[[-118.918, 36.6046], [-118.9204, 36.6042], [-118.9212, 36.6049], [-118.9235, 36.6048], [-118.9253, 36.6041], [-118.9245, 36.603], [-118.9229, 36.6034], [-118.9217, 36.6015], [-118.9197, 36.6004], [-118.9199, 36.5995], [-118.923, 36.5994], [-118.923, 36.5979], [-118.9238, 36.5979], [-118.9254, 36.6003], [-118.927, 36.6011], [-118.9274, 36.6027], [-118.9289, 36.6036], [-118.9322, 36.6093], [-118.9321, 36.611], [-118.9309, 36.6117], [-118.9309, 36.6138], [-118.9018, 36.6145], [-118.9044, 36.6126], [-118.9083, 36.6122], [-118.9117, 36.6094], [-118.9157, 36.6083], [-118.9167, 36.6054], [-118.918, 36.6046]]], [[[-118.9326, 36.6167], [-118.9326, 36.6172], [-118.9326, 36.6177], [-118.9326, 36.6167]]], [[[-118.9326, 36.6247], [-118.9353, 36.6285], [-118.9334, 36.6285], [-118.933, 36.632], [-118.9248, 36.6322], [-118.9247, 36.6249], [-118.9326, 36.6247]]], [[[-118.9457, 36.6356], [-118.9453, 36.6393], [-118.9415, 36.6394], [-118.9417, 36.6357], [-118.9457, 36.6356]]], [[[-118.9501, 36.6716], [-118.9485, 36.6754], [-118.937, 36.6753], [-118.9371, 36.6716], [-118.9501, 36.6716]]], [[[-118.8818, 36.5403], [-118.8818, 36.5403], [-118.8818, 36.5403], [-118.8818, 36.5403]]], [[[-118.8935, 36.5824], [-118.8939, 36.5859], [-118.8899, 36.586], [-118.8899, 36.5826], [-118.8935, 36.5824]]], [[[-118.9315, 36.643], [-118.9318, 36.6471], [-118.9281, 36.6471], [-118.9278, 36.6545], [-118.9237, 36.6545], [-118.9244, 36.6396], [-118.9285, 36.6396], [-118.9283, 36.6431], [-118.9315, 36.643]]], [[[-118.9449, 36.6965], [-118.9492, 36.6965], [-118.9494, 36.7], [-118.9448, 36.7], [-118.9449, 36.6965]]], [[[-118.9225, 36.7066], [-118.9221, 36.7031], [-118.9264, 36.7032], [-118.9265, 36.6997], [-118.9274, 36.6998], [-118.9275, 36.6964], [-118.932, 36.6964], [-118.9319, 36.6998], [-118.9396, 36.6999], [-118.9395, 36.7069], [-118.9225, 36.7066]]], [[[-118.7436, 36.4593], [-118.7428, 36.4588], [-118.7436, 36.459], [-118.7436, 36.4593]]], [[[-118.7454, 36.4594], [-118.7455, 36.4589], [-118.746, 36.4588], [-118.7463, 36.4593], [-118.7454, 36.4594]]], [[[-118.7416, 36.4595], [-118.7408, 36.459], [-118.7421, 36.4589], [-118.7416, 36.4595]]], [[[-118.745, 36.4593], [-118.7454, 36.4595], [-118.7448, 36.4593], [-118.745, 36.4593]]], [[[-118.7437, 36.4602], [-118.7425, 36.4604], [-118.7421, 36.4602], [-118.7426, 36.4594], [-118.7437, 36.4595], [-118.7437, 36.4602]]], [[[-118.7497, 36.4609], [-118.7489, 36.4604], [-118.7498, 36.4598], [-118.7497, 36.4609]]]]}, "properties": {"layer": "retained"}}, {"type": "Feature", "geometry": {"type": "MultiPolygon", "coordinates": [[[[-118.9449, 36.6971], [-118.9466, 36.6965], [-118.9449, 36.6965], [-118.9449, 36.6971]]], [[[-118.9385, 36.6754], [-118.9378, 36.6746], [-118.9371, 36.6749], [-118.9371, 36.6754], [-118.9385, 36.6754]]], [[[-118.9486, 36.6752], [-118.9486, 36.6744], [-118.9472, 36.6741], [-118.9466, 36.6747], [-118.9465, 36.6752], [-118.9472, 36.6747], [-118.9486, 36.6752]]], [[[-118.9382, 36.6724], [-118.9385, 36.6716], [-118.9375, 36.6716], [-118.9375, 36.6722], [-118.9382, 36.6724]]], [[[-118.9459, 36.6755], [-118.9479, 36.6723], [-118.9493, 36.6723], [-118.9496, 36.6736], [-118.95, 36.672], [-118.9493, 36.6715], [-118.9453, 36.6717], [-118.9456, 36.6722], [-118.9449, 36.6725], [-118.9432, 36.6717], [-118.9385, 36.6719], [-118.9392, 36.6727], [-118.9409, 36.6719], [-118.9409, 36.673], [-118.9422, 36.673], [-118.9418, 36.6749], [-118.9452, 36.6747], [-118.9459, 36.6755]], [[-118.9435, 36.6746], [-118.9425, 36.6746], [-118.9432, 36.6728], [-118.9442, 36.6738], [-118.9435, 36.6746]], [[-118.9452, 36.6741], [-118.9449, 36.6744], [-118.9449, 36.6741], [-118.9452, 36.6741]], [[-118.9462, 36.6739], [-118.9459, 36.6741], [-118.9459, 36.6739], [-118.9462, 36.6739]], [[-118.9452, 36.6728], [-118.9446, 36.673], [-118.9446, 36.6728], [-118.9452, 36.6728]], [[-118.9456, 36.6725], [-118.9452, 36.6728], [-118.9452, 36.6725], [-118.9456, 36.6725]], [[-118.9442, 36.6725], [-118.9439, 36.6728], [-118.9439, 36.6725], [-118.9442, 36.6725]]], [[[-118.9277, 36.6545], [-118.928, 36.6529], [-118.9267, 36.6526], [-118.9274, 36.6537], [-118.9263, 36.654], [-118.926, 36.6532], [-118.9237, 36.6526], [-118.9236, 36.6545], [-118.9277, 36.6545]]], [[[-118.9277, 36.6521], [-118.9281, 36.6494], [-118.9271, 36.6491], [-118.9267, 36.6499], [-118.9261, 36.6494], [-118.9261, 36.6502], [-118.9241, 36.6496], [-118.9247, 36.6515], [-118.9267, 36.6518], [-118.9267, 36.6513], [-118.9277, 36.6513], [-118.927, 36.6515], [-118.9277, 36.6521]], [[-118.9261, 36.6507], [-118.9254, 36.651], [-118.9254, 36.6507], [-118.9261, 36.6507]], [[-118.925, 36.6505], [-118.9247, 36.6507], [-118.9247, 36.6504], [-118.925, 36.6505]], [[-118.9264, 36.6502], [-118.9261, 36.6505], [-118.9261, 36.6502], [-118.9264, 36.6502]]], [[[-118.9275, 36.6456], [-118.9281, 36.6464], [-118.9281, 36.6456], [-118.9275, 36.6456]]], [[[-118.9268, 36.644], [-118.9265, 36.6426], [-118.9262, 36.6426], [-118.9261, 36.644], [-118.9268, 36.644]]], [[[-118.9248, 36.6472], [-118.9251, 36.6461], [-118.9244, 36.6459], [-118.9248, 36.6453], [-118.9254, 36.6459], [-118.9258, 36.6451], [-118.9251, 36.6448], [-118.9265, 36.6451], [-118.9265, 36.6445], [-118.9255, 36.6445], [-118.9258, 36.6437], [-118.9242, 36.6426], [-118.9241, 36.6472], [-118.9248, 36.6472]]], [[[-118.9278, 36.6429], [-118.9275, 36.641], [-118.9265, 36.6405], [-118.9272, 36.6397], [-118.9255, 36.6397], [-118.9255, 36.6405], [-118.9262, 36.6405], [-118.9258, 36.6416], [-118.9262, 36.6416], [-118.9265, 36.6418], [-118.9265, 36.6426], [-118.9278, 36.6429]], [[-118.9265, 36.6413], [-118.9262, 36.6416], [-118.9262, 36.6413], [-118.9265, 36.6413]]], [[[-118.944, 36.6393], [-118.944, 36.6387], [-118.9427, 36.639], [-118.9427, 36.6393], [-118.944, 36.6393]]], [[[-118.944, 36.6385], [-118.9434, 36.6363], [-118.9417, 36.6358], [-118.9417, 36.6385], [-118.9427, 36.6377], [-118.944, 36.6385]], [[-118.9431, 36.6366], [-118.9427, 36.6371], [-118.9427, 36.6366], [-118.9431, 36.6366]], [[-118.9424, 36.6366], [-118.942, 36.6368], [-118.942, 36.6366], [-118.9424, 36.6366]]], [[[-118.9257, 36.6291], [-118.9254, 36.6283], [-118.926, 36.6283], [-118.926, 36.6275], [-118.925, 36.6278], [-118.925, 36.6291], [-118.9257, 36.6291]]], [[[-118.9311, 36.627], [-118.9331, 36.6265], [-118.9321, 36.6265], [-118.9325, 36.6257], [-118.9318, 36.6257], [-118.9311, 36.627]]], [[[-118.9334, 36.6265], [-118.9331, 36.6252], [-118.9311, 36.6251], [-118.9325, 36.6254], [-118.9334, 36.6265]]], [[[-118.9199, 36.6137], [-118.9195, 36.6129], [-118.9189, 36.6129], [-118.9189, 36.6134], [-118.9199, 36.6137]]], [[[-118.9145, 36.6136], [-118.9148, 36.6126], [-118.9138, 36.6126], [-118.9135, 36.6131], [-118.9145, 36.6136]]], [[[-118.929, 36.607], [-118.929, 36.6059], [-118.9277, 36.6059], [-118.9287, 36.6062], [-118.929, 36.607]]], [[[-118.7786, 36.4779], [-118.7786, 36.4773], [-118.7776, 36.4771], [-118.7776, 36.4776], [-118.7786, 36.4779]]]]}, "properties": {"layer": "high_severity"}}, {"type": "Feature", "geometry": {"type": "MultiPolygon", "coordinates": [[[[-118.9466, 36.6722], [-118.9473, 36.6717], [-118.9463, 36.6717], [-118.9466, 36.6722]]], [[[-118.9422, 36.6722], [-118.9422, 36.6717], [-118.9416, 36.6717], [-118.9416, 36.6719], [-118.9422, 36.6722]]], [[[-118.9257, 36.6545], [-118.9257, 36.654], [-118.924, 36.654], [-118.924, 36.6545], [-118.9257, 36.6545]]], [[[-118.9248, 36.6448], [-118.9251, 36.644], [-118.9248, 36.644], [-118.9248, 36.6448]]]]}, "properties": {"layer": "interior"}}, {"type": "Feature", "geometry": {"type": "Polygon", "coordinates": [[[-118.9321, 36.6268], [-118.9324, 36.6265], [-118.9321, 36.6265], [-118.9321, 36.6268]]]}, "properties": {"layer": "cell", "cell_id": "534_4000", "seed_zone": "534", "elevation_band": "4000–4500 ft"}}, {"type": "Feature", "geometry": {"type": "MultiPolygon", "coordinates": [[[[-118.9466, 36.6722], [-118.9473, 36.6717], [-118.9466, 36.6717], [-118.9466, 36.6722]]], [[[-118.9248, 36.6448], [-118.9251, 36.644], [-118.9248, 36.644], [-118.9248, 36.6448]]]]}, "properties": {"layer": "cell", "cell_id": "534_4500", "seed_zone": "534", "elevation_band": "4500–5000 ft"}}, {"type": "Feature", "geometry": {"type": "MultiPolygon", "coordinates": [[[[-118.9422, 36.6722], [-118.9422, 36.6717], [-118.9416, 36.6717], [-118.9416, 36.6719], [-118.9422, 36.6722]]], [[[-118.9257, 36.6545], [-118.9257, 36.654], [-118.924, 36.654], [-118.924, 36.6545], [-118.9257, 36.6545]]]]}, "properties": {"layer": "cell", "cell_id": "534_5000", "seed_zone": "534", "elevation_band": "5000–5500 ft"}}]}
