{"type": "FeatureCollection", "features": [{"type": "Feature", "geometry": {"type": "Polygon", "coordinates": [[[-121.0866, 41.7719], [-121.078, 41.7739], [-121.0737, 41.7777], [-121.059, 41.786], [-121.055, 41.789], [-121.0535, 41.7844], [-121.0471, 41.7786], [-121.0414, 41.7828], [-121.0401, 41.7823], [-121.0398, 41.7831], [-121.0373, 41.7833], [-121.0359, 41.7852], [-121.0234, 41.7867], [-121.0249, 41.7831], [-121.0235, 41.7824], [-121.0223, 41.7828], [-121.0186, 41.7811], [-121.0182, 41.7796], [-121.015, 41.7813], [-121.0123, 41.7818], [-121.0066, 41.7803], [-120.9971, 41.7795], [-120.9928, 41.7775], [-120.9912, 41.7778], [-120.9919, 41.7764], [-120.9847, 41.7728], [-120.982, 41.7734], [-120.982, 41.7721], [-120.9841, 41.7708], [-120.9882, 41.7708], [-120.9921, 41.7698], [-120.9928, 41.7702], [-120.995, 41.7691], [-120.9974, 41.7694], [-120.9976, 41.7684], [-121.0005, 41.7678], [-121.0039, 41.7656], [-121.0077, 41.7658], [-121.0084, 41.7644], [-121.0077, 41.7644], [-121.0093, 41.7632], [-121.014, 41.7627], [-121.0169, 41.7637], [-121.0185, 41.7623], [-121.0221, 41.7627], [-121.0225, 41.7619], [-121.0246, 41.7621], [-121.0238, 41.7609], [-121.0286, 41.7585], [-121.0289, 41.7569], [-121.0305, 41.7578], [-121.0334, 41.7571], [-121.0333, 41.7565], [-121.0313, 41.7566], [-121.0316, 41.7552], [-121.0345, 41.7547], [-121.0329, 41.7502], [-121.0332, 41.7484], [-121.0344, 41.7479], [-121.0334, 41.7471], [-121.0337, 41.7463], [-121.04, 41.7449], [-121.0439, 41.7434], [-121.0509, 41.7431], [-121.0614, 41.7445], [-121.0734, 41.7487], [-121.0733, 41.7506], [-121.0745, 41.7528], [-121.0836, 41.7604], [-121.0835, 41.7644], [-121.086, 41.7683], [-121.0866, 41.7719]]]}, "properties": {"layer": "perimeter"}}]}
