{"type": "FeatureCollection", "features": [{"type": "Feature", "geometry": {"type": "MultiPolygon", "coordinates": [[[[-123.6325, 41.0028], [-123.6331, 41.0025], [-123.633, 41.0028], [-123.6325, 41.0028]]], [[[-123.6077, 41.0288], [-123.6096, 41.0247], [-123.6081, 41.0221], [-123.6052, 41.0204], [-123.6046, 41.0188], [-123.6059, 41.0169], [-123.606, 41.0141], [-123.6084, 41.0107], [-123.6045, 41.0069], [-123.6069, 41.006], [-123.6076, 41.0071], [-123.6085, 41.0071], [-123.6126, 41.0046], [-123.6173, 41.004], [-123.62, 41.0021], [-123.6227, 41.0018], [-123.6288, 41.0041], [-123.6316, 41.0039], [-123.6336, 41.0026], [-123.6351, 41.0032], [-123.6359, 41.0023], [-123.6385, 41.0036], [-123.6396, 41.0046], [-123.6399, 41.0068], [-123.6357, 41.0083], [-123.6333, 41.0101], [-123.635, 41.0156], [-123.6338, 41.0215], [-123.6341, 41.0233], [-123.6354, 41.0249], [-123.6377, 41.0261], [-123.6401, 41.0263], [-123.642, 41.0284], [-123.6389, 41.0278], [-123.6359, 41.0295], [-123.631, 41.03], [-123.6301, 41.0299], [-123.6292, 41.0287], [-123.6278, 41.0291], [-123.625, 41.0286], [-123.6233, 41.03], [-123.622, 41.0296], [-123.622, 41.0284], [-123.6166, 41.0271], [-123.6165, 41.0266], [-123.6139, 41.0273], [-123.6119, 41.027], [-123.613, 41.0292], [-123.6099, 41.0317], [-123.6077, 41.0288]]]]}, "properties": {"layer": "perimeter"}}, {"type": "Feature", "geometry": {"type": "MultiPolygon", "coordinates": [[[[-123.6065, 41.0061], [-123.6085, 41.0071], [-123.6126, 41.0046], [-123.6173, 41.004], [-123.62, 41.0021], [-123.6227, 41.0018], [-123.6268, 41.0038], [-123.6236, 41.0038], [-123.6254, 41.0079], [-123.6211, 41.0082], [-123.6229, 41.0121], [-123.6183, 41.0123], [-123.6166, 41.0085], [-123.6074, 41.0091], [-123.6065, 41.0061]]], [[[-123.6359, 41.0023], [-123.6396, 41.0046], [-123.6396, 41.007], [-123.6393, 41.005], [-123.6365, 41.005], [-123.6359, 41.0023]]]]}, "properties": {"layer": "retained"}}, {"type": "Feature", "geometry": {"type": "Polygon", "coordinates": [[[-123.6208, 41.0116], [-123.6204, 41.0108], [-123.6196, 41.0108], [-123.6197, 41.0114], [-123.6208, 41.0116]]]}, "properties": {"layer": "high_severity"}}]}
