{"type": "FeatureCollection", "features": [{"type": "Feature", "geometry": {"type": "Polygon", "coordinates": [[[-121.0678, 36.2236], [-121.0651, 36.2257], [-121.0622, 36.2257], [-121.0578, 36.224], [-121.0514, 36.2228], [-121.0386, 36.2166], [-121.0301, 36.2141], [-121.0225, 36.2101], [-121.0153, 36.2087], [-121.0093, 36.2043], [-121.008, 36.2009], [-121.0103, 36.1996], [-121.0171, 36.1998], [-121.0211, 36.2017], [-121.0263, 36.202], [-121.0281, 36.2053], [-121.0344, 36.2054], [-121.0351, 36.2036], [-121.0382, 36.2024], [-121.0414, 36.1959], [-121.0393, 36.1948], [-121.0397, 36.1932], [-121.0464, 36.1886], [-121.0519, 36.1932], [-121.0511, 36.1969], [-121.0498, 36.1983], [-121.0501, 36.1996], [-121.0523, 36.2017], [-121.0553, 36.2019], [-121.0585, 36.2056], [-121.0612, 36.207], [-121.0626, 36.2098], [-121.0639, 36.2053], [-121.0653, 36.2045], [-121.0666, 36.2045], [-121.0687, 36.2097], [-121.0751, 36.2191], [-121.0778, 36.2203], [-121.0763, 36.2216], [-121.0678, 36.2236]]]}, "properties": {"layer": "perimeter"}}, {"type": "Feature", "geometry": {"type": "Polygon", "coordinates": [[[-121.0667, 36.2243], [-121.0651, 36.2257], [-121.0622, 36.2257], [-121.0578, 36.224], [-121.0522, 36.2231], [-121.0432, 36.2193], [-121.0386, 36.2166], [-121.0301, 36.2141], [-121.0225, 36.2101], [-121.0162, 36.2091], [-121.0098, 36.2048], [-121.0084, 36.2032], [-121.008, 36.2009], [-121.0103, 36.1996], [-121.0171, 36.1998], [-121.0211, 36.2017], [-121.0263, 36.202], [-121.0281, 36.2053], [-121.0344, 36.2054], [-121.0351, 36.2036], [-121.0382, 36.2024], [-121.0414, 36.1959], [-121.0393, 36.1948], [-121.0397, 36.1932], [-121.0465, 36.1886], [-121.0513, 36.1924], [-121.0513, 36.1965], [-121.0497, 36.1992], [-121.0523, 36.2017], [-121.0553, 36.2019], [-121.075, 36.222], [-121.0667, 36.2243]]]}, "properties": {"layer": "retained"}}]}
