{"type": "FeatureCollection", "features": [{"type": "Feature", "geometry": {"type": "Polygon", "coordinates": [[[-119.0903, 34.2942], [-119.091, 34.2915], [-119.0905, 34.2896], [-119.0872, 34.2837], [-119.0882, 34.2824], [-119.089, 34.2833], [-119.0894, 34.283], [-119.0898, 34.281], [-119.0908, 34.2804], [-119.0928, 34.2807], [-119.0958, 34.2829], [-119.0954, 34.2849], [-119.0968, 34.286], [-119.0982, 34.2833], [-119.0997, 34.2852], [-119.1021, 34.2799], [-119.1033, 34.2803], [-119.1029, 34.2835], [-119.1051, 34.2832], [-119.1091, 34.2846], [-119.1107, 34.2839], [-119.1114, 34.2808], [-119.1138, 34.2841], [-119.1161, 34.2814], [-119.1185, 34.2812], [-119.1184, 34.2807], [-119.121, 34.2809], [-119.1225, 34.2826], [-119.1227, 34.2842], [-119.1211, 34.2872], [-119.1204, 34.2872], [-119.1159, 34.2939], [-119.1107, 34.2963], [-119.1047, 34.3018], [-119.0978, 34.3054], [-119.0954, 34.31], [-119.0948, 34.3145], [-119.0931, 34.3174], [-119.09, 34.3194], [-119.089, 34.3213], [-119.0872, 34.3218], [-119.0823, 34.3266], [-119.0786, 34.3257], [-119.0785, 34.3273], [-119.0764, 34.3286], [-119.076, 34.3301], [-119.0734, 34.3317], [-119.0714, 34.3311], [-119.0684, 34.3325], [-119.0676, 34.3335], [-119.0645, 34.3335], [-119.0593, 34.3376], [-119.0573, 34.336], [-119.0529, 34.3417], [-119.0504, 34.3423], [-119.0401, 34.3489], [-119.0338, 34.3498], [-119.0261, 34.353], [-119.0234, 34.3532], [-119.0209, 34.3523], [-119.0193, 34.3491], [-119.019, 34.3457], [-119.0199, 34.3448], [-119.0207, 34.3348], [-119.0197, 34.3321], [-119.0178, 34.3321], [-119.0129, 34.3335], [-119.0135, 34.3308], [-119.0112, 34.3304], [-119.0084, 34.3242], [-119.0102, 34.3207], [-119.0095, 34.3165], [-119.0114, 34.3154], [-119.0103, 34.3133], [-119.0141, 34.3097], [-119.0152, 34.3066], [-119.0171, 34.3066], [-119.0194, 34.3039], [-119.0182, 34.3028], [-119.0207, 34.3003], [-119.0216, 34.2976], [-119.0233, 34.2967], [-119.023, 34.2945], [-119.0242, 34.2952], [-119.0222, 34.3019], [-119.0253, 34.3031], [-119.0266, 34.3023], [-119.0269, 34.3037], [-119.028, 34.3046], [-119.0303, 34.3009], [-119.0309, 34.2978], [-119.0306, 34.2968], [-119.0295, 34.2964], [-119.0293, 34.2926], [-119.0305, 34.2915], [-119.0312, 34.2916], [-119.0298, 34.2926], [-119.0303, 34.2939], [-119.0376, 34.2938], [-119.04, 34.2913], [-119.0428, 34.2913], [-119.0437, 34.2891], [-119.0433, 34.2875], [-119.0464, 34.2856], [-119.0475, 34.2864], [-119.0472, 34.2874], [-119.048, 34.2883], [-119.0473, 34.2895], [-119.0475, 34.2929], [-119.0489, 34.2929], [-119.049, 34.2937], [-119.0535, 34.2926], [-119.0527, 34.2939], [-119.0539, 34.2962], [-119.0529, 34.2958], [-119.0527, 34.3002], [-119.0541, 34.3042], [-119.0573, 34.3075], [-119.0563, 34.304], [-119.0584, 34.3029], [-119.0554, 34.3028], [-119.0552, 34.2995], [-119.0567, 34.299], [-119.0585, 34.3004], [-119.0586, 34.2982], [-119.0561, 34.2975], [-119.0542, 34.2942], [-119.0558, 34.2944], [-119.0571, 34.2972], [-119.0596, 34.2965], [-119.0577, 34.2957], [-119.0586, 34.2931], [-119.0596, 34.2942], [-119.0586, 34.2954], [-119.0596, 34.2951], [-119.06, 34.2964], [-119.0625, 34.2951], [-119.0638, 34.2959], [-119.06, 34.292], [-119.06, 34.291], [-119.0616, 34.2917], [-119.0624, 34.2939], [-119.064, 34.2932], [-119.066, 34.2942], [-119.0676, 34.294], [-119.0683, 34.2971], [-119.0723, 34.2977], [-119.0727, 34.2998], [-119.0773, 34.3011], [-119.0756, 34.2983], [-119.0747, 34.2947], [-119.0731, 34.2943], [-119.0714, 34.2948], [-119.07, 34.294], [-119.0685, 34.2918], [-119.069, 34.2907], [-119.0726, 34.2899], [-119.0722, 34.2887], [-119.0692, 34.2891], [-119.0697, 34.2874], [-119.0722, 34.2885], [-119.0721, 34.2868], [-119.073, 34.2869], [-119.0734, 34.2888], [-119.0753, 34.2914], [-119.0758, 34.291], [-119.0748, 34.29], [-119.0747, 34.2872], [-119.0791, 34.2906], [-119.0807, 34.2879], [-119.0804, 34.2899], [-119.0824, 34.2898], [-119.0813, 34.2943], [-119.0903, 34.2942]], [[-119.0903, 34.2942], [-119.0904, 34.2943], [-119.0904, 34.2943], [-119.0903, 34.2942]]]}, "properties": {"layer": "perimeter"}}, {"type": "Feature", "geometry": {"type": "Polygon", "coordinates": [[[-119.0903, 34.2942], [-119.091, 34.2915], [-119.0905, 34.2896], [-119.0872, 34.2837], [-119.0882, 34.2824], [-119.089, 34.2833], [-119.0894, 34.283], [-119.0898, 34.281], [-119.0908, 34.2804], [-119.0928, 34.2807], [-119.0958, 34.2829], [-119.0954, 34.2849], [-119.0968, 34.286], [-119.0982, 34.2833], [-119.0997, 34.2852], [-119.1021, 34.2799], [-119.1033, 34.2803], [-119.1029, 34.2835], [-119.1051, 34.2832], [-119.1091, 34.2846], [-119.1107, 34.2839], [-119.1114, 34.2808], [-119.1138, 34.2841], [-119.1161, 34.2814], [-119.1185, 34.2812], [-119.1184, 34.2807], [-119.121, 34.2809], [-119.1225, 34.2826], [-119.1223, 34.2848], [-119.1159, 34.2939], [-119.1107, 34.2963], [-119.1047, 34.3018], [-119.0978, 34.3054], [-119.0954, 34.31], [-119.0948, 34.3145], [-119.0931, 34.3174], [-119.09, 34.3194], [-119.089, 34.3213], [-119.0872, 34.3218], [-119.0823, 34.3266], [-119.0786, 34.3257], [-119.0785, 34.3273], [-119.0774, 34.3275], [-119.076, 34.3299], [-119.0731, 34.3316], [-119.0709, 34.3314], [-119.0705, 34.3307], [-119.07, 34.3317], [-119.0645, 34.3335], [-119.0593, 34.3376], [-119.0573, 34.336], [-119.0529, 34.3417], [-119.0504, 34.3423], [-119.0404, 34.3487], [-119.0338, 34.3498], [-119.0261, 34.353], [-119.0234, 34.3532], [-119.0209, 34.3523], [-119.0193, 34.3491], [-119.019, 34.3457], [-119.0199, 34.3448], [-119.0207, 34.3348], [-119.0197, 34.3321], [-119.0178, 34.3321], [-119.0129, 34.3335], [-119.0135, 34.3308], [-119.0112, 34.3304], [-119.0084, 34.3242], [-119.0102, 34.3207], [-119.0095, 34.3165], [-119.0114, 34.3154], [-119.0103, 34.3133], [-119.0141, 34.3097], [-119.0151, 34.3078], [-119.0175, 34.3064], [-119.0199, 34.3039], [-119.0192, 34.303], [-119.0183, 34.303], [-119.0187, 34.3023], [-119.0199, 34.3016], [-119.0221, 34.3019], [-119.0221, 34.3035], [-119.0244, 34.3048], [-119.0248, 34.3063], [-119.0266, 34.3066], [-119.0253, 34.3039], [-119.0257, 34.3033], [-119.0281, 34.3046], [-119.0303, 34.3006], [-119.0331, 34.3012], [-119.0331, 34.3021], [-119.034, 34.3022], [-119.0344, 34.3011], [-119.0367, 34.3004], [-119.0411, 34.2971], [-119.043, 34.2929], [-119.0488, 34.2929], [-119.049, 34.2937], [-119.0519, 34.2932], [-119.0529, 34.2924], [-119.0534, 34.2927], [-119.0527, 34.2939], [-119.0539, 34.2962], [-119.0529, 34.2958], [-119.0527, 34.3002], [-119.0541, 34.3042], [-119.0573, 34.3075], [-119.0563, 34.304], [-119.0584, 34.3029], [-119.0554, 34.3028], [-119.0552, 34.2995], [-119.0567, 34.299], [-119.0585, 34.3004], [-119.0586, 34.2982], [-119.0561, 34.2975], [-119.0542, 34.2942], [-119.0558, 34.2944], [-119.0571, 34.2972], [-119.0596, 34.2965], [-119.0577, 34.2957], [-119.0586, 34.2931], [-119.0596, 34.2942], [-119.0586, 34.2954], [-119.0596, 34.2951], [-119.06, 34.2964], [-119.0625, 34.2951], [-119.0638, 34.2959], [-119.06, 34.292], [-119.06, 34.291], [-119.0616, 34.2917], [-119.0624, 34.2939], [-119.064, 34.2932], [-119.066, 34.2942], [-119.0676, 34.294], [-119.0683, 34.2971], [-119.0723, 34.2977], [-119.0727, 34.2998], [-119.0773, 34.3011], [-119.0756, 34.2983], [-119.0747, 34.2947], [-119.0731, 34.2943], [-119.0714, 34.2948], [-119.07, 34.294], [-119.0685, 34.2918], [-119.069, 34.2907], [-119.0726, 34.2899], [-119.0722, 34.2887], [-119.0692, 34.2891], [-119.0697, 34.2874], [-119.0722, 34.2885], [-119.0721, 34.2868], [-119.073, 34.2869], [-119.0734, 34.2888], [-119.0753, 34.2914], [-119.0758, 34.291], [-119.0748, 34.29], [-119.0747, 34.2872], [-119.0791, 34.2906], [-119.0807, 34.2879], [-119.0804, 34.2899], [-119.0824, 34.2898], [-119.0813, 34.2943], [-119.0903, 34.2942]], [[-119.0903, 34.2942], [-119.0904, 34.2943], [-119.0904, 34.2943], [-119.0903, 34.2942]], [[-119.0217, 34.302], [-119.0217, 34.302], [-119.0217, 34.302], [-119.0217, 34.302]], [[-119.0655, 34.3015], [-119.0656, 34.2977], [-119.0608, 34.298], [-119.0607, 34.3017], [-119.0655, 34.3015]]]}, "properties": {"layer": "retained"}}]}
