{"type": "FeatureCollection", "features": [{"type": "Feature", "geometry": {"type": "MultiPolygon", "coordinates": [[[[-123.7208, 41.5585], [-123.721, 41.5585], [-123.7209, 41.5586], [-123.7208, 41.5585]]], [[[-123.7167, 41.5625], [-123.7161, 41.5596], [-123.717, 41.5595], [-123.7159, 41.5585], [-123.7176, 41.5576], [-123.7215, 41.5591], [-123.7242, 41.559], [-123.7242, 41.5581], [-123.7207, 41.5578], [-123.7219, 41.5572], [-123.7253, 41.5573], [-123.7238, 41.5558], [-123.7241, 41.5545], [-123.7234, 41.5535], [-123.7266, 41.5528], [-123.7272, 41.5518], [-123.7277, 41.5529], [-123.7295, 41.5532], [-123.7294, 41.5544], [-123.7305, 41.5538], [-123.7321, 41.554], [-123.7323, 41.555], [-123.731, 41.5568], [-123.7328, 41.5566], [-123.7332, 41.5557], [-123.7339, 41.5566], [-123.7335, 41.5575], [-123.7348, 41.5583], [-123.7342, 41.5603], [-123.7364, 41.5606], [-123.7364, 41.5574], [-123.7395, 41.5567], [-123.7379, 41.5547], [-123.739, 41.5545], [-123.7384, 41.5535], [-123.7356, 41.5539], [-123.7346, 41.553], [-123.7339, 41.5532], [-123.7328, 41.5502], [-123.7313, 41.5486], [-123.7332, 41.5474], [-123.7322, 41.5466], [-123.7333, 41.5446], [-123.7349, 41.5433], [-123.7383, 41.5427], [-123.7395, 41.5417], [-123.742, 41.5427], [-123.7424, 41.5439], [-123.7439, 41.5447], [-123.7482, 41.5455], [-123.7485, 41.5466], [-123.7529, 41.5445], [-123.7552, 41.5458], [-123.7562, 41.5479], [-123.7581, 41.5479], [-123.7589, 41.5494], [-123.7614, 41.5493], [-123.7619, 41.5514], [-123.7641, 41.5526], [-123.7654, 41.5574], [-123.7655, 41.5601], [-123.7644, 41.5635], [-123.7635, 41.5617], [-123.7619, 41.5609], [-123.7586, 41.5611], [-123.7585, 41.5601], [-123.7577, 41.5599], [-123.7547, 41.5608], [-123.7537, 41.5635], [-123.7515, 41.5646], [-123.7517, 41.5662], [-123.7512, 41.5648], [-123.7492, 41.5638], [-123.7478, 41.5662], [-123.7496, 41.5688], [-123.7518, 41.5703], [-123.7513, 41.5722], [-123.7495, 41.5725], [-123.7457, 41.5716], [-123.7459, 41.5704], [-123.7441, 41.5691], [-123.7439, 41.5666], [-123.7445, 41.5653], [-123.7455, 41.5653], [-123.7449, 41.5646], [-123.7459, 41.564], [-123.7475, 41.5645], [-123.7483, 41.5637], [-123.7457, 41.5629], [-123.7458, 41.5614], [-123.7429, 41.5606], [-123.7418, 41.5587], [-123.7409, 41.5589], [-123.7407, 41.5605], [-123.7398, 41.5606], [-123.7404, 41.5621], [-123.7398, 41.564], [-123.7383, 41.5635], [-123.7379, 41.5622], [-123.7367, 41.5633], [-123.7369, 41.5654], [-123.7357, 41.5663], [-123.7333, 41.5664], [-123.7319, 41.566], [-123.7317, 41.565], [-123.731, 41.5652], [-123.73, 41.5676], [-123.7303, 41.5696], [-123.7286, 41.57], [-123.7271, 41.5693], [-123.7246, 41.5697], [-123.7248, 41.5721], [-123.7222, 41.5729], [-123.7221, 41.574], [-123.7183, 41.5756], [-123.7197, 41.5757], [-123.7185, 41.5773], [-123.7155, 41.5761], [-123.7131, 41.5719], [-123.7133, 41.5701], [-123.7119, 41.5696], [-123.7123, 41.5682], [-123.7105, 41.5683], [-123.7077, 41.5669], [-123.7085, 41.5665], [-123.7078, 41.5654], [-123.7099, 41.5642], [-123.71, 41.5637], [-123.709, 41.5635], [-123.7109, 41.5629], [-123.7132, 41.5641], [-123.713, 41.5663], [-123.7133, 41.5655], [-123.7141, 41.5658], [-123.7139, 41.5633], [-123.7146, 41.5621], [-123.7149, 41.5618], [-123.7155, 41.5625], [-123.7167, 41.5625]]]]}, "properties": {"layer": "perimeter"}}]}
