{"type": "FeatureCollection", "features": [{"type": "Feature", "geometry": {"type": "Polygon", "coordinates": [[[-123.6315, 41.1622], [-123.6319, 41.1609], [-123.6305, 41.1604], [-123.6294, 41.1608], [-123.6259, 41.1603], [-123.6251, 41.1581], [-123.6232, 41.158], [-123.6218, 41.1569], [-123.6204, 41.158], [-123.6207, 41.1531], [-123.6222, 41.1515], [-123.6247, 41.1521], [-123.6261, 41.1499], [-123.6294, 41.1501], [-123.633, 41.1485], [-123.6326, 41.1461], [-123.6287, 41.1447], [-123.6326, 41.1439], [-123.6325, 41.1429], [-123.6301, 41.1436], [-123.6292, 41.1432], [-123.631, 41.1417], [-123.6316, 41.1398], [-123.6331, 41.1401], [-123.6336, 41.1409], [-123.6354, 41.1402], [-123.6405, 41.1412], [-123.6402, 41.1446], [-123.6421, 41.1445], [-123.6416, 41.1437], [-123.6437, 41.1434], [-123.6457, 41.141], [-123.6427, 41.1402], [-123.6432, 41.138], [-123.6466, 41.1376], [-123.6501, 41.1357], [-123.6525, 41.1327], [-123.6522, 41.1321], [-123.6553, 41.128], [-123.6549, 41.125], [-123.6569, 41.1224], [-123.6569, 41.1206], [-123.6593, 41.1163], [-123.661, 41.1162], [-123.6646, 41.1179], [-123.6671, 41.1181], [-123.671, 41.1131], [-123.671, 41.1143], [-123.6729, 41.1142], [-123.674, 41.1156], [-123.6735, 41.1177], [-123.678, 41.116], [-123.6843, 41.1186], [-123.6849, 41.1176], [-123.686, 41.1176], [-123.6845, 41.1186], [-123.6865, 41.1206], [-123.6865, 41.1222], [-123.6836, 41.1238], [-123.6852, 41.1258], [-123.6845, 41.129], [-123.6872, 41.1311], [-123.6876, 41.1324], [-123.6849, 41.1346], [-123.6839, 41.139], [-123.6815, 41.14], [-123.6839, 41.1412], [-123.6834, 41.1425], [-123.6787, 41.146], [-123.6813, 41.1501], [-123.6806, 41.1516], [-123.6817, 41.152], [-123.6775, 41.1554], [-123.6763, 41.1576], [-123.6709, 41.1608], [-123.6667, 41.1603], [-123.6627, 41.1571], [-123.6606, 41.1542], [-123.6604, 41.1524], [-123.6571, 41.1513], [-123.6544, 41.1486], [-123.6502, 41.1502], [-123.6448, 41.1485], [-123.6408, 41.1494], [-123.6401, 41.1511], [-123.6384, 41.1507], [-123.6374, 41.1513], [-123.6391, 41.1522], [-123.64, 41.1547], [-123.6438, 41.1578], [-123.642, 41.1577], [-123.6426, 41.1592], [-123.642, 41.16], [-123.64, 41.161], [-123.6387, 41.1608], [-123.6387, 41.1618], [-123.6359, 41.1628], [-123.6363, 41.1647], [-123.6357, 41.1654], [-123.6316, 41.1631], [-123.6295, 41.1635], [-123.6315, 41.1622]]]}, "properties": {"layer": "perimeter"}}]}
