{"type": "FeatureCollection", "features": [{"type": "Feature", "geometry": {"type": "Polygon", "coordinates": [[[-120.2659, 37.7746], [-120.2662, 37.7734], [-120.2725, 37.7781], [-120.2755, 37.7747], [-120.2777, 37.7735], [-120.2803, 37.7737], [-120.2803, 37.7731], [-120.282, 37.7742], [-120.2882, 37.7711], [-120.2916, 37.7728], [-120.292, 37.7762], [-120.2933, 37.778], [-120.2912, 37.7799], [-120.2909, 37.7837], [-120.2949, 37.7841], [-120.2985, 37.7874], [-120.3009, 37.7886], [-120.3029, 37.7884], [-120.3015, 37.7902], [-120.2987, 37.7912], [-120.2991, 37.7947], [-120.2918, 37.7914], [-120.2907, 37.7922], [-120.29, 37.7953], [-120.2918, 37.7966], [-120.2922, 37.7978], [-120.2927, 37.8033], [-120.2908, 37.8016], [-120.2883, 37.8017], [-120.2861, 37.8006], [-120.2827, 37.8043], [-120.2807, 37.8042], [-120.2792, 37.8029], [-120.2774, 37.8029], [-120.2753, 37.8032], [-120.2743, 37.8043], [-120.2726, 37.8047], [-120.2697, 37.803], [-120.2696, 37.8021], [-120.2635, 37.7987], [-120.2594, 37.7946], [-120.2584, 37.7944], [-120.2571, 37.7913], [-120.2559, 37.7909], [-120.255, 37.7919], [-120.2537, 37.792], [-120.2521, 37.7902], [-120.2493, 37.7904], [-120.2479, 37.788], [-120.2439, 37.7867], [-120.2442, 37.7849], [-120.2407, 37.7801], [-120.2421, 37.7787], [-120.2463, 37.7769], [-120.2496, 37.7767], [-120.2519, 37.775], [-120.2536, 37.7747], [-120.2555, 37.775], [-120.257, 37.7744], [-120.26, 37.7754], [-120.2603, 37.7744], [-120.2615, 37.7741], [-120.2612, 37.7746], [-120.2643, 37.7753], [-120.2647, 37.7737], [-120.2659, 37.7746]]]}, "properties": {"layer": "perimeter"}}, {"type": "Feature", "geometry": {"type": "MultiPolygon", "coordinates": [[[[-120.2671, 37.7759], [-120.266, 37.7738], [-120.2688, 37.7759], [-120.2671, 37.7759]]], [[[-120.2721, 37.7781], [-120.2777, 37.7735], [-120.2803, 37.7737], [-120.2803, 37.7731], [-120.282, 37.7742], [-120.2882, 37.7711], [-120.2916, 37.7728], [-120.292, 37.7762], [-120.2933, 37.778], [-120.2912, 37.7799], [-120.2909, 37.7837], [-120.2949, 37.7841], [-120.2985, 37.7874], [-120.3009, 37.7886], [-120.3029, 37.7884], [-120.3015, 37.7902], [-120.2987, 37.7912], [-120.2991, 37.7947], [-120.2918, 37.7914], [-120.2914, 37.7921], [-120.2914, 37.7902], [-120.2859, 37.7903], [-120.2865, 37.783], [-120.2814, 37.7831], [-120.2814, 37.7758], [-120.2763, 37.7758], [-120.2761, 37.7868], [-120.2812, 37.7867], [-120.2809, 37.7903], [-120.2834, 37.7904], [-120.2832, 37.7939], [-120.2856, 37.7939], [-120.2852, 37.7983], [-120.2922, 37.7984], [-120.2927, 37.8033], [-120.2908, 37.8016], [-120.2883, 37.8017], [-120.2861, 37.8006], [-120.2827, 37.8043], [-120.2807, 37.8042], [-120.2792, 37.8029], [-120.2774, 37.8029], [-120.2753, 37.8032], [-120.2743, 37.8043], [-120.2726, 37.8047], [-120.2697, 37.803], [-120.2692, 37.7981], [-120.2642, 37.7979], [-120.2642, 37.7992], [-120.2594, 37.7946], [-120.2584, 37.7944], [-120.2575, 37.7904], [-120.2713, 37.7904], [-120.2721, 37.7781]], [[-120.2713, 37.7904], [-120.271, 37.7981], [-120.2767, 37.7982], [-120.2767, 37.8018], [-120.2804, 37.8018], [-120.2769, 37.7989], [-120.2782, 37.7977], [-120.2808, 37.7999], [-120.2814, 37.7997], [-120.2806, 37.7983], [-120.2808, 37.794], [-120.2782, 37.794], [-120.2782, 37.7921], [-120.2758, 37.7921], [-120.2759, 37.7904], [-120.2713, 37.7904]], [[-120.2804, 37.8018], [-120.2813, 37.8019], [-120.2813, 37.801], [-120.2804, 37.8018]]], [[[-120.253, 37.7916], [-120.2521, 37.7902], [-120.2493, 37.7904], [-120.2479, 37.788], [-120.2446, 37.787], [-120.2531, 37.7869], [-120.253, 37.7916]]], [[[-120.2437, 37.7844], [-120.2429, 37.7834], [-120.2437, 37.7834], [-120.2437, 37.7844]]], [[[-120.2563, 37.7746], [-120.2592, 37.7754], [-120.2602, 37.7753], [-120.2605, 37.7743], [-120.2618, 37.7756], [-120.2632, 37.78], [-120.2613, 37.7808], [-120.2637, 37.7845], [-120.2621, 37.7852], [-120.2599, 37.7817], [-120.2584, 37.7771], [-120.2563, 37.7746]]]]}, "properties": {"layer": "retained"}}, {"type": "Feature", "geometry": {"type": "Polygon", "coordinates": [[[-120.2675, 37.7977], [-120.2685, 37.7975], [-120.2675, 37.7975], [-120.2675, 37.7977]]]}, "properties": {"layer": "high_severity"}}]}
