{"type": "FeatureCollection", "features": [{"type": "Feature", "geometry": {"type": "Polygon", "coordinates": [[[-118.098, 36.7179], [-118.0986, 36.723], [-118.0976, 36.7235], [-118.096, 36.7231], [-118.0947, 36.7188], [-118.0902, 36.7148], [-118.0898, 36.7132], [-118.0932, 36.7048], [-118.0923, 36.6981], [-118.0879, 36.6895], [-118.0851, 36.6859], [-118.0811, 36.6767], [-118.0759, 36.6697], [-118.0716, 36.6674], [-118.071, 36.6614], [-118.0718, 36.6604], [-118.0737, 36.6608], [-118.0742, 36.6603], [-118.0743, 36.656], [-118.0758, 36.6535], [-118.078, 36.6545], [-118.0782, 36.6579], [-118.0797, 36.6599], [-118.081, 36.6604], [-118.0822, 36.66], [-118.0822, 36.6575], [-118.0838, 36.657], [-118.0853, 36.6581], [-118.086, 36.6608], [-118.0893, 36.6621], [-118.0902, 36.6635], [-118.0911, 36.6717], [-118.0937, 36.6757], [-118.0945, 36.6785], [-118.0926, 36.6812], [-118.0881, 36.6835], [-118.0873, 36.6883], [-118.0884, 36.6895], [-118.0897, 36.6886], [-118.091, 36.6889], [-118.0936, 36.6926], [-118.0965, 36.6993], [-118.0972, 36.7047], [-118.0943, 36.7093], [-118.0937, 36.7138], [-118.098, 36.7179]]]}, "properties": {"layer": "perimeter"}}, {"type": "Feature", "geometry": {"type": "Polygon", "coordinates": [[[-118.0988, 36.7222], [-118.0976, 36.7235], [-118.0956, 36.7227], [-118.0947, 36.7188], [-118.0899, 36.7142], [-118.0932, 36.7048], [-118.092, 36.6975], [-118.0879, 36.6895], [-118.0851, 36.6859], [-118.0811, 36.6767], [-118.0759, 36.6697], [-118.0716, 36.6674], [-118.071, 36.6614], [-118.0718, 36.6604], [-118.0737, 36.6608], [-118.0742, 36.6603], [-118.0743, 36.656], [-118.0758, 36.6535], [-118.078, 36.6545], [-118.0782, 36.6579], [-118.0797, 36.6599], [-118.081, 36.6604], [-118.0822, 36.66], [-118.0822, 36.6575], [-118.0838, 36.657], [-118.0853, 36.6581], [-118.086, 36.6608], [-118.0893, 36.6621], [-118.0902, 36.6635], [-118.0911, 36.6717], [-118.0937, 36.6757], [-118.0945, 36.6785], [-118.0926, 36.6812], [-118.0881, 36.6835], [-118.0873, 36.6883], [-118.0884, 36.6895], [-118.0897, 36.6886], [-118.091, 36.6889], [-118.0936, 36.6926], [-118.0965, 36.6993], [-118.0972, 36.7047], [-118.0943, 36.7093], [-118.0937, 36.7138], [-118.0982, 36.7182], [-118.0988, 36.7222]]]}, "properties": {"layer": "retained"}}]}
