{"type": "FeatureCollection", "features": [{"type": "Feature", "geometry": {"type": "Polygon", "coordinates": [[[-115.7401, 35.3616], [-115.7361, 35.3605], [-115.7363, 35.3586], [-115.7322, 35.3561], [-115.7306, 35.3535], [-115.7318, 35.3519], [-115.7319, 35.348], [-115.733, 35.347], [-115.7341, 35.3473], [-115.7346, 35.3488], [-115.7337, 35.3525], [-115.737, 35.3535], [-115.7384, 35.3569], [-115.7427, 35.3572], [-115.7449, 35.3593], [-115.7482, 35.3591], [-115.7499, 35.3624], [-115.7517, 35.3612], [-115.7527, 35.3612], [-115.7537, 35.3627], [-115.7529, 35.3649], [-115.7537, 35.3656], [-115.7577, 35.3621], [-115.76, 35.3568], [-115.7628, 35.3559], [-115.766, 35.3518], [-115.7688, 35.3506], [-115.77, 35.3485], [-115.7712, 35.3485], [-115.773, 35.3512], [-115.7758, 35.3516], [-115.7777, 35.3444], [-115.782, 35.3416], [-115.7821, 35.3397], [-115.7845, 35.3391], [-115.7866, 35.3372], [-115.7877, 35.3376], [-115.7893, 35.341], [-115.796, 35.3423], [-115.799, 35.3442], [-115.8022, 35.3448], [-115.8044, 35.3465], [-115.8034, 35.3471], [-115.7989, 35.3458], [-115.797, 35.3474], [-115.7926, 35.3484], [-115.7894, 35.3505], [-115.7865, 35.3488], [-115.7847, 35.3491], [-115.7806, 35.3528], [-115.7788, 35.3553], [-115.7781, 35.3581], [-115.7761, 35.3585], [-115.7743, 35.3598], [-115.7717, 35.3597], [-115.7684, 35.3609], [-115.7694, 35.3649], [-115.7616, 35.3744], [-115.7572, 35.3749], [-115.7531, 35.3797], [-115.7473, 35.3791], [-115.7444, 35.3799], [-115.7423, 35.3869], [-115.7395, 35.3896], [-115.7386, 35.389], [-115.741, 35.3855], [-115.7407, 35.3834], [-115.736, 35.3818], [-115.7351, 35.3852], [-115.7342, 35.3857], [-115.7331, 35.3845], [-115.7334, 35.3819], [-115.7322, 35.3817], [-115.7312, 35.3827], [-115.7304, 35.3819], [-115.7311, 35.3779], [-115.7304, 35.3749], [-115.7309, 35.372], [-115.7327, 35.37], [-115.7352, 35.3687], [-115.7388, 35.3683], [-115.7418, 35.3653], [-115.7415, 35.3646], [-115.74, 35.3642], [-115.7401, 35.3616]]]}, "properties": {"layer": "perimeter"}}]}
