{"type": "FeatureCollection", "features": [{"type": "Feature", "geometry": {"type": "Polygon", "coordinates": [[[-122.2822, 40.9439], [-122.2809, 40.9473], [-122.277, 40.9497], [-122.2758, 40.9524], [-122.2757, 40.956], [-122.2739, 40.9588], [-122.2697, 40.9599], [-122.2642, 40.9598], [-122.2563, 40.9631], [-122.2551, 40.9597], [-122.2501, 40.9564], [-122.2481, 40.9541], [-122.2406, 40.9517], [-122.2411, 40.9477], [-122.2424, 40.9471], [-122.2444, 40.9448], [-122.2456, 40.9404], [-122.2482, 40.9383], [-122.2486, 40.9351], [-122.2508, 40.9327], [-122.2512, 40.9311], [-122.2503, 40.9278], [-122.2489, 40.9271], [-122.2454, 40.919], [-122.245, 40.9173], [-122.2465, 40.9157], [-122.2431, 40.9149], [-122.2424, 40.9113], [-122.2483, 40.9082], [-122.2507, 40.9079], [-122.2533, 40.9067], [-122.2564, 40.9036], [-122.2591, 40.9025], [-122.2616, 40.8987], [-122.2629, 40.898], [-122.2635, 40.899], [-122.2659, 40.9], [-122.2704, 40.9001], [-122.2736, 40.9013], [-122.2778, 40.9001], [-122.2811, 40.9004], [-122.2827, 40.9025], [-122.2874, 40.9024], [-122.2853, 40.9042], [-122.2849, 40.9087], [-122.2859, 40.9123], [-122.2884, 40.9147], [-122.2916, 40.9146], [-122.2936, 40.9159], [-122.295, 40.921], [-122.2976, 40.9236], [-122.3022, 40.9262], [-122.303, 40.9278], [-122.3013, 40.9284], [-122.3014, 40.931], [-122.2986, 40.9325], [-122.2965, 40.9358], [-122.2925, 40.9383], [-122.2907, 40.9387], [-122.2877, 40.9413], [-122.2856, 40.9409], [-122.2822, 40.9439]]]}, "properties": {"layer": "perimeter"}}, {"type": "Feature", "geometry": {"type": "MultiPolygon", "coordinates": [[[[-122.2822, 40.9439], [-122.2809, 40.9473], [-122.277, 40.9497], [-122.275, 40.9578], [-122.2739, 40.9588], [-122.2697, 40.9599], [-122.2666, 40.9598], [-122.2666, 40.9459], [-122.2535, 40.9459], [-122.2531, 40.9316], [-122.2604, 40.9317], [-122.2603, 40.9098], [-122.2791, 40.9097], [-122.279, 40.9317], [-122.2981, 40.9317], [-122.2981, 40.9238], [-122.3022, 40.9262], [-122.303, 40.9278], [-122.3013, 40.9284], [-122.3014, 40.931], [-122.2986, 40.9325], [-122.2965, 40.9358], [-122.2925, 40.9383], [-122.2907, 40.9387], [-122.2877, 40.9413], [-122.2856, 40.9409], [-122.2822, 40.9439]]], [[[-122.2436, 40.9525], [-122.2406, 40.9517], [-122.2404, 40.9501], [-122.2414, 40.9491], [-122.2411, 40.9476], [-122.2437, 40.9458], [-122.2436, 40.9525]]], [[[-122.2437, 40.9458], [-122.2456, 40.9404], [-122.2485, 40.9387], [-122.2486, 40.9458], [-122.2437, 40.9458]]], [[[-122.2792, 40.9005], [-122.2811, 40.9004], [-122.2827, 40.9025], [-122.2874, 40.9024], [-122.2853, 40.9042], [-122.2853, 40.9097], [-122.2791, 40.9097], [-122.2792, 40.9005]]]]}, "properties": {"layer": "retained"}}, {"type": "Feature", "geometry": {"type": "MultiPolygon", "coordinates": [[[[-122.275, 40.9563], [-122.276, 40.9555], [-122.2753, 40.9552], [-122.2756, 40.9539], [-122.2739, 40.955], [-122.275, 40.9563]]], [[[-122.2759, 40.9522], [-122.2748, 40.9512], [-122.2734, 40.9515], [-122.2741, 40.952], [-122.2759, 40.9522]]], [[[-122.2674, 40.9532], [-122.267, 40.9519], [-122.2681, 40.9516], [-122.2677, 40.951], [-122.2666, 40.9513], [-122.2667, 40.9532], [-122.2674, 40.9532]]], [[[-122.2702, 40.9529], [-122.2705, 40.9515], [-122.2687, 40.9507], [-122.2691, 40.9518], [-122.2684, 40.9521], [-122.2695, 40.9523], [-122.2692, 40.9529], [-122.2702, 40.9529]], [[-122.2698, 40.9521], [-122.2695, 40.9523], [-122.2695, 40.9521], [-122.2698, 40.9521]]], [[[-122.2727, 40.952], [-122.2734, 40.9512], [-122.2716, 40.9504], [-122.2713, 40.9518], [-122.2727, 40.952]]], [[[-122.2712, 40.9507], [-122.2716, 40.9501], [-122.2701, 40.9499], [-122.2702, 40.9504], [-122.2712, 40.9507]]], [[[-122.273, 40.9504], [-122.273, 40.949], [-122.2719, 40.9491], [-122.2716, 40.9501], [-122.273, 40.9504]]], [[[-122.2701, 40.9488], [-122.2712, 40.9491], [-122.2712, 40.9485], [-122.2701, 40.9488]]], [[[-122.2434, 40.9496], [-122.2437, 40.9482], [-122.243, 40.9482], [-122.2434, 40.9496]]], [[[-122.2632, 40.946], [-122.2632, 40.9454], [-122.2621, 40.9452], [-122.2622, 40.9457], [-122.2632, 40.946]]], [[[-122.279, 40.9478], [-122.2786, 40.9468], [-122.28, 40.9467], [-122.2789, 40.9457], [-122.2803, 40.9457], [-122.2796, 40.9446], [-122.2772, 40.9465], [-122.2772, 40.9473], [-122.279, 40.9478]], [[-122.2782, 40.9465], [-122.2779, 40.9468], [-122.2779, 40.9465], [-122.2782, 40.9465]]], [[[-122.2636, 40.9454], [-122.2639, 40.9446], [-122.2628, 40.9427], [-122.2607, 40.9436], [-122.2596, 40.9436], [-122.2596, 40.9428], [-122.2592, 40.9433], [-122.2585, 40.9431], [-122.2596, 40.9447], [-122.2603, 40.9439], [-122.2614, 40.9438], [-122.2614, 40.9447], [-122.2621, 40.9441], [-122.2636, 40.9454]]], [[[-122.277, 40.9417], [-122.2777, 40.9414], [-122.2773, 40.9408], [-122.2766, 40.9409], [-122.277, 40.9417]]], [[[-122.2613, 40.9401], [-122.2605, 40.939], [-122.2595, 40.939], [-122.2595, 40.9401], [-122.2598, 40.9395], [-122.2613, 40.9401]]], [[[-122.2687, 40.9397], [-122.2698, 40.9388], [-122.2687, 40.9388], [-122.2687, 40.9397]]], [[[-122.2821, 40.9451], [-122.2824, 40.9435], [-122.2849, 40.9423], [-122.2852, 40.941], [-122.2859, 40.941], [-122.2852, 40.9407], [-122.2851, 40.9391], [-122.283, 40.9397], [-122.2833, 40.9388], [-122.2823, 40.9389], [-122.2827, 40.9402], [-122.2819, 40.9402], [-122.2815, 40.9392], [-122.2801, 40.9392], [-122.2801, 40.9384], [-122.2794, 40.9384], [-122.2794, 40.9395], [-122.2783, 40.9387], [-122.2784, 40.9397], [-122.2809, 40.94], [-122.282, 40.941], [-122.283, 40.941], [-122.2827, 40.9424], [-122.2809, 40.9427], [-122.2806, 40.9435], [-122.2806, 40.944], [-122.2821, 40.9437], [-122.281, 40.9446], [-122.281, 40.9451], [-122.2821, 40.9451]]], [[[-122.2577, 40.9404], [-122.2588, 40.9396], [-122.2566, 40.9377], [-122.2559, 40.9393], [-122.2577, 40.9404]], [[-122.2573, 40.9388], [-122.257, 40.9393], [-122.2566, 40.9388], [-122.2573, 40.9388]]], [[[-122.2687, 40.9388], [-122.269, 40.9378], [-122.2683, 40.9372], [-122.2676, 40.9381], [-122.2662, 40.9381], [-122.2687, 40.9388]]], [[[-122.2662, 40.9381], [-122.2662, 40.937], [-122.2648, 40.9376], [-122.2648, 40.9378], [-122.2662, 40.9381]]], [[[-122.2946, 40.9362], [-122.2957, 40.9354], [-122.2946, 40.9354], [-122.2946, 40.9362]]], [[[-122.2562, 40.9369], [-122.2562, 40.9364], [-122.2569, 40.9361], [-122.2555, 40.9364], [-122.2562, 40.9369]]], [[[-122.2847, 40.9364], [-122.2846, 40.9356], [-122.2836, 40.9353], [-122.2836, 40.9361], [-122.2847, 40.9364]]], [[[-122.296, 40.9348], [-122.296, 40.934], [-122.2953, 40.934], [-122.2949, 40.9346], [-122.296, 40.9348]]], [[[-122.2963, 40.9327], [-122.297, 40.9335], [-122.2984, 40.9326], [-122.2963, 40.9327]]], [[[-122.3012, 40.9304], [-122.3012, 40.9296], [-122.2997, 40.9288], [-122.2991, 40.9299], [-122.3012, 40.9304]]], [[[-122.298, 40.9297], [-122.2987, 40.9283], [-122.2979, 40.928], [-122.298, 40.9297]]], [[[-122.3019, 40.9282], [-122.3015, 40.9269], [-122.3, 40.9272], [-122.3008, 40.9283], [-122.3019, 40.9282]]], [[[-122.2665, 40.9259], [-122.2679, 40.9251], [-122.2661, 40.9251], [-122.2665, 40.9259]]], [[[-122.2695, 40.9175], [-122.2694, 40.9167], [-122.268, 40.9167], [-122.2684, 40.9172], [-122.2695, 40.9175]]], [[[-122.2694, 40.9161], [-122.2701, 40.915], [-122.269, 40.915], [-122.2694, 40.9161]]], [[[-122.269, 40.914], [-122.2704, 40.9134], [-122.2696, 40.9118], [-122.269, 40.914]]], [[[-122.2669, 40.9137], [-122.2668, 40.9132], [-122.2679, 40.9134], [-122.2689, 40.9118], [-122.2661, 40.9129], [-122.2669, 40.9137]]], [[[-122.2851, 40.9045], [-122.285, 40.9034], [-122.2864, 40.9026], [-122.2861, 40.902], [-122.2843, 40.9037], [-122.2851, 40.9045]]]]}, "properties": {"layer": "high_severity"}}, {"type": "Feature", "geometry": {"type": "Polygon", "coordinates": [[[-122.2845, 40.9413], [-122.2844, 40.9404], [-122.2837, 40.9405], [-122.2837, 40.941], [-122.2845, 40.9413]]]}, "properties": {"layer": "interior"}}, {"type": "Feature", "geometry": {"type": "Polygon", "coordinates": [[[-122.2582, 40.9455], [-122.2586, 40.9452], [-122.2582, 40.9453], [-122.2582, 40.9455]]]}, "properties": {"layer": "cell", "cell_id": "521_1500", "seed_zone": "521", "elevation_band": "1500–2000 ft"}}, {"type": "Feature", "geometry": {"type": "Polygon", "coordinates": [[[-122.2801, 40.9397], [-122.2805, 40.9394], [-122.2801, 40.9394], [-122.2801, 40.9397]]]}, "properties": {"layer": "cell", "cell_id": "521_3000", "seed_zone": "521", "elevation_band": "3000–3500 ft"}}, {"type": "Feature", "geometry": {"type": "Polygon", "coordinates": [[[-122.2845, 40.9413], [-122.2844, 40.9404], [-122.2837, 40.9405], [-122.2837, 40.941], [-122.2845, 40.9413]]]}, "properties": {"layer": "cell", "cell_id": "521_3500", "seed_zone": "521", "elevation_band": "3500–4000 ft"}}]}
