{"type": "FeatureCollection", "features": [{"type": "Feature", "geometry": {"type": "Polygon", "coordinates": [[[-118.5611, 36.7285], [-118.563, 36.7321], [-118.5619, 36.7357], [-118.5647, 36.7391], [-118.5649, 36.7406], [-118.562, 36.7451], [-118.5585, 36.7447], [-118.5564, 36.7422], [-118.5553, 36.7389], [-118.5525, 36.7382], [-118.5526, 36.7373], [-118.5514, 36.7364], [-118.5487, 36.7377], [-118.5459, 36.7379], [-118.5447, 36.7344], [-118.5474, 36.7305], [-118.5455, 36.7284], [-118.5425, 36.7284], [-118.5391, 36.7273], [-118.5371, 36.7289], [-118.5349, 36.7293], [-118.5323, 36.7273], [-118.5314, 36.7245], [-118.5323, 36.7232], [-118.5398, 36.7211], [-118.5409, 36.7193], [-118.5445, 36.7189], [-118.5455, 36.7182], [-118.5463, 36.7134], [-118.5494, 36.7121], [-118.5538, 36.714], [-118.5556, 36.7134], [-118.5573, 36.7165], [-118.5621, 36.7186], [-118.5623, 36.7275], [-118.5611, 36.7285]]]}, "properties": {"layer": "perimeter"}}]}
