{"type": "FeatureCollection", "features": [{"type": "Feature", "geometry": {"type": "MultiPolygon", "coordinates": [[[[-123.698, 41.3627], [-123.6977, 41.3625], [-123.6979, 41.3625], [-123.698, 41.3627]]], [[[-123.7131, 41.3671], [-123.7125, 41.3677], [-123.7121, 41.3673], [-123.7131, 41.3671]]], [[[-123.7155, 41.3706], [-123.716, 41.3706], [-123.7158, 41.3708], [-123.7155, 41.3706]]], [[[-123.713, 41.3727], [-123.7129, 41.3725], [-123.713, 41.3725], [-123.713, 41.3727]]], [[[-123.7063, 41.3773], [-123.7064, 41.3773], [-123.7063, 41.3774], [-123.7063, 41.3773]]], [[[-123.7083, 41.3856], [-123.7081, 41.3859], [-123.7081, 41.3856], [-123.7083, 41.3856]]], [[[-123.7073, 41.3868], [-123.7079, 41.3864], [-123.7078, 41.3869], [-123.7073, 41.3868]]], [[[-123.7031, 41.3875], [-123.7034, 41.3876], [-123.7032, 41.3876], [-123.7031, 41.3875]]], [[[-123.7514, 41.3897], [-123.7508, 41.39], [-123.7508, 41.3899], [-123.7514, 41.3897]]], [[[-123.7295, 41.3924], [-123.729, 41.3922], [-123.7294, 41.3922], [-123.7295, 41.3924]]], [[[-123.6992, 41.4021], [-123.699, 41.4023], [-123.699, 41.4022], [-123.6992, 41.4021]]], [[[-123.6988, 41.4027], [-123.6986, 41.4026], [-123.6988, 41.4026], [-123.6988, 41.4027]]], [[[-123.699, 41.403], [-123.6991, 41.4028], [-123.6991, 41.403], [-123.699, 41.403]]], [[[-123.6998, 41.4031], [-123.6998, 41.4028], [-123.7002, 41.4029], [-123.6998, 41.4031]]], [[[-123.7118, 41.4079], [-123.7115, 41.4083], [-123.7114, 41.4079], [-123.7118, 41.4079]]], [[[-123.712, 41.4086], [-123.7124, 41.4084], [-123.7124, 41.4086], [-123.712, 41.4086]]], [[[-123.7127, 41.4091], [-123.7128, 41.409], [-123.7129, 41.409], [-123.7127, 41.4091]]], [[[-123.7155, 41.4091], [-123.7158, 41.4093], [-123.7156, 41.4094], [-123.7155, 41.4091]]], [[[-123.7151, 41.4096], [-123.7148, 41.4096], [-123.715, 41.4095], [-123.7151, 41.4096]]], [[[-123.7179, 41.4091], [-123.7177, 41.4101], [-123.7173, 41.4092], [-123.7179, 41.4091]]], [[[-123.7109, 41.4111], [-123.7107, 41.411], [-123.7108, 41.411], [-123.7109, 41.4111]]], [[[-123.7197, 41.4109], [-123.7198, 41.411], [-123.7197, 41.4111], [-123.7197, 41.4109]]], [[[-123.7113, 41.4115], [-123.7111, 41.4112], [-123.7113, 41.4112], [-123.7113, 41.4115]]], [[[-123.7194, 41.411], [-123.7193, 41.4112], [-123.7192, 41.4111], [-123.7194, 41.411]]], [[[-123.7202, 41.4115], [-123.7198, 41.4113], [-123.7201, 41.4113], [-123.7202, 41.4115]]], [[[-123.7209, 41.4118], [-123.7207, 41.412], [-123.7207, 41.4119], [-123.7209, 41.4118]]], [[[-123.7198, 41.412], [-123.7202, 41.412], [-123.72, 41.4122], [-123.7198, 41.412]]], [[[-123.7075, 41.4149], [-123.7075, 41.4147], [-123.7076, 41.4148], [-123.7075, 41.4149]]], [[[-123.7086, 41.4147], [-123.7088, 41.4149], [-123.7086, 41.4149], [-123.7086, 41.4147]]], [[[-123.7074, 41.4159], [-123.7073, 41.4157], [-123.7074, 41.4158], [-123.7074, 41.4159]]], [[[-123.7191, 41.4175], [-123.7179, 41.4174], [-123.7177, 41.4164], [-123.7195, 41.4176], [-123.7177, 41.4182], [-123.7191, 41.4175]]], [[[-123.7011, 41.4209], [-123.7012, 41.4211], [-123.701, 41.4211], [-123.7011, 41.4209]]], [[[-123.7162, 41.4341], [-123.716, 41.4342], [-123.7161, 41.4341], [-123.7162, 41.4341]]], [[[-123.6985, 41.4402], [-123.698, 41.4402], [-123.698, 41.4401], [-123.6985, 41.4402]]], [[[-123.6981, 41.4409], [-123.6981, 41.4405], [-123.6983, 41.4408], [-123.6981, 41.4409]]], [[[-123.711, 41.4408], [-123.7108, 41.4407], [-123.7111, 41.4407], [-123.711, 41.4408]]], [[[-123.6984, 41.4412], [-123.6986, 41.4413], [-123.6985, 41.4414], [-123.6984, 41.4412]]], [[[-123.7266, 41.53], [-123.7268, 41.5302], [-123.7265, 41.5302], [-123.7266, 41.53]]], [[[-123.6862, 41.3897], [-123.6852, 41.3909], [-123.6836, 41.3904], [-123.6839, 41.3899], [-123.6862, 41.3897]]], [[[-123.6879, 41.3931], [-123.6877, 41.3937], [-123.6872, 41.3938], [-123.6872, 41.3932], [-123.6879, 41.3931]]], [[[-123.6877, 41.3956], [-123.6873, 41.3961], [-123.6871, 41.3957], [-123.6877, 41.3956]]], [[[-123.6883, 41.3958], [-123.6886, 41.3961], [-123.6882, 41.3961], [-123.6883, 41.3958]]], [[[-123.6786, 41.4152], [-123.6787, 41.4154], [-123.6785, 41.4153], [-123.6786, 41.4152]]], [[[-123.6785, 41.4158], [-123.6792, 41.416], [-123.6785, 41.4159], [-123.6785, 41.4158]]], [[[-123.6802, 41.4188], [-123.6802, 41.4187], [-123.6803, 41.4187], [-123.6802, 41.4188]]], [[[-123.6902, 41.4234], [-123.6906, 41.4236], [-123.6903, 41.4238], [-123.6902, 41.4234]]], [[[-123.6888, 41.4236], [-123.6888, 41.4239], [-123.6886, 41.4239], [-123.6888, 41.4236]]], [[[-123.6927, 41.4253], [-123.6916, 41.4249], [-123.6916, 41.4246], [-123.6927, 41.4253]]], [[[-123.6966, 41.4255], [-123.6963, 41.4253], [-123.6965, 41.4252], [-123.6966, 41.4255]]], [[[-123.6954, 41.4266], [-123.6956, 41.4268], [-123.6954, 41.4268], [-123.6954, 41.4266]]], [[[-123.6824, 41.429], [-123.6822, 41.4289], [-123.6824, 41.4289], [-123.6824, 41.429]]], [[[-123.6846, 41.4295], [-123.6845, 41.4298], [-123.6844, 41.4296], [-123.6846, 41.4295]]], [[[-123.6836, 41.4301], [-123.6833, 41.4298], [-123.6837, 41.43], [-123.6836, 41.4301]]], [[[-123.6769, 41.4368], [-123.6766, 41.4367], [-123.6769, 41.4367], [-123.6769, 41.4368]]], [[[-123.6774, 41.4369], [-123.6782, 41.4368], [-123.678, 41.4371], [-123.6774, 41.4369]]], [[[-123.6777, 41.4386], [-123.6779, 41.4385], [-123.6779, 41.4387], [-123.6777, 41.4386]]], [[[-123.6784, 41.4388], [-123.6782, 41.4388], [-123.6784, 41.4387], [-123.6784, 41.4388]]], [[[-123.6797, 41.4394], [-123.6785, 41.4383], [-123.6808, 41.4388], [-123.6797, 41.4394]]], [[[-123.6808, 41.439], [-123.6808, 41.4392], [-123.6806, 41.4392], [-123.6808, 41.439]]], [[[-123.6957, 41.4395], [-123.6956, 41.4394], [-123.6957, 41.4393], [-123.6957, 41.4395]]], [[[-123.698, 41.4394], [-123.6979, 41.4396], [-123.6978, 41.4395], [-123.698, 41.4394]]], [[[-123.6966, 41.4397], [-123.6965, 41.4395], [-123.6966, 41.4395], [-123.6966, 41.4397]]], [[[-123.6959, 41.44], [-123.696, 41.4398], [-123.6962, 41.44], [-123.6959, 41.44]]], [[[-123.6971, 41.4399], [-123.6969, 41.44], [-123.697, 41.4398], [-123.6971, 41.4399]]], [[[-123.6789, 41.4404], [-123.6787, 41.4405], [-123.6786, 41.4404], [-123.6789, 41.4404]]], [[[-123.6828, 41.4407], [-123.6828, 41.4409], [-123.6827, 41.4409], [-123.6828, 41.4407]]], [[[-123.6976, 41.4405], [-123.6977, 41.4404], [-123.6977, 41.4406], [-123.6976, 41.4405]]], [[[-123.6832, 41.4409], [-123.6832, 41.4412], [-123.683, 41.4411], [-123.6832, 41.4409]]], [[[-123.677, 41.4528], [-123.677, 41.4533], [-123.6766, 41.4529], [-123.677, 41.4528]]], [[[-123.6778, 41.4536], [-123.6776, 41.4538], [-123.6777, 41.4536], [-123.6778, 41.4536]]], [[[-123.6746, 41.4572], [-123.6747, 41.4571], [-123.6747, 41.4573], [-123.6746, 41.4572]]], [[[-123.6816, 41.463], [-123.6818, 41.4629], [-123.6818, 41.463], [-123.6816, 41.463]]], [[[-123.6791, 41.5178], [-123.6798, 41.5182], [-123.6793, 41.5184], [-123.6791, 41.5178]]], [[[-123.6863, 41.5212], [-123.6861, 41.5211], [-123.6864, 41.521], [-123.6863, 41.5212]]], [[[-123.6757, 41.5257], [-123.6765, 41.5255], [-123.6766, 41.5258], [-123.6757, 41.5257]]], [[[-123.6763, 41.5514], [-123.6767, 41.5511], [-123.6767, 41.5513], [-123.6763, 41.5514]]], [[[-123.6642, 41.3729], [-123.6639, 41.3726], [-123.6644, 41.3726], [-123.6642, 41.3729]]], [[[-123.6657, 41.4005], [-123.6658, 41.4004], [-123.6658, 41.4005], [-123.6657, 41.4005]]], [[[-123.6478, 41.426], [-123.6479, 41.4258], [-123.6479, 41.4259], [-123.6478, 41.426]]], [[[-123.6479, 41.427], [-123.6482, 41.427], [-123.648, 41.4271], [-123.6479, 41.427]]], [[[-123.657, 41.4315], [-123.6569, 41.4319], [-123.6568, 41.4315], [-123.657, 41.4315]]], [[[-123.6595, 41.4327], [-123.6597, 41.4326], [-123.6596, 41.4328], [-123.6595, 41.4327]]], [[[-123.6587, 41.4327], [-123.6587, 41.4329], [-123.6586, 41.4327], [-123.6587, 41.4327]]], [[[-123.6521, 41.4345], [-123.6511, 41.4342], [-123.6521, 41.4342], [-123.6521, 41.4345]]], [[[-123.6579, 41.4349], [-123.6577, 41.435], [-123.6578, 41.4349], [-123.6579, 41.4349]]], [[[-123.6571, 41.4357], [-123.658, 41.4355], [-123.6579, 41.436], [-123.6571, 41.4357]]], [[[-123.6569, 41.4379], [-123.6578, 41.4376], [-123.6577, 41.4382], [-123.6569, 41.4379]]], [[[-123.6568, 41.4393], [-123.6557, 41.4388], [-123.657, 41.439], [-123.6568, 41.4393]]], [[[-123.6555, 41.4423], [-123.6551, 41.4422], [-123.6555, 41.4421], [-123.6555, 41.4423]]], [[[-123.6642, 41.4457], [-123.6646, 41.4461], [-123.6642, 41.4462], [-123.6642, 41.4457]]], [[[-123.6543, 41.4488], [-123.6547, 41.4486], [-123.6547, 41.4488], [-123.6543, 41.4488]]], [[[-123.6541, 41.4491], [-123.6543, 41.4489], [-123.6543, 41.4491], [-123.6541, 41.4491]]], [[[-123.6581, 41.4498], [-123.6587, 41.4503], [-123.6582, 41.4502], [-123.6581, 41.4498]]], [[[-123.6671, 41.4501], [-123.6672, 41.45], [-123.6672, 41.4501], [-123.6671, 41.4501]]], [[[-123.6528, 41.4549], [-123.6525, 41.4551], [-123.6526, 41.4548], [-123.6528, 41.4549]]], [[[-123.6703, 41.4597], [-123.6705, 41.4605], [-123.67, 41.4606], [-123.6697, 41.46], [-123.6703, 41.4597]]], [[[-123.6705, 41.461], [-123.6703, 41.461], [-123.6704, 41.461], [-123.6705, 41.461]]], [[[-123.6676, 41.4616], [-123.6684, 41.4617], [-123.6682, 41.4628], [-123.6675, 41.4623], [-123.6676, 41.4616]]], [[[-123.6521, 41.4673], [-123.6519, 41.4674], [-123.652, 41.4673], [-123.6521, 41.4673]]], [[[-123.6518, 41.4684], [-123.6515, 41.4682], [-123.6518, 41.4681], [-123.6518, 41.4684]]], [[[-123.6688, 41.4688], [-123.6686, 41.469], [-123.6687, 41.4688], [-123.6688, 41.4688]]], [[[-123.7151, 41.409], [-123.7142, 41.41], [-123.7168, 41.4096], [-123.7167, 41.4103], [-123.7187, 41.4116], [-123.7177, 41.4124], [-123.7185, 41.4128], [-123.7183, 41.4138], [-123.7169, 41.4139], [-123.7181, 41.4153], [-123.7166, 41.4167], [-123.7164, 41.418], [-123.7176, 41.4193], [-123.7167, 41.4198], [-123.7157, 41.4194], [-123.7143, 41.4214], [-123.7122, 41.4218], [-123.7126, 41.4228], [-123.7115, 41.4234], [-123.7118, 41.4247], [-123.7101, 41.4255], [-123.7085, 41.428], [-123.7061, 41.4276], [-123.7037, 41.4301], [-123.702, 41.4297], [-123.7022, 41.4313], [-123.6988, 41.4311], [-123.6985, 41.4322], [-123.6975, 41.4317], [-123.6958, 41.4336], [-123.6993, 41.4355], [-123.6992, 41.4378], [-123.7, 41.4384], [-123.6988, 41.4385], [-123.6985, 41.4391], [-123.6958, 41.4392], [-123.695, 41.4359], [-123.6916, 41.4348], [-123.6889, 41.4351], [-123.6885, 41.4345], [-123.6856, 41.4341], [-123.6799, 41.4358], [-123.6793, 41.4351], [-123.6781, 41.4359], [-123.6768, 41.4351], [-123.6753, 41.4357], [-123.6751, 41.4341], [-123.6741, 41.4334], [-123.6711, 41.4331], [-123.6705, 41.4316], [-123.6687, 41.4314], [-123.6668, 41.4321], [-123.6664, 41.4308], [-123.6646, 41.43], [-123.6626, 41.431], [-123.6616, 41.43], [-123.6595, 41.4297], [-123.6593, 41.4309], [-123.6577, 41.4316], [-123.6558, 41.4308], [-123.6536, 41.4328], [-123.6525, 41.4325], [-123.6522, 41.4334], [-123.6475, 41.4342], [-123.6464, 41.4329], [-123.6484, 41.4317], [-123.6502, 41.4275], [-123.6478, 41.4266], [-123.6496, 41.4255], [-123.6475, 41.4244], [-123.6454, 41.425], [-123.6464, 41.4261], [-123.6458, 41.4268], [-123.647, 41.4273], [-123.6465, 41.4285], [-123.6477, 41.4293], [-123.6461, 41.4296], [-123.6452, 41.4306], [-123.6461, 41.4312], [-123.6447, 41.4346], [-123.6384, 41.4341], [-123.6378, 41.4336], [-123.6393, 41.4319], [-123.6381, 41.4297], [-123.6332, 41.4292], [-123.6306, 41.4308], [-123.6313, 41.4318], [-123.63, 41.4323], [-123.6297, 41.4315], [-123.6282, 41.4314], [-123.6255, 41.433], [-123.6259, 41.4337], [-123.6281, 41.4334], [-123.63, 41.4341], [-123.631, 41.4351], [-123.6306, 41.4359], [-123.629, 41.4361], [-123.6287, 41.4347], [-123.6264, 41.4346], [-123.6259, 41.4359], [-123.6225, 41.4371], [-123.6232, 41.4386], [-123.6228, 41.4401], [-123.6246, 41.4395], [-123.6258, 41.4413], [-123.6238, 41.4424], [-123.6215, 41.4421], [-123.6228, 41.443], [-123.6231, 41.4447], [-123.6184, 41.4443], [-123.6191, 41.4467], [-123.6207, 41.4467], [-123.6205, 41.4481], [-123.6228, 41.448], [-123.6213, 41.4486], [-123.6216, 41.4495], [-123.6221, 41.4485], [-123.6242, 41.4485], [-123.6256, 41.4459], [-123.6251, 41.4454], [-123.6269, 41.4453], [-123.6284, 41.4439], [-123.6291, 41.4444], [-123.6294, 41.4433], [-123.6303, 41.4441], [-123.6311, 41.4438], [-123.6322, 41.4415], [-123.6347, 41.4415], [-123.6355, 41.4425], [-123.6377, 41.4406], [-123.6389, 41.4415], [-123.6391, 41.44], [-123.64, 41.4397], [-123.6423, 41.4402], [-123.6438, 41.4395], [-123.6436, 41.4404], [-123.646, 41.4405], [-123.6444, 41.4447], [-123.645, 41.4458], [-123.6434, 41.4462], [-123.6429, 41.4447], [-123.6421, 41.4453], [-123.6424, 41.4462], [-123.6408, 41.4468], [-123.6386, 41.4465], [-123.6384, 41.4474], [-123.6372, 41.4475], [-123.6352, 41.4468], [-123.6353, 41.4481], [-123.6327, 41.4494], [-123.6316, 41.4492], [-123.6311, 41.4505], [-123.6282, 41.4501], [-123.6272, 41.4506], [-123.6258, 41.4528], [-123.6272, 41.4536], [-123.6258, 41.4539], [-123.6244, 41.4533], [-123.624, 41.4538], [-123.6223, 41.4531], [-123.6207, 41.4551], [-123.6195, 41.454], [-123.6188, 41.4551], [-123.6207, 41.4572], [-123.6172, 41.4573], [-123.6187, 41.4597], [-123.6205, 41.4589], [-123.6247, 41.4594], [-123.6248, 41.4609], [-123.6267, 41.4611], [-123.6274, 41.4624], [-123.6276, 41.4619], [-123.6282, 41.4621], [-123.6304, 41.465], [-123.6342, 41.4616], [-123.6341, 41.4608], [-123.6329, 41.4609], [-123.6327, 41.4595], [-123.6297, 41.4593], [-123.6304, 41.457], [-123.6321, 41.4562], [-123.633, 41.4566], [-123.6342, 41.4554], [-123.6361, 41.4573], [-123.6366, 41.457], [-123.6367, 41.4561], [-123.6352, 41.4551], [-123.6364, 41.4551], [-123.6357, 41.4546], [-123.6363, 41.4535], [-123.637, 41.4539], [-123.6368, 41.4533], [-123.6385, 41.4535], [-123.639, 41.4526], [-123.6396, 41.4527], [-123.6409, 41.4511], [-123.6411, 41.4494], [-123.6419, 41.4501], [-123.6415, 41.4506], [-123.6434, 41.4514], [-123.6454, 41.45], [-123.6461, 41.4488], [-123.6447, 41.4482], [-123.6463, 41.4453], [-123.6498, 41.4455], [-123.6495, 41.4444], [-123.6479, 41.444], [-123.6477, 41.4432], [-123.6492, 41.4433], [-123.6492, 41.4427], [-123.6507, 41.4421], [-123.6495, 41.4439], [-123.6512, 41.4438], [-123.6519, 41.443], [-123.6513, 41.4427], [-123.6525, 41.4424], [-123.6543, 41.4436], [-123.6555, 41.4432], [-123.6566, 41.4461], [-123.6556, 41.4471], [-123.6514, 41.4461], [-123.6522, 41.4477], [-123.6541, 41.4485], [-123.6517, 41.4497], [-123.6513, 41.4514], [-123.6494, 41.4516], [-123.6498, 41.4503], [-123.6492, 41.451], [-123.6484, 41.4545], [-123.6497, 41.4553], [-123.647, 41.4564], [-123.6478, 41.4567], [-123.6476, 41.4578], [-123.6492, 41.4573], [-123.6507, 41.4543], [-123.6518, 41.455], [-123.653, 41.4574], [-123.6531, 41.4565], [-123.6548, 41.4554], [-123.6542, 41.4531], [-123.656, 41.4524], [-123.6554, 41.4509], [-123.6565, 41.4515], [-123.6595, 41.4506], [-123.6604, 41.4493], [-123.6599, 41.4482], [-123.6608, 41.4486], [-123.6638, 41.4476], [-123.6667, 41.4487], [-123.6669, 41.4495], [-123.6653, 41.4511], [-123.6664, 41.4512], [-123.6675, 41.4526], [-123.6642, 41.4533], [-123.6626, 41.4528], [-123.6614, 41.4534], [-123.661, 41.4558], [-123.6577, 41.4565], [-123.6562, 41.4585], [-123.6536, 41.4589], [-123.6523, 41.4583], [-123.6505, 41.4586], [-123.6507, 41.4581], [-123.6498, 41.4579], [-123.6501, 41.4585], [-123.6473, 41.4592], [-123.6449, 41.4615], [-123.6431, 41.4609], [-123.6423, 41.4592], [-123.6444, 41.4573], [-123.6437, 41.4558], [-123.6452, 41.4553], [-123.6471, 41.4523], [-123.645, 41.4527], [-123.6437, 41.4545], [-123.6425, 41.4537], [-123.6397, 41.4541], [-123.6397, 41.4552], [-123.642, 41.4557], [-123.6415, 41.4574], [-123.6429, 41.4575], [-123.6413, 41.46], [-123.6418, 41.4612], [-123.6436, 41.4613], [-123.6442, 41.4621], [-123.646, 41.4626], [-123.6476, 41.4621], [-123.6483, 41.4637], [-123.6515, 41.4663], [-123.6509, 41.4684], [-123.6476, 41.468], [-123.646, 41.4659], [-123.6422, 41.4647], [-123.6415, 41.4635], [-123.6397, 41.4646], [-123.6367, 41.4647], [-123.6357, 41.4656], [-123.6307, 41.4664], [-123.6277, 41.468], [-123.6295, 41.4692], [-123.6289, 41.4697], [-123.6309, 41.4697], [-123.6308, 41.471], [-123.6348, 41.4695], [-123.6359, 41.4705], [-123.6379, 41.4701], [-123.6446, 41.4722], [-123.6451, 41.4731], [-123.6439, 41.4754], [-123.643, 41.4748], [-123.6408, 41.475], [-123.6399, 41.4739], [-123.6352, 41.4744], [-123.6365, 41.477], [-123.636, 41.4789], [-123.6375, 41.4782], [-123.6389, 41.4792], [-123.6409, 41.4771], [-123.643, 41.4768], [-123.6429, 41.4787], [-123.6419, 41.4788], [-123.6434, 41.4793], [-123.6435, 41.4802], [-123.645, 41.4795], [-123.6459, 41.4828], [-123.6474, 41.4831], [-123.6482, 41.4823], [-123.6486, 41.4832], [-123.6478, 41.4841], [-123.6488, 41.486], [-123.6528, 41.4862], [-123.6515, 41.4879], [-123.6542, 41.4874], [-123.6558, 41.4899], [-123.6565, 41.4898], [-123.6567, 41.4891], [-123.6582, 41.4891], [-123.6584, 41.4872], [-123.6603, 41.4867], [-123.6595, 41.4847], [-123.6615, 41.4841], [-123.6613, 41.4833], [-123.6629, 41.4823], [-123.6628, 41.4807], [-123.662, 41.4801], [-123.6626, 41.4791], [-123.6635, 41.479], [-123.6636, 41.4785], [-123.6628, 41.4783], [-123.6641, 41.4771], [-123.6618, 41.4777], [-123.6579, 41.474], [-123.6565, 41.4736], [-123.6583, 41.4731], [-123.6602, 41.4752], [-123.6613, 41.475], [-123.662, 41.4765], [-123.662, 41.4757], [-123.6642, 41.476], [-123.6655, 41.4753], [-123.6665, 41.4761], [-123.6675, 41.4738], [-123.6693, 41.4732], [-123.6681, 41.4722], [-123.6661, 41.4721], [-123.6661, 41.4714], [-123.6678, 41.4716], [-123.6693, 41.4706], [-123.671, 41.4705], [-123.6723, 41.4693], [-123.6719, 41.4689], [-123.6737, 41.4686], [-123.6724, 41.4661], [-123.671, 41.4655], [-123.672, 41.4634], [-123.6714, 41.4603], [-123.6717, 41.4596], [-123.6727, 41.4598], [-123.6736, 41.459], [-123.6746, 41.4595], [-123.676, 41.4578], [-123.675, 41.4573], [-123.6758, 41.4568], [-123.6737, 41.4562], [-123.6748, 41.4553], [-123.6744, 41.4547], [-123.676, 41.4539], [-123.6785, 41.4561], [-123.6775, 41.4597], [-123.6794, 41.4585], [-123.6803, 41.4568], [-123.6795, 41.456], [-123.6802, 41.4553], [-123.6798, 41.4521], [-123.6823, 41.4493], [-123.6814, 41.4479], [-123.6821, 41.4475], [-123.6819, 41.4462], [-123.6847, 41.4453], [-123.6865, 41.4454], [-123.6865, 41.451], [-123.6871, 41.4518], [-123.6861, 41.4523], [-123.6882, 41.4534], [-123.6869, 41.4551], [-123.6842, 41.4556], [-123.6841, 41.4569], [-123.6807, 41.4615], [-123.6811, 41.4627], [-123.6801, 41.4636], [-123.6791, 41.4634], [-123.6788, 41.4647], [-123.6772, 41.4654], [-123.6788, 41.467], [-123.6757, 41.4672], [-123.6768, 41.4689], [-123.6797, 41.4694], [-123.6812, 41.4684], [-123.6823, 41.4689], [-123.6822, 41.4678], [-123.6837, 41.4671], [-123.6836, 41.4655], [-123.6847, 41.4642], [-123.6868, 41.4646], [-123.6884, 41.4639], [-123.6879, 41.4635], [-123.6898, 41.4623], [-123.6907, 41.4598], [-123.6947, 41.4585], [-123.6946, 41.4574], [-123.6924, 41.4573], [-123.6916, 41.4559], [-123.6921, 41.4542], [-123.6937, 41.4528], [-123.6923, 41.4523], [-123.6932, 41.4509], [-123.6922, 41.4499], [-123.692, 41.4479], [-123.6937, 41.4459], [-123.6949, 41.4456], [-123.6982, 41.4465], [-123.6987, 41.4483], [-123.6998, 41.4483], [-123.7008, 41.4475], [-123.6999, 41.4467], [-123.7012, 41.4455], [-123.7011, 41.4428], [-123.7032, 41.4413], [-123.7029, 41.4404], [-123.7066, 41.4393], [-123.7078, 41.4396], [-123.7076, 41.4406], [-123.709, 41.4401], [-123.7109, 41.4412], [-123.7138, 41.4409], [-123.712, 41.4393], [-123.7142, 41.4384], [-123.7134, 41.4367], [-123.7141, 41.4345], [-123.7164, 41.4362], [-123.7184, 41.4347], [-123.7204, 41.4349], [-123.7227, 41.4358], [-123.7232, 41.4378], [-123.725, 41.4376], [-123.7272, 41.4361], [-123.7269, 41.4356], [-123.7248, 41.4359], [-123.7229, 41.4352], [-123.7214, 41.4318], [-123.722, 41.4306], [-123.7243, 41.4323], [-123.7241, 41.4308], [-123.7281, 41.4313], [-123.7292, 41.4299], [-123.728, 41.4301], [-123.7267, 41.4293], [-123.7231, 41.4306], [-123.7221, 41.4291], [-123.7229, 41.4281], [-123.7225, 41.4256], [-123.7251, 41.4252], [-123.7255, 41.4239], [-123.726, 41.4244], [-123.7267, 41.4236], [-123.7255, 41.4234], [-123.725, 41.4224], [-123.7247, 41.4234], [-123.7227, 41.4231], [-123.7241, 41.4217], [-123.723, 41.4207], [-123.7236, 41.4187], [-123.7247, 41.4179], [-123.723, 41.4172], [-123.7228, 41.4132], [-123.7218, 41.4124], [-123.7223, 41.4114], [-123.7232, 41.4118], [-123.7249, 41.4113], [-123.7236, 41.4106], [-123.7247, 41.4101], [-123.7247, 41.4093], [-123.7229, 41.4093], [-123.7213, 41.4072], [-123.7169, 41.4061], [-123.7159, 41.4051], [-123.716, 41.4046], [-123.7179, 41.4046], [-123.7208, 41.4059], [-123.7232, 41.405], [-123.7216, 41.405], [-123.7203, 41.4041], [-123.7216, 41.404], [-123.7222, 41.403], [-123.7202, 41.4007], [-123.7205, 41.399], [-123.7171, 41.3964], [-123.7225, 41.3964], [-123.7237, 41.3944], [-123.7263, 41.3946], [-123.7268, 41.3924], [-123.7335, 41.3937], [-123.7355, 41.3908], [-123.7355, 41.3896], [-123.7373, 41.3883], [-123.74, 41.389], [-123.7401, 41.39], [-123.7387, 41.3904], [-123.7399, 41.3911], [-123.7437, 41.3916], [-123.7449, 41.3907], [-123.7473, 41.3906], [-123.7493, 41.3929], [-123.7504, 41.3916], [-123.754, 41.3907], [-123.761, 41.3938], [-123.7623, 41.393], [-123.7641, 41.3932], [-123.766, 41.3949], [-123.7667, 41.3973], [-123.7662, 41.4012], [-123.7677, 41.4052], [-123.7708, 41.4061], [-123.7707, 41.4102], [-123.7689, 41.4113], [-123.768, 41.4158], [-123.7655, 41.417], [-123.765, 41.4189], [-123.7569, 41.4189], [-123.7537, 41.42], [-123.7555, 41.4205], [-123.7571, 41.4231], [-123.7544, 41.4256], [-123.7492, 41.427], [-123.7486, 41.4282], [-123.7503, 41.4274], [-123.7506, 41.4279], [-123.7485, 41.4287], [-123.7503, 41.4305], [-123.7493, 41.4322], [-123.7502, 41.433], [-123.7476, 41.4322], [-123.747, 41.4313], [-123.7451, 41.4325], [-123.7417, 41.4326], [-123.7393, 41.4317], [-123.7372, 41.4325], [-123.7359, 41.4318], [-123.7353, 41.4327], [-123.7359, 41.4375], [-123.7343, 41.4386], [-123.7341, 41.4414], [-123.7299, 41.4464], [-123.7255, 41.4446], [-123.7235, 41.4418], [-123.7195, 41.4397], [-123.7187, 41.4397], [-123.7177, 41.4414], [-123.7138, 41.4424], [-123.7094, 41.4427], [-123.7085, 41.442], [-123.7066, 41.4425], [-123.7052, 41.4436], [-123.7049, 41.4465], [-123.7031, 41.4471], [-123.7008, 41.4507], [-123.6971, 41.4513], [-123.6968, 41.4593], [-123.6951, 41.4624], [-123.6907, 41.4644], [-123.6887, 41.4668], [-123.6853, 41.4688], [-123.6838, 41.4712], [-123.6816, 41.4713], [-123.6786, 41.4724], [-123.6745, 41.4718], [-123.6715, 41.4724], [-123.6702, 41.4767], [-123.6674, 41.4784], [-123.6676, 41.4798], [-123.6667, 41.4805], [-123.6661, 41.4837], [-123.6652, 41.4831], [-123.6657, 41.4822], [-123.6649, 41.4815], [-123.6663, 41.4782], [-123.6652, 41.4786], [-123.6645, 41.4779], [-123.6644, 41.4822], [-123.6619, 41.4862], [-123.6595, 41.4879], [-123.6599, 41.4895], [-123.6585, 41.4903], [-123.6612, 41.4908], [-123.6622, 41.4895], [-123.6632, 41.4896], [-123.6625, 41.4916], [-123.6656, 41.4918], [-123.6664, 41.4943], [-123.676, 41.4944], [-123.6761, 41.4962], [-123.6781, 41.4949], [-123.6793, 41.4953], [-123.6832, 41.4948], [-123.6836, 41.4943], [-123.6868, 41.4951], [-123.6893, 41.4946], [-123.6909, 41.4951], [-123.6918, 41.4942], [-123.6927, 41.4947], [-123.6952, 41.4932], [-123.6966, 41.4937], [-123.6981, 41.491], [-123.6988, 41.4925], [-123.7007, 41.4922], [-123.7004, 41.4931], [-123.6986, 41.4938], [-123.6985, 41.4953], [-123.6968, 41.4971], [-123.6965, 41.4991], [-123.6973, 41.4991], [-123.6965, 41.5003], [-123.695, 41.501], [-123.6944, 41.4997], [-123.6935, 41.5008], [-123.6919, 41.5008], [-123.6924, 41.503], [-123.6899, 41.5024], [-123.6896, 41.5029], [-123.6907, 41.5035], [-123.6893, 41.5048], [-123.6894, 41.5042], [-123.687, 41.5019], [-123.6846, 41.5018], [-123.6829, 41.5005], [-123.6831, 41.4999], [-123.6817, 41.5006], [-123.6795, 41.5003], [-123.6747, 41.5011], [-123.6738, 41.5059], [-123.6726, 41.5055], [-123.6727, 41.5066], [-123.6745, 41.5072], [-123.6744, 41.506], [-123.6754, 41.5055], [-123.6759, 41.5059], [-123.6759, 41.5039], [-123.6771, 41.5041], [-123.6778, 41.505], [-123.6773, 41.5064], [-123.6755, 41.5061], [-123.6747, 41.5074], [-123.674, 41.5076], [-123.6746, 41.509], [-123.6773, 41.5088], [-123.6769, 41.5106], [-123.679, 41.5084], [-123.6827, 41.5093], [-123.6836, 41.5089], [-123.6849, 41.5097], [-123.6861, 41.5084], [-123.6883, 41.5085], [-123.6897, 41.5094], [-123.6912, 41.5078], [-123.6922, 41.5076], [-123.6932, 41.5085], [-123.6945, 41.508], [-123.6948, 41.51], [-123.6968, 41.511], [-123.6959, 41.5133], [-123.6971, 41.5138], [-123.6977, 41.5155], [-123.6989, 41.5154], [-123.7002, 41.5136], [-123.6993, 41.5131], [-123.7014, 41.5127], [-123.7112, 41.5171], [-123.7135, 41.5192], [-123.7144, 41.5192], [-123.7136, 41.5182], [-123.7144, 41.5183], [-123.7144, 41.5175], [-123.7138, 41.5162], [-123.7125, 41.5157], [-123.7129, 41.5151], [-123.7142, 41.516], [-123.7151, 41.5158], [-123.7145, 41.5136], [-123.7162, 41.514], [-123.7171, 41.5131], [-123.7175, 41.514], [-123.7163, 41.5157], [-123.7211, 41.5135], [-123.7217, 41.5147], [-123.7206, 41.5161], [-123.7232, 41.5163], [-123.7233, 41.5169], [-123.7227, 41.5181], [-123.7217, 41.5178], [-123.722, 41.5194], [-123.723, 41.5197], [-123.725, 41.5188], [-123.7255, 41.5201], [-123.7273, 41.5206], [-123.7275, 41.5221], [-123.7306, 41.5225], [-123.7292, 41.5247], [-123.7283, 41.5249], [-123.7294, 41.5268], [-123.7282, 41.5263], [-123.7262, 41.5269], [-123.726, 41.5259], [-123.7248, 41.5265], [-123.725, 41.527], [-123.7203, 41.5264], [-123.7205, 41.5275], [-123.7228, 41.5284], [-123.7234, 41.5298], [-123.7251, 41.5292], [-123.7264, 41.5305], [-123.7254, 41.5317], [-123.7226, 41.53], [-123.7229, 41.5312], [-123.7212, 41.5319], [-123.7213, 41.5327], [-123.723, 41.5324], [-123.726, 41.5355], [-123.7283, 41.5354], [-123.7274, 41.5368], [-123.729, 41.5378], [-123.7305, 41.5377], [-123.7307, 41.5388], [-123.7291, 41.5403], [-123.728, 41.5403], [-123.7284, 41.5412], [-123.7277, 41.5418], [-123.7271, 41.5413], [-123.7266, 41.5429], [-123.7253, 41.5428], [-123.7234, 41.5444], [-123.7198, 41.5432], [-123.7191, 41.5408], [-123.7181, 41.541], [-123.7169, 41.5427], [-123.7154, 41.5426], [-123.7153, 41.5444], [-123.7131, 41.5444], [-123.7109, 41.5432], [-123.7109, 41.5444], [-123.7102, 41.5445], [-123.7119, 41.5465], [-123.7137, 41.5458], [-123.7171, 41.5466], [-123.7186, 41.5477], [-123.7194, 41.5471], [-123.7204, 41.5481], [-123.7191, 41.5489], [-123.7138, 41.5487], [-123.7137, 41.55], [-123.7116, 41.5515], [-123.7103, 41.5506], [-123.7089, 41.551], [-123.713, 41.5535], [-123.7108, 41.555], [-123.7111, 41.556], [-123.7095, 41.5562], [-123.7116, 41.5577], [-123.7124, 41.5598], [-123.7117, 41.5595], [-123.7102, 41.5604], [-123.7101, 41.5619], [-123.7072, 41.5639], [-123.7074, 41.5649], [-123.7064, 41.5662], [-123.7012, 41.5668], [-123.6999, 41.5649], [-123.6989, 41.5653], [-123.6982, 41.5642], [-123.6984, 41.5659], [-123.6964, 41.566], [-123.6956, 41.565], [-123.6951, 41.5658], [-123.6944, 41.5652], [-123.6939, 41.5656], [-123.6932, 41.5637], [-123.6917, 41.5635], [-123.6906, 41.564], [-123.689, 41.5626], [-123.6877, 41.5637], [-123.6891, 41.5651], [-123.6893, 41.5673], [-123.6878, 41.5681], [-123.686, 41.567], [-123.6846, 41.5672], [-123.6851, 41.5699], [-123.6861, 41.5708], [-123.6852, 41.5717], [-123.6835, 41.5716], [-123.6822, 41.5728], [-123.6813, 41.5728], [-123.6812, 41.5737], [-123.6796, 41.5745], [-123.6779, 41.5735], [-123.6791, 41.5731], [-123.6796, 41.5726], [-123.6751, 41.5715], [-123.672, 41.574], [-123.6693, 41.5738], [-123.6678, 41.5753], [-123.6674, 41.5745], [-123.6668, 41.5752], [-123.6654, 41.575], [-123.666, 41.5743], [-123.6646, 41.5735], [-123.6666, 41.572], [-123.6642, 41.5719], [-123.6633, 41.5698], [-123.6651, 41.5687], [-123.6651, 41.5678], [-123.661, 41.5707], [-123.66, 41.5701], [-123.6521, 41.5716], [-123.6483, 41.5717], [-123.6431, 41.573], [-123.6445, 41.574], [-123.644, 41.5754], [-123.6433, 41.5746], [-123.6418, 41.5748], [-123.6417, 41.5765], [-123.6395, 41.5798], [-123.6425, 41.5814], [-123.6405, 41.5827], [-123.6395, 41.5847], [-123.641, 41.5862], [-123.6403, 41.5865], [-123.6406, 41.5874], [-123.6435, 41.586], [-123.6439, 41.587], [-123.6451, 41.5872], [-123.6439, 41.5873], [-123.6433, 41.5898], [-123.6453, 41.5901], [-123.6451, 41.5894], [-123.646, 41.5896], [-123.6481, 41.5879], [-123.6495, 41.5883], [-123.6524, 41.5873], [-123.6518, 41.5895], [-123.6526, 41.5909], [-123.6519, 41.5917], [-123.6523, 41.5925], [-123.6536, 41.5922], [-123.6542, 41.5928], [-123.6536, 41.5939], [-123.6526, 41.5939], [-123.6506, 41.5954], [-123.6487, 41.5952], [-123.6485, 41.5964], [-123.6445, 41.5942], [-123.6419, 41.5939], [-123.6406, 41.5925], [-123.6395, 41.5934], [-123.6383, 41.5933], [-123.6368, 41.5916], [-123.6336, 41.5905], [-123.6348, 41.5891], [-123.6324, 41.5885], [-123.6331, 41.5878], [-123.6312, 41.588], [-123.6298, 41.5872], [-123.6309, 41.5845], [-123.6327, 41.5844], [-123.6321, 41.5838], [-123.6327, 41.5832], [-123.6315, 41.5834], [-123.6307, 41.5813], [-123.6327, 41.5794], [-123.6324, 41.5779], [-123.6341, 41.5773], [-123.6342, 41.5754], [-123.6359, 41.574], [-123.6382, 41.5738], [-123.64, 41.5723], [-123.6413, 41.5722], [-123.6417, 41.5695], [-123.6431, 41.5679], [-123.6449, 41.5672], [-123.6456, 41.5657], [-123.6454, 41.565], [-123.6445, 41.5642], [-123.6456, 41.5621], [-123.6466, 41.5619], [-123.6465, 41.56], [-123.6475, 41.5597], [-123.6489, 41.5605], [-123.6494, 41.5597], [-123.648, 41.5589], [-123.6485, 41.5583], [-123.6477, 41.5571], [-123.6507, 41.5544], [-123.6502, 41.5533], [-123.6488, 41.5529], [-123.6486, 41.5554], [-123.6457, 41.5571], [-123.6442, 41.5571], [-123.6433, 41.5554], [-123.6419, 41.5549], [-123.6418, 41.5531], [-123.6394, 41.5502], [-123.642, 41.5499], [-123.6438, 41.5505], [-123.6439, 41.5491], [-123.6411, 41.5483], [-123.6391, 41.549], [-123.6375, 41.5476], [-123.6363, 41.5436], [-123.6384, 41.5435], [-123.6374, 41.5427], [-123.6378, 41.5416], [-123.6369, 41.5414], [-123.6384, 41.5404], [-123.6384, 41.5386], [-123.6394, 41.5382], [-123.6381, 41.538], [-123.6362, 41.5365], [-123.6387, 41.5349], [-123.6398, 41.5351], [-123.6407, 41.5363], [-123.6402, 41.5348], [-123.6382, 41.5326], [-123.6373, 41.5325], [-123.6374, 41.5314], [-123.6354, 41.5328], [-123.633, 41.531], [-123.6332, 41.5318], [-123.6296, 41.533], [-123.6292, 41.5336], [-123.6291, 41.5347], [-123.6276, 41.5345], [-123.6269, 41.5358], [-123.6269, 41.5362], [-123.6281, 41.5351], [-123.6299, 41.5355], [-123.6307, 41.5373], [-123.6265, 41.5374], [-123.6253, 41.5362], [-123.6245, 41.5374], [-123.6211, 41.5381], [-123.6204, 41.5374], [-123.6208, 41.5369], [-123.6188, 41.5366], [-123.6181, 41.5358], [-123.6192, 41.535], [-123.6176, 41.5344], [-123.6151, 41.5359], [-123.6155, 41.5369], [-123.6171, 41.5373], [-123.6172, 41.538], [-123.615, 41.5378], [-123.6136, 41.539], [-123.6119, 41.5383], [-123.6106, 41.5393], [-123.6109, 41.5407], [-123.6134, 41.5419], [-123.6141, 41.5408], [-123.6155, 41.5424], [-123.6156, 41.5412], [-123.6169, 41.5409], [-123.6196, 41.5426], [-123.6195, 41.5434], [-123.6184, 41.5428], [-123.6176, 41.5435], [-123.6184, 41.5456], [-123.6164, 41.5454], [-123.6167, 41.5478], [-123.6151, 41.5465], [-123.6158, 41.5455], [-123.6136, 41.5451], [-123.6147, 41.5462], [-123.6137, 41.5482], [-123.6115, 41.5473], [-123.6108, 41.5462], [-123.61, 41.5493], [-123.6074, 41.5483], [-123.6065, 41.5487], [-123.6063, 41.547], [-123.6055, 41.5484], [-123.6058, 41.5509], [-123.6033, 41.5512], [-123.605, 41.547], [-123.6041, 41.547], [-123.6044, 41.5438], [-123.6039, 41.5435], [-123.6029, 41.5447], [-123.6013, 41.5445], [-123.6008, 41.5455], [-123.5987, 41.5445], [-123.5979, 41.5458], [-123.5998, 41.5464], [-123.5998, 41.5475], [-123.597, 41.548], [-123.5952, 41.5496], [-123.5951, 41.5472], [-123.5934, 41.5461], [-123.5959, 41.5469], [-123.5964, 41.5464], [-123.594, 41.5417], [-123.5953, 41.5422], [-123.5969, 41.5417], [-123.5975, 41.5392], [-123.5964, 41.5388], [-123.5957, 41.5398], [-123.5938, 41.5398], [-123.5932, 41.5383], [-123.5911, 41.5374], [-123.5893, 41.5349], [-123.5876, 41.5344], [-123.5861, 41.535], [-123.5848, 41.5336], [-123.583, 41.5337], [-123.5831, 41.5327], [-123.5819, 41.5329], [-123.5807, 41.5317], [-123.5817, 41.5316], [-123.5812, 41.531], [-123.5848, 41.5291], [-123.5869, 41.5306], [-123.5894, 41.5289], [-123.5889, 41.5269], [-123.5923, 41.5268], [-123.5939, 41.528], [-123.5941, 41.5298], [-123.5954, 41.5298], [-123.5962, 41.5305], [-123.5964, 41.5318], [-123.5946, 41.5325], [-123.5948, 41.5339], [-123.5927, 41.5338], [-123.5906, 41.535], [-123.5926, 41.5352], [-123.5931, 41.5374], [-123.5937, 41.5376], [-123.5942, 41.5366], [-123.5958, 41.5369], [-123.5959, 41.5359], [-123.5973, 41.5353], [-123.5961, 41.5344], [-123.5973, 41.5329], [-123.6004, 41.5324], [-123.6034, 41.5298], [-123.6047, 41.5299], [-123.6056, 41.5274], [-123.607, 41.5263], [-123.6083, 41.5264], [-123.6086, 41.5258], [-123.6071, 41.5237], [-123.6084, 41.5237], [-123.6097, 41.5248], [-123.6094, 41.5239], [-123.6108, 41.5233], [-123.6101, 41.5215], [-123.6079, 41.5228], [-123.6071, 41.5221], [-123.6074, 41.5216], [-123.606, 41.5211], [-123.6063, 41.5189], [-123.6081, 41.5175], [-123.6054, 41.5164], [-123.6035, 41.5164], [-123.6033, 41.5154], [-123.6021, 41.5153], [-123.6011, 41.5176], [-123.5998, 41.5163], [-123.5987, 41.5162], [-123.5989, 41.5187], [-123.5976, 41.5196], [-123.596, 41.5192], [-123.5951, 41.5222], [-123.5979, 41.5245], [-123.5952, 41.5254], [-123.594, 41.5268], [-123.5923, 41.5255], [-123.5934, 41.5241], [-123.5909, 41.5227], [-123.5898, 41.5231], [-123.5896, 41.5246], [-123.5867, 41.5245], [-123.5867, 41.5263], [-123.5837, 41.5272], [-123.5824, 41.527], [-123.581, 41.5252], [-123.5816, 41.5245], [-123.5809, 41.5234], [-123.5801, 41.5249], [-123.5797, 41.5243], [-123.5784, 41.5244], [-123.5789, 41.5237], [-123.5782, 41.5219], [-123.5773, 41.5221], [-123.5769, 41.5232], [-123.575, 41.5242], [-123.5732, 41.5225], [-123.5745, 41.5243], [-123.5742, 41.5257], [-123.5734, 41.524], [-123.572, 41.5234], [-123.5727, 41.5239], [-123.5722, 41.5245], [-123.5731, 41.5243], [-123.5731, 41.5255], [-123.5716, 41.5257], [-123.5701, 41.525], [-123.5706, 41.5236], [-123.5713, 41.5237], [-123.5712, 41.5217], [-123.5698, 41.5239], [-123.5688, 41.5245], [-123.5669, 41.5241], [-123.5671, 41.5226], [-123.5705, 41.5212], [-123.5704, 41.5207], [-123.568, 41.5213], [-123.5686, 41.5193], [-123.5744, 41.518], [-123.5787, 41.5194], [-123.5801, 41.5168], [-123.5817, 41.5159], [-123.5791, 41.5134], [-123.5781, 41.5138], [-123.5765, 41.513], [-123.575, 41.5088], [-123.5733, 41.5083], [-123.5741, 41.5066], [-123.5716, 41.5053], [-123.5728, 41.5049], [-123.5717, 41.5039], [-123.5739, 41.5033], [-123.5749, 41.5045], [-123.5778, 41.5035], [-123.579, 41.5048], [-123.5778, 41.507], [-123.5756, 41.5071], [-123.575, 41.5078], [-123.5767, 41.5087], [-123.5766, 41.5098], [-123.5785, 41.5089], [-123.5798, 41.5097], [-123.5818, 41.5086], [-123.5839, 41.5104], [-123.5862, 41.5109], [-123.5886, 41.5105], [-123.5895, 41.5111], [-123.5894, 41.5089], [-123.588, 41.5087], [-123.5879, 41.5077], [-123.5856, 41.5073], [-123.5854, 41.5062], [-123.583, 41.5036], [-123.5838, 41.5029], [-123.5838, 41.5017], [-123.5829, 41.5015], [-123.5834, 41.5012], [-123.5816, 41.5001], [-123.5811, 41.5006], [-123.5796, 41.5004], [-123.5802, 41.4988], [-123.5824, 41.4982], [-123.5835, 41.4971], [-123.5883, 41.4966], [-123.5882, 41.495], [-123.5867, 41.4934], [-123.5825, 41.4964], [-123.5814, 41.4961], [-123.5808, 41.4973], [-123.5815, 41.4943], [-123.5833, 41.4927], [-123.5843, 41.4894], [-123.5857, 41.4885], [-123.5867, 41.486], [-123.5896, 41.4836], [-123.5983, 41.4821], [-123.5984, 41.4816], [-123.6006, 41.4816], [-123.601, 41.4807], [-123.6031, 41.4797], [-123.607, 41.4793], [-123.6071, 41.4787], [-123.6079, 41.4798], [-123.6097, 41.4792], [-123.6138, 41.4803], [-123.6138, 41.4812], [-123.612, 41.4823], [-123.6117, 41.4836], [-123.6096, 41.4848], [-123.6099, 41.4853], [-123.6112, 41.4847], [-123.6125, 41.4862], [-123.6143, 41.4858], [-123.6157, 41.4868], [-123.6171, 41.4848], [-123.6201, 41.4845], [-123.6218, 41.4833], [-123.6252, 41.4867], [-123.6238, 41.4875], [-123.6221, 41.4873], [-123.6205, 41.489], [-123.6225, 41.4896], [-123.6229, 41.4907], [-123.6245, 41.4908], [-123.624, 41.4916], [-123.6257, 41.4918], [-123.6253, 41.4911], [-123.627, 41.4914], [-123.6289, 41.4906], [-123.6302, 41.4907], [-123.6323, 41.4921], [-123.6329, 41.4933], [-123.6353, 41.4915], [-123.6346, 41.4909], [-123.6357, 41.4896], [-123.6352, 41.4889], [-123.6335, 41.4887], [-123.6332, 41.4874], [-123.6315, 41.4863], [-123.6306, 41.4863], [-123.6322, 41.4843], [-123.6346, 41.4846], [-123.6344, 41.4802], [-123.6318, 41.4773], [-123.6297, 41.472], [-123.6262, 41.4683], [-123.6242, 41.4672], [-123.6223, 41.4644], [-123.6173, 41.4634], [-123.6135, 41.4608], [-123.6124, 41.4589], [-123.6139, 41.454], [-123.6141, 41.4484], [-123.616, 41.447], [-123.6159, 41.4451], [-123.6194, 41.4388], [-123.6221, 41.4361], [-123.6248, 41.4353], [-123.6235, 41.4337], [-123.6238, 41.4328], [-123.6326, 41.4288], [-123.6388, 41.4285], [-123.6394, 41.4269], [-123.6436, 41.4241], [-123.645, 41.4195], [-123.6414, 41.4163], [-123.6393, 41.4079], [-123.6439, 41.4051], [-123.6442, 41.4039], [-123.6428, 41.4034], [-123.6427, 41.4015], [-123.6444, 41.4001], [-123.6444, 41.3994], [-123.6488, 41.3965], [-123.6527, 41.3956], [-123.6552, 41.3936], [-123.6552, 41.3895], [-123.6574, 41.3868], [-123.6594, 41.3857], [-123.6629, 41.3787], [-123.6629, 41.3774], [-123.6602, 41.3749], [-123.665, 41.3748], [-123.6651, 41.3726], [-123.6717, 41.3732], [-123.6738, 41.3729], [-123.6745, 41.3719], [-123.6749, 41.3708], [-123.6739, 41.3711], [-123.6722, 41.3665], [-123.6703, 41.3638], [-123.6668, 41.3613], [-123.6658, 41.3592], [-123.6663, 41.358], [-123.6654, 41.3559], [-123.6667, 41.3498], [-123.6645, 41.3478], [-123.665, 41.3471], [-123.6691, 41.3461], [-123.6714, 41.3469], [-123.6734, 41.3468], [-123.6763, 41.3451], [-123.6778, 41.3452], [-123.6801, 41.346], [-123.6812, 41.3458], [-123.6826, 41.3468], [-123.6861, 41.3468], [-123.6898, 41.3495], [-123.6906, 41.3492], [-123.6907, 41.3501], [-123.6931, 41.3512], [-123.6953, 41.3512], [-123.697, 41.3521], [-123.6954, 41.353], [-123.6963, 41.3537], [-123.696, 41.3547], [-123.6953, 41.3555], [-123.6936, 41.3546], [-123.6929, 41.3563], [-123.6916, 41.3561], [-123.6912, 41.3565], [-123.6939, 41.3572], [-123.6972, 41.3595], [-123.697, 41.3621], [-123.6963, 41.3626], [-123.6974, 41.3632], [-123.6972, 41.3639], [-123.6998, 41.3647], [-123.6997, 41.3658], [-123.7028, 41.3651], [-123.7028, 41.3657], [-123.7064, 41.3667], [-123.7071, 41.3663], [-123.7113, 41.3673], [-123.7106, 41.3676], [-123.7123, 41.3685], [-123.714, 41.371], [-123.7136, 41.372], [-123.7113, 41.3719], [-123.71, 41.3726], [-123.7105, 41.3732], [-123.7123, 41.3735], [-123.7122, 41.3741], [-123.7084, 41.3743], [-123.7075, 41.3754], [-123.7057, 41.3756], [-123.7065, 41.3765], [-123.706, 41.3779], [-123.704, 41.3787], [-123.7073, 41.3803], [-123.708, 41.3816], [-123.7096, 41.3821], [-123.7074, 41.3826], [-123.7084, 41.3834], [-123.7078, 41.3839], [-123.7087, 41.3842], [-123.7072, 41.3862], [-123.7061, 41.3869], [-123.7055, 41.3863], [-123.7028, 41.3869], [-123.7023, 41.3877], [-123.7064, 41.3906], [-123.708, 41.3923], [-123.7078, 41.3931], [-123.7094, 41.3933], [-123.7129, 41.3955], [-123.7117, 41.3973], [-123.709, 41.3965], [-123.7086, 41.3971], [-123.7073, 41.3968], [-123.7049, 41.3949], [-123.7051, 41.3942], [-123.7008, 41.3935], [-123.6999, 41.3938], [-123.7006, 41.3948], [-123.6996, 41.3948], [-123.6981, 41.3932], [-123.6984, 41.3921], [-123.6969, 41.3923], [-123.6961, 41.3909], [-123.6949, 41.3917], [-123.6945, 41.3958], [-123.6928, 41.3963], [-123.6914, 41.3953], [-123.691, 41.3958], [-123.6901, 41.3954], [-123.69, 41.3944], [-123.6885, 41.3936], [-123.6891, 41.3926], [-123.6884, 41.3927], [-123.688, 41.3914], [-123.6894, 41.391], [-123.6893, 41.3903], [-123.6878, 41.3893], [-123.6891, 41.3892], [-123.6889, 41.3884], [-123.686, 41.3881], [-123.6851, 41.3888], [-123.6838, 41.3883], [-123.6822, 41.3897], [-123.6823, 41.3919], [-123.6853, 41.392], [-123.6855, 41.3934], [-123.6864, 41.3937], [-123.6859, 41.3943], [-123.6832, 41.3937], [-123.6821, 41.3943], [-123.6823, 41.3948], [-123.6838, 41.3946], [-123.6839, 41.3968], [-123.6868, 41.3976], [-123.6873, 41.3969], [-123.6887, 41.3968], [-123.688, 41.3984], [-123.6893, 41.3998], [-123.6918, 41.4004], [-123.6935, 41.4025], [-123.6947, 41.4017], [-123.6951, 41.4023], [-123.6977, 41.403], [-123.6986, 41.4068], [-123.6978, 41.408], [-123.6956, 41.4078], [-123.6947, 41.407], [-123.6898, 41.4074], [-123.6863, 41.4066], [-123.6868, 41.4081], [-123.6859, 41.4095], [-123.6846, 41.4101], [-123.683, 41.4097], [-123.6828, 41.4106], [-123.6807, 41.4109], [-123.6796, 41.4085], [-123.6812, 41.4071], [-123.6805, 41.4059], [-123.6816, 41.4057], [-123.6814, 41.4052], [-123.6807, 41.4045], [-123.6784, 41.4044], [-123.6776, 41.4065], [-123.6764, 41.4069], [-123.6747, 41.406], [-123.6733, 41.4026], [-123.6721, 41.4049], [-123.6705, 41.4053], [-123.6706, 41.407], [-123.6695, 41.4067], [-123.6691, 41.4074], [-123.6689, 41.4065], [-123.6674, 41.4063], [-123.667, 41.4053], [-123.6658, 41.405], [-123.6642, 41.4061], [-123.664, 41.4054], [-123.6629, 41.4055], [-123.6613, 41.4078], [-123.6604, 41.408], [-123.6606, 41.4085], [-123.6622, 41.4083], [-123.6643, 41.409], [-123.6655, 41.411], [-123.667, 41.4109], [-123.6697, 41.4126], [-123.6696, 41.4137], [-123.6712, 41.4137], [-123.6731, 41.4149], [-123.6774, 41.4151], [-123.6798, 41.4178], [-123.6792, 41.4197], [-123.6793, 41.4201], [-123.6805, 41.4198], [-123.68, 41.4207], [-123.681, 41.4215], [-123.6811, 41.4227], [-123.6796, 41.4221], [-123.6783, 41.4236], [-123.678, 41.4216], [-123.6758, 41.4218], [-123.6775, 41.4227], [-123.6756, 41.4248], [-123.6763, 41.4259], [-123.6779, 41.4254], [-123.6782, 41.4261], [-123.6779, 41.4272], [-123.6762, 41.4279], [-123.6766, 41.4285], [-123.6776, 41.4277], [-123.6791, 41.4284], [-123.6786, 41.4276], [-123.6797, 41.4283], [-123.678, 41.4303], [-123.6792, 41.4298], [-123.6796, 41.4303], [-123.6819, 41.4292], [-123.6836, 41.4318], [-123.685, 41.431], [-123.685, 41.4296], [-123.6828, 41.4288], [-123.683, 41.4279], [-123.6823, 41.4276], [-123.6834, 41.4269], [-123.6822, 41.4264], [-123.6826, 41.4247], [-123.6845, 41.4225], [-123.6864, 41.4225], [-123.6852, 41.4205], [-123.6854, 41.4195], [-123.6872, 41.4184], [-123.6865, 41.4176], [-123.6903, 41.4164], [-123.692, 41.4173], [-123.6949, 41.4163], [-123.6959, 41.4175], [-123.6937, 41.4195], [-123.6925, 41.4219], [-123.69, 41.4218], [-123.6893, 41.422], [-123.6887, 41.4225], [-123.6885, 41.4231], [-123.6892, 41.4222], [-123.6902, 41.4224], [-123.6884, 41.4236], [-123.6886, 41.424], [-123.6892, 41.4241], [-123.69, 41.4235], [-123.6898, 41.4262], [-123.6942, 41.4264], [-123.6952, 41.4272], [-123.6967, 41.4266], [-123.6985, 41.4281], [-123.6996, 41.428], [-123.7003, 41.4274], [-123.6994, 41.4258], [-123.7008, 41.4234], [-123.7004, 41.4223], [-123.7038, 41.4214], [-123.702, 41.4187], [-123.7031, 41.4178], [-123.7045, 41.4181], [-123.7061, 41.4192], [-123.7053, 41.4201], [-123.7061, 41.42], [-123.7073, 41.4184], [-123.7078, 41.4151], [-123.7097, 41.4151], [-123.7096, 41.4164], [-123.7112, 41.4155], [-123.7105, 41.4143], [-123.7131, 41.4118], [-123.712, 41.4105], [-123.7135, 41.4094], [-123.7134, 41.408], [-123.7144, 41.4085], [-123.7138, 41.4092], [-123.7151, 41.409]], [[-123.5785, 41.5098], [-123.5778, 41.5098], [-123.5779, 41.5099], [-123.5785, 41.5098]], [[-123.5812, 41.5179], [-123.5811, 41.5189], [-123.5802, 41.5198], [-123.5813, 41.5192], [-123.5815, 41.5185], [-123.5812, 41.5179]], [[-123.621, 41.4495], [-123.6208, 41.4489], [-123.6204, 41.4491], [-123.621, 41.4495]], [[-123.628, 41.4657], [-123.6288, 41.4638], [-123.6268, 41.4638], [-123.626, 41.4651], [-123.6245, 41.4656], [-123.6256, 41.4661], [-123.628, 41.4657]], [[-123.6336, 41.4573], [-123.6334, 41.4584], [-123.6345, 41.4587], [-123.6352, 41.4582], [-123.6348, 41.4572], [-123.6336, 41.4573]], [[-123.652, 41.5045], [-123.6524, 41.5021], [-123.6498, 41.5017], [-123.6494, 41.5009], [-123.6472, 41.503], [-123.6464, 41.502], [-123.6437, 41.5009], [-123.6434, 41.4996], [-123.6454, 41.4988], [-123.6508, 41.5002], [-123.6522, 41.4976], [-123.6559, 41.4992], [-123.6559, 41.5002], [-123.6568, 41.5009], [-123.6578, 41.5006], [-123.6578, 41.5013], [-123.6599, 41.5008], [-123.6619, 41.5016], [-123.6617, 41.5039], [-123.6628, 41.5033], [-123.6627, 41.5023], [-123.6647, 41.5016], [-123.6647, 41.501], [-123.6633, 41.5011], [-123.6644, 41.4994], [-123.6615, 41.4972], [-123.6608, 41.4975], [-123.6602, 41.4962], [-123.6589, 41.496], [-123.6581, 41.4971], [-123.6576, 41.4969], [-123.6567, 41.4945], [-123.6531, 41.4942], [-123.6509, 41.4924], [-123.65, 41.493], [-123.6486, 41.4923], [-123.6464, 41.4927], [-123.6464, 41.4918], [-123.649, 41.4907], [-123.6479, 41.4887], [-123.6493, 41.4881], [-123.6489, 41.4876], [-123.648, 41.4881], [-123.6478, 41.4873], [-123.6466, 41.4871], [-123.6462, 41.4858], [-123.643, 41.4856], [-123.642, 41.4849], [-123.641, 41.4853], [-123.6403, 41.4842], [-123.6394, 41.4852], [-123.6377, 41.4846], [-123.638, 41.4871], [-123.6402, 41.4881], [-123.639, 41.4892], [-123.6407, 41.49], [-123.6397, 41.4914], [-123.6407, 41.4921], [-123.6389, 41.4922], [-123.6376, 41.4898], [-123.6382, 41.4888], [-123.6378, 41.4883], [-123.6362, 41.4876], [-123.6361, 41.4884], [-123.6371, 41.4889], [-123.6361, 41.4907], [-123.638, 41.4915], [-123.6377, 41.4929], [-123.6386, 41.4934], [-123.6381, 41.4939], [-123.6395, 41.4958], [-123.6396, 41.4973], [-123.6416, 41.4988], [-123.6407, 41.5008], [-123.6436, 41.5026], [-123.6438, 41.5049], [-123.6454, 41.5052], [-123.6447, 41.5059], [-123.6469, 41.5058], [-123.647, 41.5048], [-123.6478, 41.5046], [-123.649, 41.5064], [-123.6523, 41.5073], [-123.651, 41.5051], [-123.6513, 41.5043], [-123.652, 41.5045]], [[-123.6446, 41.4843], [-123.6469, 41.4852], [-123.6477, 41.4849], [-123.6463, 41.4836], [-123.6447, 41.4839], [-123.6446, 41.4843]], [[-123.6621, 41.5558], [-123.6657, 41.5565], [-123.6657, 41.5556], [-123.6665, 41.5553], [-123.6654, 41.5543], [-123.6659, 41.5532], [-123.6654, 41.5514], [-123.6663, 41.5512], [-123.666, 41.5495], [-123.6671, 41.548], [-123.6687, 41.547], [-123.6705, 41.5472], [-123.6712, 41.5482], [-123.6723, 41.5474], [-123.6719, 41.5467], [-123.6703, 41.5465], [-123.6703, 41.5441], [-123.6687, 41.5423], [-123.6674, 41.5424], [-123.664, 41.5443], [-123.663, 41.5439], [-123.6648, 41.5431], [-123.6621, 41.5433], [-123.6616, 41.5425], [-123.6612, 41.5433], [-123.658, 41.5447], [-123.6583, 41.5462], [-123.6593, 41.5467], [-123.661, 41.5448], [-123.6618, 41.5455], [-123.6624, 41.5444], [-123.6637, 41.5443], [-123.6644, 41.5449], [-123.6631, 41.5465], [-123.6635, 41.5479], [-123.6614, 41.5483], [-123.661, 41.5491], [-123.6616, 41.5501], [-123.6619, 41.5494], [-123.6641, 41.5497], [-123.6635, 41.5505], [-123.664, 41.5513], [-123.662, 41.552], [-123.6612, 41.5515], [-123.6623, 41.5508], [-123.6605, 41.5509], [-123.661, 41.5535], [-123.6605, 41.5542], [-123.6589, 41.5544], [-123.6595, 41.5569], [-123.6621, 41.5558]], [[-123.6559, 41.401], [-123.6551, 41.4008], [-123.654, 41.4021], [-123.6548, 41.4031], [-123.6559, 41.401]], [[-123.6591, 41.4082], [-123.6573, 41.4064], [-123.6575, 41.4076], [-123.6591, 41.4082]], [[-123.6762, 41.5625], [-123.6793, 41.5615], [-123.6809, 41.5618], [-123.6808, 41.5605], [-123.6764, 41.5606], [-123.676, 41.5595], [-123.6741, 41.5598], [-123.6724, 41.5586], [-123.6715, 41.5591], [-123.6709, 41.5582], [-123.6677, 41.559], [-123.6661, 41.5611], [-123.6664, 41.5623], [-123.6699, 41.5638], [-123.6706, 41.5634], [-123.67, 41.563], [-123.6717, 41.5636], [-123.6727, 41.5626], [-123.6745, 41.5639], [-123.6762, 41.5625]], [[-123.6816, 41.5236], [-123.6844, 41.5217], [-123.6871, 41.5215], [-123.6873, 41.5208], [-123.689, 41.5226], [-123.6924, 41.5217], [-123.6953, 41.5218], [-123.6951, 41.5226], [-123.692, 41.5242], [-123.6927, 41.5245], [-123.6935, 41.5239], [-123.6936, 41.5254], [-123.6958, 41.5251], [-123.6967, 41.5259], [-123.6978, 41.5252], [-123.6982, 41.5262], [-123.6992, 41.5252], [-123.6982, 41.5248], [-123.6987, 41.5234], [-123.7007, 41.523], [-123.7015, 41.5219], [-123.6981, 41.5206], [-123.6996, 41.5177], [-123.6986, 41.5175], [-123.6975, 41.5193], [-123.6952, 41.5195], [-123.6944, 41.5185], [-123.6957, 41.5183], [-123.6949, 41.5169], [-123.6913, 41.5162], [-123.6919, 41.5154], [-123.6899, 41.516], [-123.6847, 41.5149], [-123.6835, 41.5163], [-123.6784, 41.5177], [-123.6727, 41.518], [-123.6711, 41.5199], [-123.6672, 41.5204], [-123.6679, 41.5211], [-123.6705, 41.5211], [-123.6711, 41.5221], [-123.6719, 41.5216], [-123.6723, 41.523], [-123.6744, 41.5226], [-123.6764, 41.5204], [-123.6781, 41.5203], [-123.6792, 41.5212], [-123.682, 41.5213], [-123.6818, 41.5228], [-123.6802, 41.5237], [-123.6816, 41.5236]], [[-123.6633, 41.396], [-123.6663, 41.3941], [-123.6652, 41.3933], [-123.6634, 41.3931], [-123.6621, 41.3951], [-123.6633, 41.396]], [[-123.677, 41.5449], [-123.6751, 41.5456], [-123.6741, 41.5477], [-123.673, 41.5481], [-123.6731, 41.5502], [-123.6718, 41.5507], [-123.6733, 41.5515], [-123.6764, 41.5517], [-123.68, 41.5506], [-123.6822, 41.5522], [-123.6843, 41.5512], [-123.6842, 41.5497], [-123.6853, 41.5477], [-123.6842, 41.5466], [-123.6842, 41.5475], [-123.6809, 41.5473], [-123.6823, 41.5464], [-123.6817, 41.5462], [-123.6825, 41.546], [-123.6825, 41.5449], [-123.681, 41.5445], [-123.6795, 41.5451], [-123.677, 41.5449]], [[-123.6667, 41.4011], [-123.6668, 41.4003], [-123.6653, 41.3997], [-123.6649, 41.4007], [-123.6667, 41.4011]], [[-123.6768, 41.5557], [-123.6782, 41.5561], [-123.6793, 41.5556], [-123.68, 41.5543], [-123.6795, 41.5535], [-123.6808, 41.5523], [-123.6738, 41.5561], [-123.6742, 41.5565], [-123.6758, 41.5562], [-123.6765, 41.5569], [-123.6768, 41.5557]], [[-123.679, 41.5261], [-123.6777, 41.5237], [-123.6766, 41.5235], [-123.6762, 41.5239], [-123.677, 41.5244], [-123.6752, 41.5259], [-123.674, 41.5251], [-123.6728, 41.5252], [-123.6731, 41.5267], [-123.6748, 41.5262], [-123.6782, 41.5277], [-123.679, 41.5261]], [[-123.6755, 41.4327], [-123.6764, 41.4318], [-123.6752, 41.4312], [-123.6745, 41.4319], [-123.6755, 41.4327]], [[-123.6839, 41.532], [-123.6847, 41.5302], [-123.684, 41.5305], [-123.6834, 41.5292], [-123.6819, 41.5296], [-123.6839, 41.532]], [[-123.676, 41.3577], [-123.6737, 41.357], [-123.6748, 41.3586], [-123.6768, 41.3589], [-123.676, 41.3577]], [[-123.685, 41.3868], [-123.6877, 41.3868], [-123.6873, 41.3858], [-123.6851, 41.3858], [-123.685, 41.3842], [-123.6805, 41.3827], [-123.6802, 41.3833], [-123.682, 41.3839], [-123.6825, 41.3867], [-123.6834, 41.3864], [-123.6838, 41.3875], [-123.685, 41.3868]], [[-123.6894, 41.5425], [-123.6916, 41.5419], [-123.694, 41.5431], [-123.6958, 41.5424], [-123.6907, 41.5404], [-123.6895, 41.5418], [-123.6894, 41.5425]], [[-123.6931, 41.5361], [-123.6918, 41.5375], [-123.6909, 41.5373], [-123.6901, 41.5379], [-123.6911, 41.5384], [-123.6912, 41.5401], [-123.6926, 41.5377], [-123.6946, 41.5373], [-123.6952, 41.5366], [-123.6931, 41.5361]], [[-123.6855, 41.4263], [-123.6861, 41.4254], [-123.6851, 41.4251], [-123.6855, 41.4263]], [[-123.6871, 41.4234], [-123.6882, 41.4231], [-123.6873, 41.4227], [-123.6871, 41.4234]], [[-123.6905, 41.434], [-123.6919, 41.434], [-123.6904, 41.4328], [-123.6897, 41.4333], [-123.6905, 41.434]], [[-123.6903, 41.3868], [-123.6907, 41.3878], [-123.6919, 41.3877], [-123.6914, 41.3869], [-123.6903, 41.3868]], [[-123.7006, 41.539], [-123.7021, 41.5369], [-123.7004, 41.5373], [-123.6999, 41.5368], [-123.7003, 41.5385], [-123.6992, 41.5393], [-123.7006, 41.5407], [-123.7021, 41.5397], [-123.702, 41.5391], [-123.7006, 41.539]], [[-123.6947, 41.3587], [-123.6939, 41.3583], [-123.6929, 41.3591], [-123.694, 41.3616], [-123.6937, 41.3603], [-123.6947, 41.3587]], [[-123.7052, 41.5376], [-123.7078, 41.5397], [-123.7072, 41.5406], [-123.7077, 41.5403], [-123.7083, 41.541], [-123.7092, 41.5405], [-123.7081, 41.5402], [-123.7083, 41.5386], [-123.7074, 41.5379], [-123.709, 41.5369], [-123.7083, 41.5361], [-123.709, 41.5359], [-123.7088, 41.5343], [-123.7114, 41.5334], [-123.7104, 41.5326], [-123.7076, 41.5333], [-123.7068, 41.5328], [-123.7062, 41.5336], [-123.7072, 41.5342], [-123.7049, 41.5368], [-123.7059, 41.5369], [-123.7052, 41.5376]], [[-123.706, 41.525], [-123.7057, 41.5261], [-123.7066, 41.5265], [-123.7081, 41.5247], [-123.706, 41.525]], [[-123.7112, 41.5266], [-123.7095, 41.527], [-123.7096, 41.5262], [-123.7088, 41.5265], [-123.7072, 41.5286], [-123.7097, 41.5292], [-123.7109, 41.5286], [-123.7117, 41.5273], [-123.7112, 41.5266]], [[-123.721, 41.5229], [-123.7247, 41.5248], [-123.7243, 41.5253], [-123.7258, 41.5256], [-123.726, 41.5233], [-123.7239, 41.5222], [-123.7235, 41.5214], [-123.7242, 41.5212], [-123.7235, 41.5205], [-123.7226, 41.5208], [-123.7225, 41.5222], [-123.7217, 41.5217], [-123.721, 41.5229]], [[-123.7264, 41.3966], [-123.7263, 41.3971], [-123.7267, 41.3969], [-123.7264, 41.3966]]], [[[-123.6603, 41.4711], [-123.6599, 41.4697], [-123.6658, 41.4713], [-123.6646, 41.4725], [-123.664, 41.4717], [-123.6603, 41.4711]]], [[[-123.65, 41.4784], [-123.6504, 41.4782], [-123.6502, 41.4785], [-123.65, 41.4784]]], [[[-123.6607, 41.4798], [-123.6611, 41.4801], [-123.6607, 41.48], [-123.6607, 41.4798]]], [[[-123.6553, 41.4864], [-123.6547, 41.4864], [-123.655, 41.4861], [-123.6553, 41.4864]]], [[[-123.6585, 41.4974], [-123.6581, 41.498], [-123.6578, 41.4975], [-123.6585, 41.4974]]], [[[-123.6731, 41.5199], [-123.6733, 41.5199], [-123.6732, 41.5199], [-123.6731, 41.5199]]], [[[-123.6678, 41.5426], [-123.6676, 41.5427], [-123.6676, 41.5426], [-123.6678, 41.5426]]], [[[-123.6682, 41.5455], [-123.6685, 41.5464], [-123.6677, 41.5458], [-123.6682, 41.5455]]], [[[-123.675, 41.5481], [-123.6751, 41.5476], [-123.6758, 41.5476], [-123.6758, 41.5482], [-123.675, 41.5481]]], [[[-123.6737, 41.5493], [-123.6744, 41.5495], [-123.6739, 41.5498], [-123.6737, 41.5493]]], [[[-123.6639, 41.5522], [-123.6636, 41.5519], [-123.6638, 41.5519], [-123.6639, 41.5522]]], [[[-123.6711, 41.5751], [-123.6712, 41.5749], [-123.6713, 41.5749], [-123.6711, 41.5751]]], [[[-123.6474, 41.4273], [-123.6476, 41.4271], [-123.6474, 41.4273], [-123.6474, 41.4273]]], [[[-123.6466, 41.43], [-123.6468, 41.4299], [-123.6468, 41.43], [-123.6466, 41.43]]], [[[-123.6384, 41.4321], [-123.6387, 41.4322], [-123.6385, 41.4324], [-123.6384, 41.4321]]], [[[-123.6465, 41.4342], [-123.6462, 41.434], [-123.6463, 41.4338], [-123.6465, 41.4342]]], [[[-123.6462, 41.4346], [-123.6462, 41.4349], [-123.646, 41.4347], [-123.6462, 41.4346]]], [[[-123.645, 41.4398], [-123.6448, 41.4398], [-123.6449, 41.4398], [-123.645, 41.4398]]], [[[-123.6422, 41.4484], [-123.6425, 41.4479], [-123.6429, 41.448], [-123.6429, 41.4484], [-123.6422, 41.4484]]], [[[-123.6418, 41.4487], [-123.642, 41.4493], [-123.6414, 41.4492], [-123.6418, 41.4487]]], [[[-123.6379, 41.4529], [-123.6375, 41.4528], [-123.6379, 41.4526], [-123.6379, 41.4529]]], [[[-123.6444, 41.4617], [-123.6441, 41.4616], [-123.6443, 41.4615], [-123.6444, 41.4617]]], [[[-123.6418, 41.4645], [-123.6416, 41.4646], [-123.6416, 41.4645], [-123.6418, 41.4645]]], [[[-123.6344, 41.469], [-123.6344, 41.4688], [-123.6346, 41.469], [-123.6344, 41.469]]], [[[-123.6358, 41.4691], [-123.636, 41.4692], [-123.6359, 41.4692], [-123.6358, 41.4691]]], [[[-123.6455, 41.4751], [-123.6454, 41.4753], [-123.6453, 41.4751], [-123.6455, 41.4751]]], [[[-123.6467, 41.4768], [-123.647, 41.4765], [-123.6469, 41.4768], [-123.6467, 41.4768]]], [[[-123.6482, 41.4794], [-123.6489, 41.4785], [-123.6483, 41.4782], [-123.6472, 41.4789], [-123.6469, 41.4775], [-123.6478, 41.4747], [-123.6494, 41.4739], [-123.6483, 41.473], [-123.6496, 41.4729], [-123.6507, 41.4772], [-123.6493, 41.478], [-123.6493, 41.4808], [-123.6484, 41.4806], [-123.6482, 41.4794]]], [[[-123.6388, 41.4771], [-123.6386, 41.4772], [-123.6386, 41.4771], [-123.6388, 41.4771]]], [[[-123.6466, 41.4771], [-123.6465, 41.4776], [-123.646, 41.4773], [-123.6466, 41.4771]]], [[[-123.6465, 41.4803], [-123.6466, 41.4804], [-123.6465, 41.4804], [-123.6465, 41.4803]]], [[[-123.6469, 41.4808], [-123.6474, 41.4803], [-123.6473, 41.4808], [-123.6469, 41.4808]]], [[[-123.647, 41.4814], [-123.6468, 41.4815], [-123.6468, 41.4813], [-123.647, 41.4814]]], [[[-123.6484, 41.4822], [-123.6483, 41.4815], [-123.6489, 41.481], [-123.6491, 41.4814], [-123.6484, 41.4822]]], [[[-123.6341, 41.4914], [-123.6346, 41.4913], [-123.6345, 41.4915], [-123.6341, 41.4914]]], [[[-123.6427, 41.4981], [-123.6421, 41.4953], [-123.6457, 41.4949], [-123.6461, 41.4956], [-123.6496, 41.4957], [-123.6506, 41.4965], [-123.646, 41.4974], [-123.644, 41.4988], [-123.6427, 41.4981]]], [[[-123.6425, 41.4999], [-123.6421, 41.5004], [-123.642, 41.4999], [-123.6425, 41.4999]]], [[[-123.6502, 41.5029], [-123.651, 41.5032], [-123.6503, 41.5032], [-123.6502, 41.5029]]], [[[-123.6387, 41.5501], [-123.6383, 41.5502], [-123.6385, 41.55], [-123.6387, 41.5501]]], [[[-123.6483, 41.5559], [-123.6481, 41.5561], [-123.6481, 41.5559], [-123.6483, 41.5559]]], [[[-123.6472, 41.5576], [-123.6463, 41.5575], [-123.6463, 41.5572], [-123.6472, 41.5576]]], [[[-123.6481, 41.5581], [-123.6478, 41.5581], [-123.648, 41.558], [-123.6481, 41.5581]]], [[[-123.646, 41.5581], [-123.6475, 41.5582], [-123.6472, 41.5594], [-123.646, 41.5589], [-123.646, 41.5581]]], [[[-123.6441, 41.5633], [-123.6438, 41.5631], [-123.6441, 41.5631], [-123.6441, 41.5633]]], [[[-123.6421, 41.5634], [-123.6423, 41.5635], [-123.6423, 41.5636], [-123.6421, 41.5634]]], [[[-123.6449, 41.5649], [-123.645, 41.5649], [-123.645, 41.5649], [-123.6449, 41.5649]]], [[[-123.6529, 41.5918], [-123.653, 41.5921], [-123.6528, 41.592], [-123.6529, 41.5918]]], [[[-123.6539, 41.5944], [-123.6541, 41.594], [-123.6542, 41.5944], [-123.6539, 41.5944]]], [[[-123.653, 41.5948], [-123.653, 41.5943], [-123.6532, 41.5947], [-123.653, 41.5948]]], [[[-123.6526, 41.595], [-123.6524, 41.5952], [-123.6525, 41.595], [-123.6526, 41.595]]], [[[-123.629, 41.4322], [-123.6285, 41.432], [-123.6285, 41.4318], [-123.629, 41.4322]]], [[[-123.6272, 41.4366], [-123.6273, 41.4358], [-123.6277, 41.4368], [-123.6272, 41.4366]]], [[[-123.6296, 41.4371], [-123.6295, 41.4367], [-123.6297, 41.4367], [-123.6296, 41.4371]]], [[[-123.6236, 41.4374], [-123.6234, 41.4371], [-123.6237, 41.4373], [-123.6236, 41.4374]]], [[[-123.6269, 41.4446], [-123.6264, 41.4446], [-123.6266, 41.4444], [-123.6269, 41.4446]]], [[[-123.6207, 41.4554], [-123.6204, 41.4552], [-123.6206, 41.4552], [-123.6207, 41.4554]]], [[[-123.6207, 41.4578], [-123.6205, 41.4577], [-123.6206, 41.4577], [-123.6207, 41.4578]]], [[[-123.6185, 41.4583], [-123.6189, 41.4587], [-123.6184, 41.4587], [-123.6185, 41.4583]]], [[[-123.6152, 41.4635], [-123.6149, 41.4632], [-123.6152, 41.4632], [-123.6152, 41.4635]]], [[[-123.6307, 41.4856], [-123.6303, 41.4858], [-123.6304, 41.4855], [-123.6307, 41.4856]]], [[[-123.5758, 41.4961], [-123.5767, 41.4924], [-123.5761, 41.4917], [-123.5775, 41.4903], [-123.5769, 41.4891], [-123.5798, 41.4894], [-123.5807, 41.4913], [-123.5797, 41.4932], [-123.5788, 41.4929], [-123.578, 41.494], [-123.578, 41.4946], [-123.5796, 41.4949], [-123.5793, 41.4954], [-123.578, 41.4962], [-123.5758, 41.4961]]], [[[-123.5875, 41.508], [-123.5871, 41.508], [-123.5874, 41.5079], [-123.5875, 41.508]]], [[[-123.578, 41.5223], [-123.5778, 41.5221], [-123.578, 41.5221], [-123.578, 41.5223]]], [[[-123.5921, 41.5242], [-123.5929, 41.5245], [-123.5922, 41.5245], [-123.5921, 41.5242]]], [[[-123.5788, 41.5256], [-123.5787, 41.5254], [-123.5789, 41.5255], [-123.5788, 41.5256]]], [[[-123.5906, 41.5258], [-123.5906, 41.5255], [-123.5908, 41.5257], [-123.5906, 41.5258]]], [[[-123.6296, 41.5334], [-123.6297, 41.5337], [-123.6294, 41.5335], [-123.6296, 41.5334]]], [[[-123.6353, 41.5363], [-123.635, 41.5367], [-123.635, 41.5364], [-123.6353, 41.5363]]], [[[-123.6159, 41.5388], [-123.6156, 41.539], [-123.6157, 41.5388], [-123.6159, 41.5388]]], [[[-123.6286, 41.5389], [-123.629, 41.5389], [-123.6289, 41.5391], [-123.6286, 41.5389]]], [[[-123.5951, 41.5401], [-123.5955, 41.5402], [-123.5955, 41.5403], [-123.5951, 41.5401]]], [[[-123.6348, 41.5444], [-123.6344, 41.5439], [-123.6345, 41.5436], [-123.6353, 41.5438], [-123.6348, 41.5444]]], [[[-123.5922, 41.5455], [-123.5924, 41.5456], [-123.5922, 41.5456], [-123.5922, 41.5455]]], [[[-123.6034, 41.546], [-123.6029, 41.5462], [-123.6027, 41.5459], [-123.6034, 41.546]]], [[[-123.6174, 41.5469], [-123.6173, 41.5467], [-123.6174, 41.5467], [-123.6174, 41.5469]]], [[[-123.6018, 41.5476], [-123.6017, 41.5474], [-123.6018, 41.5474], [-123.6018, 41.5476]]], [[[-123.5927, 41.5481], [-123.5926, 41.5484], [-123.5924, 41.5482], [-123.5927, 41.5481]]], [[[-123.5937, 41.5492], [-123.5932, 41.549], [-123.5938, 41.5489], [-123.5937, 41.5492]]], [[[-123.6128, 41.5489], [-123.6127, 41.5491], [-123.6126, 41.5489], [-123.6128, 41.5489]]], [[[-123.6134, 41.5492], [-123.6129, 41.5496], [-123.613, 41.5493], [-123.6134, 41.5492]]], [[[-123.6028, 41.5499], [-123.6024, 41.5498], [-123.6027, 41.5496], [-123.6028, 41.5499]]], [[[-123.6335, 41.5493], [-123.6334, 41.5495], [-123.6333, 41.5493], [-123.6335, 41.5493]]], [[[-123.6317, 41.5501], [-123.6319, 41.5503], [-123.6317, 41.5503], [-123.6317, 41.5501]]], [[[-123.6013, 41.5513], [-123.6015, 41.5511], [-123.6015, 41.5513], [-123.6013, 41.5513]]], [[[-123.6369, 41.5511], [-123.6357, 41.5504], [-123.6357, 41.5498], [-123.6365, 41.5499], [-123.6369, 41.5511]]], [[[-123.6226, 41.5544], [-123.6226, 41.553], [-123.6208, 41.5518], [-123.6214, 41.5507], [-123.6244, 41.5501], [-123.6263, 41.549], [-123.628, 41.5503], [-123.6305, 41.5501], [-123.6291, 41.5529], [-123.6278, 41.5532], [-123.6277, 41.5544], [-123.6247, 41.5538], [-123.6243, 41.5549], [-123.6226, 41.5544]]], [[[-123.6342, 41.5531], [-123.6353, 41.5531], [-123.6353, 41.5535], [-123.6349, 41.5536], [-123.6342, 41.5531]]], [[[-123.6391, 41.5943], [-123.6396, 41.5941], [-123.6397, 41.5944], [-123.6391, 41.5943]]]]}, "properties": {"layer": "perimeter"}}, {"type": "Feature", "geometry": {"type": "MultiPolygon", "coordinates": [[[[-123.6437, 41.5755], [-123.6436, 41.5753], [-123.6438, 41.5754], [-123.6437, 41.5755]]], [[[-123.6434, 41.5753], [-123.6433, 41.5752], [-123.6436, 41.5753], [-123.6434, 41.5753]]], [[[-123.6423, 41.5747], [-123.6423, 41.575], [-123.642, 41.575], [-123.6423, 41.5747]]], [[[-123.6417, 41.5753], [-123.6395, 41.5799], [-123.6424, 41.5816], [-123.6405, 41.5827], [-123.6395, 41.5847], [-123.6405, 41.5858], [-123.6393, 41.5877], [-123.6367, 41.5892], [-123.6359, 41.5887], [-123.6399, 41.5832], [-123.6381, 41.5822], [-123.6393, 41.5781], [-123.6417, 41.5753]]]]}, "properties": {"layer": "retained"}}, {"type": "Feature", "geometry": {"type": "Polygon", "coordinates": [[[-123.6392, 41.5874], [-123.6395, 41.5871], [-123.6392, 41.5872], [-123.6392, 41.5874]]]}, "properties": {"layer": "high_severity"}}]}
