{"type": "FeatureCollection", "features": [{"type": "Feature", "geometry": {"type": "Polygon", "coordinates": [[[-118.5815, 36.2299], [-118.5687, 36.2312], [-118.5697, 36.2291], [-118.574, 36.225], [-118.5757, 36.2218], [-118.5733, 36.2226], [-118.5732, 36.2237], [-118.5713, 36.225], [-118.5698, 36.228], [-118.5679, 36.2271], [-118.5671, 36.2274], [-118.5654, 36.2268], [-118.5617, 36.2229], [-118.5623, 36.2173], [-118.5682, 36.2167], [-118.5737, 36.2117], [-118.5788, 36.2091], [-118.5803, 36.209], [-118.5824, 36.2117], [-118.5876, 36.2102], [-118.5873, 36.2087], [-118.5888, 36.2087], [-118.589, 36.2093], [-118.5919, 36.208], [-118.5922, 36.2104], [-118.5931, 36.2101], [-118.5934, 36.211], [-118.5977, 36.2119], [-118.5955, 36.2169], [-118.593, 36.2202], [-118.5941, 36.2228], [-118.5914, 36.2256], [-118.5862, 36.2269], [-118.5815, 36.2299]]]}, "properties": {"layer": "perimeter"}}]}
