{"type": "FeatureCollection", "features": [{"type": "Feature", "geometry": {"type": "MultiPolygon", "coordinates": [[[[-122.6659, 41.4182], [-122.6656, 41.4179], [-122.666, 41.418], [-122.6659, 41.4182]]], [[[-122.7059, 41.4554], [-122.709, 41.4538], [-122.7098, 41.4537], [-122.7102, 41.4547], [-122.7112, 41.4535], [-122.7125, 41.4537], [-122.7124, 41.4568], [-122.715, 41.4591], [-122.7159, 41.4624], [-122.7146, 41.4627], [-122.7142, 41.462], [-122.7133, 41.463], [-122.7119, 41.462], [-122.7102, 41.4623], [-122.7088, 41.4637], [-122.7073, 41.462], [-122.707, 41.4626], [-122.7046, 41.4629], [-122.7034, 41.4628], [-122.703, 41.4614], [-122.702, 41.4624], [-122.7007, 41.462], [-122.7001, 41.4621], [-122.7008, 41.4629], [-122.6988, 41.4626], [-122.6993, 41.4637], [-122.6951, 41.4644], [-122.6937, 41.4664], [-122.6939, 41.4676], [-122.6911, 41.467], [-122.6917, 41.4663], [-122.6903, 41.4665], [-122.6907, 41.4679], [-122.692, 41.4687], [-122.6915, 41.4697], [-122.6864, 41.4698], [-122.684, 41.4731], [-122.6831, 41.4734], [-122.6832, 41.4725], [-122.6815, 41.4727], [-122.6814, 41.4743], [-122.6834, 41.4754], [-122.6834, 41.4759], [-122.682, 41.4759], [-122.6831, 41.4767], [-122.6818, 41.4782], [-122.6822, 41.4795], [-122.6852, 41.4798], [-122.6856, 41.4774], [-122.685, 41.4763], [-122.684, 41.476], [-122.6858, 41.4749], [-122.6875, 41.4766], [-122.6897, 41.4769], [-122.6919, 41.4783], [-122.6931, 41.4799], [-122.6928, 41.4819], [-122.6942, 41.482], [-122.6947, 41.4837], [-122.6956, 41.4841], [-122.6947, 41.4871], [-122.6956, 41.4877], [-122.6956, 41.4905], [-122.6965, 41.4912], [-122.6951, 41.4919], [-122.6959, 41.4922], [-122.6958, 41.4932], [-122.6973, 41.4934], [-122.6958, 41.4939], [-122.6957, 41.4962], [-122.6946, 41.4964], [-122.6952, 41.4979], [-122.6935, 41.498], [-122.6927, 41.497], [-122.6923, 41.498], [-122.6897, 41.4977], [-122.6848, 41.4999], [-122.6855, 41.5007], [-122.6835, 41.5014], [-122.6833, 41.5035], [-122.6807, 41.5045], [-122.6792, 41.5044], [-122.6797, 41.5038], [-122.6785, 41.5034], [-122.6781, 41.5021], [-122.6788, 41.5015], [-122.6762, 41.5008], [-122.6765, 41.4992], [-122.6754, 41.4997], [-122.6757, 41.4991], [-122.6741, 41.4986], [-122.6748, 41.4983], [-122.6743, 41.4979], [-122.6721, 41.4968], [-122.6717, 41.4959], [-122.6724, 41.4958], [-122.6711, 41.4948], [-122.6726, 41.4943], [-122.6722, 41.4929], [-122.6698, 41.493], [-122.6687, 41.4921], [-122.6687, 41.4898], [-122.6704, 41.4894], [-122.6695, 41.4882], [-122.6657, 41.4866], [-122.665, 41.4871], [-122.6618, 41.4861], [-122.6607, 41.4865], [-122.6573, 41.485], [-122.6572, 41.4874], [-122.6626, 41.4878], [-122.6651, 41.4888], [-122.6675, 41.4912], [-122.6667, 41.4915], [-122.667, 41.4919], [-122.6631, 41.4915], [-122.6611, 41.4905], [-122.6603, 41.4926], [-122.6589, 41.4926], [-122.659, 41.4918], [-122.6578, 41.492], [-122.6582, 41.493], [-122.6573, 41.4942], [-122.6552, 41.4943], [-122.6547, 41.4925], [-122.6541, 41.4945], [-122.6534, 41.4947], [-122.649, 41.4934], [-122.6478, 41.4906], [-122.6459, 41.4923], [-122.6446, 41.4921], [-122.6445, 41.4899], [-122.6411, 41.4876], [-122.6405, 41.4879], [-122.6401, 41.487], [-122.6391, 41.4871], [-122.6397, 41.4864], [-122.6385, 41.4849], [-122.6381, 41.4856], [-122.6382, 41.4848], [-122.6349, 41.4847], [-122.6334, 41.4837], [-122.6347, 41.4827], [-122.6354, 41.4829], [-122.6353, 41.4822], [-122.6387, 41.4817], [-122.638, 41.4805], [-122.6364, 41.48], [-122.6373, 41.4788], [-122.637, 41.4771], [-122.6348, 41.4766], [-122.6337, 41.4774], [-122.6338, 41.4784], [-122.6326, 41.4774], [-122.6309, 41.4784], [-122.6307, 41.4766], [-122.6314, 41.4756], [-122.6353, 41.4744], [-122.6349, 41.4727], [-122.6335, 41.4716], [-122.6325, 41.4682], [-122.6269, 41.4653], [-122.6264, 41.4647], [-122.6272, 41.4629], [-122.6255, 41.462], [-122.6261, 41.4583], [-122.6288, 41.4576], [-122.6268, 41.4554], [-122.6276, 41.4489], [-122.6266, 41.4479], [-122.6253, 41.4484], [-122.6267, 41.4474], [-122.6282, 41.4479], [-122.6298, 41.4455], [-122.6293, 41.4432], [-122.6307, 41.44], [-122.6277, 41.435], [-122.6308, 41.4245], [-122.6317, 41.4238], [-122.631, 41.4187], [-122.6325, 41.4137], [-122.6347, 41.4159], [-122.6373, 41.4168], [-122.6367, 41.4171], [-122.6372, 41.4176], [-122.6396, 41.4174], [-122.6412, 41.4183], [-122.6434, 41.4244], [-122.643, 41.4264], [-122.6469, 41.4292], [-122.6488, 41.4274], [-122.653, 41.4267], [-122.6543, 41.425], [-122.6559, 41.4253], [-122.6553, 41.4249], [-122.659, 41.4238], [-122.6575, 41.4236], [-122.658, 41.4231], [-122.6593, 41.4238], [-122.6601, 41.4234], [-122.659, 41.4223], [-122.6606, 41.4233], [-122.6614, 41.423], [-122.6612, 41.4218], [-122.6639, 41.4199], [-122.6639, 41.4205], [-122.6662, 41.419], [-122.6699, 41.4182], [-122.6703, 41.4161], [-122.6714, 41.416], [-122.6727, 41.4132], [-122.6743, 41.4117], [-122.6756, 41.4114], [-122.6752, 41.4103], [-122.6771, 41.4089], [-122.678, 41.409], [-122.678, 41.4096], [-122.6786, 41.4092], [-122.6788, 41.4111], [-122.6764, 41.4112], [-122.6758, 41.4121], [-122.6764, 41.4132], [-122.6818, 41.4142], [-122.6827, 41.4132], [-122.6849, 41.4145], [-122.6851, 41.417], [-122.6837, 41.4192], [-122.6841, 41.4198], [-122.6831, 41.4204], [-122.6835, 41.4213], [-122.6796, 41.4216], [-122.6804, 41.422], [-122.6798, 41.4234], [-122.6777, 41.4243], [-122.6787, 41.4258], [-122.68, 41.4255], [-122.6808, 41.427], [-122.6828, 41.4275], [-122.683, 41.429], [-122.6817, 41.4296], [-122.6791, 41.4287], [-122.6793, 41.4281], [-122.6782, 41.4287], [-122.6771, 41.4283], [-122.6746, 41.4247], [-122.6734, 41.4261], [-122.6749, 41.4266], [-122.6728, 41.4276], [-122.6721, 41.4275], [-122.6724, 41.4266], [-122.6716, 41.4261], [-122.6681, 41.4274], [-122.6703, 41.427], [-122.674, 41.4292], [-122.6761, 41.4291], [-122.6756, 41.4302], [-122.6744, 41.4307], [-122.6753, 41.4312], [-122.6765, 41.4312], [-122.677, 41.4301], [-122.6791, 41.4308], [-122.6806, 41.4306], [-122.6841, 41.4341], [-122.6864, 41.4355], [-122.688, 41.4357], [-122.691, 41.4337], [-122.6921, 41.431], [-122.6949, 41.4285], [-122.6966, 41.429], [-122.699, 41.4271], [-122.7032, 41.4255], [-122.7055, 41.4261], [-122.7073, 41.4278], [-122.7104, 41.427], [-122.712, 41.4277], [-122.7116, 41.4291], [-122.7107, 41.4291], [-122.7115, 41.4297], [-122.7125, 41.4295], [-122.7115, 41.4308], [-122.7123, 41.4331], [-122.7136, 41.433], [-122.7135, 41.4325], [-122.7142, 41.433], [-122.7137, 41.4339], [-122.7155, 41.4335], [-122.7175, 41.4341], [-122.717, 41.4345], [-122.7201, 41.4351], [-122.7146, 41.4351], [-122.7152, 41.4358], [-122.7142, 41.436], [-122.7134, 41.435], [-122.7117, 41.4355], [-122.7102, 41.4378], [-122.7119, 41.438], [-122.712, 41.4389], [-122.7135, 41.4388], [-122.7167, 41.4404], [-122.7166, 41.4449], [-122.7151, 41.4476], [-122.7138, 41.4486], [-122.7119, 41.4487], [-122.7129, 41.4492], [-122.7125, 41.452], [-122.7089, 41.4522], [-122.708, 41.4515], [-122.702, 41.454], [-122.6979, 41.4536], [-122.6984, 41.4546], [-122.6967, 41.455], [-122.696, 41.4544], [-122.6948, 41.4569], [-122.6962, 41.456], [-122.7, 41.4565], [-122.7015, 41.4543], [-122.7032, 41.4551], [-122.705, 41.4545], [-122.7059, 41.4554]], [[-122.6461, 41.4307], [-122.6437, 41.4283], [-122.642, 41.4291], [-122.6422, 41.43], [-122.6453, 41.4312], [-122.6461, 41.4307]], [[-122.6489, 41.4337], [-122.6504, 41.434], [-122.6516, 41.4318], [-122.6535, 41.4316], [-122.6535, 41.4309], [-122.6505, 41.4322], [-122.6495, 41.4318], [-122.6489, 41.4324], [-122.6475, 41.4317], [-122.6485, 41.4313], [-122.6466, 41.4294], [-122.6462, 41.4302], [-122.6473, 41.4306], [-122.6473, 41.4312], [-122.6463, 41.432], [-122.6477, 41.4334], [-122.6473, 41.4348], [-122.6489, 41.4337]], [[-122.67, 41.4714], [-122.6717, 41.4706], [-122.6755, 41.4709], [-122.6761, 41.4699], [-122.6749, 41.4704], [-122.6731, 41.4701], [-122.6727, 41.4684], [-122.6684, 41.469], [-122.6681, 41.4695], [-122.6663, 41.4693], [-122.6657, 41.4686], [-122.6662, 41.4668], [-122.6637, 41.4657], [-122.6583, 41.4614], [-122.6528, 41.4628], [-122.6522, 41.4623], [-122.6516, 41.4626], [-122.6607, 41.4651], [-122.664, 41.4674], [-122.6672, 41.4714], [-122.67, 41.4714]], [[-122.6611, 41.4824], [-122.6609, 41.4829], [-122.6614, 41.4828], [-122.6611, 41.4824]], [[-122.6687, 41.4518], [-122.6725, 41.4502], [-122.6742, 41.4485], [-122.6719, 41.4477], [-122.672, 41.4485], [-122.6687, 41.4499], [-122.6681, 41.448], [-122.6673, 41.4484], [-122.665, 41.4478], [-122.663, 41.4458], [-122.6626, 41.4438], [-122.6611, 41.4443], [-122.6598, 41.4439], [-122.6593, 41.4442], [-122.6623, 41.4457], [-122.6634, 41.4479], [-122.6645, 41.4478], [-122.6647, 41.4499], [-122.6662, 41.4497], [-122.6661, 41.4504], [-122.6649, 41.4501], [-122.6653, 41.4508], [-122.668, 41.4517], [-122.668, 41.4527], [-122.6691, 41.4526], [-122.6687, 41.4518]], [[-122.6622, 41.4417], [-122.6639, 41.4407], [-122.6629, 41.44], [-122.6638, 41.4399], [-122.6645, 41.4377], [-122.6635, 41.4365], [-122.6658, 41.4361], [-122.6677, 41.4333], [-122.6707, 41.4331], [-122.67, 41.4325], [-122.6708, 41.4318], [-122.6688, 41.4307], [-122.6692, 41.4294], [-122.6655, 41.4323], [-122.6654, 41.4331], [-122.6671, 41.4335], [-122.6658, 41.4345], [-122.6659, 41.4356], [-122.6649, 41.4352], [-122.6652, 41.4345], [-122.6629, 41.4335], [-122.664, 41.4325], [-122.6611, 41.4329], [-122.6617, 41.4342], [-122.6637, 41.4345], [-122.662, 41.4363], [-122.6626, 41.4392], [-122.661, 41.4406], [-122.6622, 41.4417]], [[-122.6682, 41.4826], [-122.6685, 41.4825], [-122.6683, 41.4825], [-122.6682, 41.4826]], [[-122.6725, 41.4753], [-122.6733, 41.4743], [-122.6727, 41.4738], [-122.672, 41.4743], [-122.6709, 41.474], [-122.6725, 41.4753]], [[-122.6804, 41.4441], [-122.6807, 41.4466], [-122.6793, 41.4472], [-122.6792, 41.4465], [-122.6783, 41.4464], [-122.6783, 41.4471], [-122.6796, 41.4476], [-122.6814, 41.4471], [-122.6812, 41.4465], [-122.6819, 41.4468], [-122.6821, 41.4459], [-122.6809, 41.4449], [-122.6814, 41.4442], [-122.683, 41.4441], [-122.6824, 41.4424], [-122.683, 41.4419], [-122.6811, 41.4408], [-122.6799, 41.4387], [-122.6779, 41.439], [-122.6776, 41.4373], [-122.6761, 41.438], [-122.6762, 41.4399], [-122.6771, 41.4412], [-122.6782, 41.4414], [-122.678, 41.4408], [-122.6804, 41.4405], [-122.6786, 41.4421], [-122.6796, 41.4427], [-122.6788, 41.4437], [-122.6804, 41.4441]], [[-122.6847, 41.4408], [-122.684, 41.4412], [-122.6844, 41.4423], [-122.6847, 41.4423], [-122.6847, 41.4408]], [[-122.6861, 41.4397], [-122.6877, 41.4394], [-122.6858, 41.4396], [-122.6861, 41.4397]], [[-122.689, 41.4808], [-122.6895, 41.4789], [-122.6877, 41.4789], [-122.689, 41.4808]], [[-122.7069, 41.4399], [-122.7083, 41.4405], [-122.7084, 41.4418], [-122.7094, 41.4424], [-122.7104, 41.4421], [-122.709, 41.4406], [-122.7099, 41.4395], [-122.7078, 41.4398], [-122.7074, 41.4384], [-122.7069, 41.4399]], [[-122.7101, 41.4431], [-122.7127, 41.4459], [-122.7142, 41.4457], [-122.715, 41.4438], [-122.7101, 41.4431]]], [[[-122.6715, 41.4689], [-122.6712, 41.4687], [-122.6715, 41.4687], [-122.6715, 41.4689]]], [[[-122.6076, 41.5009], [-122.6076, 41.5], [-122.6088, 41.4993], [-122.6069, 41.4989], [-122.607, 41.4979], [-122.606, 41.4971], [-122.6037, 41.4982], [-122.6029, 41.5008], [-122.6028, 41.4997], [-122.6017, 41.5], [-122.6012, 41.4977], [-122.5998, 41.4975], [-122.5991, 41.4965], [-122.5971, 41.4969], [-122.5966, 41.4982], [-122.5975, 41.4994], [-122.5967, 41.5003], [-122.5952, 41.5001], [-122.5948, 41.497], [-122.5941, 41.4961], [-122.5929, 41.4963], [-122.5926, 41.4956], [-122.592, 41.4967], [-122.5938, 41.4978], [-122.5937, 41.4997], [-122.5917, 41.5005], [-122.5894, 41.497], [-122.5903, 41.4965], [-122.5916, 41.4977], [-122.5917, 41.4946], [-122.5898, 41.4938], [-122.5908, 41.4927], [-122.5892, 41.4916], [-122.5898, 41.4906], [-122.5913, 41.4898], [-122.593, 41.4901], [-122.5932, 41.4885], [-122.5947, 41.4887], [-122.5945, 41.488], [-122.5961, 41.4877], [-122.5968, 41.4883], [-122.5997, 41.4883], [-122.6007, 41.4895], [-122.6042, 41.4906], [-122.6149, 41.4858], [-122.615, 41.4845], [-122.6174, 41.4846], [-122.6183, 41.4836], [-122.6173, 41.4827], [-122.62, 41.4825], [-122.6206, 41.4815], [-122.6225, 41.4808], [-122.6229, 41.4802], [-122.6222, 41.4799], [-122.6231, 41.4798], [-122.6238, 41.4788], [-122.6264, 41.4797], [-122.6264, 41.4802], [-122.6294, 41.4798], [-122.6319, 41.4809], [-122.6332, 41.4834], [-122.6322, 41.484], [-122.6311, 41.4835], [-122.6298, 41.4852], [-122.6286, 41.4856], [-122.6276, 41.4872], [-122.6279, 41.4883], [-122.6305, 41.4913], [-122.633, 41.4928], [-122.634, 41.4948], [-122.6349, 41.4948], [-122.6376, 41.4974], [-122.6384, 41.4973], [-122.639, 41.4993], [-122.6375, 41.5], [-122.6369, 41.5018], [-122.6345, 41.5035], [-122.6359, 41.5053], [-122.6363, 41.5073], [-122.6349, 41.511], [-122.633, 41.5108], [-122.633, 41.51], [-122.6302, 41.5109], [-122.6277, 41.51], [-122.6244, 41.5098], [-122.6168, 41.5109], [-122.6114, 41.5104], [-122.6086, 41.5085], [-122.6056, 41.5079], [-122.6029, 41.5058], [-122.6036, 41.5045], [-122.6032, 41.5014], [-122.6076, 41.5009]]], [[[-122.5853, 41.501], [-122.5851, 41.4985], [-122.5863, 41.4969], [-122.5885, 41.4979], [-122.5888, 41.5002], [-122.587, 41.5013], [-122.5853, 41.501]]]]}, "properties": {"layer": "perimeter"}}, {"type": "Feature", "geometry": {"type": "MultiPolygon", "coordinates": [[[[-122.6659, 41.4182], [-122.6656, 41.4179], [-122.666, 41.418], [-122.6659, 41.4182]]], [[[-122.7059, 41.4554], [-122.709, 41.4538], [-122.7098, 41.4537], [-122.7102, 41.4547], [-122.7112, 41.4535], [-122.7125, 41.4537], [-122.7124, 41.4568], [-122.715, 41.4591], [-122.7159, 41.4624], [-122.7146, 41.4627], [-122.7142, 41.462], [-122.7133, 41.463], [-122.7119, 41.462], [-122.7102, 41.4623], [-122.7088, 41.4637], [-122.7073, 41.462], [-122.707, 41.4626], [-122.7046, 41.4629], [-122.7034, 41.4628], [-122.703, 41.4614], [-122.702, 41.4624], [-122.7007, 41.462], [-122.7001, 41.4621], [-122.7008, 41.4629], [-122.6988, 41.4626], [-122.6993, 41.4637], [-122.6951, 41.4644], [-122.6937, 41.4664], [-122.6939, 41.4676], [-122.6911, 41.467], [-122.6917, 41.4663], [-122.6903, 41.4665], [-122.6907, 41.4679], [-122.692, 41.4687], [-122.6915, 41.4697], [-122.6864, 41.4698], [-122.684, 41.4731], [-122.6831, 41.4734], [-122.6832, 41.4725], [-122.6815, 41.4727], [-122.6814, 41.4743], [-122.6834, 41.4754], [-122.6834, 41.4759], [-122.682, 41.4759], [-122.6831, 41.4767], [-122.6818, 41.4782], [-122.6822, 41.4795], [-122.6852, 41.4798], [-122.6856, 41.4774], [-122.685, 41.4763], [-122.684, 41.476], [-122.6858, 41.4749], [-122.6875, 41.4766], [-122.6897, 41.4769], [-122.6919, 41.4783], [-122.6931, 41.4799], [-122.6928, 41.4819], [-122.6942, 41.482], [-122.6947, 41.4837], [-122.6956, 41.4841], [-122.6947, 41.4871], [-122.6956, 41.4877], [-122.6956, 41.4905], [-122.6965, 41.4912], [-122.6951, 41.4919], [-122.6959, 41.4922], [-122.6958, 41.4932], [-122.6973, 41.4934], [-122.6958, 41.4939], [-122.6957, 41.4962], [-122.6946, 41.4964], [-122.6952, 41.4979], [-122.6935, 41.498], [-122.6927, 41.497], [-122.6923, 41.498], [-122.6897, 41.4977], [-122.6848, 41.4999], [-122.6855, 41.5007], [-122.6835, 41.5014], [-122.6833, 41.5035], [-122.6807, 41.5045], [-122.6792, 41.5044], [-122.6797, 41.5038], [-122.6785, 41.5034], [-122.6781, 41.5021], [-122.6788, 41.5015], [-122.6762, 41.5008], [-122.6765, 41.4992], [-122.6754, 41.4997], [-122.6757, 41.4991], [-122.6741, 41.4986], [-122.6748, 41.4983], [-122.6743, 41.4979], [-122.6721, 41.4968], [-122.6717, 41.4959], [-122.6724, 41.4958], [-122.6711, 41.4948], [-122.6726, 41.4943], [-122.6722, 41.4929], [-122.6698, 41.493], [-122.6687, 41.4921], [-122.6687, 41.4898], [-122.6704, 41.4894], [-122.6695, 41.4882], [-122.6657, 41.4866], [-122.665, 41.4871], [-122.6618, 41.4861], [-122.6607, 41.4865], [-122.6573, 41.485], [-122.6572, 41.4874], [-122.6626, 41.4878], [-122.6651, 41.4888], [-122.6675, 41.4912], [-122.6667, 41.4915], [-122.667, 41.4919], [-122.6631, 41.4915], [-122.6611, 41.4905], [-122.6603, 41.4926], [-122.6589, 41.4926], [-122.659, 41.4918], [-122.6578, 41.492], [-122.6582, 41.493], [-122.6573, 41.4942], [-122.6552, 41.4943], [-122.6547, 41.4925], [-122.6541, 41.4945], [-122.6534, 41.4947], [-122.649, 41.4934], [-122.6478, 41.4906], [-122.6459, 41.4923], [-122.6446, 41.4921], [-122.6445, 41.4899], [-122.6411, 41.4876], [-122.6405, 41.4879], [-122.6401, 41.487], [-122.6391, 41.4871], [-122.6397, 41.4864], [-122.6385, 41.4849], [-122.6381, 41.4856], [-122.6382, 41.4848], [-122.6349, 41.4847], [-122.6334, 41.4837], [-122.6347, 41.4827], [-122.6354, 41.4829], [-122.6353, 41.4822], [-122.6387, 41.4817], [-122.638, 41.4805], [-122.6364, 41.48], [-122.6373, 41.4788], [-122.637, 41.4771], [-122.6348, 41.4766], [-122.6337, 41.4774], [-122.6338, 41.4784], [-122.6326, 41.4774], [-122.6309, 41.4784], [-122.6307, 41.4766], [-122.6314, 41.4756], [-122.6353, 41.4744], [-122.6349, 41.4727], [-122.6335, 41.4716], [-122.6325, 41.4682], [-122.6269, 41.4653], [-122.6264, 41.4647], [-122.6272, 41.4629], [-122.6255, 41.462], [-122.6261, 41.4583], [-122.6288, 41.4576], [-122.6268, 41.4554], [-122.6276, 41.4489], [-122.6266, 41.4479], [-122.6253, 41.4484], [-122.6267, 41.4474], [-122.6282, 41.4479], [-122.6298, 41.4455], [-122.6293, 41.4432], [-122.6307, 41.44], [-122.6292, 41.437], [-122.6344, 41.437], [-122.6344, 41.4334], [-122.6294, 41.4334], [-122.6293, 41.4307], [-122.6308, 41.4245], [-122.6317, 41.4238], [-122.631, 41.4187], [-122.6325, 41.4137], [-122.6347, 41.4159], [-122.6373, 41.4168], [-122.6367, 41.4171], [-122.6372, 41.4176], [-122.6396, 41.4174], [-122.6412, 41.4183], [-122.6434, 41.4244], [-122.643, 41.4264], [-122.6469, 41.4292], [-122.6488, 41.4274], [-122.653, 41.4267], [-122.6543, 41.425], [-122.6559, 41.4253], [-122.6553, 41.4249], [-122.659, 41.4238], [-122.6575, 41.4236], [-122.658, 41.4231], [-122.6593, 41.4238], [-122.6601, 41.4234], [-122.659, 41.4223], [-122.6606, 41.4233], [-122.6614, 41.423], [-122.6612, 41.4218], [-122.6639, 41.4199], [-122.6639, 41.4205], [-122.6662, 41.419], [-122.6699, 41.4182], [-122.6703, 41.4161], [-122.6714, 41.416], [-122.6727, 41.4132], [-122.6743, 41.4117], [-122.6756, 41.4114], [-122.6752, 41.4103], [-122.6771, 41.4089], [-122.678, 41.409], [-122.678, 41.4096], [-122.6786, 41.4092], [-122.6788, 41.4111], [-122.6764, 41.4112], [-122.6758, 41.4121], [-122.6764, 41.4132], [-122.6818, 41.4142], [-122.6827, 41.4132], [-122.6849, 41.4145], [-122.6851, 41.417], [-122.6837, 41.4192], [-122.6841, 41.4198], [-122.6831, 41.4204], [-122.6835, 41.4213], [-122.6796, 41.4216], [-122.6804, 41.422], [-122.6798, 41.4234], [-122.6777, 41.4243], [-122.6787, 41.4258], [-122.68, 41.4255], [-122.6808, 41.427], [-122.6828, 41.4275], [-122.683, 41.429], [-122.6817, 41.4296], [-122.6791, 41.4287], [-122.6793, 41.4281], [-122.6782, 41.4287], [-122.6771, 41.4283], [-122.6746, 41.4247], [-122.6734, 41.4261], [-122.6749, 41.4266], [-122.6728, 41.4276], [-122.6721, 41.4275], [-122.6724, 41.4266], [-122.6716, 41.4261], [-122.6681, 41.4274], [-122.6703, 41.427], [-122.674, 41.4292], [-122.6761, 41.4291], [-122.6756, 41.4302], [-122.6744, 41.4307], [-122.6753, 41.4312], [-122.6765, 41.4312], [-122.677, 41.4301], [-122.6791, 41.4308], [-122.6806, 41.4306], [-122.6841, 41.4341], [-122.6864, 41.4355], [-122.688, 41.4357], [-122.691, 41.4337], [-122.6921, 41.431], [-122.6949, 41.4285], [-122.6966, 41.429], [-122.699, 41.4271], [-122.7032, 41.4255], [-122.7055, 41.4261], [-122.7073, 41.4278], [-122.7104, 41.427], [-122.712, 41.4277], [-122.7116, 41.4291], [-122.7107, 41.4291], [-122.7115, 41.4297], [-122.7125, 41.4295], [-122.7115, 41.4308], [-122.7123, 41.4331], [-122.7136, 41.433], [-122.7135, 41.4325], [-122.7142, 41.433], [-122.7137, 41.4339], [-122.7155, 41.4335], [-122.7175, 41.4341], [-122.717, 41.4345], [-122.7201, 41.4351], [-122.7146, 41.4351], [-122.7152, 41.4358], [-122.7142, 41.436], [-122.7134, 41.435], [-122.7117, 41.4355], [-122.7102, 41.4378], [-122.7119, 41.438], [-122.712, 41.4389], [-122.7135, 41.4388], [-122.7167, 41.4404], [-122.7166, 41.4449], [-122.7151, 41.4476], [-122.7138, 41.4486], [-122.7119, 41.4487], [-122.7129, 41.4492], [-122.7125, 41.452], [-122.7089, 41.4522], [-122.708, 41.4515], [-122.702, 41.454], [-122.6979, 41.4536], [-122.6984, 41.4546], [-122.6967, 41.455], [-122.696, 41.4544], [-122.6948, 41.4569], [-122.6962, 41.456], [-122.7, 41.4565], [-122.7015, 41.4543], [-122.7032, 41.4551], [-122.705, 41.4545], [-122.7059, 41.4554]], [[-122.6461, 41.4307], [-122.6437, 41.4283], [-122.642, 41.4291], [-122.6422, 41.43], [-122.6453, 41.4312], [-122.6461, 41.4307]], [[-122.6498, 41.4339], [-122.6514, 41.433], [-122.6516, 41.4318], [-122.6535, 41.4316], [-122.6535, 41.4309], [-122.6505, 41.4322], [-122.6495, 41.4318], [-122.6489, 41.4324], [-122.6475, 41.4317], [-122.6485, 41.4313], [-122.6466, 41.4294], [-122.6462, 41.4302], [-122.6473, 41.4306], [-122.6473, 41.4312], [-122.6463, 41.432], [-122.6477, 41.4334], [-122.6473, 41.4348], [-122.6489, 41.4337], [-122.6498, 41.4339]], [[-122.6701, 41.4714], [-122.6717, 41.4706], [-122.6755, 41.4709], [-122.6761, 41.4699], [-122.6749, 41.4704], [-122.6731, 41.4701], [-122.6727, 41.4684], [-122.6684, 41.469], [-122.6681, 41.4695], [-122.6663, 41.4693], [-122.6657, 41.4686], [-122.6662, 41.4668], [-122.6637, 41.4657], [-122.6583, 41.4614], [-122.6528, 41.4628], [-122.6522, 41.4623], [-122.6516, 41.4626], [-122.6607, 41.4651], [-122.664, 41.4674], [-122.6672, 41.4714], [-122.6701, 41.4714]], [[-122.6607, 41.4824], [-122.6612, 41.4829], [-122.6614, 41.4826], [-122.6607, 41.4824]], [[-122.6689, 41.4518], [-122.6725, 41.4502], [-122.6742, 41.4485], [-122.6719, 41.4477], [-122.672, 41.4485], [-122.6687, 41.4499], [-122.6681, 41.448], [-122.6673, 41.4484], [-122.665, 41.4478], [-122.663, 41.4458], [-122.6626, 41.4438], [-122.6611, 41.4443], [-122.6598, 41.4439], [-122.6593, 41.4442], [-122.6623, 41.4457], [-122.6634, 41.4479], [-122.6645, 41.4478], [-122.6647, 41.4499], [-122.6662, 41.4497], [-122.6661, 41.4504], [-122.6649, 41.4501], [-122.6653, 41.4508], [-122.668, 41.4517], [-122.668, 41.4527], [-122.6691, 41.4526], [-122.6689, 41.4518]], [[-122.6622, 41.4417], [-122.6639, 41.4407], [-122.6629, 41.44], [-122.6638, 41.4399], [-122.6645, 41.4377], [-122.6635, 41.4365], [-122.6658, 41.4361], [-122.6677, 41.4333], [-122.6707, 41.4331], [-122.67, 41.4325], [-122.6708, 41.4318], [-122.6688, 41.4307], [-122.6692, 41.4294], [-122.6655, 41.4323], [-122.6654, 41.4331], [-122.6671, 41.4335], [-122.6658, 41.4345], [-122.6659, 41.4356], [-122.6649, 41.4352], [-122.6652, 41.4345], [-122.6629, 41.4335], [-122.664, 41.4325], [-122.6611, 41.4329], [-122.6617, 41.4342], [-122.6637, 41.4345], [-122.662, 41.4363], [-122.6626, 41.4392], [-122.661, 41.4406], [-122.6622, 41.4417]], [[-122.6684, 41.4826], [-122.6683, 41.4825], [-122.6682, 41.4826], [-122.6684, 41.4826]], [[-122.6725, 41.4753], [-122.6733, 41.4742], [-122.6727, 41.4738], [-122.672, 41.4743], [-122.6709, 41.474], [-122.6725, 41.4753]], [[-122.6804, 41.4443], [-122.6802, 41.4471], [-122.6783, 41.4464], [-122.6783, 41.4471], [-122.6796, 41.4476], [-122.6814, 41.4471], [-122.6812, 41.4465], [-122.6819, 41.4468], [-122.6821, 41.4459], [-122.6809, 41.4449], [-122.6814, 41.4442], [-122.683, 41.4441], [-122.6824, 41.4424], [-122.683, 41.4419], [-122.6811, 41.4408], [-122.6799, 41.4387], [-122.6779, 41.439], [-122.6776, 41.4373], [-122.6761, 41.438], [-122.6762, 41.4399], [-122.6771, 41.4412], [-122.6782, 41.4414], [-122.678, 41.4408], [-122.6804, 41.4405], [-122.6786, 41.4421], [-122.6796, 41.4427], [-122.6788, 41.4437], [-122.6804, 41.4443]], [[-122.6847, 41.4407], [-122.684, 41.4412], [-122.6844, 41.4423], [-122.6847, 41.4423], [-122.6847, 41.4407]], [[-122.6871, 41.4397], [-122.6877, 41.4394], [-122.6858, 41.4396], [-122.6871, 41.4397]], [[-122.689, 41.4808], [-122.6895, 41.4789], [-122.6877, 41.4789], [-122.689, 41.4808]], [[-122.7072, 41.44], [-122.7083, 41.4405], [-122.7081, 41.4412], [-122.7094, 41.4424], [-122.7104, 41.4421], [-122.709, 41.4406], [-122.7099, 41.4395], [-122.7078, 41.4398], [-122.7074, 41.4384], [-122.7072, 41.44]], [[-122.7101, 41.4432], [-122.7127, 41.4459], [-122.7142, 41.4457], [-122.715, 41.4438], [-122.7101, 41.4432]]], [[[-122.6715, 41.4689], [-122.6712, 41.4687], [-122.6715, 41.4687], [-122.6715, 41.4689]]], [[[-122.6076, 41.5009], [-122.6088, 41.4993], [-122.6069, 41.4989], [-122.607, 41.4979], [-122.6058, 41.4972], [-122.6037, 41.4982], [-122.6029, 41.5008], [-122.6028, 41.4997], [-122.6017, 41.5], [-122.6012, 41.4977], [-122.5998, 41.4975], [-122.5991, 41.4965], [-122.5971, 41.4969], [-122.5966, 41.4982], [-122.5975, 41.4994], [-122.596, 41.5004], [-122.5949, 41.5], [-122.5952, 41.4978], [-122.5943, 41.4963], [-122.5929, 41.4963], [-122.5926, 41.4956], [-122.592, 41.4967], [-122.5938, 41.4978], [-122.5937, 41.4997], [-122.5917, 41.5005], [-122.5894, 41.497], [-122.5903, 41.4965], [-122.5916, 41.4977], [-122.5917, 41.4946], [-122.5898, 41.4938], [-122.5908, 41.4927], [-122.5892, 41.4916], [-122.5898, 41.4906], [-122.5913, 41.4898], [-122.593, 41.4901], [-122.5932, 41.4885], [-122.5947, 41.4887], [-122.5945, 41.488], [-122.5961, 41.4877], [-122.5968, 41.4883], [-122.5997, 41.4883], [-122.6007, 41.4895], [-122.6042, 41.4906], [-122.6149, 41.4858], [-122.615, 41.4845], [-122.6174, 41.4846], [-122.6183, 41.4836], [-122.6173, 41.4827], [-122.62, 41.4825], [-122.6206, 41.4815], [-122.6225, 41.4808], [-122.6229, 41.4802], [-122.6222, 41.4799], [-122.6231, 41.4798], [-122.6238, 41.4788], [-122.6264, 41.4797], [-122.6264, 41.4802], [-122.6294, 41.4798], [-122.6319, 41.4809], [-122.6332, 41.4834], [-122.6322, 41.484], [-122.6311, 41.4835], [-122.6298, 41.4852], [-122.6286, 41.4856], [-122.6276, 41.4872], [-122.6279, 41.4883], [-122.6305, 41.4913], [-122.633, 41.4928], [-122.634, 41.4948], [-122.6349, 41.4948], [-122.6376, 41.4974], [-122.6384, 41.4973], [-122.639, 41.4993], [-122.6375, 41.5], [-122.6369, 41.5018], [-122.6345, 41.5035], [-122.6359, 41.5053], [-122.6363, 41.5073], [-122.6349, 41.511], [-122.633, 41.5108], [-122.633, 41.51], [-122.6302, 41.5109], [-122.6277, 41.51], [-122.6244, 41.5098], [-122.6168, 41.5109], [-122.6114, 41.5104], [-122.6086, 41.5085], [-122.6056, 41.5079], [-122.6029, 41.5058], [-122.6036, 41.5045], [-122.6032, 41.5014], [-122.6076, 41.5009]]], [[[-122.5855, 41.5014], [-122.5851, 41.4985], [-122.5863, 41.4969], [-122.5885, 41.4979], [-122.5888, 41.5002], [-122.587, 41.5013], [-122.5855, 41.5014]]]]}, "properties": {"layer": "retained"}}, {"type": "Feature", "geometry": {"type": "MultiPolygon", "coordinates": [[[[-122.6146, 41.509], [-122.6153, 41.5079], [-122.6146, 41.5082], [-122.6142, 41.5076], [-122.6149, 41.5071], [-122.6153, 41.5076], [-122.6164, 41.5073], [-122.6149, 41.5065], [-122.6138, 41.5068], [-122.6135, 41.5076], [-122.6124, 41.5074], [-122.6124, 41.5079], [-122.6135, 41.5079], [-122.6132, 41.509], [-122.6146, 41.509]], [[-122.6142, 41.5074], [-122.6139, 41.5076], [-122.6138, 41.5074], [-122.6142, 41.5074]]], [[[-122.6207, 41.5075], [-122.6214, 41.5064], [-122.6228, 41.5069], [-122.6242, 41.5058], [-122.6238, 41.505], [-122.6221, 41.5058], [-122.6202, 41.5048], [-122.6195, 41.5053], [-122.6203, 41.5067], [-122.6199, 41.5064], [-122.6192, 41.5067], [-122.6207, 41.5075]], [[-122.621, 41.5064], [-122.6206, 41.5067], [-122.6206, 41.5064], [-122.621, 41.5064]]], [[[-122.6145, 41.5065], [-122.6148, 41.5049], [-122.6138, 41.5047], [-122.6127, 41.5058], [-122.6141, 41.5057], [-122.6145, 41.5065]], [[-122.6141, 41.5052], [-122.6138, 41.5055], [-122.6138, 41.5052], [-122.6141, 41.5052]]], [[[-122.6177, 41.5054], [-122.6184, 41.5046], [-122.6163, 41.5043], [-122.6163, 41.5051], [-122.6177, 41.5054]]], [[[-122.6149, 41.4981], [-122.6149, 41.4971], [-122.6128, 41.4976], [-122.6128, 41.4979], [-122.6149, 41.4981]]], [[[-122.6181, 41.497], [-122.6192, 41.4972], [-122.6192, 41.4964], [-122.6181, 41.497]]], [[[-122.6347, 41.4983], [-122.6343, 41.4975], [-122.635, 41.4972], [-122.6353, 41.4961], [-122.6335, 41.4961], [-122.6307, 41.4975], [-122.6322, 41.4983], [-122.6318, 41.4978], [-122.6332, 41.4972], [-122.6347, 41.4983]], [[-122.6346, 41.4969], [-122.6339, 41.4972], [-122.6339, 41.4969], [-122.6346, 41.4969]]], [[[-122.6207, 41.4972], [-122.6217, 41.4969], [-122.6217, 41.4961], [-122.6206, 41.4964], [-122.6207, 41.4972]]], [[[-122.6265, 41.4987], [-122.6278, 41.4973], [-122.6267, 41.4963], [-122.6268, 41.4971], [-122.6257, 41.4974], [-122.626, 41.4963], [-122.6245, 41.4955], [-122.6238, 41.4961], [-122.6246, 41.4966], [-122.6247, 41.4985], [-122.6265, 41.4987]]], [[[-122.6073, 41.4961], [-122.6073, 41.4953], [-122.6055, 41.4954], [-122.6059, 41.4959], [-122.6073, 41.4961]]], [[[-122.6084, 41.4961], [-122.6095, 41.4955], [-122.6084, 41.4948], [-122.6084, 41.4961]]], [[[-122.6285, 41.4952], [-122.6288, 41.4943], [-122.6277, 41.4944], [-122.6274, 41.4949], [-122.6285, 41.4952]]], [[[-122.6121, 41.4977], [-122.6131, 41.4968], [-122.6138, 41.4971], [-122.6155, 41.4949], [-122.6141, 41.4946], [-122.6127, 41.4966], [-122.6117, 41.4963], [-122.6121, 41.4977]], [[-122.6124, 41.4968], [-122.612, 41.4971], [-122.612, 41.4968], [-122.6124, 41.4968]]], [[[-122.613, 41.4939], [-122.6137, 41.4933], [-122.6122, 41.4931], [-122.613, 41.4939]]], [[[-122.6769, 41.4941], [-122.6769, 41.4936], [-122.679, 41.4935], [-122.6804, 41.4916], [-122.6797, 41.4914], [-122.6793, 41.4922], [-122.6775, 41.492], [-122.6779, 41.4925], [-122.6762, 41.4933], [-122.6754, 41.4931], [-122.6758, 41.4942], [-122.6769, 41.4941]]], [[[-122.598, 41.4947], [-122.5979, 41.4939], [-122.6008, 41.493], [-122.6004, 41.4919], [-122.5982, 41.4923], [-122.5976, 41.4936], [-122.5961, 41.4934], [-122.5961, 41.4942], [-122.5968, 41.4939], [-122.598, 41.4947]]], [[[-122.6043, 41.4927], [-122.6047, 41.4919], [-122.6032, 41.4916], [-122.6029, 41.4927], [-122.6036, 41.4919], [-122.6043, 41.4927]]], [[[-122.6728, 41.4912], [-122.6732, 41.4907], [-122.6732, 41.4899], [-122.6721, 41.4907], [-122.6728, 41.4912]]], [[[-122.6255, 41.4909], [-122.6269, 41.4909], [-122.6268, 41.4898], [-122.6255, 41.4909]]], [[[-122.6872, 41.4899], [-122.6875, 41.4888], [-122.6864, 41.4885], [-122.6864, 41.4896], [-122.6872, 41.4899]]], [[[-122.6119, 41.4947], [-122.613, 41.4939], [-122.6112, 41.4925], [-122.6136, 41.4906], [-122.6121, 41.4901], [-122.6115, 41.4909], [-122.6114, 41.4898], [-122.6111, 41.4906], [-122.61, 41.4904], [-122.6093, 41.491], [-122.6086, 41.4902], [-122.6068, 41.4902], [-122.6065, 41.4918], [-122.6076, 41.4923], [-122.6079, 41.4915], [-122.6087, 41.4939], [-122.6119, 41.4947]], [[-122.6115, 41.4933], [-122.6112, 41.4936], [-122.6112, 41.4933], [-122.6115, 41.4933]], [[-122.6108, 41.4923], [-122.609, 41.4937], [-122.6093, 41.4912], [-122.6108, 41.4923]], [[-122.6112, 41.4931], [-122.6105, 41.4934], [-122.6105, 41.4931], [-122.6112, 41.4931]], [[-122.6108, 41.4915], [-122.6104, 41.4917], [-122.6104, 41.4915], [-122.6108, 41.4915]], [[-122.6107, 41.4907], [-122.6104, 41.4909], [-122.6104, 41.4907], [-122.6107, 41.4907]]], [[[-122.5968, 41.4918], [-122.5974, 41.4904], [-122.5989, 41.4909], [-122.5996, 41.4898], [-122.5974, 41.4896], [-122.596, 41.4901], [-122.5964, 41.4907], [-122.5946, 41.4907], [-122.5968, 41.4918]]], [[[-122.6785, 41.4884], [-122.6774, 41.4874], [-122.677, 41.4879], [-122.6752, 41.4877], [-122.6752, 41.4882], [-122.6734, 41.488], [-122.6742, 41.4885], [-122.6785, 41.4884]]], [[[-122.6224, 41.4955], [-122.6245, 41.495], [-122.6241, 41.4942], [-122.6245, 41.4936], [-122.6252, 41.4939], [-122.6259, 41.4928], [-122.6259, 41.4922], [-122.6248, 41.4923], [-122.6255, 41.4914], [-122.624, 41.4909], [-122.6243, 41.4896], [-122.6264, 41.4887], [-122.6246, 41.4879], [-122.6232, 41.488], [-122.6239, 41.4888], [-122.6229, 41.4888], [-122.6229, 41.4899], [-122.6225, 41.4893], [-122.6172, 41.4897], [-122.6175, 41.4905], [-122.6168, 41.4911], [-122.6179, 41.4919], [-122.6165, 41.4922], [-122.6154, 41.4911], [-122.6166, 41.494], [-122.6159, 41.4935], [-122.6144, 41.4938], [-122.6152, 41.4946], [-122.6155, 41.4941], [-122.617, 41.4946], [-122.6176, 41.4927], [-122.6183, 41.4929], [-122.6194, 41.4918], [-122.6222, 41.4915], [-122.6219, 41.4926], [-122.6187, 41.4929], [-122.6188, 41.4951], [-122.6199, 41.4953], [-122.622, 41.4939], [-122.6224, 41.4955]], [[-122.6202, 41.4942], [-122.6195, 41.4937], [-122.6202, 41.4937], [-122.6202, 41.4934], [-122.6205, 41.4934], [-122.6202, 41.4942]], [[-122.6252, 41.4931], [-122.6248, 41.4933], [-122.6248, 41.4931], [-122.6252, 41.4931]], [[-122.6227, 41.4928], [-122.622, 41.4934], [-122.6219, 41.4931], [-122.6227, 41.4928]], [[-122.6212, 41.4931], [-122.6205, 41.4934], [-122.6205, 41.4932], [-122.6212, 41.4931]], [[-122.6248, 41.4925], [-122.6245, 41.4931], [-122.6244, 41.4925], [-122.6248, 41.4925]], [[-122.6237, 41.4923], [-122.6226, 41.4926], [-122.6226, 41.4923], [-122.6237, 41.4923]], [[-122.6226, 41.4918], [-122.6223, 41.4923], [-122.6223, 41.4918], [-122.6226, 41.4918]], [[-122.6237, 41.4912], [-122.6226, 41.4912], [-122.6226, 41.4907], [-122.6236, 41.4907], [-122.6237, 41.4912]], [[-122.6219, 41.4907], [-122.6212, 41.4912], [-122.6211, 41.4907], [-122.6219, 41.4907]], [[-122.6179, 41.4908], [-122.6176, 41.4911], [-122.6176, 41.4908], [-122.6179, 41.4908]], [[-122.6229, 41.4901], [-122.6222, 41.4907], [-122.6218, 41.4901], [-122.6229, 41.4901]], [[-122.6193, 41.4902], [-122.619, 41.4905], [-122.619, 41.4902], [-122.6193, 41.4902]], [[-122.6204, 41.4899], [-122.6197, 41.4902], [-122.6197, 41.4899], [-122.6204, 41.4899]], [[-122.624, 41.4893], [-122.6232, 41.4896], [-122.6232, 41.4893], [-122.624, 41.4893]]], [[[-122.6128, 41.4898], [-122.6132, 41.4887], [-122.6139, 41.4887], [-122.6135, 41.4882], [-122.6121, 41.4882], [-122.6118, 41.4893], [-122.6103, 41.4893], [-122.6103, 41.4898], [-122.611, 41.4896], [-122.6128, 41.4898]]], [[[-122.6828, 41.4878], [-122.6831, 41.4872], [-122.6842, 41.4875], [-122.6845, 41.4869], [-122.6834, 41.4864], [-122.682, 41.4875], [-122.6828, 41.4878]]], [[[-122.6217, 41.4877], [-122.6217, 41.4872], [-122.6203, 41.4869], [-122.6203, 41.4875], [-122.6217, 41.4877]]], [[[-122.6791, 41.486], [-122.6798, 41.4854], [-122.6805, 41.4857], [-122.6809, 41.4848], [-122.6787, 41.4849], [-122.6791, 41.486]]], [[[-122.6795, 41.4876], [-122.6784, 41.4865], [-122.6783, 41.4844], [-122.6758, 41.4847], [-122.6766, 41.4852], [-122.6755, 41.4852], [-122.6752, 41.4861], [-122.6766, 41.4857], [-122.6773, 41.4868], [-122.6795, 41.4876]], [[-122.678, 41.4863], [-122.6777, 41.4865], [-122.6777, 41.4863], [-122.678, 41.4863]], [[-122.6769, 41.4852], [-122.6766, 41.4855], [-122.6766, 41.4852], [-122.6769, 41.4852]]], [[[-122.6705, 41.4853], [-122.6712, 41.4845], [-122.6694, 41.4846], [-122.6694, 41.4848], [-122.6705, 41.4853]]], [[[-122.6751, 41.4855], [-122.6751, 41.4844], [-122.674, 41.4842], [-122.6737, 41.4847], [-122.6751, 41.4855]]], [[[-122.6143, 41.4903], [-122.6164, 41.4884], [-122.616, 41.4873], [-122.6178, 41.4867], [-122.6178, 41.4873], [-122.6196, 41.4875], [-122.6202, 41.4859], [-122.6213, 41.4856], [-122.6217, 41.4861], [-122.622, 41.4855], [-122.6231, 41.4863], [-122.6231, 41.4855], [-122.6224, 41.485], [-122.6199, 41.4851], [-122.6181, 41.4864], [-122.6174, 41.4865], [-122.6173, 41.4851], [-122.6156, 41.4857], [-122.6142, 41.4868], [-122.6153, 41.4884], [-122.6132, 41.4898], [-122.6143, 41.4903]], [[-122.6156, 41.4876], [-122.6153, 41.4879], [-122.6153, 41.4876], [-122.6156, 41.4876]], [[-122.6156, 41.4865], [-122.6149, 41.487], [-122.6149, 41.4865], [-122.6156, 41.4865]], [[-122.6163, 41.4859], [-122.616, 41.4865], [-122.6159, 41.4859], [-122.6163, 41.4859]], [[-122.617, 41.4859], [-122.6167, 41.4862], [-122.6167, 41.4859], [-122.617, 41.4859]]], [[[-122.6532, 41.4846], [-122.6532, 41.4841], [-122.6514, 41.4841], [-122.6514, 41.4847], [-122.6532, 41.4846]]], [[[-122.6622, 41.4844], [-122.6614, 41.4836], [-122.664, 41.4841], [-122.6632, 41.4831], [-122.6607, 41.4837], [-122.6611, 41.4845], [-122.6622, 41.4844]]], [[[-122.65, 41.4844], [-122.65, 41.4839], [-122.6489, 41.4834], [-122.6485, 41.4842], [-122.65, 41.4844]]], [[[-122.6772, 41.4838], [-122.6776, 41.483], [-122.6743, 41.4828], [-122.6758, 41.4839], [-122.6772, 41.4838]], [[-122.6765, 41.4833], [-122.6762, 41.4836], [-122.6761, 41.4833], [-122.6765, 41.4833]]], [[[-122.6467, 41.4829], [-122.646, 41.4823], [-122.6445, 41.4826], [-122.6445, 41.4829], [-122.6467, 41.4829]]], [[[-122.6478, 41.4831], [-122.6488, 41.4823], [-122.6477, 41.4823], [-122.6478, 41.4831]]], [[[-122.6671, 41.4827], [-122.6671, 41.4816], [-122.665, 41.4817], [-122.6657, 41.4827], [-122.6671, 41.4827]]], [[[-122.66, 41.4826], [-122.661, 41.4823], [-122.6606, 41.4815], [-122.6599, 41.4815], [-122.66, 41.4826]]], [[[-122.6833, 41.4818], [-122.6829, 41.4807], [-122.6825, 41.4816], [-122.6807, 41.4813], [-122.6833, 41.4818]]], [[[-122.685, 41.4815], [-122.685, 41.4807], [-122.6836, 41.4807], [-122.684, 41.4815], [-122.685, 41.4815]]], [[[-122.6499, 41.4817], [-122.6499, 41.4812], [-122.6488, 41.4812], [-122.6488, 41.4817], [-122.6499, 41.4817]]], [[[-122.6811, 41.4811], [-122.6825, 41.4805], [-122.681, 41.4802], [-122.6811, 41.4811]]], [[[-122.6768, 41.4814], [-122.6768, 41.4806], [-122.6771, 41.4803], [-122.676, 41.4809], [-122.6768, 41.4814]]], [[[-122.6638, 41.4809], [-122.6649, 41.4803], [-122.6638, 41.4801], [-122.6638, 41.4809]]], [[[-122.6563, 41.4813], [-122.6566, 41.4802], [-122.6556, 41.48], [-122.6549, 41.4811], [-122.6563, 41.4813]]], [[[-122.6743, 41.4828], [-122.6761, 41.4814], [-122.6757, 41.4809], [-122.6767, 41.4795], [-122.6753, 41.4804], [-122.6731, 41.4801], [-122.6728, 41.4812], [-122.6674, 41.4803], [-122.6675, 41.4819], [-122.6696, 41.4816], [-122.6711, 41.4826], [-122.6725, 41.4823], [-122.6725, 41.4829], [-122.6736, 41.4828], [-122.6739, 41.4823], [-122.6743, 41.4828]], [[-122.6735, 41.4809], [-122.6732, 41.4815], [-122.6732, 41.481], [-122.6735, 41.4809]], [[-122.6689, 41.481], [-122.6682, 41.4816], [-122.6682, 41.4813], [-122.6689, 41.481]], [[-122.6685, 41.4808], [-122.6682, 41.4811], [-122.6681, 41.4808], [-122.6685, 41.4808]]], [[[-122.6398, 41.4808], [-122.6398, 41.4803], [-122.6405, 41.4806], [-122.6405, 41.48], [-122.6391, 41.4803], [-122.6398, 41.4808]]], [[[-122.6577, 41.4802], [-122.6577, 41.4797], [-122.657, 41.4794], [-122.6566, 41.4802], [-122.6577, 41.4802]]], [[[-122.6423, 41.4805], [-122.6423, 41.4797], [-122.6412, 41.48], [-122.6412, 41.4805], [-122.6423, 41.4805]]], [[[-122.6667, 41.4803], [-122.6663, 41.4795], [-122.6681, 41.4794], [-122.6677, 41.4789], [-122.6659, 41.4792], [-122.666, 41.4803], [-122.6667, 41.4803]]], [[[-122.6861, 41.4799], [-122.6875, 41.4793], [-122.6867, 41.4782], [-122.6868, 41.4793], [-122.6857, 41.4793], [-122.6861, 41.4799]]], [[[-122.6684, 41.4792], [-122.6688, 41.4786], [-122.668, 41.4781], [-122.6677, 41.4786], [-122.6684, 41.4792]]], [[[-122.6451, 41.4791], [-122.6451, 41.4778], [-122.6436, 41.4778], [-122.6426, 41.4786], [-122.6451, 41.4791]], [[-122.6447, 41.4783], [-122.6444, 41.4786], [-122.6444, 41.4783], [-122.6447, 41.4783]]], [[[-122.6594, 41.4766], [-122.659, 41.4761], [-122.6579, 41.4761], [-122.6579, 41.4767], [-122.6594, 41.4766]]], [[[-122.6651, 41.4771], [-122.6669, 41.4757], [-122.6658, 41.4743], [-122.6633, 41.4758], [-122.6651, 41.4771]], [[-122.6647, 41.4757], [-122.664, 41.476], [-122.664, 41.4757], [-122.6647, 41.4757]]], [[[-122.647, 41.4812], [-122.6484, 41.4804], [-122.6498, 41.4806], [-122.6498, 41.4801], [-122.6509, 41.4809], [-122.6523, 41.4806], [-122.652, 41.4795], [-122.6527, 41.4798], [-122.653, 41.4787], [-122.6518, 41.4755], [-122.65, 41.4752], [-122.6503, 41.4747], [-122.6493, 41.4747], [-122.6493, 41.4755], [-122.6478, 41.4747], [-122.6475, 41.4753], [-122.6453, 41.475], [-122.6449, 41.4742], [-122.6442, 41.4748], [-122.6446, 41.4756], [-122.6436, 41.4759], [-122.6435, 41.4751], [-122.6425, 41.4756], [-122.6424, 41.4748], [-122.641, 41.4751], [-122.6395, 41.4741], [-122.6396, 41.4752], [-122.6407, 41.4751], [-122.6429, 41.4767], [-122.6447, 41.4767], [-122.645, 41.4759], [-122.6472, 41.4761], [-122.6451, 41.4775], [-122.6454, 41.4783], [-122.6483, 41.4782], [-122.6483, 41.4785], [-122.649, 41.4785], [-122.6498, 41.479], [-122.6483, 41.4788], [-122.6441, 41.4799], [-122.6445, 41.4807], [-122.647, 41.4812]], [[-122.6509, 41.4795], [-122.6505, 41.4798], [-122.6505, 41.4795], [-122.6509, 41.4795]], [[-122.6498, 41.4796], [-122.6487, 41.4798], [-122.6487, 41.4796], [-122.6498, 41.4796]], [[-122.6523, 41.4792], [-122.6505, 41.479], [-122.6508, 41.4776], [-122.6522, 41.4779], [-122.6523, 41.4792]], [[-122.6501, 41.4782], [-122.649, 41.4785], [-122.649, 41.4782], [-122.6501, 41.4782]], [[-122.6504, 41.4768], [-122.6501, 41.4774], [-122.6501, 41.4768], [-122.6504, 41.4768]], [[-122.6515, 41.4768], [-122.6508, 41.4771], [-122.6508, 41.4768], [-122.6515, 41.4768]], [[-122.65, 41.4766], [-122.6497, 41.4769], [-122.6497, 41.4766], [-122.65, 41.4766]], [[-122.6472, 41.4766], [-122.6468, 41.4769], [-122.6468, 41.4766], [-122.6472, 41.4766]], [[-122.6518, 41.4763], [-122.6511, 41.4765], [-122.6511, 41.4763], [-122.6518, 41.4763]], [[-122.65, 41.4758], [-122.649, 41.4766], [-122.6493, 41.4755], [-122.65, 41.4758]], [[-122.6432, 41.4756], [-122.6429, 41.4762], [-122.6428, 41.4756], [-122.6432, 41.4756]], [[-122.6482, 41.4755], [-122.6479, 41.4758], [-122.6479, 41.4755], [-122.6482, 41.4755]], [[-122.6421, 41.4754], [-122.6418, 41.4757], [-122.6417, 41.4754], [-122.6421, 41.4754]]], [[[-122.6413, 41.4741], [-122.6424, 41.4735], [-122.6417, 41.473], [-122.6413, 41.4741]]], [[[-122.6664, 41.4735], [-122.6671, 41.4732], [-122.6678, 41.4724], [-122.6664, 41.4727], [-122.6664, 41.4735]]], [[[-122.6725, 41.4718], [-122.6732, 41.4723], [-122.6739, 41.4717], [-122.6725, 41.4718]]], [[[-122.6477, 41.472], [-122.6473, 41.4715], [-122.6463, 41.4718], [-122.6452, 41.4707], [-122.6459, 41.4721], [-122.6477, 41.472]]], [[[-122.6608, 41.4758], [-122.6618, 41.4739], [-122.6653, 41.4719], [-122.6639, 41.4714], [-122.6642, 41.4706], [-122.6635, 41.4703], [-122.6624, 41.4717], [-122.6617, 41.4715], [-122.6596, 41.4726], [-122.66, 41.4731], [-122.6582, 41.4748], [-122.6583, 41.4756], [-122.6608, 41.4758]], [[-122.6593, 41.4745], [-122.659, 41.4748], [-122.6589, 41.4745], [-122.6593, 41.4745]], [[-122.6628, 41.4728], [-122.6621, 41.4731], [-122.6621, 41.4728], [-122.6628, 41.4728]], [[-122.661, 41.4726], [-122.6607, 41.4731], [-122.6607, 41.4726], [-122.661, 41.4726]], [[-122.6621, 41.472], [-122.6617, 41.4723], [-122.6617, 41.472], [-122.6621, 41.472]], [[-122.6635, 41.4709], [-122.6631, 41.4712], [-122.6631, 41.4709], [-122.6635, 41.4709]]], [[[-122.6527, 41.4716], [-122.6534, 41.4711], [-122.6513, 41.4703], [-122.6509, 41.4714], [-122.6527, 41.4716]]], [[[-122.6448, 41.471], [-122.6459, 41.4699], [-122.6437, 41.4694], [-122.6434, 41.4702], [-122.6448, 41.471]]], [[[-122.639, 41.4684], [-122.639, 41.4679], [-122.6375, 41.4679], [-122.6375, 41.4684], [-122.639, 41.4684]]], [[[-122.6698, 41.4683], [-122.6698, 41.4675], [-122.6702, 41.4672], [-122.6694, 41.4672], [-122.6691, 41.4681], [-122.6698, 41.4683]]], [[[-122.6594, 41.468], [-122.659, 41.4672], [-122.6583, 41.4672], [-122.6583, 41.4677], [-122.6594, 41.468]]], [[[-122.6519, 41.4684], [-122.6515, 41.4671], [-122.6508, 41.4671], [-122.6512, 41.4682], [-122.6519, 41.4684]]], [[[-122.658, 41.4675], [-122.6583, 41.4669], [-122.6572, 41.4664], [-122.6569, 41.467], [-122.658, 41.4675]]], [[[-122.6361, 41.4674], [-122.636, 41.4663], [-122.6364, 41.466], [-122.6353, 41.4663], [-122.6361, 41.4674]]], [[[-122.6375, 41.4676], [-122.6404, 41.4673], [-122.6407, 41.4662], [-122.6392, 41.466], [-122.6396, 41.4665], [-122.6393, 41.4671], [-122.6382, 41.466], [-122.6385, 41.4652], [-122.6371, 41.4655], [-122.6371, 41.4674], [-122.6375, 41.4674], [-122.6375, 41.4676]], [[-122.6379, 41.4671], [-122.6375, 41.4674], [-122.6375, 41.4671], [-122.6379, 41.4671]], [[-122.6378, 41.4665], [-122.6375, 41.4668], [-122.6375, 41.4666], [-122.6378, 41.4665]], [[-122.6382, 41.4663], [-122.6378, 41.4665], [-122.6378, 41.4663], [-122.6382, 41.4663]]], [[[-122.6442, 41.4653], [-122.6442, 41.4645], [-122.6431, 41.4643], [-122.6432, 41.4648], [-122.6442, 41.4653]]], [[[-122.6701, 41.4645], [-122.67, 41.464], [-122.6704, 41.4634], [-122.669, 41.464], [-122.669, 41.4645], [-122.6701, 41.4645]]], [[[-122.6704, 41.4634], [-122.6718, 41.4629], [-122.6707, 41.4626], [-122.6704, 41.4634]]], [[[-122.665, 41.463], [-122.6653, 41.4633], [-122.6664, 41.4627], [-122.665, 41.463]]], [[[-122.6509, 41.4695], [-122.6508, 41.4682], [-122.6486, 41.4674], [-122.6489, 41.4663], [-122.6501, 41.4671], [-122.65, 41.4663], [-122.6511, 41.4665], [-122.6518, 41.4654], [-122.6557, 41.4654], [-122.6568, 41.4661], [-122.6582, 41.465], [-122.655, 41.464], [-122.6535, 41.4641], [-122.6528, 41.4649], [-122.6528, 41.4641], [-122.651, 41.4638], [-122.6513, 41.463], [-122.6506, 41.4628], [-122.6503, 41.4647], [-122.6514, 41.4652], [-122.6503, 41.4649], [-122.6479, 41.4661], [-122.6478, 41.4639], [-122.6456, 41.4637], [-122.6459, 41.4626], [-122.6445, 41.4629], [-122.645, 41.4653], [-122.6425, 41.4665], [-122.6432, 41.4672], [-122.6422, 41.4673], [-122.6422, 41.4681], [-122.6411, 41.4681], [-122.6408, 41.4689], [-122.6475, 41.4672], [-122.6494, 41.4682], [-122.6494, 41.4693], [-122.6509, 41.4695]], [[-122.6486, 41.4669], [-122.6483, 41.4671], [-122.6483, 41.4669], [-122.6486, 41.4669]], [[-122.6461, 41.4669], [-122.6454, 41.4664], [-122.6475, 41.4658], [-122.6475, 41.4663], [-122.6461, 41.4664], [-122.6461, 41.4669]], [[-122.6572, 41.4653], [-122.6568, 41.4656], [-122.6568, 41.4653], [-122.6572, 41.4653]], [[-122.6453, 41.4653], [-122.645, 41.4656], [-122.645, 41.4653], [-122.6453, 41.4653]], [[-122.6554, 41.4648], [-122.655, 41.4651], [-122.655, 41.4648], [-122.6554, 41.4648]], [[-122.655, 41.4646], [-122.6546, 41.4648], [-122.6546, 41.4646], [-122.655, 41.4646]], [[-122.6457, 41.4648], [-122.6453, 41.465], [-122.6453, 41.4648], [-122.6457, 41.4648]], [[-122.6453, 41.4642], [-122.6449, 41.4645], [-122.6449, 41.4642], [-122.6453, 41.4642]], [[-122.6456, 41.464], [-122.6453, 41.4642], [-122.6453, 41.464], [-122.6456, 41.464]]], [[[-122.6499, 41.4628], [-122.6495, 41.4622], [-122.6484, 41.4623], [-122.6488, 41.4628], [-122.6499, 41.4628]]], [[[-122.6646, 41.4627], [-122.666, 41.4624], [-122.666, 41.4616], [-122.6646, 41.4622], [-122.6646, 41.4627]]], [[[-122.6481, 41.4628], [-122.6481, 41.462], [-122.6491, 41.462], [-122.6484, 41.4615], [-122.647, 41.4623], [-122.647, 41.4628], [-122.6481, 41.4628]]], [[[-122.6399, 41.4635], [-122.6395, 41.4625], [-122.6384, 41.4622], [-122.6387, 41.4617], [-122.6377, 41.462], [-122.6369, 41.4614], [-122.6362, 41.462], [-122.6373, 41.4625], [-122.6374, 41.4633], [-122.6391, 41.463], [-122.6399, 41.4635]]], [[[-122.6592, 41.4612], [-122.6628, 41.4614], [-122.662, 41.4609], [-122.6631, 41.4603], [-122.6592, 41.4612]]], [[[-122.7032, 41.4592], [-122.7028, 41.4587], [-122.7011, 41.4587], [-122.7011, 41.4593], [-122.7032, 41.4592]]], [[[-122.6387, 41.4608], [-122.6379, 41.4598], [-122.6376, 41.4598], [-122.6373, 41.4606], [-122.6387, 41.4608]]], [[[-122.6756, 41.4595], [-122.6745, 41.459], [-122.6738, 41.4593], [-122.6738, 41.4596], [-122.6756, 41.4595]]], [[[-122.6362, 41.4609], [-122.6365, 41.4604], [-122.6336, 41.4588], [-122.6336, 41.4599], [-122.6362, 41.4609]]], [[[-122.6964, 41.4583], [-122.6974, 41.4574], [-122.696, 41.4577], [-122.6964, 41.4583]]], [[[-122.6782, 41.4627], [-122.6804, 41.4624], [-122.6811, 41.4616], [-122.6796, 41.4616], [-122.6774, 41.46], [-122.6789, 41.46], [-122.6818, 41.4616], [-122.6846, 41.4588], [-122.6824, 41.4594], [-122.6817, 41.4586], [-122.6792, 41.4584], [-122.6792, 41.4589], [-122.6813, 41.4594], [-122.6806, 41.46], [-122.6785, 41.4592], [-122.6788, 41.4581], [-122.6781, 41.4587], [-122.677, 41.4576], [-122.6755, 41.4579], [-122.677, 41.4587], [-122.6767, 41.4603], [-122.676, 41.4598], [-122.6731, 41.4604], [-122.6738, 41.4604], [-122.6739, 41.4612], [-122.6756, 41.4606], [-122.6753, 41.4612], [-122.6764, 41.4622], [-122.6779, 41.4622], [-122.6782, 41.4627]], [[-122.6782, 41.4616], [-122.6779, 41.4622], [-122.6775, 41.4617], [-122.6782, 41.4616]], [[-122.6771, 41.4611], [-122.6768, 41.4617], [-122.6767, 41.4611], [-122.6771, 41.4611]], [[-122.6767, 41.4609], [-122.676, 41.4611], [-122.676, 41.4609], [-122.6767, 41.4609]], [[-122.6814, 41.4602], [-122.681, 41.4605], [-122.681, 41.4602], [-122.6814, 41.4602]], [[-122.6774, 41.4598], [-122.6771, 41.46], [-122.6771, 41.4598], [-122.6774, 41.4598]], [[-122.6777, 41.4589], [-122.6774, 41.4592], [-122.6774, 41.4589], [-122.6777, 41.4589]]], [[[-122.6537, 41.4592], [-122.6533, 41.4581], [-122.6526, 41.4579], [-122.6522, 41.4584], [-122.6537, 41.4592]]], [[[-122.6666, 41.4584], [-122.6669, 41.4575], [-122.6655, 41.4578], [-122.6655, 41.4581], [-122.6666, 41.4584]]], [[[-122.6982, 41.4582], [-122.6996, 41.4579], [-122.7006, 41.4568], [-122.6978, 41.4574], [-122.6982, 41.4582]]], [[[-122.6749, 41.459], [-122.6752, 41.4585], [-122.6738, 41.4585], [-122.6734, 41.4571], [-122.6723, 41.4566], [-122.6687, 41.4575], [-122.6695, 41.458], [-122.6712, 41.4575], [-122.6724, 41.4588], [-122.6749, 41.459]]], [[[-122.7049, 41.4567], [-122.7056, 41.4565], [-122.7056, 41.4559], [-122.7045, 41.4562], [-122.7049, 41.4567]]], [[[-122.7039, 41.4573], [-122.7028, 41.4565], [-122.7034, 41.4557], [-122.7006, 41.4566], [-122.7017, 41.4573], [-122.7039, 41.4573]], [[-122.7024, 41.4565], [-122.7021, 41.4568], [-122.702, 41.4565], [-122.7024, 41.4565]]], [[[-122.6885, 41.459], [-122.6877, 41.4579], [-122.6896, 41.4584], [-122.6906, 41.4579], [-122.6899, 41.4573], [-122.6906, 41.4568], [-122.6866, 41.4558], [-122.6859, 41.4561], [-122.6866, 41.4566], [-122.6838, 41.4572], [-122.6849, 41.4588], [-122.6885, 41.459]], [[-122.6884, 41.4574], [-122.6881, 41.4576], [-122.6881, 41.4574], [-122.6884, 41.4574]], [[-122.6866, 41.4569], [-122.6863, 41.4571], [-122.6863, 41.4569], [-122.6866, 41.4569]]], [[[-122.6515, 41.4576], [-122.6515, 41.4571], [-122.6518, 41.4565], [-122.6508, 41.4573], [-122.6515, 41.4576]]], [[[-122.6314, 41.4575], [-122.6328, 41.4572], [-122.6321, 41.4561], [-122.6306, 41.4564], [-122.6314, 41.4575]]], [[[-122.6292, 41.4573], [-122.6292, 41.4562], [-122.6288, 41.4562], [-122.6285, 41.457], [-122.6292, 41.4573]]], [[[-122.6585, 41.4615], [-122.6591, 41.4601], [-122.6605, 41.4598], [-122.6598, 41.4591], [-122.6601, 41.4572], [-122.6594, 41.4577], [-122.6586, 41.4569], [-122.6568, 41.4564], [-122.6547, 41.4565], [-122.6547, 41.4573], [-122.654, 41.457], [-122.6536, 41.4576], [-122.6532, 41.4559], [-122.6518, 41.4557], [-122.6522, 41.4573], [-122.6515, 41.4581], [-122.6529, 41.4573], [-122.654, 41.4581], [-122.6537, 41.4586], [-122.6548, 41.4589], [-122.6534, 41.4597], [-122.6552, 41.46], [-122.6566, 41.461], [-122.6577, 41.4607], [-122.6585, 41.4615]], [[-122.658, 41.4599], [-122.6573, 41.4605], [-122.6573, 41.4602], [-122.658, 41.4599]], [[-122.6591, 41.4593], [-122.6587, 41.4596], [-122.6587, 41.4593], [-122.6591, 41.4593]], [[-122.658, 41.4594], [-122.6577, 41.4596], [-122.6577, 41.4594], [-122.658, 41.4594]], [[-122.6548, 41.4594], [-122.6544, 41.4597], [-122.6544, 41.4594], [-122.6548, 41.4594]], [[-122.6577, 41.4594], [-122.6569, 41.4594], [-122.6573, 41.4583], [-122.6579, 41.4575], [-122.659, 41.4574], [-122.6577, 41.4594]], [[-122.6594, 41.4585], [-122.6584, 41.4591], [-122.6587, 41.4583], [-122.6591, 41.4583], [-122.6594, 41.4585]], [[-122.6551, 41.4586], [-122.6548, 41.4589], [-122.6548, 41.4586], [-122.6551, 41.4586]], [[-122.6555, 41.4583], [-122.6551, 41.4586], [-122.6551, 41.4583], [-122.6555, 41.4583]], [[-122.6594, 41.458], [-122.6591, 41.4583], [-122.659, 41.458], [-122.6594, 41.458]], [[-122.6565, 41.4578], [-122.6558, 41.4583], [-122.6558, 41.4581], [-122.6565, 41.4578]], [[-122.6551, 41.4575], [-122.6547, 41.4578], [-122.6547, 41.4575], [-122.6551, 41.4575]], [[-122.6576, 41.4572], [-122.6572, 41.4575], [-122.6572, 41.4572], [-122.6576, 41.4572]], [[-122.6569, 41.457], [-122.6565, 41.4572], [-122.6565, 41.457], [-122.6569, 41.457]]], [[[-122.6672, 41.4556], [-122.6675, 41.4551], [-122.6665, 41.4549], [-122.6665, 41.4554], [-122.6672, 41.4556]]], [[[-122.6711, 41.4553], [-122.6722, 41.455], [-122.6708, 41.4545], [-122.6711, 41.4553]]], [[[-122.6389, 41.4554], [-122.6421, 41.4559], [-122.6417, 41.4554], [-122.6389, 41.4554]]], [[[-122.6335, 41.4558], [-122.6335, 41.455], [-122.632, 41.455], [-122.632, 41.4556], [-122.6335, 41.4558]]], [[[-122.6747, 41.4558], [-122.6747, 41.4552], [-122.6762, 41.4552], [-122.6768, 41.4541], [-122.6758, 41.4544], [-122.6758, 41.4538], [-122.675, 41.4539], [-122.6754, 41.4544], [-122.6743, 41.4544], [-122.6737, 41.4552], [-122.6747, 41.4558]]], [[[-122.6281, 41.4554], [-122.6281, 41.4548], [-122.627, 41.4546], [-122.627, 41.4554], [-122.6281, 41.4554]]], [[[-122.6733, 41.4544], [-122.6721, 41.4534], [-122.6714, 41.4537], [-122.6715, 41.4545], [-122.6733, 41.4544]]], [[[-122.6508, 41.4573], [-122.6504, 41.456], [-122.6514, 41.4554], [-122.6514, 41.4549], [-122.6529, 41.4554], [-122.6532, 41.4546], [-122.655, 41.4548], [-122.6557, 41.454], [-122.6531, 41.4538], [-122.6525, 41.4543], [-122.6513, 41.4535], [-122.6514, 41.4546], [-122.6507, 41.4544], [-122.65, 41.4552], [-122.6482, 41.455], [-122.6482, 41.4555], [-122.6485, 41.4555], [-122.6486, 41.4558], [-122.6457, 41.4556], [-122.6486, 41.456], [-122.6508, 41.4573]], [[-122.651, 41.4549], [-122.6507, 41.4555], [-122.6503, 41.4549], [-122.651, 41.4549]], [[-122.6489, 41.4552], [-122.6485, 41.4555], [-122.6485, 41.4552], [-122.6489, 41.4552]]], [[[-122.6385, 41.4557], [-122.6388, 41.4549], [-122.6396, 41.4549], [-122.6388, 41.4538], [-122.6378, 41.4546], [-122.637, 41.4544], [-122.6374, 41.4555], [-122.6385, 41.4557]], [[-122.6381, 41.4546], [-122.6378, 41.4549], [-122.6378, 41.4546], [-122.6381, 41.4546]]], [[[-122.6575, 41.4537], [-122.6567, 41.4526], [-122.6553, 41.4529], [-122.6556, 41.4535], [-122.6575, 41.4537]]], [[[-122.6542, 41.4535], [-122.6542, 41.4529], [-122.6549, 41.4532], [-122.6553, 41.4527], [-122.6542, 41.4524], [-122.6538, 41.4527], [-122.6542, 41.4535]]], [[[-122.6513, 41.4527], [-122.6527, 41.4522], [-122.6509, 41.4522], [-122.6513, 41.4527]]], [[[-122.6467, 41.4531], [-122.647, 41.452], [-122.6456, 41.4523], [-122.6456, 41.4526], [-122.6467, 41.4531]]], [[[-122.6838, 41.4572], [-122.6862, 41.4555], [-122.6862, 41.455], [-122.6851, 41.455], [-122.6862, 41.4547], [-122.6854, 41.4531], [-122.6865, 41.4533], [-122.6872, 41.4528], [-122.6901, 41.4538], [-122.6904, 41.4527], [-122.6897, 41.4519], [-122.6882, 41.452], [-122.6879, 41.4512], [-122.6872, 41.4517], [-122.6871, 41.4512], [-122.6857, 41.4509], [-122.6854, 41.4515], [-122.6846, 41.4509], [-122.6843, 41.4534], [-122.6812, 41.4554], [-122.6838, 41.4572]], [[-122.6851, 41.455], [-122.6848, 41.4553], [-122.6848, 41.455], [-122.6851, 41.455]], [[-122.6837, 41.4545], [-122.6833, 41.4548], [-122.6833, 41.4545], [-122.6837, 41.4545]], [[-122.6886, 41.4525], [-122.6883, 41.4528], [-122.6883, 41.4525], [-122.6886, 41.4525]]], [[[-122.6814, 41.4521], [-122.6803, 41.4519], [-122.6807, 41.4516], [-122.6803, 41.451], [-122.68, 41.4521], [-122.6814, 41.4521]]], [[[-122.6732, 41.4525], [-122.6732, 41.452], [-122.6739, 41.4512], [-122.6728, 41.4512], [-122.6732, 41.4525]]], [[[-122.6495, 41.4514], [-122.6494, 41.4506], [-122.6487, 41.4504], [-122.6484, 41.4514], [-122.6495, 41.4514]]], [[[-122.695, 41.4502], [-122.6946, 41.4494], [-122.6935, 41.4499], [-122.6936, 41.4502], [-122.695, 41.4502]]], [[[-122.6787, 41.4546], [-122.6812, 41.4548], [-122.6808, 41.454], [-122.6822, 41.4534], [-122.6821, 41.4521], [-122.6832, 41.4523], [-122.6825, 41.4515], [-122.6835, 41.4496], [-122.6817, 41.4507], [-122.6818, 41.4524], [-122.6811, 41.4529], [-122.68, 41.4527], [-122.6792, 41.4511], [-122.6774, 41.4511], [-122.6771, 41.4527], [-122.6757, 41.4522], [-122.6761, 41.453], [-122.6779, 41.4533], [-122.678, 41.4551], [-122.6787, 41.4546]], [[-122.6804, 41.4546], [-122.6794, 41.4546], [-122.679, 41.4538], [-122.68, 41.4535], [-122.6804, 41.4546]], [[-122.6782, 41.453], [-122.6779, 41.4533], [-122.6779, 41.453], [-122.6782, 41.453]], [[-122.6797, 41.4527], [-122.6793, 41.453], [-122.6793, 41.4527], [-122.6797, 41.4527]], [[-122.6792, 41.4513], [-122.6789, 41.4519], [-122.6785, 41.4513], [-122.6792, 41.4513]]], [[[-122.657, 41.4523], [-122.6552, 41.45], [-122.6531, 41.4513], [-122.6538, 41.4519], [-122.6556, 41.4513], [-122.656, 41.4524], [-122.657, 41.4523]], [[-122.6552, 41.4505], [-122.6548, 41.4508], [-122.6548, 41.4505], [-122.6552, 41.4505]]], [[[-122.6764, 41.4514], [-122.676, 41.4506], [-122.6763, 41.4495], [-122.6749, 41.4495], [-122.6764, 41.4514]]], [[[-122.7014, 41.449], [-122.701, 41.4484], [-122.6999, 41.4482], [-122.7, 41.4487], [-122.7014, 41.449]]], [[[-122.638, 41.4514], [-122.6401, 41.45], [-122.6394, 41.4495], [-122.6379, 41.45], [-122.638, 41.4514]]], [[[-122.6782, 41.4508], [-122.6781, 41.4487], [-122.6773, 41.4484], [-122.6766, 41.449], [-122.6774, 41.4495], [-122.6763, 41.4503], [-122.6782, 41.4508]]], [[[-122.6509, 41.4503], [-122.6508, 41.4495], [-122.6519, 41.4497], [-122.6522, 41.4487], [-122.6494, 41.4498], [-122.6509, 41.4503]]], [[[-122.6329, 41.4496], [-122.634, 41.449], [-122.6329, 41.4488], [-122.6329, 41.4496]]], [[[-122.6631, 41.4503], [-122.6634, 41.4487], [-122.6626, 41.4479], [-122.6616, 41.4482], [-122.6616, 41.449], [-122.6605, 41.449], [-122.6605, 41.4498], [-122.6627, 41.4498], [-122.6631, 41.4503]]], [[[-122.6343, 41.4498], [-122.635, 41.4488], [-122.6339, 41.4485], [-122.6343, 41.4498]]], [[[-122.6577, 41.4513], [-122.6581, 41.4507], [-122.6591, 41.4509], [-122.6588, 41.4504], [-122.6602, 41.4509], [-122.6602, 41.4496], [-122.6591, 41.4496], [-122.6594, 41.4491], [-122.6583, 41.4485], [-122.6583, 41.4477], [-122.6572, 41.448], [-122.6576, 41.4491], [-122.6558, 41.4491], [-122.6559, 41.4502], [-122.6577, 41.4513]]], [[[-122.6291, 41.454], [-122.6312, 41.4521], [-122.6303, 41.4478], [-122.6289, 41.4483], [-122.6304, 41.4505], [-122.6297, 41.451], [-122.6305, 41.4521], [-122.6283, 41.4524], [-122.6291, 41.454]]], [[[-122.6705, 41.4467], [-122.6701, 41.4456], [-122.6686, 41.4459], [-122.6697, 41.4461], [-122.6694, 41.4467], [-122.6705, 41.4467]]], [[[-122.6374, 41.456], [-122.636, 41.4552], [-122.6359, 41.4536], [-122.638, 41.4519], [-122.6366, 41.4517], [-122.6376, 41.4509], [-122.6376, 41.4492], [-122.6383, 41.449], [-122.6386, 41.4495], [-122.639, 41.4489], [-122.6383, 41.4487], [-122.6382, 41.4473], [-122.6367, 41.446], [-122.6357, 41.4468], [-122.6342, 41.4466], [-122.6336, 41.4477], [-122.6343, 41.4477], [-122.6354, 41.4487], [-122.6368, 41.449], [-122.6355, 41.4509], [-122.6353, 41.4552], [-122.6357, 41.456], [-122.6374, 41.456]], [[-122.6366, 41.452], [-122.6362, 41.4522], [-122.6362, 41.452], [-122.6366, 41.452]], [[-122.6372, 41.4487], [-122.6368, 41.449], [-122.6368, 41.4487], [-122.6372, 41.4487]], [[-122.6379, 41.4479], [-122.6375, 41.4484], [-122.6375, 41.4479], [-122.6379, 41.4479]], [[-122.6357, 41.4477], [-122.6354, 41.4482], [-122.635, 41.4477], [-122.6357, 41.4477]], [[-122.6346, 41.4474], [-122.6343, 41.4477], [-122.6343, 41.4474], [-122.6346, 41.4474]], [[-122.6375, 41.4468], [-122.6371, 41.4474], [-122.6371, 41.4468], [-122.6375, 41.4468]]], [[[-122.6891, 41.4449], [-122.6908, 41.4443], [-122.689, 41.4446], [-122.6891, 41.4449]]], [[[-122.6765, 41.4452], [-122.6776, 41.4446], [-122.6779, 41.4449], [-122.6786, 41.4446], [-122.6779, 41.4441], [-122.6765, 41.4444], [-122.6765, 41.4452]]], [[[-122.67, 41.445], [-122.6715, 41.4447], [-122.67, 41.4442], [-122.67, 41.445]]], [[[-122.6994, 41.4447], [-122.6998, 41.4439], [-122.7005, 41.4436], [-122.6987, 41.4436], [-122.6994, 41.4447]]], [[[-122.6847, 41.4445], [-122.6851, 41.4439], [-122.6833, 41.4439], [-122.6833, 41.4442], [-122.6847, 41.4445]]], [[[-122.6901, 41.4443], [-122.6904, 41.4438], [-122.689, 41.4436], [-122.689, 41.4441], [-122.6901, 41.4443]]], [[[-122.6314, 41.4467], [-122.6313, 41.4445], [-122.6323, 41.4442], [-122.632, 41.4437], [-122.6309, 41.4437], [-122.6306, 41.4448], [-122.6306, 41.4467], [-122.6314, 41.4467]]], [[[-122.6608, 41.4479], [-122.6601, 41.4474], [-122.6611, 41.4466], [-122.6607, 41.4458], [-122.66, 41.4463], [-122.6578, 41.4439], [-122.656, 41.4437], [-122.6567, 41.4426], [-122.656, 41.4424], [-122.6535, 41.4448], [-122.6546, 41.4443], [-122.6571, 41.4456], [-122.6579, 41.4466], [-122.6579, 41.4472], [-122.6568, 41.4469], [-122.6572, 41.4475], [-122.6608, 41.4479]], [[-122.6586, 41.445], [-122.6582, 41.4453], [-122.6582, 41.445], [-122.6586, 41.445]]], [[[-122.698, 41.4436], [-122.6968, 41.4423], [-122.6943, 41.4426], [-122.6939, 41.4413], [-122.6932, 41.4413], [-122.694, 41.4418], [-122.6936, 41.4426], [-122.6929, 41.4416], [-122.6926, 41.4427], [-122.6918, 41.4427], [-122.6933, 41.4437], [-122.6955, 41.4437], [-122.6954, 41.4431], [-122.698, 41.4436]], [[-122.6947, 41.4432], [-122.694, 41.4434], [-122.694, 41.4432], [-122.6947, 41.4432]], [[-122.6933, 41.4429], [-122.6929, 41.4432], [-122.6929, 41.4429], [-122.6933, 41.4429]]], [[[-122.6425, 41.4459], [-122.6431, 41.4448], [-122.6446, 41.4448], [-122.6442, 41.444], [-122.6427, 41.4435], [-122.6427, 41.4424], [-122.6417, 41.4446], [-122.6425, 41.4459]], [[-122.6438, 41.4442], [-122.6428, 41.4445], [-122.6428, 41.4443], [-122.6438, 41.4442]]], [[[-122.6588, 41.442], [-122.6588, 41.4415], [-122.6595, 41.4417], [-122.6595, 41.4412], [-122.6584, 41.4412], [-122.6588, 41.442]]], [[[-122.6416, 41.4424], [-122.6416, 41.4419], [-122.6419, 41.4416], [-122.6409, 41.4419], [-122.6416, 41.4424]]], [[[-122.6879, 41.442], [-122.6878, 41.4403], [-122.6871, 41.4403], [-122.6868, 41.4414], [-122.6879, 41.442]]], [[[-122.6688, 41.4415], [-122.6699, 41.4413], [-122.6699, 41.4407], [-122.6681, 41.441], [-122.6688, 41.4415]]], [[[-122.6538, 41.4419], [-122.6548, 41.4413], [-122.6548, 41.4408], [-122.6534, 41.4413], [-122.6538, 41.4419]]], [[[-122.7, 41.4403], [-122.7, 41.4395], [-122.6982, 41.4396], [-122.6986, 41.4401], [-122.7, 41.4403]]], [[[-122.6351, 41.4417], [-122.6354, 41.4406], [-122.6344, 41.4407], [-122.6344, 41.4415], [-122.6351, 41.4417]]], [[[-122.6434, 41.4432], [-122.6459, 41.4423], [-122.6458, 41.4399], [-122.6448, 41.4412], [-122.6427, 41.4421], [-122.6438, 41.4423], [-122.6434, 41.4432]]], [[[-122.6731, 41.4404], [-122.6731, 41.4398], [-122.6709, 41.4396], [-122.672, 41.4404], [-122.6731, 41.4404]]], [[[-122.6838, 41.4396], [-122.6842, 41.4391], [-122.6853, 41.4393], [-122.6849, 41.4382], [-122.6824, 41.4386], [-122.6838, 41.4396]]], [[[-122.6591, 41.4399], [-122.6594, 41.4393], [-122.6587, 41.4388], [-122.6584, 41.4396], [-122.6591, 41.4399]]], [[[-122.6537, 41.4386], [-122.6544, 41.4394], [-122.6544, 41.4386], [-122.6537, 41.4386]]], [[[-122.6921, 41.4394], [-122.6906, 41.4378], [-122.6895, 41.4379], [-122.6899, 41.4389], [-122.6921, 41.4394]], [[-122.6906, 41.4381], [-122.6902, 41.4384], [-122.6902, 41.4381], [-122.6906, 41.4381]]], [[[-122.6402, 41.4438], [-122.6405, 41.4424], [-122.6398, 41.4411], [-122.6405, 41.4405], [-122.6401, 41.44], [-122.6394, 41.4405], [-122.6397, 41.4386], [-122.639, 41.4387], [-122.6376, 41.4398], [-122.639, 41.4403], [-122.6387, 41.4408], [-122.6402, 41.4427], [-122.6395, 41.4435], [-122.6402, 41.4438]]], [[[-122.6323, 41.4434], [-122.633, 41.4423], [-122.6326, 41.4401], [-122.634, 41.4396], [-122.6332, 41.438], [-122.6321, 41.438], [-122.6329, 41.4396], [-122.6318, 41.4396], [-122.6314, 41.4385], [-122.6319, 41.4412], [-122.6312, 41.4418], [-122.6323, 41.4434]]], [[[-122.6938, 41.4378], [-122.6938, 41.437], [-122.6956, 41.4375], [-122.6963, 41.4372], [-122.6952, 41.4361], [-122.6941, 41.4367], [-122.6916, 41.4359], [-122.6923, 41.4367], [-122.6934, 41.4367], [-122.6938, 41.4378]]], [[[-122.6909, 41.4376], [-122.6912, 41.4365], [-122.6905, 41.4368], [-122.6901, 41.4357], [-122.6891, 41.4357], [-122.6895, 41.4373], [-122.6909, 41.4376]]], [[[-122.6558, 41.4375], [-122.6558, 41.437], [-122.6564, 41.4364], [-122.655, 41.4367], [-122.6558, 41.4375]]], [[[-122.7002, 41.4349], [-122.7005, 41.4344], [-122.699, 41.4341], [-122.6991, 41.4344], [-122.7002, 41.4349]]], [[[-122.6457, 41.438], [-122.6464, 41.4369], [-122.6456, 41.4353], [-122.6442, 41.4358], [-122.6442, 41.4353], [-122.6435, 41.4356], [-122.6438, 41.4348], [-122.6424, 41.4348], [-122.6418, 41.437], [-122.6432, 41.4369], [-122.6428, 41.4359], [-122.6439, 41.4359], [-122.6435, 41.4367], [-122.6443, 41.4367], [-122.6446, 41.4369], [-122.6443, 41.4377], [-122.6457, 41.438]], [[-122.6446, 41.4364], [-122.6443, 41.4367], [-122.6443, 41.4364], [-122.6446, 41.4364]], [[-122.6453, 41.4358], [-122.645, 41.4361], [-122.6449, 41.4358], [-122.6453, 41.4358]]], [[[-122.6525, 41.4351], [-122.6532, 41.4348], [-122.6528, 41.4335], [-122.6517, 41.4343], [-122.6525, 41.4351]]], [[[-122.6345, 41.4352], [-122.6352, 41.4339], [-122.6345, 41.4336], [-122.6345, 41.4352]]], [[[-122.6786, 41.4332], [-122.68, 41.4332], [-122.68, 41.4324], [-122.6786, 41.4332]]], [[[-122.6403, 41.4351], [-122.6402, 41.433], [-122.6398, 41.433], [-122.6392, 41.4343], [-122.6403, 41.4351]]], [[[-122.6986, 41.4328], [-122.6982, 41.4317], [-122.6972, 41.4315], [-122.6972, 41.4326], [-122.6986, 41.4328]]], [[[-122.6789, 41.4321], [-122.6803, 41.4318], [-122.6799, 41.431], [-122.6789, 41.4321]]], [[[-122.643, 41.4318], [-122.6441, 41.4323], [-122.6441, 41.4315], [-122.643, 41.4318]]], [[[-122.6409, 41.4332], [-122.6408, 41.4313], [-122.6422, 41.4305], [-122.6379, 41.4289], [-122.6379, 41.4298], [-122.6405, 41.4308], [-122.6402, 41.433], [-122.6409, 41.4332]]], [[[-122.7054, 41.4308], [-122.7057, 41.4302], [-122.705, 41.43], [-122.7057, 41.4294], [-122.7042, 41.4292], [-122.7035, 41.4276], [-122.7017, 41.4276], [-122.7017, 41.4292], [-122.7054, 41.4308]]], [[[-122.659, 41.4288], [-122.6594, 41.4282], [-122.6605, 41.4285], [-122.6612, 41.4279], [-122.6594, 41.428], [-122.659, 41.4274], [-122.659, 41.4288]]], [[[-122.6414, 41.427], [-122.6414, 41.4262], [-122.6396, 41.4265], [-122.64, 41.427], [-122.6414, 41.427]]], [[[-122.6584, 41.4312], [-122.6598, 41.4306], [-122.6591, 41.4296], [-122.6619, 41.4298], [-122.6619, 41.4292], [-122.663, 41.4292], [-122.6619, 41.4282], [-122.6658, 41.4286], [-122.6658, 41.4273], [-122.6679, 41.4272], [-122.6679, 41.4253], [-122.6658, 41.4265], [-122.665, 41.4259], [-122.6643, 41.4268], [-122.6632, 41.4262], [-122.6626, 41.4276], [-122.6619, 41.4274], [-122.6605, 41.429], [-122.6576, 41.4291], [-122.6577, 41.4307], [-122.6587, 41.4304], [-122.6584, 41.4312]], [[-122.6591, 41.4299], [-122.6587, 41.4301], [-122.6587, 41.4299], [-122.6591, 41.4299]], [[-122.6619, 41.429], [-122.6616, 41.4293], [-122.6616, 41.429], [-122.6619, 41.429]]], [[[-122.6632, 41.4262], [-122.664, 41.426], [-122.6639, 41.4251], [-122.6629, 41.4254], [-122.6632, 41.4262]]], [[[-122.6385, 41.4257], [-122.6384, 41.4249], [-122.637, 41.4252], [-122.6374, 41.4257], [-122.6385, 41.4257]]], [[[-122.6367, 41.4257], [-122.6359, 41.4249], [-122.6352, 41.4249], [-122.6356, 41.4257], [-122.6367, 41.4257]]], [[[-122.6729, 41.4244], [-122.6739, 41.4247], [-122.6739, 41.4241], [-122.6729, 41.4244]]], [[[-122.6615, 41.4268], [-122.6625, 41.426], [-122.6618, 41.426], [-122.6614, 41.4249], [-122.6607, 41.4252], [-122.6599, 41.4239], [-122.6575, 41.4247], [-122.6582, 41.4261], [-122.6586, 41.4258], [-122.66, 41.4258], [-122.6615, 41.4268]], [[-122.6614, 41.4255], [-122.6611, 41.426], [-122.6611, 41.4255], [-122.6614, 41.4255]], [[-122.6603, 41.4252], [-122.66, 41.4258], [-122.66, 41.4252], [-122.6603, 41.4252]], [[-122.6599, 41.4244], [-122.6596, 41.4247], [-122.6596, 41.4244], [-122.6599, 41.4244]]], [[[-122.6747, 41.4244], [-122.676, 41.4227], [-122.6753, 41.4222], [-122.6739, 41.4236], [-122.6747, 41.4244]]], [[[-122.6696, 41.4231], [-122.6695, 41.4221], [-122.6681, 41.4224], [-122.6692, 41.4226], [-122.6696, 41.4231]]], [[[-122.6621, 41.4246], [-122.6631, 41.4235], [-122.6631, 41.4222], [-122.662, 41.423], [-122.6624, 41.4236], [-122.6617, 41.4236], [-122.6621, 41.4246]]], [[[-122.6363, 41.4238], [-122.6366, 41.4225], [-122.6351, 41.4225], [-122.6352, 41.423], [-122.6355, 41.423], [-122.6359, 41.4233], [-122.6359, 41.4238], [-122.6363, 41.4238]], [[-122.6362, 41.423], [-122.6359, 41.4233], [-122.6359, 41.423], [-122.6362, 41.423]]], [[[-122.6391, 41.4235], [-122.6391, 41.4227], [-122.6373, 41.4227], [-122.6369, 41.4222], [-122.637, 41.4233], [-122.6391, 41.4235]]], [[[-122.6403, 41.4259], [-122.6399, 41.4251], [-122.6406, 41.4251], [-122.6413, 41.4235], [-122.642, 41.4237], [-122.6423, 41.4221], [-122.6416, 41.4216], [-122.6398, 41.423], [-122.6402, 41.4238], [-122.6392, 41.4257], [-122.6403, 41.4259]], [[-122.6413, 41.4232], [-122.6409, 41.4235], [-122.6409, 41.4232], [-122.6413, 41.4232]]], [[[-122.6774, 41.4216], [-122.6774, 41.4211], [-122.6777, 41.4205], [-122.6767, 41.4211], [-122.6774, 41.4216]]], [[[-122.6697, 41.4261], [-122.6706, 41.422], [-122.6691, 41.4202], [-122.6688, 41.4215], [-122.6699, 41.422], [-122.67, 41.4234], [-122.6689, 41.4237], [-122.6683, 41.4259], [-122.6693, 41.4253], [-122.6697, 41.4261]], [[-122.6696, 41.4242], [-122.6693, 41.4245], [-122.6693, 41.4242], [-122.6696, 41.4242]]], [[[-122.6674, 41.421], [-122.6677, 41.4202], [-122.6669, 41.4191], [-122.6663, 41.4208], [-122.6674, 41.421]]], [[[-122.6741, 41.4203], [-122.6745, 41.4198], [-122.6723, 41.419], [-122.6723, 41.4196], [-122.6741, 41.4203]]], [[[-122.6419, 41.4213], [-122.6407, 41.4191], [-122.6372, 41.4195], [-122.6379, 41.4203], [-122.6397, 41.4202], [-122.6397, 41.4205], [-122.6401, 41.4205], [-122.6405, 41.421], [-122.6419, 41.4213]], [[-122.6404, 41.4202], [-122.6401, 41.4205], [-122.6401, 41.4202], [-122.6404, 41.4202]]], [[[-122.6695, 41.4196], [-122.6698, 41.4191], [-122.6683, 41.4186], [-122.668, 41.4194], [-122.6695, 41.4196]]], [[[-122.635, 41.4201], [-122.6346, 41.4177], [-122.6339, 41.4174], [-122.6336, 41.4198], [-122.635, 41.4201]]]]}, "properties": {"layer": "high_severity"}}, {"type": "Feature", "geometry": {"type": "MultiPolygon", "coordinates": [[[[-122.649, 41.4777], [-122.649, 41.4771], [-122.6479, 41.4769], [-122.6479, 41.4774], [-122.649, 41.4777]]], [[[-122.6607, 41.4745], [-122.6607, 41.4736], [-122.6603, 41.4736], [-122.66, 41.4745], [-122.6607, 41.4745]]], [[[-122.6514, 41.4644], [-122.6518, 41.4646], [-122.6521, 41.4644], [-122.6514, 41.4644]]], [[[-122.6559, 41.4597], [-122.6573, 41.4594], [-122.6559, 41.4591], [-122.6559, 41.4597]]], [[[-122.6867, 41.4582], [-122.6863, 41.4577], [-122.6856, 41.4577], [-122.686, 41.4582], [-122.6867, 41.4582]]], [[[-122.6837, 41.4564], [-122.6844, 41.4561], [-122.6844, 41.4553], [-122.6826, 41.4556], [-122.6837, 41.4564]]], [[[-122.6775, 41.4538], [-122.6782, 41.4532], [-122.6779, 41.4533], [-122.6775, 41.4538]]], [[[-122.6857, 41.4523], [-122.6868, 41.452], [-122.6857, 41.452], [-122.6857, 41.4523]]], [[[-122.6779, 41.453], [-122.6793, 41.4527], [-122.6782, 41.4519], [-122.6775, 41.4533], [-122.6779, 41.453]]], [[[-122.6763, 41.4503], [-122.677, 41.4498], [-122.6767, 41.4498], [-122.6763, 41.4503]]], [[[-122.6588, 41.4507], [-122.6591, 41.4501], [-122.6577, 41.4496], [-122.6573, 41.4504], [-122.6588, 41.4507]]], [[[-122.6593, 41.4466], [-122.659, 41.4458], [-122.6586, 41.4458], [-122.6586, 41.4466], [-122.6593, 41.4466]]], [[[-122.6647, 41.4278], [-122.6651, 41.4273], [-122.665, 41.4265], [-122.6636, 41.4273], [-122.6647, 41.4278]]]]}, "properties": {"layer": "interior"}}, {"type": "Feature", "geometry": {"type": "Polygon", "coordinates": [[[-122.6439, 41.467], [-122.6447, 41.4667], [-122.6439, 41.4667], [-122.6439, 41.467]]]}, "properties": {"layer": "cell", "cell_id": "322_3500", "seed_zone": "322", "elevation_band": "3500–4000 ft"}}, {"type": "Feature", "geometry": {"type": "MultiPolygon", "coordinates": [[[[-122.6514, 41.4644], [-122.6518, 41.4646], [-122.6521, 41.4644], [-122.6514, 41.4644]]], [[[-122.6647, 41.4278], [-122.6651, 41.4267], [-122.664, 41.4268], [-122.6637, 41.4276], [-122.6647, 41.4278]]]]}, "properties": {"layer": "cell", "cell_id": "322_4000", "seed_zone": "322", "elevation_band": "4000–4500 ft"}}, {"type": "Feature", "geometry": {"type": "MultiPolygon", "coordinates": [[[[-122.649, 41.4777], [-122.649, 41.4771], [-122.6479, 41.4769], [-122.6479, 41.4774], [-122.649, 41.4777]]], [[[-122.6562, 41.4597], [-122.6573, 41.4594], [-122.6559, 41.4591], [-122.6562, 41.4597]]], [[[-122.6867, 41.4582], [-122.6863, 41.4577], [-122.6856, 41.4577], [-122.686, 41.4582], [-122.6867, 41.4582]]], [[[-122.6837, 41.4564], [-122.6844, 41.4561], [-122.6844, 41.4553], [-122.6826, 41.4556], [-122.6837, 41.4564]]], [[[-122.6775, 41.4538], [-122.6782, 41.4532], [-122.6779, 41.4533], [-122.6775, 41.4538]]], [[[-122.6786, 41.4532], [-122.6789, 41.4527], [-122.6779, 41.4524], [-122.6775, 41.4533], [-122.6779, 41.453], [-122.6786, 41.4532]]]]}, "properties": {"layer": "cell", "cell_id": "322_4500", "seed_zone": "322", "elevation_band": "4500–5000 ft"}}, {"type": "Feature", "geometry": {"type": "MultiPolygon", "coordinates": [[[[-122.6607, 41.4745], [-122.6607, 41.4736], [-122.6603, 41.4736], [-122.66, 41.4745], [-122.6607, 41.4745]]], [[[-122.6857, 41.4523], [-122.6868, 41.452], [-122.6857, 41.452], [-122.6857, 41.4523]]], [[[-122.6789, 41.4527], [-122.6789, 41.4522], [-122.6782, 41.4519], [-122.6779, 41.4524], [-122.6789, 41.4527]]], [[[-122.6763, 41.4503], [-122.677, 41.4498], [-122.6767, 41.4498], [-122.6763, 41.4503]]], [[[-122.6588, 41.4507], [-122.6591, 41.4501], [-122.6577, 41.4496], [-122.6573, 41.4504], [-122.6588, 41.4507]]], [[[-122.6593, 41.4466], [-122.659, 41.4458], [-122.6586, 41.4458], [-122.6586, 41.4466], [-122.6593, 41.4466]]]]}, "properties": {"layer": "cell", "cell_id": "322_5000", "seed_zone": "322", "elevation_band": "5000–5500 ft"}}, {"type": "Feature", "geometry": {"type": "Polygon", "coordinates": [[[-122.6628, 41.4722], [-122.6632, 41.472], [-122.6628, 41.472], [-122.6628, 41.4722]]]}, "properties": {"layer": "cell", "cell_id": "322_5500", "seed_zone": "322", "elevation_band": "5500–6000 ft"}}]}
