{"type": "FeatureCollection", "features": [{"type": "Feature", "geometry": {"type": "Polygon", "coordinates": [[[-119.4475, 38.5125], [-119.45, 38.5107], [-119.454, 38.511], [-119.4567, 38.5068], [-119.4581, 38.5062], [-119.4628, 38.5113], [-119.4621, 38.5131], [-119.4647, 38.5137], [-119.4647, 38.5131], [-119.4666, 38.5131], [-119.4678, 38.5157], [-119.4709, 38.5186], [-119.4729, 38.5195], [-119.4759, 38.519], [-119.4782, 38.522], [-119.4769, 38.5277], [-119.4734, 38.5311], [-119.4692, 38.5474], [-119.4632, 38.5642], [-119.4571, 38.5616], [-119.4538, 38.5734], [-119.4471, 38.5863], [-119.435, 38.5917], [-119.4339, 38.5935], [-119.4343, 38.5951], [-119.4321, 38.5969], [-119.4377, 38.5981], [-119.4369, 38.6004], [-119.4328, 38.6045], [-119.4326, 38.6073], [-119.4308, 38.609], [-119.4276, 38.6087], [-119.4277, 38.6068], [-119.4249, 38.6054], [-119.4223, 38.6055], [-119.4192, 38.6082], [-119.4146, 38.6074], [-119.4129, 38.6105], [-119.4107, 38.6122], [-119.4069, 38.611], [-119.4078, 38.6097], [-119.4059, 38.6085], [-119.4088, 38.6043], [-119.408, 38.6027], [-119.4096, 38.6003], [-119.4073, 38.599], [-119.4072, 38.5966], [-119.4066, 38.5967], [-119.4065, 38.5937], [-119.4077, 38.5906], [-119.4069, 38.5892], [-119.4038, 38.5905], [-119.4034, 38.5934], [-119.4011, 38.5979], [-119.395, 38.6043], [-119.3922, 38.6001], [-119.3839, 38.605], [-119.3761, 38.5996], [-119.3788, 38.5918], [-119.3748, 38.5881], [-119.3699, 38.5858], [-119.3596, 38.5901], [-119.3571, 38.583], [-119.3597, 38.5794], [-119.351, 38.5826], [-119.3506, 38.5804], [-119.3553, 38.576], [-119.345, 38.575], [-119.3453, 38.5761], [-119.3324, 38.586], [-119.3323, 38.5868], [-119.3305, 38.5872], [-119.33, 38.5861], [-119.3292, 38.5883], [-119.3303, 38.5892], [-119.3302, 38.59], [-119.3236, 38.5873], [-119.3209, 38.5881], [-119.318, 38.5877], [-119.3179, 38.5867], [-119.3205, 38.5872], [-119.3224, 38.5866], [-119.3274, 38.5831], [-119.3266, 38.5796], [-119.3257, 38.5795], [-119.3265, 38.5787], [-119.3259, 38.577], [-119.3299, 38.5713], [-119.3305, 38.5721], [-119.3317, 38.5717], [-119.3366, 38.5691], [-119.3411, 38.5661], [-119.3444, 38.5626], [-119.3514, 38.561], [-119.3648, 38.5545], [-119.3651, 38.553], [-119.3613, 38.5489], [-119.3622, 38.5456], [-119.3732, 38.5345], [-119.3706, 38.5336], [-119.3739, 38.53], [-119.38, 38.5276], [-119.3863, 38.5272], [-119.3903, 38.5277], [-119.3924, 38.5219], [-119.3941, 38.5202], [-119.3989, 38.5199], [-119.4045, 38.5182], [-119.4202, 38.5181], [-119.4235, 38.5162], [-119.4278, 38.5165], [-119.4359, 38.5135], [-119.4313, 38.5127], [-119.4358, 38.5106], [-119.4439, 38.5118], [-119.4445, 38.5131], [-119.4475, 38.5125]]]}, "properties": {"layer": "perimeter"}}, {"type": "Feature", "geometry": {"type": "MultiPolygon", "coordinates": [[[[-119.45, 38.5107], [-119.4522, 38.5108], [-119.4521, 38.5129], [-119.4612, 38.513], [-119.4613, 38.5096], [-119.4628, 38.5113], [-119.4621, 38.5131], [-119.4647, 38.5137], [-119.4647, 38.5131], [-119.4666, 38.5131], [-119.4678, 38.5157], [-119.4709, 38.5186], [-119.4729, 38.5195], [-119.4759, 38.519], [-119.4782, 38.522], [-119.4769, 38.5277], [-119.4734, 38.5311], [-119.4696, 38.5459], [-119.4616, 38.546], [-119.4613, 38.5533], [-119.4569, 38.5533], [-119.4563, 38.546], [-119.4473, 38.546], [-119.4474, 38.5311], [-119.4429, 38.5313], [-119.4429, 38.5275], [-119.4384, 38.5278], [-119.4386, 38.5203], [-119.4429, 38.5201], [-119.4431, 38.5128], [-119.4477, 38.5129], [-119.4478, 38.5119], [-119.45, 38.5107]], [[-119.4474, 38.5311], [-119.4563, 38.5311], [-119.4563, 38.5285], [-119.4536, 38.5274], [-119.4474, 38.5272], [-119.4474, 38.5311]], [[-119.4474, 38.5199], [-119.4519, 38.5201], [-119.452, 38.5165], [-119.4475, 38.5165], [-119.4474, 38.5199]], [[-119.4661, 38.5313], [-119.4662, 38.5349], [-119.4685, 38.5349], [-119.4686, 38.5313], [-119.4661, 38.5313]], [[-119.4703, 38.5417], [-119.4705, 38.5387], [-119.4662, 38.5386], [-119.4662, 38.5417], [-119.4703, 38.5417]]], [[[-119.4476, 38.5855], [-119.4427, 38.5855], [-119.4428, 38.5712], [-119.4473, 38.5712], [-119.4482, 38.5823], [-119.4476, 38.5855]]], [[[-119.452, 38.5571], [-119.452, 38.5534], [-119.4569, 38.5533], [-119.457, 38.5571], [-119.452, 38.5571]]]]}, "properties": {"layer": "retained"}}]}
