{"type": "FeatureCollection", "features": [{"type": "Feature", "geometry": {"type": "Polygon", "coordinates": [[[-120.7944, 36.8792], [-120.7923, 36.8761], [-120.788, 36.8647], [-120.7836, 36.8571], [-120.7882, 36.8552], [-120.7877, 36.8516], [-120.786, 36.8514], [-120.786, 36.8492], [-120.7845, 36.8461], [-120.7804, 36.8417], [-120.7774, 36.8369], [-120.7757, 36.8361], [-120.7738, 36.8334], [-120.7742, 36.8316], [-120.7752, 36.8318], [-120.7749, 36.8302], [-120.7738, 36.8298], [-120.774, 36.8216], [-120.7794, 36.8217], [-120.7798, 36.8223], [-120.7809, 36.8207], [-120.7845, 36.8182], [-120.7868, 36.8206], [-120.7868, 36.8235], [-120.7891, 36.8243], [-120.7901, 36.8278], [-120.7947, 36.8338], [-120.7963, 36.8374], [-120.7963, 36.8462], [-120.7953, 36.8505], [-120.7944, 36.8513], [-120.7947, 36.8519], [-120.7976, 36.8517], [-120.798, 36.8612], [-120.796, 36.8629], [-120.7969, 36.8641], [-120.7968, 36.8673], [-120.7979, 36.87], [-120.7969, 36.8748], [-120.7983, 36.8779], [-120.796, 36.8787], [-120.7962, 36.8797], [-120.7944, 36.8792]]]}, "properties": {"layer": "perimeter"}}, {"type": "Feature", "geometry": {"type": "Polygon", "coordinates": [[[-120.7948, 36.8797], [-120.7923, 36.8761], [-120.788, 36.8647], [-120.7836, 36.8571], [-120.7882, 36.8552], [-120.7877, 36.8516], [-120.786, 36.8514], [-120.786, 36.8492], [-120.7845, 36.8461], [-120.7804, 36.8417], [-120.7774, 36.8369], [-120.7757, 36.8361], [-120.7738, 36.8334], [-120.7742, 36.8316], [-120.7752, 36.8318], [-120.7749, 36.8302], [-120.7738, 36.8298], [-120.774, 36.8216], [-120.7794, 36.8217], [-120.7798, 36.8223], [-120.7809, 36.8207], [-120.7845, 36.8182], [-120.7868, 36.8206], [-120.7868, 36.8235], [-120.7891, 36.8243], [-120.7901, 36.8278], [-120.7947, 36.8338], [-120.7963, 36.8374], [-120.7963, 36.8462], [-120.7953, 36.8505], [-120.7944, 36.8513], [-120.7947, 36.8519], [-120.7976, 36.8517], [-120.798, 36.8612], [-120.796, 36.8629], [-120.7969, 36.8641], [-120.7968, 36.8673], [-120.7979, 36.87], [-120.7969, 36.8748], [-120.7983, 36.8779], [-120.796, 36.8787], [-120.7962, 36.8797], [-120.7948, 36.8797]]]}, "properties": {"layer": "retained"}}]}
