{"type": "FeatureCollection", "features": [{"type": "Feature", "geometry": {"type": "Polygon", "coordinates": [[[-121.9968, 38.3131], [-121.9918, 38.3141], [-121.9902, 38.3159], [-121.9871, 38.3163], [-121.9824, 38.3196], [-121.979, 38.3187], [-121.9778, 38.3171], [-121.9746, 38.3159], [-121.9653, 38.3159], [-121.9641, 38.3146], [-121.9656, 38.3107], [-121.9641, 38.3077], [-121.9642, 38.3059], [-121.9661, 38.3044], [-121.973, 38.305], [-121.9807, 38.3013], [-121.9888, 38.2999], [-121.9993, 38.3046], [-122.005, 38.3058], [-122.0073, 38.3077], [-122.0083, 38.3076], [-122.0093, 38.3061], [-122.0119, 38.3065], [-122.015, 38.3048], [-122.0265, 38.3087], [-122.0317, 38.3088], [-122.0325, 38.3098], [-122.0324, 38.3127], [-122.0303, 38.3165], [-122.0247, 38.32], [-122.0221, 38.3235], [-122.0195, 38.3243], [-122.0109, 38.3244], [-122.011, 38.3168], [-122.0103, 38.3159], [-121.9999, 38.3158], [-121.9978, 38.3146], [-121.9968, 38.3131]]]}, "properties": {"layer": "perimeter"}}, {"type": "Feature", "geometry": {"type": "MultiPolygon", "coordinates": [[[[-121.9934, 38.3135], [-121.9908, 38.3148], [-121.9902, 38.3159], [-121.9711, 38.3159], [-121.9712, 38.3052], [-121.9766, 38.3052], [-121.9802, 38.3036], [-121.9796, 38.303], [-121.9802, 38.3021], [-121.982, 38.3022], [-121.9814, 38.3015], [-121.9822, 38.3021], [-121.9844, 38.3005], [-121.9888, 38.2999], [-121.9993, 38.3046], [-122.005, 38.3058], [-122.0073, 38.3077], [-122.0083, 38.3076], [-122.0093, 38.3061], [-122.0119, 38.3065], [-122.015, 38.3048], [-122.0247, 38.3081], [-122.0247, 38.309], [-122.0323, 38.3092], [-122.0325, 38.3098], [-122.0321, 38.3135], [-122.0307, 38.3141], [-122.0261, 38.3138], [-122.0249, 38.3132], [-122.0245, 38.3119], [-122.0187, 38.3089], [-122.0, 38.3084], [-121.9974, 38.3088], [-121.9974, 38.3141], [-121.9967, 38.3131], [-121.9934, 38.3135]]], [[[-121.9988, 38.3153], [-121.9984, 38.315], [-121.9981, 38.3148], [-121.9985, 38.3149], [-121.9988, 38.3153]]]]}, "properties": {"layer": "retained"}}]}
