{"type": "FeatureCollection", "features": [{"type": "Feature", "geometry": {"type": "Polygon", "coordinates": [[[-118.7685, 36.0134], [-118.7637, 36.0136], [-118.7609, 36.0127], [-118.7569, 36.0133], [-118.7566, 36.0095], [-118.7549, 36.0086], [-118.7542, 36.0066], [-118.7421, 36.0021], [-118.7408, 36.0003], [-118.7411, 35.9969], [-118.7429, 35.9981], [-118.7445, 35.9971], [-118.7473, 35.9975], [-118.7511, 35.9962], [-118.7513, 35.9944], [-118.7566, 35.9927], [-118.7573, 35.9948], [-118.7614, 35.9948], [-118.7621, 35.9956], [-118.766, 35.9951], [-118.7665, 35.9966], [-118.7708, 35.9975], [-118.7719, 36.0012], [-118.7765, 36.0028], [-118.7813, 36.0065], [-118.7821, 36.0097], [-118.7818, 36.0104], [-118.779, 36.0119], [-118.7784, 36.0137], [-118.7755, 36.0152], [-118.7743, 36.0165], [-118.7742, 36.0159], [-118.7695, 36.0159], [-118.7685, 36.0134]]]}, "properties": {"layer": "perimeter"}}]}
