{"type": "FeatureCollection", "features": [{"type": "Feature", "geometry": {"type": "Polygon", "coordinates": [[[-117.9165, 35.7755], [-117.9176, 35.7759], [-117.9188, 35.7749], [-117.9205, 35.7758], [-117.921, 35.7746], [-117.9217, 35.7763], [-117.9204, 35.7773], [-117.922, 35.7778], [-117.9264, 35.7749], [-117.9285, 35.7743], [-117.9291, 35.7715], [-117.9272, 35.7707], [-117.9304, 35.7654], [-117.9295, 35.7633], [-117.9274, 35.762], [-117.9335, 35.76], [-117.9353, 35.757], [-117.9424, 35.7604], [-117.9444, 35.763], [-117.947, 35.7643], [-117.9471, 35.7656], [-117.9458, 35.7677], [-117.9458, 35.771], [-117.9414, 35.7786], [-117.9379, 35.7824], [-117.9387, 35.7891], [-117.9369, 35.7912], [-117.9343, 35.7896], [-117.9297, 35.7896], [-117.928, 35.789], [-117.928, 35.7883], [-117.9297, 35.7872], [-117.9281, 35.7845], [-117.9287, 35.7832], [-117.9308, 35.7821], [-117.9301, 35.7808], [-117.9291, 35.7802], [-117.9295, 35.7811], [-117.9262, 35.7797], [-117.9272, 35.7811], [-117.9256, 35.7809], [-117.924, 35.7788], [-117.9239, 35.7801], [-117.9231, 35.7789], [-117.9207, 35.7786], [-117.916, 35.7765], [-117.9154, 35.7767], [-117.9153, 35.7759], [-117.9165, 35.7755]]]}, "properties": {"layer": "perimeter"}}]}
