{"type": "FeatureCollection", "features": [{"type": "Feature", "geometry": {"type": "Polygon", "coordinates": [[[-117.9151, 35.7097], [-117.9171, 35.7112], [-117.9164, 35.7116], [-117.9179, 35.7132], [-117.916, 35.7127], [-117.9125, 35.7133], [-117.9123, 35.7125], [-117.9071, 35.7126], [-117.9092, 35.7113], [-117.9063, 35.711], [-117.9056, 35.71], [-117.9093, 35.7101], [-117.9105, 35.7088], [-117.9097, 35.7075], [-117.9007, 35.7071], [-117.8995, 35.7077], [-117.8973, 35.7069], [-117.8902, 35.7063], [-117.891, 35.7061], [-117.8901, 35.7056], [-117.8913, 35.705], [-117.8925, 35.7027], [-117.8918, 35.7006], [-117.8959, 35.6984], [-117.8957, 35.6976], [-117.9021, 35.6955], [-117.8957, 35.6958], [-117.8952, 35.6965], [-117.8904, 35.6973], [-117.8917, 35.6958], [-117.8943, 35.6954], [-117.8923, 35.6932], [-117.8888, 35.693], [-117.8903, 35.6919], [-117.8899, 35.6916], [-117.8969, 35.6917], [-117.9039, 35.6896], [-117.9042, 35.6899], [-117.9045, 35.6891], [-117.9023, 35.6883], [-117.9036, 35.6879], [-117.904, 35.6869], [-117.9063, 35.6866], [-117.9084, 35.6872], [-117.9093, 35.6884], [-117.9092, 35.6893], [-117.9069, 35.6896], [-117.906, 35.6904], [-117.9077, 35.6912], [-117.9107, 35.6911], [-117.9144, 35.6928], [-117.9152, 35.6925], [-117.9171, 35.6941], [-117.9174, 35.6954], [-117.916, 35.6961], [-117.917, 35.6959], [-117.917, 35.6967], [-117.9151, 35.6978], [-117.9161, 35.6984], [-117.9157, 35.6976], [-117.9166, 35.6977], [-117.9196, 35.6989], [-117.9191, 35.7008], [-117.9185, 35.7008], [-117.9187, 35.7013], [-117.92, 35.7012], [-117.9202, 35.7024], [-117.9211, 35.7024], [-117.9207, 35.7007], [-117.9213, 35.7013], [-117.9225, 35.7007], [-117.9216, 35.6992], [-117.919, 35.6982], [-117.9196, 35.6973], [-117.9185, 35.6971], [-117.9184, 35.6964], [-117.9191, 35.6958], [-117.9219, 35.6959], [-117.9214, 35.6967], [-117.927, 35.6972], [-117.9259, 35.6978], [-117.9262, 35.6982], [-117.9275, 35.6977], [-117.9273, 35.6971], [-117.9289, 35.6968], [-117.9281, 35.6991], [-117.9299, 35.6999], [-117.9305, 35.7009], [-117.9293, 35.7012], [-117.9299, 35.7017], [-117.931, 35.7015], [-117.9318, 35.7032], [-117.9279, 35.7044], [-117.9282, 35.7054], [-117.9267, 35.7065], [-117.9253, 35.7058], [-117.9248, 35.7058], [-117.9253, 35.7066], [-117.9228, 35.7066], [-117.9224, 35.707], [-117.9234, 35.7072], [-117.9199, 35.7103], [-117.9151, 35.7097]], [[-117.9151, 35.7097], [-117.9153, 35.7092], [-117.9128, 35.7091], [-117.9126, 35.7084], [-117.9148, 35.7085], [-117.9168, 35.7073], [-117.9108, 35.7081], [-117.9105, 35.7099], [-117.9151, 35.7097]]]}, "properties": {"layer": "perimeter"}}]}
