{"type": "FeatureCollection", "features": [{"type": "Feature", "geometry": {"type": "Polygon", "coordinates": [[[-118.5649, 34.0873], [-118.5645, 34.0865], [-118.5657, 34.0859], [-118.5662, 34.0864], [-118.5665, 34.0864], [-118.5667, 34.085], [-118.5673, 34.0862], [-118.5689, 34.0863], [-118.5691, 34.0875], [-118.5694, 34.0851], [-118.57, 34.0861], [-118.5716, 34.0862], [-118.5727, 34.0871], [-118.5732, 34.0849], [-118.5707, 34.0846], [-118.5702, 34.0838], [-118.5718, 34.0835], [-118.5731, 34.0842], [-118.5744, 34.0837], [-118.5751, 34.0843], [-118.5757, 34.0839], [-118.5755, 34.0848], [-118.577, 34.0855], [-118.5796, 34.0854], [-118.5796, 34.0863], [-118.5812, 34.087], [-118.5824, 34.089], [-118.5842, 34.0891], [-118.5849, 34.0914], [-118.5825, 34.0932], [-118.5808, 34.0971], [-118.5806, 34.1002], [-118.5793, 34.1011], [-118.5779, 34.1007], [-118.5785, 34.1001], [-118.5766, 34.1016], [-118.5751, 34.1013], [-118.5731, 34.1037], [-118.5749, 34.1061], [-118.573, 34.1067], [-118.5712, 34.1088], [-118.5683, 34.109], [-118.5663, 34.1105], [-118.5632, 34.1088], [-118.5631, 34.1098], [-118.5611, 34.1093], [-118.5588, 34.1096], [-118.56, 34.1067], [-118.5587, 34.1053], [-118.5586, 34.104], [-118.5599, 34.1028], [-118.5598, 34.102], [-118.5582, 34.101], [-118.5553, 34.1022], [-118.5564, 34.0978], [-118.5559, 34.0971], [-118.5552, 34.098], [-118.5556, 34.0967], [-118.555, 34.0959], [-118.5581, 34.0951], [-118.5561, 34.0949], [-118.5559, 34.0941], [-118.559, 34.0932], [-118.5608, 34.0899], [-118.5621, 34.0891], [-118.5617, 34.0888], [-118.5626, 34.089], [-118.5649, 34.0873]]]}, "properties": {"layer": "perimeter"}}]}
