{"type": "FeatureCollection", "features": [{"type": "Feature", "geometry": {"type": "MultiPolygon", "coordinates": [[[[-122.6002, 39.0635], [-122.5965, 39.0578], [-122.5947, 39.0593], [-122.5936, 39.0584], [-122.5912, 39.0584], [-122.5906, 39.0578], [-122.596, 39.0574], [-122.5945, 39.055], [-122.5878, 39.0543], [-122.5849, 39.0516], [-122.5897, 39.0505], [-122.593, 39.0509], [-122.5973, 39.0494], [-122.6009, 39.0497], [-122.6023, 39.049], [-122.603, 39.0496], [-122.6124, 39.0508], [-122.6164, 39.0525], [-122.6171, 39.0559], [-122.6149, 39.0566], [-122.6129, 39.0584], [-122.6096, 39.0587], [-122.6066, 39.0633], [-122.604, 39.0636], [-122.602, 39.0646], [-122.6002, 39.0635]]], [[[-122.5852, 39.1393], [-122.5839, 39.1392], [-122.5822, 39.1372], [-122.5792, 39.1374], [-122.5809, 39.1361], [-122.581, 39.1351], [-122.582, 39.1349], [-122.5805, 39.1338], [-122.5882, 39.1333], [-122.5897, 39.1299], [-122.5931, 39.1289], [-122.5927, 39.128], [-122.5937, 39.1266], [-122.5953, 39.1268], [-122.5939, 39.126], [-122.5934, 39.1235], [-122.5964, 39.1222], [-122.5996, 39.1238], [-122.6011, 39.1226], [-122.6002, 39.1184], [-122.5988, 39.1171], [-122.6009, 39.1154], [-122.5993, 39.1148], [-122.5976, 39.1152], [-122.5971, 39.1139], [-122.6021, 39.1114], [-122.6027, 39.1097], [-122.6016, 39.1082], [-122.5994, 39.1083], [-122.5984, 39.1075], [-122.5938, 39.1132], [-122.5912, 39.1118], [-122.5956, 39.1082], [-122.5956, 39.1033], [-122.5968, 39.1019], [-122.5942, 39.1007], [-122.5868, 39.1046], [-122.5852, 39.1081], [-122.585, 39.1108], [-122.5824, 39.1113], [-122.5794, 39.1089], [-122.5732, 39.1085], [-122.5724, 39.1099], [-122.5735, 39.1109], [-122.5737, 39.1121], [-122.5718, 39.1126], [-122.5715, 39.114], [-122.5692, 39.1155], [-122.573, 39.1224], [-122.5685, 39.1236], [-122.5692, 39.1249], [-122.5673, 39.1263], [-122.5626, 39.1266], [-122.5606, 39.1287], [-122.5613, 39.13], [-122.5647, 39.1286], [-122.5661, 39.1304], [-122.5653, 39.1316], [-122.5668, 39.1314], [-122.5669, 39.1322], [-122.5679, 39.132], [-122.5692, 39.1328], [-122.5657, 39.133], [-122.5654, 39.1338], [-122.5637, 39.134], [-122.5644, 39.1343], [-122.564, 39.1348], [-122.5609, 39.1363], [-122.5616, 39.1372], [-122.5585, 39.1378], [-122.5575, 39.137], [-122.5577, 39.1349], [-122.556, 39.1331], [-122.5565, 39.1321], [-122.5556, 39.132], [-122.5542, 39.1297], [-122.5562, 39.1288], [-122.5525, 39.1283], [-122.5534, 39.1264], [-122.5523, 39.1242], [-122.5493, 39.1219], [-122.5504, 39.1208], [-122.5491, 39.1189], [-122.5468, 39.119], [-122.5462, 39.1179], [-122.5483, 39.1155], [-122.548, 39.1131], [-122.549, 39.1125], [-122.5517, 39.1129], [-122.5463, 39.1098], [-122.5428, 39.1066], [-122.5423, 39.0994], [-122.5451, 39.1], [-122.5444, 39.1012], [-122.5454, 39.103], [-122.5466, 39.1022], [-122.5517, 39.1039], [-122.5536, 39.1032], [-122.5501, 39.1032], [-122.5481, 39.1015], [-122.5466, 39.0988], [-122.5464, 39.0965], [-122.5454, 39.0957], [-122.5461, 39.0948], [-122.5445, 39.0934], [-122.5468, 39.0888], [-122.546, 39.086], [-122.5492, 39.0856], [-122.549, 39.0847], [-122.5518, 39.0851], [-122.5514, 39.0849], [-122.5431, 39.0841], [-122.5378, 39.0801], [-122.5376, 39.0791], [-122.5351, 39.0781], [-122.5333, 39.0796], [-122.533, 39.0821], [-122.535, 39.0842], [-122.5325, 39.0847], [-122.5302, 39.0825], [-122.5246, 39.0802], [-122.523, 39.0802], [-122.5248, 39.0806], [-122.5268, 39.0824], [-122.526, 39.0833], [-122.5267, 39.0846], [-122.5253, 39.0851], [-122.5225, 39.0848], [-122.521, 39.0872], [-122.5219, 39.0875], [-122.5189, 39.0877], [-122.5183, 39.0882], [-122.5178, 39.0876], [-122.5188, 39.0848], [-122.5178, 39.0828], [-122.5188, 39.0825], [-122.5197, 39.0808], [-122.5188, 39.08], [-122.5177, 39.0808], [-122.5186, 39.0797], [-122.5172, 39.0796], [-122.517, 39.0803], [-122.5166, 39.0798], [-122.5161, 39.0802], [-122.5164, 39.0823], [-122.5151, 39.0824], [-122.5127, 39.0854], [-122.5131, 39.0859], [-122.5095, 39.0876], [-122.5081, 39.0897], [-122.5055, 39.0899], [-122.5032, 39.0912], [-122.5003, 39.0906], [-122.4896, 39.0954], [-122.4883, 39.095], [-122.4848, 39.096], [-122.4819, 39.0954], [-122.4859, 39.0928], [-122.4857, 39.0915], [-122.4877, 39.0897], [-122.4874, 39.0889], [-122.4885, 39.0895], [-122.4915, 39.0894], [-122.4986, 39.0857], [-122.5013, 39.0835], [-122.5029, 39.0829], [-122.5058, 39.0833], [-122.5114, 39.0805], [-122.5127, 39.0824], [-122.5165, 39.0792], [-122.5162, 39.0784], [-122.5158, 39.0789], [-122.5146, 39.079], [-122.5155, 39.0778], [-122.5148, 39.0771], [-122.517, 39.0776], [-122.516, 39.0769], [-122.5164, 39.0764], [-122.5152, 39.0759], [-122.5195, 39.0757], [-122.5202, 39.0769], [-122.521, 39.0761], [-122.5278, 39.0752], [-122.5306, 39.0741], [-122.5291, 39.0736], [-122.5302, 39.0726], [-122.5297, 39.0723], [-122.5276, 39.0731], [-122.5286, 39.0719], [-122.5276, 39.0723], [-122.5278, 39.0712], [-122.5272, 39.0722], [-122.5232, 39.0712], [-122.5211, 39.072], [-122.5199, 39.0715], [-122.5171, 39.0724], [-122.5145, 39.0724], [-122.5107, 39.07], [-122.5083, 39.0699], [-122.5067, 39.0708], [-122.5044, 39.0692], [-122.5085, 39.0681], [-122.5089, 39.0673], [-122.5096, 39.0682], [-122.5129, 39.0669], [-122.5162, 39.0679], [-122.5173, 39.0669], [-122.5151, 39.0663], [-122.5132, 39.0648], [-122.5147, 39.0644], [-122.5195, 39.0595], [-122.5223, 39.0589], [-122.5228, 39.0583], [-122.5252, 39.0586], [-122.5253, 39.0549], [-122.527, 39.0541], [-122.5248, 39.0521], [-122.5285, 39.0524], [-122.53, 39.0499], [-122.5307, 39.05], [-122.535, 39.0461], [-122.5305, 39.0392], [-122.5272, 39.0398], [-122.5259, 39.0394], [-122.5273, 39.037], [-122.5319, 39.0356], [-122.5297, 39.0324], [-122.5299, 39.0314], [-122.5314, 39.0309], [-122.5329, 39.029], [-122.5335, 39.0287], [-122.5348, 39.0307], [-122.5362, 39.0314], [-122.5374, 39.0309], [-122.5364, 39.0318], [-122.537, 39.032], [-122.5397, 39.0314], [-122.5407, 39.0287], [-122.5407, 39.0241], [-122.5436, 39.0204], [-122.545, 39.0169], [-122.5482, 39.0179], [-122.5503, 39.0114], [-122.5524, 39.0104], [-122.5536, 39.0086], [-122.5556, 39.0078], [-122.5564, 39.01], [-122.5572, 39.0098], [-122.5613, 39.012], [-122.561, 39.0127], [-122.5629, 39.014], [-122.5625, 39.016], [-122.5648, 39.0172], [-122.5654, 39.0192], [-122.5675, 39.0205], [-122.5659, 39.0236], [-122.5574, 39.0247], [-122.5562, 39.0277], [-122.5508, 39.031], [-122.5512, 39.033], [-122.5558, 39.0344], [-122.563, 39.0288], [-122.5673, 39.0275], [-122.5677, 39.0285], [-122.5689, 39.0278], [-122.5679, 39.031], [-122.5695, 39.037], [-122.5704, 39.0371], [-122.5712, 39.0388], [-122.5703, 39.0404], [-122.5717, 39.0414], [-122.572, 39.044], [-122.5745, 39.0462], [-122.5754, 39.0482], [-122.5771, 39.0478], [-122.5786, 39.0501], [-122.5796, 39.0504], [-122.5796, 39.0551], [-122.5809, 39.0576], [-122.5809, 39.0607], [-122.582, 39.0633], [-122.5806, 39.0655], [-122.5807, 39.0684], [-122.5828, 39.0701], [-122.5837, 39.0719], [-122.582, 39.0737], [-122.5793, 39.0746], [-122.579, 39.0763], [-122.5819, 39.0774], [-122.5833, 39.0766], [-122.5833, 39.0776], [-122.5853, 39.0782], [-122.5849, 39.0789], [-122.5866, 39.0786], [-122.5848, 39.0778], [-122.5834, 39.076], [-122.5839, 39.0751], [-122.5862, 39.0752], [-122.5878, 39.0717], [-122.5918, 39.0735], [-122.5952, 39.077], [-122.5985, 39.0767], [-122.601, 39.0774], [-122.6042, 39.0726], [-122.6033, 39.0688], [-122.6098, 39.0659], [-122.6108, 39.0699], [-122.6132, 39.0699], [-122.6108, 39.072], [-122.6141, 39.0751], [-122.6133, 39.0769], [-122.6154, 39.0783], [-122.6137, 39.0802], [-122.6155, 39.0813], [-122.6156, 39.0823], [-122.6102, 39.0845], [-122.6108, 39.0851], [-122.6128, 39.0854], [-122.613, 39.0861], [-122.6106, 39.0862], [-122.6102, 39.0876], [-122.6081, 39.0878], [-122.6067, 39.0888], [-122.6081, 39.0936], [-122.6103, 39.0958], [-122.6109, 39.0988], [-122.6136, 39.1005], [-122.6117, 39.1017], [-122.6099, 39.102], [-122.6096, 39.1028], [-122.6146, 39.1048], [-122.6143, 39.1101], [-122.6174, 39.112], [-122.6186, 39.1139], [-122.6191, 39.1171], [-122.617, 39.1187], [-122.6141, 39.119], [-122.6131, 39.1201], [-122.6129, 39.1219], [-122.6128, 39.1206], [-122.611, 39.1189], [-122.6115, 39.1175], [-122.6091, 39.1169], [-122.6084, 39.1159], [-122.607, 39.1191], [-122.6043, 39.1207], [-122.6048, 39.1223], [-122.6039, 39.1233], [-122.6054, 39.1244], [-122.6057, 39.1267], [-122.5994, 39.1252], [-122.5999, 39.1263], [-122.6016, 39.1272], [-122.6017, 39.1286], [-122.6008, 39.129], [-122.6031, 39.1325], [-122.6028, 39.1353], [-122.6003, 39.1361], [-122.5999, 39.1352], [-122.5961, 39.1345], [-122.5952, 39.1351], [-122.5955, 39.136], [-122.5938, 39.1361], [-122.5943, 39.1369], [-122.5934, 39.1368], [-122.5931, 39.136], [-122.5905, 39.1364], [-122.5852, 39.1393]]], [[[-122.4831, 39.0961], [-122.4836, 39.0962], [-122.4833, 39.0963], [-122.4831, 39.0961]]], [[[-122.4896, 39.0971], [-122.4905, 39.097], [-122.4901, 39.0974], [-122.4896, 39.0971]]], [[[-122.5702, 39.1307], [-122.5704, 39.1313], [-122.5698, 39.1315], [-122.5696, 39.1309], [-122.5702, 39.1307]]], [[[-122.5747, 39.1327], [-122.5713, 39.1316], [-122.5726, 39.131], [-122.5759, 39.1318], [-122.5747, 39.1327]]], [[[-122.5702, 39.1328], [-122.5697, 39.1332], [-122.5697, 39.133], [-122.5702, 39.1328]]], [[[-122.5947, 39.137], [-122.5951, 39.1373], [-122.5946, 39.1373], [-122.5947, 39.137]]], [[[-122.5908, 39.138], [-122.5908, 39.1384], [-122.5898, 39.1385], [-122.5899, 39.1381], [-122.5908, 39.138]]]]}, "properties": {"layer": "perimeter"}}, {"type": "Feature", "geometry": {"type": "MultiPolygon", "coordinates": [[[[-122.6002, 39.0635], [-122.5965, 39.0578], [-122.5947, 39.0593], [-122.5936, 39.0584], [-122.5912, 39.0584], [-122.5906, 39.0578], [-122.596, 39.0574], [-122.5945, 39.055], [-122.5878, 39.0543], [-122.5849, 39.0516], [-122.5897, 39.0505], [-122.593, 39.0509], [-122.5973, 39.0494], [-122.6009, 39.0497], [-122.6023, 39.049], [-122.603, 39.0496], [-122.6124, 39.0508], [-122.6164, 39.0525], [-122.6171, 39.0559], [-122.6149, 39.0566], [-122.6129, 39.0584], [-122.6096, 39.0587], [-122.6066, 39.0633], [-122.604, 39.0636], [-122.602, 39.0646], [-122.6002, 39.0635]]], [[[-122.5913, 39.1113], [-122.5916, 39.111], [-122.5931, 39.1104], [-122.5931, 39.1114], [-122.5913, 39.1113]]], [[[-122.5929, 39.1015], [-122.5868, 39.1046], [-122.5852, 39.1081], [-122.585, 39.1108], [-122.5816, 39.1109], [-122.5797, 39.109], [-122.5763, 39.1085], [-122.5754, 39.0956], [-122.5928, 39.0971], [-122.5929, 39.1015]]], [[[-122.5551, 39.1314], [-122.5542, 39.1296], [-122.555, 39.1291], [-122.5551, 39.1314]]], [[[-122.5549, 39.1284], [-122.5524, 39.1283], [-122.5534, 39.1265], [-122.5524, 39.1253], [-122.5549, 39.1252], [-122.5549, 39.1284]]], [[[-122.5503, 39.123], [-122.5492, 39.1217], [-122.5503, 39.1209], [-122.5503, 39.123]]], [[[-122.5503, 39.1208], [-122.5491, 39.1189], [-122.5468, 39.119], [-122.5462, 39.1179], [-122.5483, 39.1156], [-122.5477, 39.1138], [-122.549, 39.1125], [-122.5503, 39.1127], [-122.5503, 39.1208]]], [[[-122.5502, 39.1119], [-122.5463, 39.1098], [-122.5429, 39.1068], [-122.5423, 39.0994], [-122.5451, 39.1], [-122.5444, 39.1012], [-122.5454, 39.103], [-122.5468, 39.1022], [-122.5505, 39.1035], [-122.5502, 39.1119]]], [[[-122.5504, 39.1033], [-122.548, 39.1014], [-122.5461, 39.0974], [-122.5464, 39.0965], [-122.5454, 39.0957], [-122.5461, 39.0948], [-122.5446, 39.0935], [-122.5461, 39.0907], [-122.5462, 39.0945], [-122.5508, 39.0947], [-122.5504, 39.1033]]], [[[-122.546, 39.0875], [-122.546, 39.0859], [-122.5492, 39.0856], [-122.549, 39.0847], [-122.5506, 39.0851], [-122.5507, 39.0874], [-122.546, 39.0875]]], [[[-122.5505, 39.0847], [-122.5431, 39.0841], [-122.5378, 39.0801], [-122.5376, 39.0791], [-122.5352, 39.0781], [-122.5333, 39.0796], [-122.533, 39.0821], [-122.535, 39.0842], [-122.5325, 39.0847], [-122.5302, 39.0825], [-122.5241, 39.0801], [-122.523, 39.0803], [-122.5248, 39.0806], [-122.5269, 39.0825], [-122.526, 39.0833], [-122.5267, 39.0846], [-122.5253, 39.0851], [-122.5226, 39.0847], [-122.5223, 39.0854], [-122.5221, 39.0765], [-122.5409, 39.0761], [-122.5411, 39.0797], [-122.5506, 39.0801], [-122.5505, 39.0847]]], [[[-122.5223, 39.0855], [-122.5225, 39.0857], [-122.5223, 39.0858], [-122.5223, 39.0855]]], [[[-122.5547, 39.0729], [-122.5291, 39.0723], [-122.5275, 39.0728], [-122.5286, 39.0719], [-122.5276, 39.0723], [-122.5278, 39.0712], [-122.5272, 39.0722], [-122.5232, 39.0712], [-122.5171, 39.0724], [-122.5167, 39.0625], [-122.5196, 39.0594], [-122.5223, 39.0589], [-122.5228, 39.0583], [-122.5252, 39.0586], [-122.5253, 39.0549], [-122.527, 39.0541], [-122.5248, 39.0521], [-122.5285, 39.0524], [-122.53, 39.0499], [-122.5307, 39.05], [-122.535, 39.0461], [-122.5305, 39.0392], [-122.5272, 39.0398], [-122.5259, 39.0394], [-122.5273, 39.037], [-122.5319, 39.0356], [-122.5296, 39.0319], [-122.5325, 39.0295], [-122.5334, 39.0294], [-122.5358, 39.0313], [-122.5372, 39.0308], [-122.5364, 39.0318], [-122.537, 39.032], [-122.5389, 39.0316], [-122.5405, 39.0689], [-122.5544, 39.0692], [-122.5547, 39.0729]]], [[[-122.5571, 39.0098], [-122.5613, 39.012], [-122.561, 39.0127], [-122.5629, 39.014], [-122.5625, 39.016], [-122.5648, 39.0172], [-122.5654, 39.0192], [-122.5675, 39.0203], [-122.5659, 39.0236], [-122.5611, 39.0242], [-122.5612, 39.0195], [-122.5563, 39.0184], [-122.5571, 39.0098]]], [[[-122.566, 39.0279], [-122.5673, 39.0275], [-122.5677, 39.0285], [-122.5689, 39.0278], [-122.5679, 39.031], [-122.5695, 39.037], [-122.5704, 39.0371], [-122.5712, 39.0388], [-122.5703, 39.0404], [-122.5717, 39.0414], [-122.572, 39.044], [-122.5745, 39.0462], [-122.5754, 39.0482], [-122.5771, 39.0478], [-122.5786, 39.0501], [-122.5796, 39.0504], [-122.5796, 39.0551], [-122.5809, 39.0576], [-122.5809, 39.0607], [-122.582, 39.0633], [-122.5806, 39.0655], [-122.5807, 39.0684], [-122.5828, 39.0701], [-122.5837, 39.0719], [-122.582, 39.0737], [-122.579, 39.0749], [-122.5786, 39.0758], [-122.5794, 39.0766], [-122.5819, 39.0774], [-122.5833, 39.0766], [-122.5833, 39.0776], [-122.5853, 39.0782], [-122.5849, 39.0789], [-122.5866, 39.0786], [-122.5848, 39.0778], [-122.5834, 39.076], [-122.5839, 39.0751], [-122.5862, 39.0752], [-122.5878, 39.0717], [-122.5918, 39.0735], [-122.5952, 39.077], [-122.5985, 39.0767], [-122.601, 39.0774], [-122.6042, 39.0726], [-122.6033, 39.0688], [-122.6079, 39.0663], [-122.6101, 39.0661], [-122.6107, 39.0692], [-122.6061, 39.0693], [-122.6056, 39.084], [-122.6114, 39.0841], [-122.6104, 39.0849], [-122.6131, 39.0857], [-122.6129, 39.0862], [-122.6105, 39.0862], [-122.6102, 39.0876], [-122.6081, 39.0878], [-122.6067, 39.0888], [-122.6081, 39.0936], [-122.6096, 39.0949], [-122.6057, 39.0946], [-122.6057, 39.091], [-122.6008, 39.0907], [-122.6009, 39.0839], [-122.5924, 39.0834], [-122.5925, 39.0867], [-122.588, 39.0865], [-122.5879, 39.0831], [-122.5827, 39.0828], [-122.5828, 39.0794], [-122.5743, 39.0789], [-122.5642, 39.0772], [-122.5629, 39.0702], [-122.5703, 39.0717], [-122.5697, 39.0683], [-122.5657, 39.0677], [-122.5656, 39.0637], [-122.5621, 39.0627], [-122.5622, 39.0666], [-122.5588, 39.0655], [-122.5586, 39.0618], [-122.5539, 39.0617], [-122.5533, 39.0505], [-122.5486, 39.0507], [-122.5485, 39.0469], [-122.5577, 39.0465], [-122.5579, 39.0505], [-122.5617, 39.0517], [-122.5618, 39.0553], [-122.5655, 39.0563], [-122.5656, 39.0597], [-122.5695, 39.0607], [-122.5695, 39.0571], [-122.5735, 39.0579], [-122.5734, 39.0616], [-122.5782, 39.0617], [-122.5787, 39.0506], [-122.5738, 39.0505], [-122.5696, 39.0497], [-122.5699, 39.0387], [-122.5657, 39.0373], [-122.566, 39.0279]]], [[[-122.6109, 39.0986], [-122.6135, 39.1007], [-122.6099, 39.102], [-122.6096, 39.1028], [-122.6139, 39.1043], [-122.6148, 39.1055], [-122.6061, 39.1051], [-122.6058, 39.0982], [-122.6109, 39.0986]]], [[[-122.6143, 39.1096], [-122.6173, 39.1119], [-122.619, 39.1159], [-122.6155, 39.1158], [-122.6155, 39.1123], [-122.6108, 39.1121], [-122.6106, 39.1087], [-122.6142, 39.1088], [-122.6143, 39.1096]]]]}, "properties": {"layer": "retained"}}]}
