{"type": "FeatureCollection", "features": [{"type": "Feature", "geometry": {"type": "Polygon", "coordinates": [[[-118.4036, 35.4304], [-118.4029, 35.4299], [-118.397, 35.4337], [-118.3914, 35.4334], [-118.39, 35.4338], [-118.3896, 35.4334], [-118.3903, 35.435], [-118.3897, 35.4359], [-118.3883, 35.4352], [-118.3892, 35.4345], [-118.3889, 35.4334], [-118.3867, 35.4338], [-118.3847, 35.4328], [-118.385, 35.4323], [-118.3842, 35.4317], [-118.3815, 35.4315], [-118.3839, 35.43], [-118.3828, 35.4287], [-118.3833, 35.4261], [-118.3824, 35.423], [-118.3839, 35.4209], [-118.3844, 35.4215], [-118.3859, 35.4211], [-118.3848, 35.419], [-118.386, 35.4181], [-118.3847, 35.4171], [-118.3836, 35.4176], [-118.3836, 35.4166], [-118.3816, 35.417], [-118.3808, 35.4164], [-118.3816, 35.4154], [-118.38, 35.4157], [-118.3793, 35.4139], [-118.3814, 35.4124], [-118.3823, 35.4125], [-118.3822, 35.4116], [-118.3853, 35.4114], [-118.3876, 35.4118], [-118.388, 35.4128], [-118.3898, 35.4135], [-118.3907, 35.4119], [-118.3925, 35.4122], [-118.3953, 35.4137], [-118.394, 35.4142], [-118.3943, 35.415], [-118.3963, 35.4151], [-118.3968, 35.4157], [-118.3991, 35.4151], [-118.4016, 35.4158], [-118.401, 35.4143], [-118.4054, 35.4138], [-118.4082, 35.4127], [-118.4098, 35.413], [-118.4132, 35.4117], [-118.4141, 35.4125], [-118.4179, 35.4127], [-118.4188, 35.4136], [-118.4201, 35.4136], [-118.4226, 35.4119], [-118.4284, 35.4101], [-118.4298, 35.4102], [-118.4305, 35.4096], [-118.4341, 35.4095], [-118.4351, 35.4101], [-118.4351, 35.4095], [-118.4369, 35.4093], [-118.4386, 35.4101], [-118.4389, 35.4096], [-118.4405, 35.4099], [-118.4402, 35.411], [-118.4378, 35.4122], [-118.4355, 35.415], [-118.4341, 35.4145], [-118.431, 35.4162], [-118.4316, 35.4177], [-118.4308, 35.4189], [-118.4298, 35.419], [-118.429, 35.4206], [-118.4305, 35.4208], [-118.4299, 35.4234], [-118.4286, 35.4238], [-118.4254, 35.4232], [-118.4241, 35.4245], [-118.4229, 35.4242], [-118.4212, 35.4257], [-118.4197, 35.426], [-118.4186, 35.4273], [-118.411, 35.4286], [-118.4099, 35.4295], [-118.4072, 35.4299], [-118.4065, 35.4307], [-118.4059, 35.4303], [-118.4056, 35.4312], [-118.4046, 35.4315], [-118.4034, 35.4311], [-118.4036, 35.4304]]]}, "properties": {"layer": "perimeter"}}, {"type": "Feature", "geometry": {"type": "MultiPolygon", "coordinates": [[[[-118.4025, 35.4306], [-118.397, 35.4337], [-118.3914, 35.4334], [-118.39, 35.4338], [-118.3896, 35.4334], [-118.3903, 35.435], [-118.3897, 35.4359], [-118.3883, 35.4352], [-118.3892, 35.4345], [-118.3889, 35.4334], [-118.3867, 35.4338], [-118.3847, 35.4328], [-118.385, 35.4323], [-118.3842, 35.4317], [-118.3828, 35.432], [-118.3814, 35.4313], [-118.3839, 35.43], [-118.3828, 35.4287], [-118.3832, 35.4262], [-118.4028, 35.4259], [-118.4025, 35.4306]]], [[[-118.3822, 35.4116], [-118.3842, 35.4114], [-118.3845, 35.4116], [-118.3822, 35.4116]]], [[[-118.3853, 35.4116], [-118.3851, 35.4115], [-118.3853, 35.4114], [-118.3853, 35.4116]]], [[[-118.3861, 35.4116], [-118.3861, 35.4116], [-118.3861, 35.4116], [-118.3861, 35.4116]]], [[[-118.4031, 35.4142], [-118.4118, 35.4122], [-118.4116, 35.4188], [-118.4072, 35.4187], [-118.4071, 35.4222], [-118.4161, 35.4224], [-118.4162, 35.4189], [-118.4207, 35.419], [-118.4207, 35.4224], [-118.4211, 35.4204], [-118.4217, 35.42], [-118.4206, 35.4189], [-118.4209, 35.4179], [-118.42, 35.4172], [-118.4202, 35.4156], [-118.4194, 35.4154], [-118.419, 35.4161], [-118.4182, 35.4153], [-118.4164, 35.4153], [-118.4164, 35.4145], [-118.4155, 35.414], [-118.4142, 35.4125], [-118.4164, 35.4143], [-118.4164, 35.4128], [-118.4179, 35.4127], [-118.4192, 35.4136], [-118.4203, 35.4134], [-118.4206, 35.4128], [-118.4202, 35.4172], [-118.4211, 35.4178], [-118.4208, 35.4189], [-118.4219, 35.42], [-118.4208, 35.4226], [-118.4231, 35.4242], [-118.4207, 35.4228], [-118.4207, 35.4236], [-118.4228, 35.4244], [-118.4207, 35.4238], [-118.4207, 35.4258], [-118.4195, 35.4262], [-118.4028, 35.4259], [-118.4031, 35.4142]], [[-118.4189, 35.4159], [-118.4192, 35.4154], [-118.4185, 35.4154], [-118.4189, 35.4159]]], [[[-118.4233, 35.4119], [-118.432, 35.4094], [-118.4351, 35.4101], [-118.4353, 35.4094], [-118.4369, 35.4093], [-118.4386, 35.4101], [-118.4398, 35.4095], [-118.4406, 35.4102], [-118.4394, 35.4116], [-118.4381, 35.412], [-118.4233, 35.4119]]]]}, "properties": {"layer": "retained"}}, {"type": "Feature", "geometry": {"type": "Polygon", "coordinates": [[[-118.3919, 35.4322], [-118.3933, 35.4311], [-118.3923, 35.4311], [-118.3926, 35.43], [-118.3906, 35.4308], [-118.3919, 35.4322]]]}, "properties": {"layer": "high_severity"}}]}
