{"type": "FeatureCollection", "features": [{"type": "Feature", "geometry": {"type": "MultiPolygon", "coordinates": [[[[-123.4653, 41.2899], [-123.465, 41.29], [-123.4651, 41.2898], [-123.4653, 41.2899]]], [[[-123.4674, 41.2931], [-123.4676, 41.293], [-123.4676, 41.2931], [-123.4674, 41.2931]]], [[[-123.4737, 41.2937], [-123.474, 41.2938], [-123.4738, 41.2939], [-123.4737, 41.2937]]], [[[-123.4831, 41.3293], [-123.4829, 41.3295], [-123.4829, 41.3294], [-123.4831, 41.3293]]], [[[-123.4423, 41.3669], [-123.443, 41.3649], [-123.4398, 41.3657], [-123.4395, 41.363], [-123.4385, 41.3635], [-123.4377, 41.3612], [-123.4358, 41.3628], [-123.435, 41.3623], [-123.4354, 41.3617], [-123.4345, 41.3617], [-123.4329, 41.3637], [-123.4305, 41.3647], [-123.4304, 41.3637], [-123.4285, 41.3643], [-123.4269, 41.3634], [-123.4269, 41.3649], [-123.4281, 41.365], [-123.4287, 41.3659], [-123.4316, 41.3651], [-123.4331, 41.3657], [-123.4344, 41.3655], [-123.4328, 41.3677], [-123.431, 41.3679], [-123.4349, 41.369], [-123.4347, 41.3699], [-123.4322, 41.3701], [-123.432, 41.3714], [-123.4308, 41.3713], [-123.4313, 41.3701], [-123.4296, 41.3687], [-123.4288, 41.3706], [-123.4268, 41.3706], [-123.4272, 41.3693], [-123.4257, 41.3678], [-123.4241, 41.3685], [-123.4233, 41.3676], [-123.422, 41.3679], [-123.4213, 41.3673], [-123.4212, 41.3656], [-123.4224, 41.3659], [-123.4229, 41.3649], [-123.4226, 41.3633], [-123.4221, 41.3649], [-123.4202, 41.3654], [-123.4202, 41.3619], [-123.4177, 41.3592], [-123.4196, 41.3593], [-123.4206, 41.3582], [-123.4183, 41.3579], [-123.4179, 41.3552], [-123.4186, 41.3554], [-123.419, 41.3523], [-123.4182, 41.3526], [-123.4174, 41.3521], [-123.419, 41.3502], [-123.4167, 41.3505], [-123.4187, 41.3492], [-123.416, 41.349], [-123.4172, 41.3481], [-123.419, 41.3486], [-123.4191, 41.3476], [-123.418, 41.3475], [-123.4182, 41.3459], [-123.417, 41.3448], [-123.4147, 41.3448], [-123.4129, 41.3462], [-123.4115, 41.3454], [-123.4119, 41.3465], [-123.4106, 41.347], [-123.4112, 41.3462], [-123.4106, 41.3454], [-123.4102, 41.3458], [-123.4096, 41.3452], [-123.408, 41.3455], [-123.4074, 41.3451], [-123.4079, 41.3461], [-123.405, 41.3451], [-123.4047, 41.3443], [-123.4064, 41.3429], [-123.4076, 41.3431], [-123.4074, 41.3401], [-123.4108, 41.3419], [-123.4105, 41.3409], [-123.4119, 41.3402], [-123.4109, 41.3396], [-123.4117, 41.3388], [-123.4106, 41.3365], [-123.411, 41.335], [-123.4128, 41.3347], [-123.4164, 41.3364], [-123.4165, 41.3355], [-123.4174, 41.3353], [-123.4162, 41.3298], [-123.4197, 41.329], [-123.4201, 41.327], [-123.4235, 41.327], [-123.4231, 41.3259], [-123.4248, 41.3255], [-123.4271, 41.3227], [-123.4281, 41.3201], [-123.4295, 41.3208], [-123.4299, 41.3188], [-123.4349, 41.3161], [-123.4377, 41.3128], [-123.4396, 41.3123], [-123.4453, 41.3149], [-123.4453, 41.3181], [-123.4457, 41.3171], [-123.4478, 41.3168], [-123.4493, 41.3177], [-123.4497, 41.3168], [-123.4493, 41.3162], [-123.4503, 41.3158], [-123.4511, 41.3166], [-123.4521, 41.3163], [-123.4538, 41.3184], [-123.4573, 41.3183], [-123.4574, 41.3194], [-123.4548, 41.32], [-123.4532, 41.3212], [-123.455, 41.3225], [-123.4565, 41.3224], [-123.4576, 41.3196], [-123.4589, 41.3207], [-123.4598, 41.3199], [-123.4583, 41.3195], [-123.4592, 41.3171], [-123.4598, 41.3176], [-123.4621, 41.3174], [-123.4622, 41.3191], [-123.4613, 41.319], [-123.4604, 41.3197], [-123.4625, 41.3212], [-123.4653, 41.3209], [-123.4647, 41.324], [-123.4678, 41.3253], [-123.4694, 41.3249], [-123.4691, 41.324], [-123.4703, 41.3236], [-123.47, 41.3229], [-123.469, 41.323], [-123.4664, 41.3219], [-123.4665, 41.3202], [-123.4656, 41.3196], [-123.4669, 41.3178], [-123.4667, 41.3165], [-123.468, 41.3132], [-123.4633, 41.3126], [-123.4602, 41.3108], [-123.4596, 41.3112], [-123.46, 41.3099], [-123.4576, 41.3092], [-123.4594, 41.3089], [-123.4596, 41.3074], [-123.4582, 41.3071], [-123.4587, 41.3062], [-123.4574, 41.3063], [-123.4567, 41.3042], [-123.4574, 41.3043], [-123.458, 41.3029], [-123.4562, 41.3019], [-123.4564, 41.3011], [-123.4543, 41.3029], [-123.4513, 41.3035], [-123.4507, 41.303], [-123.4507, 41.3041], [-123.4496, 41.3038], [-123.4484, 41.3054], [-123.4465, 41.3051], [-123.4447, 41.3065], [-123.444, 41.3062], [-123.4444, 41.3052], [-123.4454, 41.3052], [-123.4448, 41.304], [-123.4462, 41.304], [-123.4453, 41.3025], [-123.4473, 41.3014], [-123.447, 41.2998], [-123.4488, 41.3002], [-123.4495, 41.2995], [-123.4482, 41.298], [-123.4503, 41.2944], [-123.4552, 41.2928], [-123.4561, 41.2928], [-123.4568, 41.2937], [-123.4575, 41.2924], [-123.4621, 41.2932], [-123.463, 41.2956], [-123.4642, 41.2956], [-123.4653, 41.2968], [-123.4664, 41.297], [-123.4676, 41.2996], [-123.4716, 41.302], [-123.4713, 41.3028], [-123.4728, 41.3039], [-123.4739, 41.3043], [-123.4749, 41.3041], [-123.4748, 41.3032], [-123.4764, 41.303], [-123.4791, 41.3041], [-123.478, 41.3031], [-123.4764, 41.299], [-123.4775, 41.2948], [-123.4798, 41.2918], [-123.4795, 41.2912], [-123.4785, 41.2902], [-123.477, 41.2903], [-123.4747, 41.2936], [-123.474, 41.2927], [-123.4727, 41.2938], [-123.4721, 41.2928], [-123.4706, 41.2945], [-123.4701, 41.2937], [-123.4712, 41.2931], [-123.4712, 41.2924], [-123.4707, 41.2932], [-123.4704, 41.2925], [-123.4711, 41.2908], [-123.4707, 41.2899], [-123.4696, 41.2899], [-123.4654, 41.293], [-123.4671, 41.2904], [-123.4651, 41.2894], [-123.4648, 41.2878], [-123.4637, 41.2869], [-123.4643, 41.2865], [-123.4712, 41.2887], [-123.4718, 41.29], [-123.4736, 41.2907], [-123.4758, 41.2899], [-123.4813, 41.29], [-123.4842, 41.2885], [-123.4891, 41.2876], [-123.4914, 41.2878], [-123.4966, 41.2858], [-123.4999, 41.2877], [-123.5041, 41.2878], [-123.5093, 41.2896], [-123.5112, 41.2926], [-123.5141, 41.2933], [-123.5155, 41.2956], [-123.5188, 41.297], [-123.5188, 41.2999], [-123.5177, 41.3029], [-123.5161, 41.304], [-123.5147, 41.307], [-123.5154, 41.3084], [-123.5146, 41.3085], [-123.5133, 41.3074], [-123.5101, 41.3079], [-123.5094, 41.3057], [-123.5079, 41.3061], [-123.5079, 41.3038], [-123.5091, 41.3039], [-123.5088, 41.3025], [-123.5074, 41.3021], [-123.5069, 41.3041], [-123.5057, 41.3043], [-123.507, 41.3061], [-123.5063, 41.3072], [-123.5058, 41.3064], [-123.5049, 41.3066], [-123.5052, 41.3091], [-123.5031, 41.3085], [-123.5043, 41.3107], [-123.5062, 41.3085], [-123.5114, 41.3083], [-123.5122, 41.3076], [-123.5151, 41.3096], [-123.515, 41.3104], [-123.5135, 41.3106], [-123.5102, 41.3137], [-123.511, 41.3161], [-123.5098, 41.3182], [-123.5111, 41.3211], [-123.5105, 41.3247], [-123.5117, 41.3285], [-123.5093, 41.3304], [-123.5047, 41.3307], [-123.5042, 41.3324], [-123.503, 41.3319], [-123.503, 41.3329], [-123.5008, 41.3336], [-123.5015, 41.3343], [-123.4974, 41.3341], [-123.4972, 41.3353], [-123.4964, 41.3354], [-123.4969, 41.3369], [-123.496, 41.3373], [-123.4964, 41.338], [-123.4937, 41.3383], [-123.4929, 41.3391], [-123.4933, 41.34], [-123.495, 41.3399], [-123.4955, 41.341], [-123.4971, 41.3408], [-123.497, 41.3422], [-123.4987, 41.3422], [-123.4991, 41.3435], [-123.4997, 41.343], [-123.5007, 41.3436], [-123.4996, 41.3459], [-123.5022, 41.3473], [-123.5015, 41.3484], [-123.5002, 41.3486], [-123.5009, 41.3493], [-123.4994, 41.3511], [-123.5001, 41.3516], [-123.4984, 41.3525], [-123.4994, 41.3533], [-123.4962, 41.3528], [-123.496, 41.3543], [-123.4949, 41.3542], [-123.4959, 41.3553], [-123.497, 41.3544], [-123.4989, 41.3553], [-123.4994, 41.3563], [-123.4983, 41.3568], [-123.4995, 41.3571], [-123.4992, 41.3598], [-123.4977, 41.3608], [-123.4951, 41.3605], [-123.4899, 41.3619], [-123.4887, 41.3627], [-123.49, 41.3642], [-123.4878, 41.3637], [-123.4863, 41.3644], [-123.4849, 41.3642], [-123.4838, 41.3655], [-123.4819, 41.365], [-123.4826, 41.3666], [-123.4811, 41.3657], [-123.478, 41.3678], [-123.4776, 41.3696], [-123.4782, 41.3706], [-123.4797, 41.3704], [-123.483, 41.3717], [-123.4844, 41.373], [-123.4839, 41.3751], [-123.4823, 41.3749], [-123.4802, 41.3737], [-123.4789, 41.3714], [-123.4769, 41.3707], [-123.4744, 41.3711], [-123.4745, 41.3725], [-123.473, 41.3741], [-123.4736, 41.3751], [-123.4719, 41.3742], [-123.4698, 41.3753], [-123.4654, 41.3733], [-123.4641, 41.3737], [-123.4621, 41.3731], [-123.4625, 41.3721], [-123.4617, 41.3721], [-123.4618, 41.3716], [-123.4634, 41.3706], [-123.4622, 41.3696], [-123.4647, 41.3696], [-123.4655, 41.3686], [-123.4649, 41.366], [-123.4625, 41.366], [-123.4633, 41.3657], [-123.4629, 41.3646], [-123.4646, 41.3647], [-123.4639, 41.3635], [-123.4652, 41.3633], [-123.4655, 41.3627], [-123.4639, 41.3618], [-123.4668, 41.3606], [-123.4658, 41.36], [-123.4668, 41.3588], [-123.4656, 41.3585], [-123.4646, 41.3561], [-123.4651, 41.3522], [-123.4636, 41.3513], [-123.464, 41.3505], [-123.4654, 41.351], [-123.4656, 41.3498], [-123.4644, 41.3492], [-123.466, 41.3485], [-123.4644, 41.3479], [-123.4638, 41.3488], [-123.4626, 41.349], [-123.4622, 41.3477], [-123.4636, 41.3461], [-123.4617, 41.3463], [-123.4607, 41.3455], [-123.459, 41.3454], [-123.4584, 41.3467], [-123.457, 41.345], [-123.4558, 41.3449], [-123.4566, 41.3459], [-123.4557, 41.3462], [-123.4579, 41.3472], [-123.459, 41.3466], [-123.4601, 41.3468], [-123.4597, 41.3476], [-123.4613, 41.3476], [-123.4618, 41.3496], [-123.4633, 41.35], [-123.4627, 41.3525], [-123.4613, 41.3522], [-123.4604, 41.3551], [-123.459, 41.3563], [-123.4588, 41.3573], [-123.4608, 41.3579], [-123.4602, 41.3597], [-123.4581, 41.3603], [-123.4584, 41.3629], [-123.4596, 41.3634], [-123.4601, 41.3627], [-123.4614, 41.3633], [-123.4604, 41.3639], [-123.4583, 41.3636], [-123.4584, 41.3649], [-123.4599, 41.3646], [-123.4603, 41.3657], [-123.4585, 41.3663], [-123.4582, 41.367], [-123.4605, 41.3667], [-123.4609, 41.3673], [-123.4597, 41.3689], [-123.4596, 41.3711], [-123.4579, 41.3706], [-123.4571, 41.3715], [-123.4571, 41.3709], [-123.4554, 41.371], [-123.4554, 41.3696], [-123.4561, 41.3696], [-123.4554, 41.3688], [-123.4545, 41.3703], [-123.4522, 41.3701], [-123.4526, 41.3681], [-123.4542, 41.367], [-123.4527, 41.366], [-123.4522, 41.3664], [-123.4513, 41.3654], [-123.4501, 41.367], [-123.4488, 41.3661], [-123.4466, 41.3659], [-123.4454, 41.3675], [-123.4423, 41.3669]], [[-123.4235, 41.3561], [-123.4252, 41.3563], [-123.4262, 41.3578], [-123.4242, 41.3586], [-123.4252, 41.3586], [-123.4261, 41.3596], [-123.4286, 41.3589], [-123.4287, 41.3562], [-123.4321, 41.357], [-123.4324, 41.3563], [-123.4307, 41.3549], [-123.4312, 41.353], [-123.4297, 41.3542], [-123.4281, 41.3538], [-123.427, 41.3551], [-123.4251, 41.3524], [-123.422, 41.3539], [-123.4242, 41.3558], [-123.4235, 41.3561]], [[-123.4338, 41.3609], [-123.4334, 41.3597], [-123.4323, 41.3597], [-123.4313, 41.3587], [-123.4315, 41.3579], [-123.4287, 41.3598], [-123.4295, 41.3601], [-123.4303, 41.3594], [-123.4311, 41.3604], [-123.4324, 41.3601], [-123.4323, 41.3613], [-123.4279, 41.3623], [-123.4308, 41.3626], [-123.4338, 41.3609]], [[-123.4397, 41.3383], [-123.4412, 41.3368], [-123.4394, 41.3369], [-123.4386, 41.3364], [-123.4381, 41.3376], [-123.4397, 41.3383]], [[-123.4569, 41.339], [-123.4646, 41.3397], [-123.466, 41.3391], [-123.4631, 41.3364], [-123.4631, 41.3355], [-123.4653, 41.3348], [-123.4677, 41.335], [-123.4674, 41.3336], [-123.4684, 41.3332], [-123.4679, 41.3327], [-123.4698, 41.3315], [-123.4708, 41.3316], [-123.4715, 41.3334], [-123.4718, 41.332], [-123.4733, 41.3312], [-123.4717, 41.3286], [-123.4691, 41.3285], [-123.4696, 41.3267], [-123.4688, 41.3268], [-123.469, 41.3258], [-123.4681, 41.3261], [-123.467, 41.3256], [-123.4668, 41.3264], [-123.4639, 41.3269], [-123.4626, 41.3285], [-123.4601, 41.3282], [-123.4602, 41.3293], [-123.4577, 41.3286], [-123.4573, 41.3274], [-123.4561, 41.327], [-123.4538, 41.3289], [-123.4539, 41.33], [-123.4531, 41.3294], [-123.4528, 41.3302], [-123.4521, 41.3301], [-123.4516, 41.3293], [-123.4514, 41.3316], [-123.4528, 41.3325], [-123.4517, 41.3334], [-123.4535, 41.3334], [-123.4516, 41.3339], [-123.4534, 41.3341], [-123.4534, 41.3351], [-123.4546, 41.3352], [-123.4538, 41.3371], [-123.4547, 41.3377], [-123.4555, 41.3373], [-123.4569, 41.339]], [[-123.4552, 41.3387], [-123.4549, 41.3399], [-123.4556, 41.3394], [-123.4568, 41.3403], [-123.4568, 41.3394], [-123.4552, 41.3387]], [[-123.4682, 41.3479], [-123.4683, 41.3457], [-123.4698, 41.345], [-123.4681, 41.3452], [-123.4678, 41.3475], [-123.4661, 41.348], [-123.4663, 41.3487], [-123.467, 41.3489], [-123.4682, 41.3479]], [[-123.4674, 41.3428], [-123.4688, 41.3411], [-123.4677, 41.3403], [-123.467, 41.3407], [-123.4672, 41.3427], [-123.4665, 41.3429], [-123.4671, 41.3439], [-123.468, 41.3437], [-123.4674, 41.3428]], [[-123.4821, 41.3326], [-123.483, 41.335], [-123.4812, 41.3359], [-123.48, 41.3358], [-123.4792, 41.3374], [-123.482, 41.34], [-123.4832, 41.3386], [-123.4837, 41.335], [-123.486, 41.3343], [-123.485, 41.3312], [-123.4821, 41.3326]], [[-123.4842, 41.3272], [-123.4812, 41.3275], [-123.4815, 41.3292], [-123.4813, 41.3294], [-123.4811, 41.3294], [-123.4809, 41.3293], [-123.4809, 41.3293], [-123.4808, 41.3293], [-123.4808, 41.3294], [-123.4812, 41.3297], [-123.4838, 41.3299], [-123.4832, 41.3283], [-123.4842, 41.3272]], [[-123.4875, 41.2913], [-123.4893, 41.2914], [-123.4879, 41.2892], [-123.4877, 41.2902], [-123.4872, 41.2898], [-123.4877, 41.2886], [-123.4866, 41.2891], [-123.4869, 41.2899], [-123.4857, 41.2894], [-123.4848, 41.2901], [-123.4846, 41.2892], [-123.4835, 41.2904], [-123.4827, 41.2899], [-123.4816, 41.2906], [-123.482, 41.2916], [-123.485, 41.292], [-123.4855, 41.2934], [-123.4869, 41.2938], [-123.4877, 41.293], [-123.4864, 41.2928], [-123.4838, 41.2906], [-123.4851, 41.291], [-123.486, 41.2902], [-123.4875, 41.2913]], [[-123.4902, 41.2896], [-123.4895, 41.2901], [-123.4903, 41.2901], [-123.4902, 41.2896]], [[-123.4913, 41.2893], [-123.4909, 41.2884], [-123.4898, 41.2882], [-123.4905, 41.2897], [-123.4913, 41.2893]], [[-123.4965, 41.3075], [-123.5003, 41.3079], [-123.5005, 41.3073], [-123.5016, 41.3073], [-123.4985, 41.3035], [-123.4977, 41.3036], [-123.497, 41.3021], [-123.4979, 41.3009], [-123.4967, 41.3004], [-123.4967, 41.3038], [-123.4941, 41.3058], [-123.4929, 41.3053], [-123.4936, 41.3058], [-123.4927, 41.3056], [-123.4921, 41.3062], [-123.494, 41.309], [-123.4964, 41.3084], [-123.4965, 41.3075]], [[-123.4975, 41.2928], [-123.4977, 41.292], [-123.4953, 41.2921], [-123.4951, 41.2901], [-123.4937, 41.2904], [-123.4927, 41.2897], [-123.4924, 41.2914], [-123.493, 41.2918], [-123.4938, 41.2914], [-123.4938, 41.2924], [-123.4947, 41.2923], [-123.4944, 41.2931], [-123.4954, 41.2928], [-123.4956, 41.2973], [-123.4966, 41.2958], [-123.4989, 41.2954], [-123.4982, 41.2941], [-123.4991, 41.2938], [-123.4975, 41.2928]], [[-123.494, 41.2897], [-123.4948, 41.2893], [-123.4944, 41.2887], [-123.4938, 41.2893], [-123.494, 41.2897]], [[-123.4955, 41.299], [-123.498, 41.2999], [-123.4969, 41.2982], [-123.4955, 41.299]], [[-123.5016, 41.2931], [-123.4997, 41.2942], [-123.5009, 41.2941], [-123.5018, 41.2952], [-123.5026, 41.295], [-123.5018, 41.2941], [-123.5027, 41.2931], [-123.5009, 41.2911], [-123.5016, 41.2931]], [[-123.5019, 41.2911], [-123.5028, 41.2911], [-123.5027, 41.2908], [-123.5022, 41.2907], [-123.5019, 41.2911]], [[-123.503, 41.2904], [-123.5052, 41.2925], [-123.5057, 41.2918], [-123.503, 41.2904]], [[-123.5057, 41.2939], [-123.5055, 41.2933], [-123.5051, 41.2934], [-123.5049, 41.2939], [-123.5057, 41.2939]]], [[[-123.4654, 41.3335], [-123.4604, 41.3319], [-123.4603, 41.331], [-123.4612, 41.3312], [-123.4615, 41.3299], [-123.4648, 41.332], [-123.4654, 41.3335]]], [[[-123.5111, 41.331], [-123.5108, 41.3305], [-123.5112, 41.3305], [-123.5111, 41.331]]], [[[-123.5086, 41.3314], [-123.5085, 41.3308], [-123.5089, 41.3307], [-123.5091, 41.331], [-123.5086, 41.3314]]], [[[-123.4664, 41.3337], [-123.4663, 41.3339], [-123.4663, 41.3338], [-123.4664, 41.3337]]], [[[-123.5036, 41.3329], [-123.5038, 41.3328], [-123.5037, 41.3329], [-123.5036, 41.3329]]], [[[-123.4975, 41.3359], [-123.4979, 41.3357], [-123.4979, 41.3359], [-123.4975, 41.3359]]], [[[-123.4976, 41.3412], [-123.4977, 41.341], [-123.4977, 41.3412], [-123.4976, 41.3412]]], [[[-123.4636, 41.3529], [-123.4632, 41.352], [-123.4644, 41.3523], [-123.4636, 41.3529]]], [[[-123.4641, 41.353], [-123.4642, 41.3531], [-123.4641, 41.3531], [-123.4641, 41.353]]], [[[-123.4994, 41.3538], [-123.499, 41.3541], [-123.4992, 41.3537], [-123.4994, 41.3538]]], [[[-123.4814, 41.3664], [-123.4815, 41.3664], [-123.4815, 41.3665], [-123.4814, 41.3664]]], [[[-123.4802, 41.3669], [-123.4803, 41.3667], [-123.4805, 41.3668], [-123.4802, 41.3669]]], [[[-123.4568, 41.3068], [-123.4569, 41.3067], [-123.4569, 41.3067], [-123.4568, 41.3068]]], [[[-123.4574, 41.3067], [-123.4572, 41.3069], [-123.4572, 41.3067], [-123.4574, 41.3067]]], [[[-123.4463, 41.3158], [-123.447, 41.3158], [-123.4475, 41.3164], [-123.4466, 41.3164], [-123.4463, 41.3158]]], [[[-123.4513, 41.316], [-123.4517, 41.316], [-123.4514, 41.3162], [-123.4513, 41.316]]], [[[-123.4465, 41.3163], [-123.4461, 41.3162], [-123.4464, 41.3162], [-123.4465, 41.3163]]], [[[-123.4491, 41.3167], [-123.4493, 41.3169], [-123.4491, 41.3169], [-123.4491, 41.3167]]], [[[-123.4583, 41.3169], [-123.4585, 41.3166], [-123.4585, 41.3168], [-123.4583, 41.3169]]], [[[-123.4541, 41.3303], [-123.4544, 41.3302], [-123.4542, 41.3304], [-123.4541, 41.3303]]], [[[-123.4601, 41.3467], [-123.4597, 41.3464], [-123.46, 41.3464], [-123.4601, 41.3467]]], [[[-123.4615, 41.3474], [-123.4615, 41.3474], [-123.4615, 41.3474], [-123.4615, 41.3474]]], [[[-123.4625, 41.3493], [-123.4628, 41.3492], [-123.4627, 41.3494], [-123.4625, 41.3493]]], [[[-123.4606, 41.3597], [-123.4603, 41.3598], [-123.4604, 41.3596], [-123.4606, 41.3597]]], [[[-123.4606, 41.3614], [-123.4611, 41.3615], [-123.4606, 41.3616], [-123.4606, 41.3614]]], [[[-123.4618, 41.3639], [-123.4615, 41.3644], [-123.461, 41.3644], [-123.4611, 41.364], [-123.4618, 41.3639]]], [[[-123.4502, 41.3672], [-123.4499, 41.3674], [-123.4497, 41.3673], [-123.4502, 41.3672]]], [[[-123.4606, 41.3682], [-123.4612, 41.368], [-123.4611, 41.3683], [-123.4606, 41.3682]]], [[[-123.4475, 41.3717], [-123.4503, 41.3721], [-123.4503, 41.3729], [-123.449, 41.373], [-123.4475, 41.3717]]], [[[-123.4454, 41.3157], [-123.4457, 41.3155], [-123.4457, 41.3159], [-123.4454, 41.3157]]], [[[-123.4459, 41.3155], [-123.4462, 41.3158], [-123.446, 41.3158], [-123.4459, 41.3155]]], [[[-123.4457, 41.3163], [-123.4458, 41.316], [-123.4459, 41.3163], [-123.4457, 41.3163]]], [[[-123.4164, 41.3338], [-123.4168, 41.334], [-123.4164, 41.3341], [-123.4164, 41.3338]]], [[[-123.4106, 41.3342], [-123.4108, 41.3339], [-123.4108, 41.3341], [-123.4106, 41.3342]]], [[[-123.4091, 41.3374], [-123.4093, 41.3373], [-123.4092, 41.3374], [-123.4091, 41.3374]]], [[[-123.4065, 41.3412], [-123.4072, 41.3416], [-123.4072, 41.3419], [-123.4064, 41.3417], [-123.4065, 41.3412]]], [[[-123.4057, 41.3426], [-123.407, 41.3422], [-123.407, 41.3427], [-123.4057, 41.3426]]], [[[-123.4102, 41.3463], [-123.4097, 41.347], [-123.41, 41.3462], [-123.4102, 41.3463]]], [[[-123.4194, 41.3585], [-123.4196, 41.3585], [-123.4194, 41.3586], [-123.4194, 41.3585]]], [[[-123.4195, 41.3588], [-123.4196, 41.3589], [-123.4195, 41.3589], [-123.4195, 41.3588]]], [[[-123.4393, 41.3637], [-123.4389, 41.3636], [-123.4393, 41.3635], [-123.4393, 41.3637]]], [[[-123.4463, 41.3725], [-123.4462, 41.3726], [-123.4462, 41.3725], [-123.4463, 41.3725]]], [[[-123.4454, 41.3729], [-123.4454, 41.373], [-123.4453, 41.373], [-123.4454, 41.3729]]], [[[-123.4457, 41.374], [-123.4452, 41.3733], [-123.4461, 41.3733], [-123.4457, 41.374]]]]}, "properties": {"layer": "perimeter"}}, {"type": "Feature", "geometry": {"type": "MultiPolygon", "coordinates": [[[[-123.4164, 41.331], [-123.4165, 41.3309], [-123.4165, 41.331], [-123.4164, 41.331]]], [[[-123.4165, 41.3309], [-123.4165, 41.3309], [-123.4165, 41.3309], [-123.4165, 41.3309]]], [[[-123.4165, 41.3308], [-123.4162, 41.3299], [-123.4164, 41.3297], [-123.4165, 41.3297], [-123.4165, 41.3308]]], [[[-123.515, 41.3099], [-123.515, 41.3104], [-123.515, 41.3104], [-123.515, 41.3099], [-123.515, 41.3099]]], [[[-123.5128, 41.3116], [-123.5103, 41.3135], [-123.5109, 41.3164], [-123.5095, 41.3164], [-123.5097, 41.3116], [-123.5128, 41.3116]]], [[[-123.5111, 41.3213], [-123.5105, 41.3247], [-123.5114, 41.3284], [-123.5093, 41.3284], [-123.5094, 41.3212], [-123.5111, 41.3213]]], [[[-123.4475, 41.3717], [-123.4503, 41.3721], [-123.4504, 41.3727], [-123.4475, 41.3717]]]]}, "properties": {"layer": "retained"}}]}
