{"type": "FeatureCollection", "features": [{"type": "Feature", "geometry": {"type": "Polygon", "coordinates": [[[-117.4758, 33.3779], [-117.4755, 33.3789], [-117.4746, 33.3793], [-117.4635, 33.3789], [-117.4599, 33.3794], [-117.4584, 33.3783], [-117.4545, 33.3796], [-117.4499, 33.3794], [-117.447, 33.3766], [-117.4478, 33.3755], [-117.445, 33.3745], [-117.4454, 33.3731], [-117.4447, 33.3721], [-117.4459, 33.3697], [-117.4399, 33.3705], [-117.4393, 33.3684], [-117.4385, 33.3683], [-117.4394, 33.364], [-117.4386, 33.3627], [-117.4389, 33.3604], [-117.4403, 33.3591], [-117.4413, 33.3594], [-117.4406, 33.3567], [-117.4419, 33.3544], [-117.4448, 33.3577], [-117.4484, 33.3561], [-117.4542, 33.3616], [-117.4599, 33.3639], [-117.4614, 33.3651], [-117.4609, 33.3674], [-117.462, 33.3681], [-117.4636, 33.3679], [-117.4666, 33.3692], [-117.4678, 33.3707], [-117.4705, 33.3705], [-117.4724, 33.3714], [-117.474, 33.3729], [-117.4739, 33.3741], [-117.4724, 33.375], [-117.4701, 33.3746], [-117.4673, 33.3757], [-117.4746, 33.3766], [-117.4758, 33.3779]]]}, "properties": {"layer": "perimeter"}}]}
