{"type": "FeatureCollection", "features": [{"type": "Feature", "geometry": {"type": "Polygon", "coordinates": [[[-120.2381, 37.4374], [-120.2396, 37.4358], [-120.2376, 37.4332], [-120.2383, 37.4321], [-120.2411, 37.4319], [-120.2414, 37.4294], [-120.2445, 37.4277], [-120.2482, 37.4275], [-120.2509, 37.4284], [-120.2527, 37.428], [-120.257, 37.423], [-120.258, 37.4233], [-120.2577, 37.4244], [-120.2604, 37.4237], [-120.2617, 37.4256], [-120.2633, 37.4247], [-120.2656, 37.4249], [-120.2642, 37.4244], [-120.2628, 37.4222], [-120.2594, 37.4214], [-120.2567, 37.4182], [-120.2547, 37.4171], [-120.254, 37.4148], [-120.2548, 37.4141], [-120.2533, 37.4127], [-120.2535, 37.4112], [-120.2549, 37.4122], [-120.2556, 37.4113], [-120.2586, 37.4114], [-120.2595, 37.4107], [-120.265, 37.4117], [-120.266, 37.4104], [-120.2663, 37.411], [-120.2684, 37.4115], [-120.2692, 37.4128], [-120.2719, 37.4122], [-120.2722, 37.4106], [-120.2745, 37.4085], [-120.2924, 37.4021], [-120.3038, 37.3989], [-120.3188, 37.3964], [-120.3214, 37.3971], [-120.3276, 37.3963], [-120.3304, 37.3946], [-120.3334, 37.3941], [-120.3384, 37.3943], [-120.3375, 37.3887], [-120.3366, 37.3873], [-120.3356, 37.3875], [-120.3349, 37.3846], [-120.3331, 37.3839], [-120.333, 37.3805], [-120.3315, 37.378], [-120.3324, 37.3755], [-120.334, 37.3746], [-120.339, 37.3781], [-120.3435, 37.3879], [-120.3448, 37.3938], [-120.3447, 37.3988], [-120.3434, 37.3995], [-120.3437, 37.4044], [-120.3404, 37.4006], [-120.3392, 37.3962], [-120.3375, 37.4003], [-120.3329, 37.4034], [-120.3297, 37.4065], [-120.3246, 37.4089], [-120.3208, 37.412], [-120.3169, 37.4137], [-120.3145, 37.4165], [-120.3112, 37.418], [-120.312, 37.4143], [-120.2985, 37.4243], [-120.2919, 37.4272], [-120.292, 37.4277], [-120.2905, 37.4288], [-120.2826, 37.4326], [-120.2817, 37.4317], [-120.2815, 37.4285], [-120.2808, 37.4276], [-120.2726, 37.4309], [-120.2649, 37.4329], [-120.2572, 37.4336], [-120.255, 37.4345], [-120.249, 37.4351], [-120.2486, 37.4357], [-120.2415, 37.4373], [-120.2381, 37.4374]]]}, "properties": {"layer": "perimeter"}}, {"type": "Feature", "geometry": {"type": "Polygon", "coordinates": [[[-120.2384, 37.4376], [-120.2396, 37.4358], [-120.2376, 37.4332], [-120.2383, 37.4321], [-120.2411, 37.4319], [-120.2414, 37.4294], [-120.2445, 37.4277], [-120.2482, 37.4275], [-120.2509, 37.4284], [-120.2527, 37.428], [-120.257, 37.423], [-120.258, 37.4233], [-120.2577, 37.4244], [-120.2604, 37.4237], [-120.2617, 37.4256], [-120.2633, 37.4247], [-120.2656, 37.4249], [-120.2642, 37.4244], [-120.2628, 37.4222], [-120.2594, 37.4214], [-120.2567, 37.4182], [-120.2547, 37.4171], [-120.254, 37.4148], [-120.2548, 37.4141], [-120.2533, 37.4127], [-120.2535, 37.4112], [-120.2549, 37.4122], [-120.2556, 37.4113], [-120.2586, 37.4114], [-120.2595, 37.4107], [-120.265, 37.4117], [-120.266, 37.4104], [-120.2663, 37.411], [-120.2684, 37.4115], [-120.2692, 37.4128], [-120.2719, 37.4122], [-120.2722, 37.4106], [-120.2745, 37.4085], [-120.2924, 37.4021], [-120.3038, 37.3989], [-120.3188, 37.3964], [-120.3214, 37.3971], [-120.3276, 37.3963], [-120.3304, 37.3946], [-120.3334, 37.3941], [-120.3384, 37.3943], [-120.3375, 37.3887], [-120.3366, 37.3873], [-120.3356, 37.3875], [-120.3349, 37.3846], [-120.3331, 37.3839], [-120.333, 37.3805], [-120.3315, 37.378], [-120.3324, 37.3755], [-120.334, 37.3746], [-120.339, 37.3781], [-120.3435, 37.3879], [-120.3448, 37.3938], [-120.3447, 37.3988], [-120.3434, 37.3995], [-120.3437, 37.4044], [-120.3404, 37.4006], [-120.3392, 37.3962], [-120.3375, 37.4003], [-120.3329, 37.4034], [-120.3297, 37.4065], [-120.3246, 37.4089], [-120.3208, 37.412], [-120.3169, 37.4137], [-120.3145, 37.4165], [-120.3112, 37.418], [-120.312, 37.4143], [-120.2985, 37.4243], [-120.2919, 37.4272], [-120.292, 37.4277], [-120.2905, 37.4288], [-120.2826, 37.4326], [-120.2817, 37.4317], [-120.2815, 37.4285], [-120.2808, 37.4276], [-120.2726, 37.4309], [-120.2649, 37.4329], [-120.249, 37.4351], [-120.2486, 37.4357], [-120.2415, 37.4373], [-120.2384, 37.4376]]]}, "properties": {"layer": "retained"}}]}
