{"type": "FeatureCollection", "features": [{"type": "Feature", "geometry": {"type": "Polygon", "coordinates": [[[-122.0031, 38.4817], [-122.0018, 38.4803], [-121.9987, 38.4808], [-121.996, 38.4785], [-121.9962, 38.4778], [-121.9988, 38.4772], [-121.9992, 38.4762], [-121.9967, 38.4741], [-121.9976, 38.4727], [-121.9966, 38.4692], [-121.9944, 38.4691], [-121.9974, 38.4654], [-122.0017, 38.4631], [-122.0062, 38.4625], [-122.0131, 38.4641], [-122.0156, 38.4632], [-122.0167, 38.4645], [-122.0206, 38.4658], [-122.0274, 38.4658], [-122.0298, 38.467], [-122.0317, 38.4695], [-122.0387, 38.4701], [-122.0428, 38.472], [-122.0439, 38.4732], [-122.044, 38.4783], [-122.0414, 38.4827], [-122.0387, 38.4812], [-122.038, 38.4795], [-122.0293, 38.4804], [-122.0205, 38.483], [-122.0174, 38.487], [-122.0158, 38.4878], [-122.0124, 38.4859], [-122.0085, 38.4864], [-122.0068, 38.486], [-122.0061, 38.4852], [-122.0067, 38.4828], [-122.0031, 38.4817]]]}, "properties": {"layer": "perimeter"}}, {"type": "Feature", "geometry": {"type": "Polygon", "coordinates": [[[-122.0028, 38.4815], [-122.0018, 38.4803], [-121.9987, 38.4808], [-121.996, 38.4785], [-121.9962, 38.4778], [-121.9988, 38.4772], [-121.9992, 38.4762], [-121.9967, 38.4741], [-121.9976, 38.4727], [-121.9966, 38.4692], [-121.9944, 38.4691], [-121.9974, 38.4654], [-122.0017, 38.4631], [-122.0062, 38.4625], [-122.0131, 38.4641], [-122.0156, 38.4632], [-122.0167, 38.4645], [-122.0206, 38.4658], [-122.0274, 38.4658], [-122.0298, 38.467], [-122.0317, 38.4695], [-122.0387, 38.4701], [-122.0428, 38.472], [-122.0439, 38.4732], [-122.044, 38.4783], [-122.0414, 38.4827], [-122.0387, 38.4812], [-122.038, 38.4795], [-122.0293, 38.4804], [-122.0205, 38.483], [-122.0174, 38.487], [-122.0158, 38.4878], [-122.0124, 38.4859], [-122.0085, 38.4864], [-122.0068, 38.486], [-122.0061, 38.4852], [-122.0067, 38.4828], [-122.0028, 38.4815]]]}, "properties": {"layer": "retained"}}]}
