{"type": "FeatureCollection", "features": [{"type": "Feature", "geometry": {"type": "Polygon", "coordinates": [[[-119.9067, 38.0659], [-119.9086, 38.062], [-119.9095, 38.0617], [-119.9109, 38.0625], [-119.9157, 38.0619], [-119.9174, 38.0624], [-119.92, 38.0648], [-119.925, 38.0644], [-119.9278, 38.0649], [-119.9264, 38.0685], [-119.9295, 38.0661], [-119.932, 38.0661], [-119.9365, 38.062], [-119.9374, 38.0624], [-119.9395, 38.0586], [-119.9454, 38.0565], [-119.9474, 38.059], [-119.9504, 38.0565], [-119.9526, 38.0562], [-119.9539, 38.055], [-119.9552, 38.0518], [-119.9631, 38.0517], [-119.9637, 38.0526], [-119.9627, 38.0548], [-119.9658, 38.0545], [-119.9697, 38.0514], [-119.9711, 38.0471], [-119.9745, 38.0452], [-119.9767, 38.0466], [-119.9788, 38.0468], [-119.9812, 38.0451], [-119.9823, 38.0452], [-119.9839, 38.0478], [-119.9836, 38.0532], [-119.9869, 38.0539], [-119.9887, 38.053], [-119.9909, 38.0529], [-119.9904, 38.0573], [-119.9932, 38.059], [-119.9909, 38.0623], [-119.9858, 38.0604], [-119.9841, 38.0606], [-119.9879, 38.0631], [-119.9815, 38.0623], [-119.9792, 38.0634], [-119.98, 38.0642], [-119.9865, 38.0635], [-119.9883, 38.0642], [-119.9811, 38.0696], [-119.9783, 38.0705], [-119.9771, 38.0719], [-119.9722, 38.0724], [-119.9701, 38.0753], [-119.9665, 38.0764], [-119.9615, 38.0817], [-119.9633, 38.0826], [-119.9625, 38.0852], [-119.9612, 38.0874], [-119.9597, 38.0883], [-119.9594, 38.0897], [-119.9579, 38.0907], [-119.9553, 38.0912], [-119.9506, 38.098], [-119.9475, 38.0996], [-119.9454, 38.0999], [-119.9485, 38.1046], [-119.947, 38.1066], [-119.9513, 38.1097], [-119.9516, 38.112], [-119.9474, 38.1154], [-119.9458, 38.1143], [-119.9378, 38.1195], [-119.9318, 38.1218], [-119.9297, 38.1266], [-119.9285, 38.1258], [-119.9257, 38.1263], [-119.9239, 38.1258], [-119.9198, 38.1301], [-119.9179, 38.1301], [-119.9147, 38.1312], [-119.914, 38.1294], [-119.9113, 38.1298], [-119.9107, 38.1284], [-119.912, 38.1264], [-119.9157, 38.1254], [-119.9194, 38.123], [-119.9213, 38.1236], [-119.9217, 38.123], [-119.9228, 38.1234], [-119.9263, 38.1221], [-119.9252, 38.1211], [-119.9237, 38.1213], [-119.9252, 38.1204], [-119.9293, 38.1138], [-119.9308, 38.1135], [-119.9295, 38.11], [-119.931, 38.1094], [-119.9307, 38.1086], [-119.9317, 38.108], [-119.9312, 38.1073], [-119.9338, 38.1045], [-119.932, 38.1051], [-119.9315, 38.1047], [-119.9322, 38.1027], [-119.9306, 38.1016], [-119.9299, 38.1017], [-119.9295, 38.0994], [-119.9282, 38.0987], [-119.9276, 38.0991], [-119.9273, 38.0968], [-119.9264, 38.0963], [-119.9224, 38.0975], [-119.9223, 38.096], [-119.9239, 38.0955], [-119.9236, 38.0947], [-119.9205, 38.094], [-119.9176, 38.0961], [-119.9172, 38.0982], [-119.918, 38.0991], [-119.917, 38.1005], [-119.9163, 38.1008], [-119.9147, 38.0985], [-119.9126, 38.0994], [-119.9163, 38.1063], [-119.9155, 38.1134], [-119.9147, 38.114], [-119.9139, 38.1134], [-119.9139, 38.1065], [-119.9132, 38.1039], [-119.9114, 38.1036], [-119.9077, 38.1015], [-119.9085, 38.0996], [-119.9077, 38.0982], [-119.9084, 38.0951], [-119.9127, 38.0934], [-119.9095, 38.0894], [-119.9094, 38.0804], [-119.9075, 38.0787], [-119.9074, 38.0749], [-119.9024, 38.0719], [-119.9005, 38.074], [-119.899, 38.0823], [-119.8945, 38.0889], [-119.8916, 38.0888], [-119.8904, 38.0904], [-119.8871, 38.0887], [-119.8848, 38.0902], [-119.8854, 38.0908], [-119.8837, 38.0924], [-119.8825, 38.0951], [-119.8797, 38.0969], [-119.8773, 38.1017], [-119.8742, 38.1042], [-119.8728, 38.1043], [-119.8731, 38.1033], [-119.872, 38.1029], [-119.8727, 38.1024], [-119.8713, 38.1009], [-119.8722, 38.099], [-119.8703, 38.0953], [-119.8731, 38.088], [-119.8773, 38.0869], [-119.8774, 38.0846], [-119.8817, 38.0795], [-119.8825, 38.0775], [-119.8852, 38.077], [-119.887, 38.0741], [-119.8882, 38.0736], [-119.8899, 38.0742], [-119.8935, 38.0741], [-119.8964, 38.0686], [-119.8986, 38.0674], [-119.8998, 38.0643], [-119.9022, 38.0623], [-119.904, 38.0659], [-119.9067, 38.0659]]]}, "properties": {"layer": "perimeter"}}]}
