{"type": "FeatureCollection", "features": [{"type": "Feature", "geometry": {"type": "Polygon", "coordinates": [[[-120.5413, 40.5986], [-120.5356, 40.6046], [-120.5343, 40.6038], [-120.5332, 40.6082], [-120.531, 40.6108], [-120.5313, 40.6118], [-120.5284, 40.6132], [-120.5275, 40.6122], [-120.526, 40.6157], [-120.524, 40.6168], [-120.5227, 40.6166], [-120.5223, 40.6182], [-120.5185, 40.6214], [-120.5126, 40.6257], [-120.508, 40.6279], [-120.5075, 40.6296], [-120.504, 40.6327], [-120.5021, 40.6317], [-120.5018, 40.6322], [-120.5005, 40.632], [-120.5007, 40.6302], [-120.499, 40.6269], [-120.498, 40.6277], [-120.4983, 40.6265], [-120.4969, 40.627], [-120.4972, 40.6261], [-120.4952, 40.6274], [-120.4927, 40.6272], [-120.4924, 40.6263], [-120.4914, 40.6269], [-120.4909, 40.6262], [-120.4918, 40.6246], [-120.497, 40.6168], [-120.5099, 40.6118], [-120.5154, 40.6074], [-120.5248, 40.5962], [-120.5296, 40.5867], [-120.5319, 40.5846], [-120.5351, 40.5837], [-120.5388, 40.5812], [-120.538, 40.579], [-120.5385, 40.5771], [-120.5421, 40.5755], [-120.5397, 40.5733], [-120.5395, 40.5713], [-120.5428, 40.5672], [-120.5441, 40.5638], [-120.5462, 40.5639], [-120.5519, 40.5674], [-120.5569, 40.5661], [-120.56, 40.5665], [-120.5644, 40.5688], [-120.5658, 40.571], [-120.5619, 40.5725], [-120.5619, 40.5738], [-120.5597, 40.5763], [-120.5605, 40.578], [-120.5647, 40.5804], [-120.5652, 40.5823], [-120.5699, 40.5828], [-120.5758, 40.5873], [-120.5774, 40.5867], [-120.578, 40.5858], [-120.5773, 40.5835], [-120.5779, 40.5829], [-120.5799, 40.5841], [-120.5804, 40.5858], [-120.5792, 40.5875], [-120.5744, 40.5893], [-120.5661, 40.5876], [-120.5649, 40.588], [-120.5492, 40.5859], [-120.5502, 40.5887], [-120.5491, 40.5912], [-120.548, 40.5926], [-120.5415, 40.5961], [-120.5413, 40.5986]]]}, "properties": {"layer": "perimeter"}}, {"type": "Feature", "geometry": {"type": "MultiPolygon", "coordinates": [[[[-120.5136, 40.6246], [-120.5126, 40.6257], [-120.5091, 40.6272], [-120.5091, 40.6246], [-120.5136, 40.6246]]], [[[-120.4948, 40.6272], [-120.4927, 40.6272], [-120.4924, 40.6263], [-120.4914, 40.6269], [-120.4909, 40.6262], [-120.4949, 40.62], [-120.4948, 40.6272]]], [[[-120.509, 40.6122], [-120.5117, 40.6101], [-120.5137, 40.6102], [-120.5137, 40.6138], [-120.509, 40.6137], [-120.509, 40.6122]]], [[[-120.5612, 40.5673], [-120.5644, 40.5688], [-120.5658, 40.571], [-120.5619, 40.5725], [-120.5614, 40.5744], [-120.5564, 40.5744], [-120.5564, 40.5672], [-120.5612, 40.5673]]], [[[-120.5657, 40.5824], [-120.5699, 40.5828], [-120.5758, 40.5873], [-120.5774, 40.5867], [-120.578, 40.5858], [-120.5773, 40.5835], [-120.5779, 40.5829], [-120.5799, 40.5841], [-120.5804, 40.5858], [-120.5792, 40.5875], [-120.5744, 40.5893], [-120.5664, 40.588], [-120.5656, 40.5878], [-120.5657, 40.5824]]], [[[-120.5467, 40.5932], [-120.5415, 40.5961], [-120.5413, 40.5986], [-120.5374, 40.6031], [-120.5326, 40.6031], [-120.5326, 40.5994], [-120.5279, 40.5994], [-120.5279, 40.5958], [-120.5327, 40.5958], [-120.5327, 40.5886], [-120.5469, 40.5887], [-120.5467, 40.5932]]]]}, "properties": {"layer": "retained"}}]}
