{"type": "FeatureCollection", "features": [{"type": "Feature", "geometry": {"type": "Polygon", "coordinates": [[[-118.8779, 36.7083], [-118.8784, 36.7074], [-118.8779, 36.705], [-118.8772, 36.704], [-118.8754, 36.7038], [-118.8747, 36.7014], [-118.8776, 36.6973], [-118.8787, 36.6977], [-118.8779, 36.7021], [-118.8788, 36.7037], [-118.8835, 36.7057], [-118.8861, 36.7083], [-118.8893, 36.7097], [-118.8915, 36.7138], [-118.8949, 36.7145], [-118.8965, 36.7167], [-118.8971, 36.7193], [-118.8983, 36.7194], [-118.901, 36.7182], [-118.9016, 36.7165], [-118.9025, 36.7161], [-118.9057, 36.7176], [-118.9075, 36.721], [-118.9092, 36.7218], [-118.908, 36.725], [-118.9057, 36.7247], [-118.9041, 36.7252], [-118.9032, 36.7243], [-118.9032, 36.7224], [-118.9008, 36.7217], [-118.8952, 36.7242], [-118.8914, 36.7236], [-118.8908, 36.7225], [-118.8916, 36.7174], [-118.89, 36.7166], [-118.8875, 36.7178], [-118.8859, 36.7196], [-118.8857, 36.7229], [-118.8842, 36.7255], [-118.8822, 36.7264], [-118.8792, 36.7292], [-118.8764, 36.7305], [-118.8764, 36.731], [-118.8779, 36.7309], [-118.8782, 36.7317], [-118.8766, 36.7325], [-118.8768, 36.7341], [-118.8756, 36.7349], [-118.8746, 36.737], [-118.8734, 36.7375], [-118.8722, 36.7405], [-118.8699, 36.7418], [-118.8683, 36.7416], [-118.868, 36.7437], [-118.8695, 36.7449], [-118.8691, 36.7461], [-118.8618, 36.7479], [-118.8612, 36.7501], [-118.8593, 36.7506], [-118.8532, 36.7543], [-118.8498, 36.7544], [-118.8478, 36.7532], [-118.8486, 36.7505], [-118.8465, 36.7498], [-118.8507, 36.7464], [-118.8545, 36.7464], [-118.8523, 36.7439], [-118.8544, 36.7413], [-118.8574, 36.7408], [-118.8582, 36.7394], [-118.8563, 36.7386], [-118.8557, 36.7372], [-118.854, 36.7363], [-118.8574, 36.7358], [-118.8573, 36.7349], [-118.8599, 36.7335], [-118.8638, 36.7267], [-118.8609, 36.7258], [-118.8599, 36.7244], [-118.8589, 36.7253], [-118.8561, 36.7245], [-118.8531, 36.725], [-118.8519, 36.7221], [-118.8502, 36.7215], [-118.849, 36.7176], [-118.851, 36.7156], [-118.8507, 36.7151], [-118.8526, 36.715], [-118.8555, 36.7134], [-118.8565, 36.7116], [-118.859, 36.7094], [-118.862, 36.7091], [-118.8635, 36.711], [-118.8647, 36.7114], [-118.8676, 36.7105], [-118.8682, 36.7097], [-118.8699, 36.71], [-118.8779, 36.7083]]]}, "properties": {"layer": "perimeter"}}, {"type": "Feature", "geometry": {"type": "MultiPolygon", "coordinates": [[[[-118.9081, 36.7249], [-118.9071, 36.7251], [-118.9066, 36.7249], [-118.9081, 36.7249]]], [[[-118.9052, 36.7249], [-118.9041, 36.7252], [-118.9037, 36.7249], [-118.9052, 36.7249]]], [[[-118.8909, 36.723], [-118.8909, 36.7215], [-118.891, 36.7213], [-118.8909, 36.723]]], [[[-118.8885, 36.7175], [-118.8875, 36.7178], [-118.8868, 36.7188], [-118.8868, 36.7174], [-118.8885, 36.7175]]], [[[-118.8846, 36.7248], [-118.8836, 36.726], [-118.8825, 36.7263], [-118.8826, 36.7247], [-118.8846, 36.7248]]]]}, "properties": {"layer": "retained"}}]}
