{"type": "FeatureCollection", "features": [{"type": "Feature", "geometry": {"type": "Polygon", "coordinates": [[[-117.0079, 33.9203], [-116.9978, 33.9213], [-116.9966, 33.9206], [-116.9968, 33.9193], [-116.9939, 33.9192], [-116.9944, 33.9185], [-116.993, 33.9186], [-116.993, 33.918], [-116.9903, 33.9184], [-116.99, 33.9174], [-116.9893, 33.9177], [-116.988, 33.9168], [-116.9876, 33.9156], [-116.9884, 33.9157], [-116.9872, 33.914], [-116.9856, 33.9134], [-116.9856, 33.9119], [-116.9847, 33.9115], [-116.9836, 33.9125], [-116.9831, 33.9113], [-116.9815, 33.9104], [-116.9816, 33.9097], [-116.9795, 33.9091], [-116.9813, 33.9084], [-116.9809, 33.9071], [-116.983, 33.9053], [-116.9829, 33.903], [-116.9858, 33.9008], [-116.9876, 33.8983], [-116.9876, 33.8939], [-116.9909, 33.8863], [-116.9907, 33.8838], [-116.9951, 33.8848], [-116.9948, 33.884], [-116.9939, 33.8841], [-116.9949, 33.8839], [-116.9963, 33.8847], [-116.9968, 33.8891], [-117.0, 33.8901], [-117.0023, 33.8894], [-117.0006, 33.8895], [-116.9981, 33.8882], [-116.9982, 33.8861], [-116.9963, 33.8832], [-116.9968, 33.8822], [-116.9979, 33.8848], [-117.0003, 33.8861], [-117.0018, 33.8848], [-117.0021, 33.8839], [-117.0012, 33.8837], [-117.0008, 33.8826], [-117.0014, 33.882], [-117.0003, 33.8806], [-117.0014, 33.8804], [-117.0011, 33.8788], [-117.0022, 33.8771], [-117.0004, 33.8765], [-116.9978, 33.877], [-116.9971, 33.8815], [-116.9959, 33.8834], [-116.9913, 33.8834], [-116.9917, 33.8764], [-116.9933, 33.8734], [-116.9956, 33.871], [-117.0011, 33.8685], [-117.0041, 33.8684], [-117.0076, 33.8669], [-117.0083, 33.8656], [-117.0079, 33.8623], [-117.0087, 33.8609], [-117.0101, 33.8612], [-117.0113, 33.8601], [-117.0126, 33.8611], [-117.0144, 33.8596], [-117.0155, 33.8603], [-117.0174, 33.8601], [-117.0191, 33.8588], [-117.019, 33.8578], [-117.0315, 33.8663], [-117.0333, 33.8669], [-117.037, 33.8665], [-117.0391, 33.8669], [-117.0466, 33.8713], [-117.0564, 33.8791], [-117.0595, 33.8821], [-117.059, 33.8829], [-117.0622, 33.8852], [-117.0635, 33.8852], [-117.0676, 33.8882], [-117.0692, 33.8882], [-117.0699, 33.8888], [-117.0708, 33.8879], [-117.072, 33.8883], [-117.0721, 33.8894], [-117.0711, 33.8896], [-117.0684, 33.8927], [-117.0681, 33.8956], [-117.0664, 33.8958], [-117.0656, 33.8968], [-117.0611, 33.8979], [-117.0583, 33.8995], [-117.0574, 33.9003], [-117.0578, 33.9015], [-117.0571, 33.9028], [-117.0561, 33.9035], [-117.0546, 33.902], [-117.0516, 33.9026], [-117.0489, 33.9021], [-117.0481, 33.9028], [-117.0455, 33.9017], [-117.0452, 33.9025], [-117.0464, 33.9034], [-117.0446, 33.9038], [-117.043, 33.9061], [-117.0417, 33.9064], [-117.0418, 33.907], [-117.0403, 33.9066], [-117.0404, 33.9089], [-117.0393, 33.9101], [-117.038, 33.9088], [-117.0384, 33.908], [-117.0372, 33.9078], [-117.0376, 33.9102], [-117.0353, 33.9102], [-117.0341, 33.9109], [-117.0338, 33.9121], [-117.0315, 33.9126], [-117.0321, 33.9129], [-117.0317, 33.9144], [-117.0301, 33.9146], [-117.0291, 33.9139], [-117.028, 33.9154], [-117.0266, 33.915], [-117.0245, 33.9167], [-117.0235, 33.9167], [-117.024, 33.916], [-117.0235, 33.9157], [-117.0224, 33.9165], [-117.0212, 33.9161], [-117.0211, 33.9154], [-117.0193, 33.9155], [-117.0201, 33.9147], [-117.0188, 33.9146], [-117.0198, 33.9132], [-117.0192, 33.9133], [-117.0166, 33.9149], [-117.0166, 33.9163], [-117.0151, 33.9183], [-117.0136, 33.9185], [-117.0131, 33.9205], [-117.0079, 33.9203]], [[-117.0368, 33.8727], [-117.0365, 33.873], [-117.0394, 33.8726], [-117.0392, 33.8717], [-117.0375, 33.8703], [-117.0366, 33.8714], [-117.037, 33.87], [-117.0338, 33.8677], [-117.0337, 33.8697], [-117.0368, 33.8727]]]}, "properties": {"layer": "perimeter"}}, {"type": "Feature", "geometry": {"type": "Polygon", "coordinates": [[[-117.0079, 33.9203], [-116.9989, 33.9211], [-116.9989, 33.918], [-116.9946, 33.9184], [-116.9946, 33.9192], [-116.9939, 33.9192], [-116.9944, 33.9185], [-116.993, 33.9186], [-116.993, 33.918], [-116.9903, 33.9184], [-116.9902, 33.9152], [-116.9879, 33.9152], [-116.9867, 33.9136], [-116.9856, 33.9134], [-116.9856, 33.9119], [-116.9847, 33.9115], [-116.9836, 33.9125], [-116.9831, 33.9113], [-116.9815, 33.9104], [-116.9816, 33.9097], [-116.9795, 33.9091], [-116.9813, 33.9084], [-116.9809, 33.9071], [-116.983, 33.9053], [-116.9829, 33.903], [-116.9858, 33.9008], [-116.9876, 33.8983], [-116.9876, 33.8939], [-116.9909, 33.8863], [-116.9907, 33.8838], [-116.9951, 33.8848], [-116.9948, 33.884], [-116.9939, 33.8841], [-116.9949, 33.8839], [-116.9963, 33.8847], [-116.9968, 33.8891], [-117.0, 33.8901], [-117.0023, 33.8894], [-117.0006, 33.8895], [-116.9981, 33.8882], [-116.9982, 33.8861], [-116.9963, 33.8832], [-116.9968, 33.8822], [-116.9979, 33.8848], [-117.0003, 33.8861], [-117.0018, 33.8848], [-117.0021, 33.8839], [-117.0012, 33.8837], [-117.0008, 33.8826], [-117.0014, 33.882], [-117.0003, 33.8806], [-117.0014, 33.8804], [-117.0011, 33.8788], [-117.0022, 33.8771], [-117.0004, 33.8765], [-116.9978, 33.877], [-116.9971, 33.8815], [-116.9959, 33.8834], [-116.9913, 33.8834], [-116.9917, 33.8764], [-116.9952, 33.8721], [-116.9994, 33.8695], [-117.0011, 33.8685], [-117.0041, 33.8684], [-117.0076, 33.8669], [-117.0083, 33.8656], [-117.0079, 33.8623], [-117.0087, 33.8609], [-117.0101, 33.8612], [-117.0113, 33.8601], [-117.0126, 33.8611], [-117.0144, 33.8596], [-117.0155, 33.8603], [-117.0174, 33.8601], [-117.0191, 33.8588], [-117.019, 33.8578], [-117.0322, 33.8667], [-117.0391, 33.8669], [-117.0456, 33.8707], [-117.0561, 33.8789], [-117.0595, 33.8821], [-117.059, 33.8829], [-117.0622, 33.8852], [-117.0635, 33.8853], [-117.0677, 33.8884], [-117.071, 33.8897], [-117.0684, 33.8927], [-117.0681, 33.8956], [-117.0664, 33.8958], [-117.0656, 33.8968], [-117.0611, 33.8979], [-117.0583, 33.8995], [-117.0574, 33.9003], [-117.0578, 33.9015], [-117.0571, 33.9028], [-117.0561, 33.9035], [-117.0546, 33.902], [-117.0516, 33.9026], [-117.0489, 33.9021], [-117.0481, 33.9028], [-117.0455, 33.9017], [-117.0452, 33.9025], [-117.0464, 33.9034], [-117.0446, 33.9038], [-117.043, 33.9061], [-117.0417, 33.9064], [-117.0418, 33.907], [-117.0403, 33.9066], [-117.0404, 33.9089], [-117.0393, 33.9101], [-117.038, 33.9088], [-117.0384, 33.908], [-117.0372, 33.9078], [-117.0376, 33.9102], [-117.0353, 33.9102], [-117.0341, 33.9109], [-117.0338, 33.9121], [-117.0315, 33.9126], [-117.0321, 33.9129], [-117.0317, 33.9144], [-117.0301, 33.9146], [-117.0291, 33.9139], [-117.028, 33.9154], [-117.0266, 33.915], [-117.0245, 33.9167], [-117.0235, 33.9167], [-117.024, 33.916], [-117.0235, 33.9157], [-117.0224, 33.9165], [-117.0212, 33.9161], [-117.0211, 33.9154], [-117.0193, 33.9155], [-117.0201, 33.9147], [-117.0188, 33.9146], [-117.0198, 33.9132], [-117.0192, 33.9133], [-117.0166, 33.9149], [-117.0166, 33.9163], [-117.0151, 33.9183], [-117.0136, 33.9185], [-117.0131, 33.9205], [-117.0079, 33.9203]], [[-117.0365, 33.873], [-117.0394, 33.8726], [-117.0392, 33.8717], [-117.0375, 33.8703], [-117.0366, 33.8714], [-117.037, 33.87], [-117.0338, 33.8677], [-117.0337, 33.8697], [-117.0369, 33.8724], [-117.0365, 33.873]]]}, "properties": {"layer": "retained"}}]}
