{"type": "FeatureCollection", "features": [{"type": "Feature", "geometry": {"type": "MultiPolygon", "coordinates": [[[[-116.8761, 34.2061], [-116.8758, 34.206], [-116.8762, 34.2059], [-116.8761, 34.2061]]], [[[-116.8933, 34.2073], [-116.8931, 34.2074], [-116.8931, 34.2073], [-116.8933, 34.2073]]], [[[-116.8696, 34.2091], [-116.8694, 34.2088], [-116.8698, 34.2089], [-116.8696, 34.2091]]], [[[-116.8693, 34.21], [-116.8692, 34.2104], [-116.8688, 34.2102], [-116.8693, 34.21]]], [[[-116.8711, 34.212], [-116.8713, 34.2119], [-116.8713, 34.212], [-116.8711, 34.212]]], [[[-116.8685, 34.2125], [-116.8685, 34.2123], [-116.8686, 34.2124], [-116.8685, 34.2125]]], [[[-116.8946, 34.2119], [-116.895, 34.2124], [-116.894, 34.214], [-116.8946, 34.2151], [-116.8967, 34.2142], [-116.8968, 34.2152], [-116.8976, 34.2149], [-116.8981, 34.216], [-116.8995, 34.2156], [-116.8987, 34.2169], [-116.8999, 34.2169], [-116.9005, 34.2181], [-116.9002, 34.219], [-116.899, 34.2188], [-116.8999, 34.2197], [-116.8999, 34.2216], [-116.8975, 34.2208], [-116.8965, 34.2209], [-116.8962, 34.2217], [-116.8962, 34.2207], [-116.8957, 34.2202], [-116.8947, 34.2208], [-116.8917, 34.2184], [-116.8896, 34.2185], [-116.8889, 34.2196], [-116.8894, 34.2205], [-116.8843, 34.2226], [-116.8853, 34.223], [-116.8854, 34.2238], [-116.8836, 34.2249], [-116.8837, 34.2259], [-116.8807, 34.2261], [-116.8793, 34.2252], [-116.8791, 34.2241], [-116.8765, 34.223], [-116.8779, 34.2202], [-116.8801, 34.2203], [-116.8791, 34.2185], [-116.8801, 34.2171], [-116.8793, 34.2165], [-116.8773, 34.2172], [-116.8755, 34.2188], [-116.8727, 34.2189], [-116.8715, 34.216], [-116.8723, 34.2137], [-116.8713, 34.2118], [-116.8716, 34.2098], [-116.8713, 34.2091], [-116.8704, 34.2093], [-116.87, 34.2079], [-116.872, 34.2048], [-116.8748, 34.2057], [-116.8751, 34.207], [-116.8769, 34.2067], [-116.8771, 34.2045], [-116.875, 34.205], [-116.8738, 34.2045], [-116.8741, 34.2037], [-116.8759, 34.2036], [-116.876, 34.2025], [-116.8777, 34.2029], [-116.8854, 34.2003], [-116.8855, 34.2018], [-116.8871, 34.2013], [-116.8876, 34.2017], [-116.8861, 34.2024], [-116.8882, 34.2021], [-116.8911, 34.2032], [-116.8897, 34.2055], [-116.8914, 34.2058], [-116.8919, 34.2065], [-116.8922, 34.2104], [-116.8933, 34.2115], [-116.8932, 34.2116], [-116.8931, 34.2116], [-116.8927, 34.2117], [-116.8927, 34.2118], [-116.8939, 34.2116], [-116.8938, 34.2124], [-116.8946, 34.2119]]], [[[-116.8785, 34.2254], [-116.8786, 34.2255], [-116.8785, 34.2256], [-116.8785, 34.2254]]]]}, "properties": {"layer": "perimeter"}}]}
