{"type": "FeatureCollection", "features": [{"type": "Feature", "geometry": {"type": "Polygon", "coordinates": [[[-118.6296, 36.5385], [-118.6252, 36.5392], [-118.6202, 36.5387], [-118.6145, 36.5277], [-118.6116, 36.5251], [-118.6137, 36.5235], [-118.6145, 36.5194], [-118.6134, 36.5159], [-118.6113, 36.5147], [-118.6112, 36.5119], [-118.6088, 36.5092], [-118.6077, 36.5063], [-118.615, 36.5051], [-118.6173, 36.5022], [-118.6192, 36.5011], [-118.6213, 36.5017], [-118.6267, 36.5074], [-118.6318, 36.5085], [-118.6362, 36.5116], [-118.6365, 36.5124], [-118.635, 36.5141], [-118.6375, 36.5154], [-118.6394, 36.5179], [-118.6389, 36.5211], [-118.6395, 36.5225], [-118.6479, 36.5312], [-118.6527, 36.5315], [-118.6564, 36.5341], [-118.6539, 36.5342], [-118.6505, 36.533], [-118.6439, 36.5374], [-118.6392, 36.538], [-118.6356, 36.5396], [-118.6327, 36.5395], [-118.6296, 36.5385]]]}, "properties": {"layer": "perimeter"}}]}
