{"type": "FeatureCollection", "features": [{"type": "Feature", "geometry": {"type": "Polygon", "coordinates": [[[-119.6529, 35.7152], [-119.6503, 35.7209], [-119.6487, 35.722], [-119.6467, 35.7259], [-119.6374, 35.7214], [-119.6349, 35.7241], [-119.6327, 35.7247], [-119.6346, 35.7217], [-119.6341, 35.7207], [-119.636, 35.7202], [-119.6373, 35.7212], [-119.6365, 35.7197], [-119.6373, 35.7194], [-119.636, 35.7193], [-119.637, 35.7189], [-119.6368, 35.7179], [-119.634, 35.7174], [-119.6346, 35.7171], [-119.634, 35.7162], [-119.6311, 35.7159], [-119.6321, 35.7144], [-119.6307, 35.7151], [-119.6299, 35.7173], [-119.6267, 35.7173], [-119.626, 35.7179], [-119.6163, 35.7177], [-119.6155, 35.7172], [-119.6151, 35.7177], [-119.6073, 35.7177], [-119.6072, 35.7139], [-119.6015, 35.7132], [-119.5942, 35.7079], [-119.5891, 35.707], [-119.5862, 35.7038], [-119.5801, 35.7039], [-119.5797, 35.7049], [-119.5797, 35.7029], [-119.5819, 35.7029], [-119.5827, 35.6996], [-119.5846, 35.6991], [-119.6169, 35.6996], [-119.6196, 35.7008], [-119.6222, 35.6914], [-119.6221, 35.6889], [-119.6257, 35.6922], [-119.6259, 35.6915], [-119.6272, 35.6922], [-119.644, 35.6924], [-119.6442, 35.6956], [-119.6473, 35.6995], [-119.6484, 35.6996], [-119.6508, 35.7013], [-119.6527, 35.7048], [-119.653, 35.7092], [-119.6518, 35.7112], [-119.6517, 35.7127], [-119.6529, 35.7152]]]}, "properties": {"layer": "perimeter"}}]}
