{"type": "FeatureCollection", "features": [{"type": "Feature", "geometry": {"type": "MultiPolygon", "coordinates": [[[[-119.8617, 37.3051], [-119.8617, 37.3051], [-119.8617, 37.3051], [-119.8617, 37.3051]]], [[[-119.8621, 37.3047], [-119.8594, 37.3061], [-119.862, 37.3069], [-119.8606, 37.3082], [-119.8609, 37.3088], [-119.8618, 37.3088], [-119.8616, 37.3094], [-119.8645, 37.3067], [-119.8634, 37.3063], [-119.8642, 37.3053], [-119.8666, 37.3068], [-119.8685, 37.3065], [-119.8692, 37.3079], [-119.8728, 37.3106], [-119.8731, 37.3128], [-119.8742, 37.3145], [-119.8747, 37.3194], [-119.8762, 37.32], [-119.8788, 37.3243], [-119.878, 37.3257], [-119.8748, 37.3259], [-119.8741, 37.3295], [-119.8754, 37.3325], [-119.8749, 37.3335], [-119.8726, 37.3336], [-119.8727, 37.3347], [-119.8716, 37.3353], [-119.8718, 37.336], [-119.8683, 37.3373], [-119.8664, 37.3399], [-119.8649, 37.3402], [-119.8642, 37.3391], [-119.8625, 37.3391], [-119.8621, 37.3385], [-119.8614, 37.3389], [-119.8616, 37.3404], [-119.8602, 37.3402], [-119.8604, 37.3396], [-119.8597, 37.3394], [-119.8588, 37.3399], [-119.8564, 37.3394], [-119.8563, 37.3387], [-119.854, 37.3382], [-119.8527, 37.3388], [-119.8547, 37.3392], [-119.8533, 37.3404], [-119.8546, 37.3423], [-119.8597, 37.3428], [-119.8622, 37.3469], [-119.8612, 37.3486], [-119.8645, 37.3539], [-119.8681, 37.3532], [-119.8686, 37.3522], [-119.8703, 37.3533], [-119.8728, 37.3534], [-119.8749, 37.3508], [-119.8781, 37.3522], [-119.8799, 37.3538], [-119.8799, 37.3557], [-119.8796, 37.3572], [-119.8777, 37.3589], [-119.8717, 37.3601], [-119.8695, 37.3592], [-119.8675, 37.3592], [-119.8644, 37.3604], [-119.8626, 37.3594], [-119.8594, 37.3614], [-119.856, 37.3616], [-119.8523, 37.3605], [-119.8506, 37.3572], [-119.8498, 37.357], [-119.8481, 37.3591], [-119.8456, 37.3588], [-119.8448, 37.3594], [-119.8434, 37.3584], [-119.8428, 37.3561], [-119.8399, 37.356], [-119.8388, 37.3566], [-119.836, 37.356], [-119.8339, 37.3549], [-119.8329, 37.3523], [-119.8264, 37.3525], [-119.8255, 37.3531], [-119.8211, 37.3537], [-119.8184, 37.3535], [-119.8138, 37.3509], [-119.8118, 37.3508], [-119.8093, 37.3475], [-119.8111, 37.3453], [-119.8128, 37.3479], [-119.8149, 37.3487], [-119.8165, 37.3485], [-119.817, 37.3464], [-119.8232, 37.3469], [-119.8212, 37.3456], [-119.822, 37.3449], [-119.8215, 37.3438], [-119.8189, 37.3445], [-119.8188, 37.3446], [-119.8192, 37.3448], [-119.8194, 37.3451], [-119.8191, 37.3455], [-119.8166, 37.3456], [-119.8161, 37.3434], [-119.8153, 37.343], [-119.8165, 37.3429], [-119.8165, 37.3387], [-119.8187, 37.3378], [-119.8191, 37.3404], [-119.8198, 37.3408], [-119.8212, 37.3403], [-119.8226, 37.3414], [-119.8258, 37.3379], [-119.8239, 37.3357], [-119.822, 37.3358], [-119.8215, 37.3369], [-119.8201, 37.3369], [-119.817, 37.3361], [-119.8163, 37.3339], [-119.814, 37.3341], [-119.8123, 37.3328], [-119.8094, 37.3323], [-119.8081, 37.3323], [-119.8059, 37.334], [-119.807, 37.3394], [-119.8055, 37.3379], [-119.805, 37.3384], [-119.8055, 37.3417], [-119.8064, 37.342], [-119.8035, 37.3432], [-119.8042, 37.3442], [-119.8009, 37.3462], [-119.7958, 37.354], [-119.795, 37.3546], [-119.7922, 37.3548], [-119.7916, 37.3554], [-119.7897, 37.3553], [-119.7893, 37.356], [-119.7875, 37.3566], [-119.7853, 37.3566], [-119.7818, 37.3549], [-119.7832, 37.3525], [-119.7827, 37.3514], [-119.7836, 37.3492], [-119.7829, 37.3482], [-119.7835, 37.3477], [-119.7793, 37.3472], [-119.7756, 37.3476], [-119.7751, 37.3469], [-119.7759, 37.3437], [-119.7741, 37.3435], [-119.7729, 37.3423], [-119.7731, 37.3414], [-119.7722, 37.3413], [-119.7723, 37.3421], [-119.7705, 37.342], [-119.7709, 37.3407], [-119.77, 37.3394], [-119.7669, 37.3377], [-119.7712, 37.3345], [-119.772, 37.3329], [-119.7725, 37.3337], [-119.7744, 37.333], [-119.7731, 37.3316], [-119.7747, 37.3314], [-119.7757, 37.3294], [-119.777, 37.3295], [-119.7795, 37.3279], [-119.7824, 37.3284], [-119.7841, 37.3281], [-119.7855, 37.3287], [-119.7858, 37.3303], [-119.7894, 37.3295], [-119.7904, 37.3285], [-119.7896, 37.3253], [-119.7909, 37.3254], [-119.7938, 37.3229], [-119.7957, 37.3224], [-119.7959, 37.3189], [-119.7928, 37.318], [-119.7924, 37.316], [-119.7953, 37.3144], [-119.8037, 37.3138], [-119.8049, 37.313], [-119.8042, 37.3129], [-119.8042, 37.3114], [-119.8064, 37.3103], [-119.8093, 37.3108], [-119.8111, 37.3093], [-119.8133, 37.3089], [-119.8152, 37.3091], [-119.8163, 37.3105], [-119.817, 37.3098], [-119.817, 37.3104], [-119.8174, 37.3102], [-119.8175, 37.3091], [-119.8176, 37.3091], [-119.8182, 37.3111], [-119.8192, 37.3116], [-119.8197, 37.3103], [-119.8209, 37.31], [-119.8203, 37.309], [-119.8209, 37.3072], [-119.8228, 37.3061], [-119.8234, 37.3047], [-119.8284, 37.3034], [-119.8328, 37.3041], [-119.8349, 37.3026], [-119.8358, 37.3041], [-119.8374, 37.304], [-119.8381, 37.3048], [-119.8402, 37.3037], [-119.8411, 37.3021], [-119.8446, 37.3039], [-119.8492, 37.3042], [-119.85, 37.3035], [-119.8523, 37.304], [-119.8532, 37.3051], [-119.8591, 37.3045], [-119.8621, 37.3047]], [[-119.8206, 37.344], [-119.8206, 37.344], [-119.8206, 37.344], [-119.8206, 37.344]], [[-119.8206, 37.344], [-119.8205, 37.344], [-119.8206, 37.344], [-119.8206, 37.344]], [[-119.8192, 37.3449], [-119.8192, 37.3449], [-119.8192, 37.3449], [-119.8192, 37.3449]], [[-119.8166, 37.3449], [-119.8166, 37.345], [-119.8166, 37.345], [-119.8166, 37.3449]]]]}, "properties": {"layer": "perimeter"}}, {"type": "Feature", "geometry": {"type": "MultiPolygon", "coordinates": [[[[-119.8617, 37.3051], [-119.8617, 37.3051], [-119.8617, 37.3051], [-119.8617, 37.3051]]], [[[-119.8621, 37.3047], [-119.8594, 37.3061], [-119.862, 37.3069], [-119.8606, 37.3082], [-119.8609, 37.3088], [-119.8618, 37.3088], [-119.8616, 37.3094], [-119.8645, 37.3067], [-119.8634, 37.3063], [-119.8642, 37.3053], [-119.8666, 37.3068], [-119.8685, 37.3065], [-119.8692, 37.3079], [-119.8728, 37.3106], [-119.8731, 37.3128], [-119.8742, 37.3145], [-119.8747, 37.3194], [-119.8762, 37.32], [-119.8788, 37.3243], [-119.878, 37.3257], [-119.8748, 37.3259], [-119.8741, 37.3295], [-119.8754, 37.3325], [-119.8749, 37.3335], [-119.8726, 37.3336], [-119.8727, 37.3347], [-119.8716, 37.3353], [-119.8718, 37.336], [-119.8683, 37.3373], [-119.8664, 37.3399], [-119.8649, 37.3402], [-119.8642, 37.3391], [-119.8625, 37.3391], [-119.8621, 37.3385], [-119.8614, 37.3389], [-119.8616, 37.3404], [-119.8602, 37.3402], [-119.8604, 37.3396], [-119.8597, 37.3394], [-119.8588, 37.3399], [-119.8564, 37.3394], [-119.8563, 37.3387], [-119.854, 37.3382], [-119.8527, 37.3388], [-119.8547, 37.3392], [-119.8533, 37.3404], [-119.8546, 37.3423], [-119.8597, 37.3428], [-119.8622, 37.3469], [-119.8612, 37.3486], [-119.8645, 37.3539], [-119.8681, 37.3532], [-119.8686, 37.3522], [-119.8703, 37.3533], [-119.8728, 37.3534], [-119.8749, 37.3508], [-119.8781, 37.3522], [-119.8799, 37.3538], [-119.8799, 37.3557], [-119.8796, 37.3572], [-119.8777, 37.3589], [-119.8717, 37.3601], [-119.8695, 37.3592], [-119.8675, 37.3592], [-119.8644, 37.3604], [-119.8626, 37.3594], [-119.8594, 37.3614], [-119.856, 37.3616], [-119.8523, 37.3605], [-119.8506, 37.3572], [-119.8498, 37.357], [-119.8481, 37.3591], [-119.8456, 37.3588], [-119.8448, 37.3594], [-119.8434, 37.3584], [-119.8428, 37.3561], [-119.8399, 37.356], [-119.8388, 37.3566], [-119.836, 37.356], [-119.8339, 37.3549], [-119.8329, 37.3523], [-119.8264, 37.3525], [-119.8255, 37.3531], [-119.8211, 37.3537], [-119.8184, 37.3535], [-119.8138, 37.3509], [-119.8118, 37.3508], [-119.8093, 37.3475], [-119.8111, 37.3453], [-119.8128, 37.3479], [-119.8149, 37.3487], [-119.8165, 37.3485], [-119.817, 37.3464], [-119.8232, 37.3469], [-119.8212, 37.3456], [-119.822, 37.3449], [-119.8215, 37.3438], [-119.8189, 37.3445], [-119.8188, 37.3446], [-119.8192, 37.3448], [-119.8194, 37.3451], [-119.8191, 37.3455], [-119.8166, 37.3456], [-119.8161, 37.3434], [-119.8153, 37.343], [-119.8165, 37.3429], [-119.8165, 37.3387], [-119.8187, 37.3378], [-119.8191, 37.3404], [-119.8198, 37.3408], [-119.8212, 37.3403], [-119.8226, 37.3414], [-119.8258, 37.3379], [-119.8239, 37.3357], [-119.822, 37.3358], [-119.8215, 37.3369], [-119.8201, 37.3369], [-119.817, 37.3361], [-119.8163, 37.3339], [-119.814, 37.3341], [-119.8123, 37.3328], [-119.8094, 37.3323], [-119.8081, 37.3323], [-119.8059, 37.334], [-119.807, 37.3394], [-119.8055, 37.3379], [-119.805, 37.3384], [-119.8055, 37.3417], [-119.8064, 37.342], [-119.8035, 37.3432], [-119.8042, 37.3442], [-119.8009, 37.3462], [-119.7958, 37.354], [-119.795, 37.3546], [-119.7922, 37.3548], [-119.7916, 37.3554], [-119.7897, 37.3553], [-119.7893, 37.356], [-119.7875, 37.3566], [-119.7853, 37.3566], [-119.7818, 37.3549], [-119.7832, 37.3525], [-119.7827, 37.3514], [-119.7836, 37.3492], [-119.7829, 37.3482], [-119.7835, 37.3477], [-119.7793, 37.3472], [-119.7756, 37.3476], [-119.7751, 37.3469], [-119.7759, 37.3437], [-119.7741, 37.3435], [-119.7729, 37.3423], [-119.7731, 37.3414], [-119.7722, 37.3413], [-119.7723, 37.3421], [-119.7705, 37.342], [-119.7709, 37.3407], [-119.77, 37.3394], [-119.7669, 37.3377], [-119.7712, 37.3345], [-119.772, 37.3329], [-119.7725, 37.3337], [-119.7744, 37.333], [-119.7731, 37.3316], [-119.7747, 37.3314], [-119.7757, 37.3294], [-119.777, 37.3295], [-119.7795, 37.3279], [-119.7824, 37.3284], [-119.7841, 37.3281], [-119.7855, 37.3287], [-119.7858, 37.3303], [-119.7894, 37.3295], [-119.7904, 37.3285], [-119.7896, 37.3253], [-119.7909, 37.3254], [-119.7938, 37.3229], [-119.7957, 37.3224], [-119.7959, 37.3189], [-119.7928, 37.318], [-119.7924, 37.316], [-119.7953, 37.3144], [-119.8037, 37.3138], [-119.8049, 37.313], [-119.8042, 37.3129], [-119.8042, 37.3114], [-119.8064, 37.3103], [-119.8093, 37.3108], [-119.8111, 37.3093], [-119.8133, 37.3089], [-119.8152, 37.3091], [-119.8163, 37.3105], [-119.817, 37.3098], [-119.817, 37.3104], [-119.8174, 37.3102], [-119.8175, 37.3091], [-119.8176, 37.3091], [-119.8182, 37.3111], [-119.8192, 37.3116], [-119.8197, 37.3103], [-119.8209, 37.31], [-119.8203, 37.309], [-119.8209, 37.3072], [-119.8228, 37.3061], [-119.8234, 37.3047], [-119.8284, 37.3034], [-119.8328, 37.3041], [-119.8349, 37.3026], [-119.8358, 37.3041], [-119.8374, 37.304], [-119.8378, 37.3048], [-119.8402, 37.3037], [-119.8411, 37.3021], [-119.8446, 37.3039], [-119.8492, 37.3042], [-119.85, 37.3035], [-119.8523, 37.304], [-119.8532, 37.3051], [-119.8591, 37.3045], [-119.8621, 37.3047]], [[-119.8206, 37.344], [-119.8206, 37.344], [-119.8206, 37.344], [-119.8206, 37.344]], [[-119.8206, 37.344], [-119.8205, 37.344], [-119.8206, 37.344], [-119.8206, 37.344]], [[-119.8192, 37.3449], [-119.8192, 37.3449], [-119.8192, 37.3449], [-119.8192, 37.3449]], [[-119.8166, 37.345], [-119.8166, 37.345], [-119.8166, 37.3449], [-119.8166, 37.345]]]]}, "properties": {"layer": "retained"}}]}
