{"type": "FeatureCollection", "features": [{"type": "Feature", "geometry": {"type": "Polygon", "coordinates": [[[-118.641, 34.5729], [-118.6379, 34.5698], [-118.6386, 34.5689], [-118.6382, 34.5675], [-118.636, 34.5658], [-118.636, 34.564], [-118.635, 34.563], [-118.6361, 34.5623], [-118.6347, 34.5615], [-118.6345, 34.5594], [-118.6332, 34.5587], [-118.6336, 34.558], [-118.6313, 34.5574], [-118.6302, 34.5551], [-118.6305, 34.5537], [-118.6293, 34.5533], [-118.6291, 34.5513], [-118.6299, 34.5508], [-118.6291, 34.549], [-118.6297, 34.5479], [-118.6273, 34.5461], [-118.6281, 34.5453], [-118.6264, 34.545], [-118.6269, 34.5403], [-118.6255, 34.5383], [-118.626, 34.5369], [-118.6225, 34.5346], [-118.6223, 34.5336], [-118.6186, 34.5325], [-118.6181, 34.5313], [-118.6189, 34.5305], [-118.6179, 34.5297], [-118.6181, 34.5285], [-118.6156, 34.5252], [-118.6168, 34.5231], [-118.6167, 34.5219], [-118.6148, 34.5181], [-118.6139, 34.5118], [-118.6153, 34.512], [-118.6165, 34.5113], [-118.6186, 34.5125], [-118.6204, 34.5124], [-118.6219, 34.5146], [-118.6234, 34.5127], [-118.6277, 34.5138], [-118.6304, 34.5154], [-118.6317, 34.5152], [-118.6316, 34.5162], [-118.6328, 34.5165], [-118.636, 34.5193], [-118.6376, 34.5194], [-118.6391, 34.5178], [-118.6431, 34.5203], [-118.6437, 34.518], [-118.6463, 34.5178], [-118.6469, 34.5173], [-118.646, 34.5166], [-118.6472, 34.5164], [-118.6514, 34.5191], [-118.6521, 34.5209], [-118.6511, 34.5242], [-118.6526, 34.5252], [-118.6524, 34.5273], [-118.6547, 34.5303], [-118.6537, 34.5331], [-118.6548, 34.534], [-118.6545, 34.5349], [-118.6563, 34.5384], [-118.6638, 34.5455], [-118.6655, 34.5503], [-118.6666, 34.5512], [-118.6669, 34.5535], [-118.6692, 34.5546], [-118.6689, 34.5556], [-118.6706, 34.5582], [-118.6713, 34.5587], [-118.6725, 34.5581], [-118.6745, 34.5607], [-118.6734, 34.5639], [-118.6707, 34.5647], [-118.6693, 34.5683], [-118.6664, 34.5707], [-118.6657, 34.5711], [-118.665, 34.5696], [-118.6621, 34.5695], [-118.6624, 34.5739], [-118.6609, 34.5763], [-118.6604, 34.5796], [-118.6585, 34.5809], [-118.6575, 34.5811], [-118.6567, 34.5792], [-118.6545, 34.5784], [-118.6538, 34.5798], [-118.6502, 34.5802], [-118.6477, 34.5772], [-118.6477, 34.576], [-118.6458, 34.5745], [-118.6468, 34.5734], [-118.6442, 34.574], [-118.6431, 34.5731], [-118.641, 34.5729]]]}, "properties": {"layer": "perimeter"}}, {"type": "Feature", "geometry": {"type": "Polygon", "coordinates": [[[-118.641, 34.5729], [-118.6379, 34.5698], [-118.6384, 34.5678], [-118.637, 34.566], [-118.636, 34.5658], [-118.636, 34.564], [-118.635, 34.563], [-118.6361, 34.5623], [-118.6347, 34.5615], [-118.6343, 34.5592], [-118.6562, 34.5593], [-118.6562, 34.5584], [-118.6518, 34.5584], [-118.6518, 34.5548], [-118.6474, 34.5548], [-118.6473, 34.5475], [-118.643, 34.5475], [-118.6431, 34.5584], [-118.6345, 34.5584], [-118.6344, 34.5475], [-118.63, 34.5475], [-118.63, 34.5537], [-118.6293, 34.5533], [-118.6291, 34.5513], [-118.6299, 34.5508], [-118.6291, 34.549], [-118.6297, 34.5479], [-118.6273, 34.5461], [-118.6281, 34.5453], [-118.6264, 34.545], [-118.6269, 34.5403], [-118.6255, 34.5383], [-118.626, 34.5369], [-118.6225, 34.5346], [-118.6223, 34.5336], [-118.6188, 34.5328], [-118.6181, 34.5285], [-118.6156, 34.5252], [-118.6168, 34.5231], [-118.6167, 34.5219], [-118.6148, 34.5181], [-118.6139, 34.5118], [-118.6153, 34.512], [-118.6165, 34.5113], [-118.6186, 34.5125], [-118.6204, 34.5124], [-118.6219, 34.5146], [-118.6234, 34.5127], [-118.6277, 34.5138], [-118.6304, 34.5154], [-118.6317, 34.5152], [-118.6316, 34.5162], [-118.6328, 34.5165], [-118.636, 34.5193], [-118.6376, 34.5194], [-118.6391, 34.5178], [-118.6431, 34.5203], [-118.6437, 34.518], [-118.6463, 34.5178], [-118.6469, 34.5173], [-118.646, 34.5166], [-118.6472, 34.5164], [-118.6514, 34.5191], [-118.6521, 34.5209], [-118.6511, 34.5242], [-118.6526, 34.5252], [-118.6524, 34.5273], [-118.6547, 34.5303], [-118.6544, 34.5322], [-118.6536, 34.5325], [-118.6548, 34.534], [-118.6545, 34.5349], [-118.6575, 34.5397], [-118.6638, 34.5455], [-118.6655, 34.5503], [-118.6666, 34.5512], [-118.6669, 34.5535], [-118.6692, 34.5546], [-118.6694, 34.5593], [-118.665, 34.5593], [-118.665, 34.5697], [-118.6634, 34.5691], [-118.6621, 34.5695], [-118.6627, 34.5727], [-118.6623, 34.574], [-118.6606, 34.574], [-118.6606, 34.5791], [-118.6597, 34.5804], [-118.6575, 34.5811], [-118.6567, 34.5792], [-118.6545, 34.5784], [-118.6538, 34.5798], [-118.6502, 34.5802], [-118.6477, 34.5772], [-118.6477, 34.576], [-118.6458, 34.5745], [-118.6468, 34.5734], [-118.6442, 34.574], [-118.6431, 34.5731], [-118.641, 34.5729]]]}, "properties": {"layer": "retained"}}]}
