{"type": "FeatureCollection", "features": [{"type": "Feature", "geometry": {"type": "MultiPolygon", "coordinates": [[[[-118.5651, 34.2788], [-118.5659, 34.2784], [-118.5662, 34.2788], [-118.5654, 34.2791], [-118.5651, 34.2788]]], [[[-118.5713, 34.2838], [-118.5714, 34.2842], [-118.5708, 34.2856], [-118.5713, 34.2838]]], [[[-118.5387, 34.2885], [-118.5402, 34.2913], [-118.5401, 34.2917], [-118.5375, 34.2901], [-118.5387, 34.2885]]], [[[-118.4977, 34.3563], [-118.4965, 34.3518], [-118.4933, 34.3519], [-118.4894, 34.3488], [-118.4872, 34.3458], [-118.4847, 34.3444], [-118.4875, 34.3441], [-118.4872, 34.3434], [-118.4836, 34.3428], [-118.4822, 34.3417], [-118.4805, 34.3426], [-118.4814, 34.3444], [-118.4808, 34.345], [-118.4821, 34.3453], [-118.4829, 34.3482], [-118.4744, 34.346], [-118.4756, 34.3449], [-118.4755, 34.3433], [-118.472, 34.3412], [-118.469, 34.3424], [-118.4689, 34.3435], [-118.4676, 34.3447], [-118.4662, 34.3446], [-118.4648, 34.3453], [-118.4639, 34.3469], [-118.4658, 34.3471], [-118.4683, 34.3459], [-118.4686, 34.3467], [-118.4643, 34.3482], [-118.4624, 34.3476], [-118.4597, 34.3482], [-118.4584, 34.3461], [-118.4586, 34.3442], [-118.4562, 34.3407], [-118.4558, 34.3384], [-118.4546, 34.3375], [-118.4509, 34.3312], [-118.4523, 34.327], [-118.4565, 34.3246], [-118.4584, 34.3243], [-118.4605, 34.3247], [-118.4604, 34.3264], [-118.4625, 34.3279], [-118.4646, 34.3281], [-118.4649, 34.3292], [-118.4686, 34.3296], [-118.4708, 34.3257], [-118.4732, 34.3244], [-118.4745, 34.3245], [-118.4745, 34.3237], [-118.4799, 34.3224], [-118.4824, 34.3211], [-118.4832, 34.32], [-118.4824, 34.3172], [-118.4833, 34.3169], [-118.4843, 34.3176], [-118.4834, 34.3195], [-118.4872, 34.3154], [-118.4875, 34.314], [-118.4855, 34.3129], [-118.4874, 34.3127], [-118.4884, 34.3137], [-118.49, 34.3132], [-118.4912, 34.3146], [-118.4906, 34.3169], [-118.4877, 34.3169], [-118.4854, 34.3185], [-118.4825, 34.3213], [-118.4811, 34.3219], [-118.4805, 34.3229], [-118.4811, 34.3238], [-118.4794, 34.3236], [-118.479, 34.3255], [-118.4798, 34.3263], [-118.4835, 34.3259], [-118.4845, 34.3241], [-118.4854, 34.3236], [-118.4846, 34.3211], [-118.4851, 34.32], [-118.4869, 34.3229], [-118.4884, 34.3213], [-118.4894, 34.3213], [-118.49, 34.322], [-118.4889, 34.3219], [-118.4883, 34.3235], [-118.4894, 34.3252], [-118.4915, 34.3249], [-118.4933, 34.3219], [-118.4959, 34.3228], [-118.4976, 34.3202], [-118.498, 34.3169], [-118.5006, 34.314], [-118.5035, 34.3152], [-118.507, 34.3137], [-118.5057, 34.3106], [-118.5092, 34.3099], [-118.5098, 34.3093], [-118.5086, 34.309], [-118.5089, 34.3078], [-118.5105, 34.3077], [-118.5105, 34.3084], [-118.514, 34.3062], [-118.5171, 34.3061], [-118.5172, 34.3047], [-118.5185, 34.3044], [-118.5187, 34.3027], [-118.52, 34.3029], [-118.5231, 34.3013], [-118.5252, 34.3009], [-118.5249, 34.2999], [-118.5312, 34.2926], [-118.5306, 34.2884], [-118.5288, 34.2871], [-118.5284, 34.288], [-118.5262, 34.2846], [-118.5268, 34.2813], [-118.529, 34.2816], [-118.5308, 34.2849], [-118.5341, 34.2854], [-118.5337, 34.287], [-118.5317, 34.2867], [-118.5334, 34.2894], [-118.5412, 34.2969], [-118.5429, 34.2966], [-118.5428, 34.2981], [-118.5453, 34.2983], [-118.552, 34.2962], [-118.5514, 34.295], [-118.5552, 34.2925], [-118.5527, 34.2918], [-118.5506, 34.2924], [-118.5475, 34.2909], [-118.5435, 34.2901], [-118.539, 34.2866], [-118.5359, 34.2867], [-118.5348, 34.2856], [-118.5377, 34.2857], [-118.538, 34.2852], [-118.5397, 34.2851], [-118.5431, 34.2877], [-118.5519, 34.2902], [-118.5573, 34.2886], [-118.5581, 34.2889], [-118.5581, 34.288], [-118.5611, 34.2849], [-118.5616, 34.2836], [-118.5621, 34.2835], [-118.5619, 34.2849], [-118.5601, 34.2869], [-118.5629, 34.2839], [-118.5628, 34.2819], [-118.5619, 34.2814], [-118.5596, 34.2843], [-118.5585, 34.2838], [-118.5598, 34.2821], [-118.5584, 34.2816], [-118.5623, 34.2803], [-118.5623, 34.279], [-118.5612, 34.2785], [-118.5608, 34.2763], [-118.5615, 34.2758], [-118.5625, 34.2765], [-118.5628, 34.2781], [-118.5645, 34.2784], [-118.565, 34.2789], [-118.5641, 34.2789], [-118.5638, 34.281], [-118.5645, 34.2829], [-118.5656, 34.2832], [-118.5655, 34.2852], [-118.5705, 34.2888], [-118.5703, 34.2933], [-118.5753, 34.2999], [-118.5725, 34.3022], [-118.5728, 34.3032], [-118.5721, 34.3038], [-118.5698, 34.3047], [-118.5694, 34.304], [-118.5665, 34.3049], [-118.5657, 34.3062], [-118.5632, 34.3072], [-118.5645, 34.3084], [-118.5646, 34.3096], [-118.563, 34.3107], [-118.5607, 34.31], [-118.5594, 34.3119], [-118.5593, 34.3149], [-118.5578, 34.3155], [-118.5587, 34.3174], [-118.5546, 34.3216], [-118.5505, 34.3216], [-118.549, 34.3244], [-118.5474, 34.3248], [-118.5471, 34.3266], [-118.5424, 34.324], [-118.5407, 34.3271], [-118.5453, 34.3305], [-118.5461, 34.3344], [-118.5449, 34.3385], [-118.544, 34.3386], [-118.542, 34.3368], [-118.541, 34.3367], [-118.5409, 34.3372], [-118.5398, 34.3363], [-118.5391, 34.338], [-118.5395, 34.3402], [-118.5406, 34.3406], [-118.5405, 34.3418], [-118.5395, 34.3424], [-118.5373, 34.3424], [-118.5372, 34.343], [-118.5356, 34.3423], [-118.5353, 34.3433], [-118.5342, 34.3423], [-118.5331, 34.343], [-118.5308, 34.3418], [-118.5295, 34.342], [-118.5295, 34.3409], [-118.5286, 34.3413], [-118.5275, 34.3402], [-118.5261, 34.3404], [-118.5258, 34.341], [-118.5201, 34.3401], [-118.5108, 34.3355], [-118.508, 34.3358], [-118.5038, 34.3458], [-118.5035, 34.3496], [-118.5049, 34.355], [-118.5032, 34.3555], [-118.5023, 34.358], [-118.5012, 34.3578], [-118.4998, 34.3604], [-118.4977, 34.3563]], [[-118.5574, 34.2938], [-118.5523, 34.297], [-118.5579, 34.2971], [-118.5591, 34.2978], [-118.564, 34.297], [-118.5694, 34.2944], [-118.5683, 34.2889], [-118.5646, 34.2869], [-118.5607, 34.2893], [-118.5574, 34.2938]]], [[[-118.48, 34.3252], [-118.48, 34.3245], [-118.4828, 34.3245], [-118.4824, 34.3254], [-118.48, 34.3252]]]]}, "properties": {"layer": "perimeter"}}, {"type": "Feature", "geometry": {"type": "MultiPolygon", "coordinates": [[[[-118.4849, 34.3445], [-118.4875, 34.3441], [-118.4872, 34.3434], [-118.4849, 34.3428], [-118.4844, 34.3303], [-118.4929, 34.3308], [-118.5038, 34.3373], [-118.534, 34.3145], [-118.5463, 34.3173], [-118.5455, 34.3157], [-118.5471, 34.3134], [-118.5437, 34.3057], [-118.5443, 34.3039], [-118.5408, 34.2988], [-118.5538, 34.2965], [-118.5523, 34.297], [-118.5547, 34.297], [-118.5574, 34.2992], [-118.5598, 34.2992], [-118.5621, 34.2988], [-118.5687, 34.2946], [-118.5702, 34.2954], [-118.5718, 34.2986], [-118.5753, 34.2999], [-118.5725, 34.3022], [-118.5728, 34.3032], [-118.5721, 34.3038], [-118.5698, 34.3047], [-118.5694, 34.304], [-118.5665, 34.3049], [-118.5657, 34.3062], [-118.5632, 34.3072], [-118.5645, 34.3084], [-118.5646, 34.3096], [-118.563, 34.3107], [-118.5607, 34.31], [-118.5594, 34.3119], [-118.5593, 34.3149], [-118.5578, 34.3155], [-118.5587, 34.3174], [-118.5546, 34.3216], [-118.5505, 34.3216], [-118.549, 34.3244], [-118.5474, 34.3248], [-118.5471, 34.3266], [-118.5424, 34.324], [-118.541, 34.3262], [-118.5409, 34.3276], [-118.545, 34.3299], [-118.5461, 34.3344], [-118.5444, 34.3387], [-118.542, 34.3368], [-118.541, 34.3367], [-118.5409, 34.3372], [-118.5395, 34.3365], [-118.5394, 34.34], [-118.5406, 34.3406], [-118.5399, 34.3423], [-118.5373, 34.3424], [-118.5372, 34.343], [-118.536, 34.3422], [-118.5353, 34.3433], [-118.5342, 34.3423], [-118.5337, 34.3429], [-118.5322, 34.3429], [-118.5308, 34.3418], [-118.5295, 34.342], [-118.5295, 34.3409], [-118.5286, 34.3413], [-118.5275, 34.3402], [-118.5261, 34.3404], [-118.5258, 34.341], [-118.5201, 34.3401], [-118.5108, 34.3355], [-118.508, 34.3358], [-118.5042, 34.3445], [-118.4849, 34.3445]]], [[[-118.4545, 34.3372], [-118.4509, 34.3312], [-118.4511, 34.33], [-118.4801, 34.3302], [-118.4802, 34.3338], [-118.4758, 34.3337], [-118.4758, 34.3372], [-118.4545, 34.3372]]]]}, "properties": {"layer": "retained"}}, {"type": "Feature", "geometry": {"type": "Polygon", "coordinates": [[[-118.5432, 34.3183], [-118.5435, 34.3177], [-118.5432, 34.3177], [-118.5432, 34.3183]]]}, "properties": {"layer": "high_severity"}}]}
