{"type": "FeatureCollection", "features": [{"type": "Feature", "geometry": {"type": "Polygon", "coordinates": [[[-120.7748, 38.0041], [-120.7676, 38.0052], [-120.7678, 38.0089], [-120.7585, 38.0137], [-120.7562, 38.0135], [-120.7547, 38.0115], [-120.7508, 38.0123], [-120.7508, 38.0118], [-120.749, 38.0113], [-120.7484, 38.0097], [-120.7404, 38.0028], [-120.7389, 37.9998], [-120.7389, 37.9978], [-120.7341, 37.992], [-120.7309, 37.9843], [-120.7288, 37.9829], [-120.7333, 37.9821], [-120.7347, 37.9805], [-120.7372, 37.9808], [-120.7387, 37.9845], [-120.7417, 37.9875], [-120.7441, 37.988], [-120.745, 37.991], [-120.7462, 37.9922], [-120.7555, 37.9917], [-120.7581, 37.9934], [-120.7649, 37.9936], [-120.7679, 37.9951], [-120.7713, 37.9975], [-120.7732, 38.0005], [-120.7744, 38.0005], [-120.7748, 38.0012], [-120.7748, 38.0041]]]}, "properties": {"layer": "perimeter"}}, {"type": "Feature", "geometry": {"type": "Polygon", "coordinates": [[[-120.7748, 38.0041], [-120.7676, 38.0052], [-120.7678, 38.0089], [-120.7585, 38.0137], [-120.7562, 38.0135], [-120.7547, 38.0115], [-120.7508, 38.0123], [-120.7508, 38.0118], [-120.749, 38.0113], [-120.7484, 38.0097], [-120.7404, 38.0028], [-120.7389, 37.9998], [-120.7389, 37.9978], [-120.7341, 37.992], [-120.7309, 37.9843], [-120.7288, 37.9829], [-120.7333, 37.9821], [-120.7347, 37.9805], [-120.7372, 37.9808], [-120.7387, 37.9845], [-120.7417, 37.9875], [-120.7441, 37.988], [-120.745, 37.991], [-120.7462, 37.9922], [-120.7555, 37.9917], [-120.7581, 37.9934], [-120.7649, 37.9936], [-120.7679, 37.9951], [-120.7713, 37.9975], [-120.7732, 38.0005], [-120.7744, 38.0005], [-120.7748, 38.0012], [-120.7748, 38.0041]]]}, "properties": {"layer": "retained"}}]}
