{"type": "FeatureCollection", "features": [{"type": "Feature", "geometry": {"type": "Polygon", "coordinates": [[[-117.0846, 33.8998], [-117.0779, 33.9003], [-117.0738, 33.9053], [-117.0734, 33.9089], [-117.0725, 33.9078], [-117.0716, 33.9079], [-117.069, 33.9096], [-117.0654, 33.9093], [-117.0587, 33.9125], [-117.0561, 33.9126], [-117.0543, 33.9116], [-117.0421, 33.9146], [-117.0406, 33.9158], [-117.0402, 33.9177], [-117.0375, 33.9147], [-117.0364, 33.9148], [-117.0354, 33.9164], [-117.0348, 33.9164], [-117.0312, 33.9117], [-117.0331, 33.9092], [-117.035, 33.9087], [-117.0384, 33.9095], [-117.0394, 33.9088], [-117.0395, 33.9068], [-117.0463, 33.9047], [-117.0539, 33.9001], [-117.0557, 33.8981], [-117.0565, 33.896], [-117.0582, 33.8957], [-117.0581, 33.8944], [-117.0624, 33.8866], [-117.064, 33.8875], [-117.0653, 33.8867], [-117.0675, 33.8884], [-117.0709, 33.8897], [-117.0805, 33.8812], [-117.0838, 33.8837], [-117.0862, 33.8915], [-117.0863, 33.8944], [-117.0816, 33.8957], [-117.0846, 33.8998]]]}, "properties": {"layer": "perimeter"}}, {"type": "Feature", "geometry": {"type": "Polygon", "coordinates": [[[-117.0843, 33.8997], [-117.0779, 33.9003], [-117.0738, 33.9053], [-117.0734, 33.9089], [-117.0725, 33.9078], [-117.0716, 33.9079], [-117.069, 33.9096], [-117.0654, 33.9093], [-117.0587, 33.9125], [-117.0561, 33.9126], [-117.0543, 33.9116], [-117.0421, 33.9146], [-117.0406, 33.9158], [-117.0402, 33.9177], [-117.0375, 33.9147], [-117.0364, 33.9148], [-117.0354, 33.9164], [-117.0348, 33.9164], [-117.0312, 33.9117], [-117.0331, 33.9092], [-117.035, 33.9087], [-117.0384, 33.9095], [-117.0394, 33.9088], [-117.0395, 33.9068], [-117.0463, 33.9047], [-117.0539, 33.9001], [-117.0557, 33.8981], [-117.0565, 33.896], [-117.0582, 33.8957], [-117.0581, 33.8944], [-117.0624, 33.8866], [-117.064, 33.8875], [-117.0653, 33.8867], [-117.0688, 33.889], [-117.0774, 33.891], [-117.081, 33.8936], [-117.0816, 33.8957], [-117.0843, 33.8997]]]}, "properties": {"layer": "retained"}}]}
