{"type": "FeatureCollection", "features": [{"type": "Feature", "geometry": {"type": "Polygon", "coordinates": [[[-122.2556, 38.9349], [-122.2547, 38.9338], [-122.2522, 38.9337], [-122.2525, 38.9325], [-122.2513, 38.9328], [-122.251, 38.9301], [-122.2489, 38.9276], [-122.247, 38.9227], [-122.244, 38.9193], [-122.2431, 38.9158], [-122.2444, 38.9118], [-122.244, 38.8983], [-122.2452, 38.9005], [-122.2487, 38.8997], [-122.2474, 38.8957], [-122.2488, 38.894], [-122.2486, 38.8927], [-122.2474, 38.8919], [-122.2475, 38.8897], [-122.2518, 38.889], [-122.2533, 38.8874], [-122.2505, 38.8861], [-122.2465, 38.8825], [-122.2419, 38.8833], [-122.2397, 38.8827], [-122.2467, 38.8754], [-122.2513, 38.8734], [-122.2547, 38.876], [-122.2592, 38.8767], [-122.2606, 38.8777], [-122.2598, 38.8785], [-122.2569, 38.8785], [-122.2547, 38.8806], [-122.2581, 38.8817], [-122.2575, 38.8851], [-122.2606, 38.8863], [-122.2619, 38.8877], [-122.2671, 38.8875], [-122.2719, 38.885], [-122.2771, 38.8837], [-122.278, 38.8841], [-122.2786, 38.8859], [-122.2777, 38.8885], [-122.2755, 38.8903], [-122.2686, 38.8913], [-122.2652, 38.8937], [-122.2644, 38.8952], [-122.2626, 38.8955], [-122.2625, 38.8968], [-122.2602, 38.8996], [-122.2603, 38.9018], [-122.2639, 38.9046], [-122.2647, 38.9061], [-122.2641, 38.912], [-122.2674, 38.9141], [-122.2673, 38.9171], [-122.2689, 38.9237], [-122.2661, 38.925], [-122.2642, 38.9244], [-122.2626, 38.926], [-122.2593, 38.9276], [-122.2582, 38.93], [-122.2594, 38.9332], [-122.2556, 38.9349]]]}, "properties": {"layer": "perimeter"}}, {"type": "Feature", "geometry": {"type": "Polygon", "coordinates": [[[-122.2554, 38.9349], [-122.2547, 38.9338], [-122.2522, 38.9337], [-122.2525, 38.9325], [-122.2513, 38.9328], [-122.251, 38.9301], [-122.2489, 38.9276], [-122.247, 38.9227], [-122.244, 38.9193], [-122.2431, 38.9158], [-122.2444, 38.9118], [-122.244, 38.8983], [-122.2452, 38.9005], [-122.2487, 38.8997], [-122.2474, 38.8957], [-122.2488, 38.894], [-122.2486, 38.8927], [-122.2474, 38.8919], [-122.2475, 38.8897], [-122.2518, 38.889], [-122.2533, 38.8874], [-122.2505, 38.8861], [-122.2465, 38.8825], [-122.2419, 38.8833], [-122.2397, 38.8827], [-122.2467, 38.8754], [-122.2513, 38.8734], [-122.2539, 38.8759], [-122.2493, 38.8758], [-122.2493, 38.8793], [-122.2557, 38.8795], [-122.2547, 38.8806], [-122.2584, 38.882], [-122.2572, 38.8844], [-122.2586, 38.8859], [-122.2587, 38.8942], [-122.265, 38.8941], [-122.2644, 38.8952], [-122.2626, 38.8955], [-122.2625, 38.8968], [-122.2599, 38.9006], [-122.2606, 38.9022], [-122.2639, 38.9046], [-122.2647, 38.9061], [-122.2641, 38.912], [-122.2674, 38.9141], [-122.2677, 38.9197], [-122.2689, 38.9233], [-122.2661, 38.925], [-122.2638, 38.9246], [-122.2626, 38.926], [-122.2593, 38.9276], [-122.2582, 38.93], [-122.2594, 38.9332], [-122.2554, 38.9349]]]}, "properties": {"layer": "retained"}}]}
