{"type": "FeatureCollection", "features": [{"type": "Feature", "geometry": {"type": "Polygon", "coordinates": [[[-117.0723, 33.9904], [-117.0827, 33.9941], [-117.0876, 33.9941], [-117.0903, 33.9925], [-117.0911, 33.9927], [-117.0909, 33.9932], [-117.0934, 33.9923], [-117.094, 33.9941], [-117.0955, 33.9955], [-117.0976, 33.9955], [-117.0988, 33.9943], [-117.0996, 33.9944], [-117.1034, 33.9966], [-117.1062, 33.9966], [-117.1069, 33.9981], [-117.1021, 34.0023], [-117.1032, 34.0071], [-117.0984, 34.0079], [-117.0887, 34.0062], [-117.0845, 34.0046], [-117.083, 34.003], [-117.0783, 34.0015], [-117.077, 33.9997], [-117.0749, 34.0], [-117.0749, 33.9977], [-117.0706, 33.9972], [-117.0683, 33.9978], [-117.0674, 33.9973], [-117.0673, 33.9964], [-117.0634, 33.9968], [-117.0613, 33.9954], [-117.0602, 33.9926], [-117.065, 33.9911], [-117.0675, 33.9921], [-117.0693, 33.9951], [-117.0706, 33.9952], [-117.0695, 33.992], [-117.0709, 33.9905], [-117.0723, 33.9904]]]}, "properties": {"layer": "perimeter"}}]}
