{"type": "FeatureCollection", "features": [{"type": "Feature", "geometry": {"type": "Polygon", "coordinates": [[[-119.5561, 34.0486], [-119.552, 34.0476], [-119.551, 34.0465], [-119.5476, 34.0462], [-119.5464, 34.0435], [-119.5451, 34.0435], [-119.5446, 34.0428], [-119.5457, 34.0413], [-119.547, 34.0412], [-119.5472, 34.0404], [-119.5485, 34.041], [-119.5508, 34.0407], [-119.5535, 34.0401], [-119.5543, 34.0389], [-119.5566, 34.0383], [-119.5548, 34.0385], [-119.5545, 34.0378], [-119.5538, 34.0384], [-119.5536, 34.0378], [-119.5534, 34.0387], [-119.5512, 34.0387], [-119.5512, 34.0393], [-119.5499, 34.039], [-119.5494, 34.0402], [-119.5482, 34.0402], [-119.5471, 34.0395], [-119.5474, 34.0388], [-119.5467, 34.0387], [-119.5459, 34.0394], [-119.5462, 34.0402], [-119.5445, 34.0402], [-119.5444, 34.0413], [-119.5433, 34.0417], [-119.5442, 34.0427], [-119.5441, 34.044], [-119.5418, 34.0435], [-119.5406, 34.0444], [-119.5352, 34.0422], [-119.533, 34.0422], [-119.5297, 34.0411], [-119.5296, 34.0402], [-119.527, 34.0394], [-119.5271, 34.0385], [-119.5245, 34.0366], [-119.5244, 34.0355], [-119.5204, 34.0341], [-119.5235, 34.0314], [-119.5233, 34.0304], [-119.5244, 34.0313], [-119.5253, 34.0313], [-119.5247, 34.0308], [-119.5259, 34.03], [-119.5261, 34.0288], [-119.5281, 34.0289], [-119.5286, 34.0298], [-119.5293, 34.0295], [-119.5305, 34.0301], [-119.5318, 34.0298], [-119.5311, 34.0287], [-119.5305, 34.0294], [-119.5305, 34.0287], [-119.5284, 34.0288], [-119.5281, 34.0272], [-119.5289, 34.0274], [-119.5306, 34.0261], [-119.5322, 34.0259], [-119.5328, 34.0269], [-119.5352, 34.0272], [-119.5355, 34.0278], [-119.5356, 34.0268], [-119.5337, 34.0257], [-119.5344, 34.0247], [-119.5369, 34.0251], [-119.5405, 34.0242], [-119.5414, 34.0223], [-119.5415, 34.0239], [-119.5425, 34.024], [-119.5435, 34.0252], [-119.5453, 34.0286], [-119.5447, 34.0293], [-119.5493, 34.0315], [-119.5484, 34.0318], [-119.5491, 34.0325], [-119.5496, 34.0317], [-119.5511, 34.0322], [-119.5505, 34.0329], [-119.5517, 34.0326], [-119.5512, 34.0335], [-119.5516, 34.033], [-119.5539, 34.0347], [-119.5559, 34.035], [-119.5558, 34.0356], [-119.5562, 34.035], [-119.5594, 34.0354], [-119.562, 34.0366], [-119.5614, 34.0385], [-119.5625, 34.0404], [-119.5614, 34.0408], [-119.5608, 34.0421], [-119.5628, 34.0432], [-119.5554, 34.0474], [-119.5551, 34.0478], [-119.5563, 34.0479], [-119.5561, 34.0486]], [[-119.5323, 34.0318], [-119.5326, 34.0313], [-119.5322, 34.0306], [-119.5318, 34.031], [-119.5323, 34.0318]], [[-119.5365, 34.0287], [-119.5361, 34.0279], [-119.5357, 34.0283], [-119.5365, 34.0287]], [[-119.5366, 34.0339], [-119.5368, 34.0337], [-119.5361, 34.0338], [-119.5366, 34.0339]], [[-119.5374, 34.0296], [-119.5378, 34.0292], [-119.5376, 34.029], [-119.5372, 34.0292], [-119.5374, 34.0296]], [[-119.5413, 34.0247], [-119.541, 34.0242], [-119.5408, 34.0247], [-119.5413, 34.0247]], [[-119.542, 34.0256], [-119.5416, 34.0252], [-119.5415, 34.0255], [-119.542, 34.0256]], [[-119.5455, 34.0322], [-119.5452, 34.0316], [-119.5445, 34.0316], [-119.5445, 34.0322], [-119.5455, 34.0322]], [[-119.5468, 34.0315], [-119.546, 34.0316], [-119.5464, 34.032], [-119.5468, 34.0315]], [[-119.5482, 34.0376], [-119.5486, 34.0373], [-119.5478, 34.0376], [-119.5482, 34.0376]], [[-119.5495, 34.0344], [-119.5488, 34.0333], [-119.5484, 34.0337], [-119.5495, 34.0344]], [[-119.5499, 34.0329], [-119.5501, 34.0328], [-119.5495, 34.0328], [-119.5499, 34.0329]], [[-119.5503, 34.035], [-119.5499, 34.0346], [-119.5499, 34.0349], [-119.5503, 34.035]], [[-119.5537, 34.0468], [-119.5531, 34.0465], [-119.5532, 34.0467], [-119.5537, 34.0468]], [[-119.5566, 34.0378], [-119.5564, 34.0374], [-119.5563, 34.0381], [-119.5566, 34.0378]], [[-119.5583, 34.0371], [-119.5584, 34.0374], [-119.5585, 34.0369], [-119.5583, 34.0371]], [[-119.5597, 34.0391], [-119.5596, 34.039], [-119.5593, 34.0391], [-119.5597, 34.0391]]]}, "properties": {"layer": "perimeter"}}]}
