{"type": "FeatureCollection", "features": [{"type": "Feature", "geometry": {"type": "Polygon", "coordinates": [[[-118.9066, 34.9148], [-118.9049, 34.9139], [-118.9046, 34.9131], [-118.9052, 34.9132], [-118.9044, 34.9122], [-118.9045, 34.9115], [-118.9057, 34.9115], [-118.9063, 34.9106], [-118.9052, 34.9089], [-118.9062, 34.9091], [-118.906, 34.9086], [-118.9048, 34.9072], [-118.9058, 34.9065], [-118.9046, 34.9044], [-118.9049, 34.9028], [-118.9037, 34.903], [-118.8996, 34.9018], [-118.8971, 34.8975], [-118.8936, 34.8946], [-118.8926, 34.8925], [-118.891, 34.8918], [-118.8888, 34.8895], [-118.8905, 34.8881], [-118.8902, 34.8849], [-118.8908, 34.8837], [-118.8921, 34.8832], [-118.8918, 34.8773], [-118.8935, 34.8773], [-118.8971, 34.8793], [-118.8998, 34.8844], [-118.9135, 34.8919], [-118.9213, 34.898], [-118.9232, 34.9076], [-118.9228, 34.9159], [-118.9217, 34.9176], [-118.9231, 34.9198], [-118.9209, 34.9249], [-118.9215, 34.9275], [-118.9196, 34.9276], [-118.917, 34.9251], [-118.9136, 34.9214], [-118.9115, 34.9172], [-118.9105, 34.917], [-118.9078, 34.9145], [-118.9066, 34.9148]]]}, "properties": {"layer": "perimeter"}}, {"type": "Feature", "geometry": {"type": "Polygon", "coordinates": [[[-118.9066, 34.9148], [-118.9049, 34.9139], [-118.9046, 34.9131], [-118.9052, 34.9132], [-118.9044, 34.9122], [-118.9045, 34.9115], [-118.9057, 34.9115], [-118.9063, 34.9106], [-118.9052, 34.9089], [-118.9062, 34.9091], [-118.906, 34.9086], [-118.9048, 34.9072], [-118.9058, 34.9065], [-118.9046, 34.9044], [-118.9049, 34.9028], [-118.9037, 34.903], [-118.8996, 34.9018], [-118.8971, 34.8975], [-118.8936, 34.8946], [-118.8926, 34.8925], [-118.891, 34.8918], [-118.8888, 34.8895], [-118.8905, 34.8881], [-118.8902, 34.8849], [-118.8908, 34.8837], [-118.8921, 34.8832], [-118.8918, 34.8773], [-118.8935, 34.8773], [-118.8971, 34.8793], [-118.8998, 34.8844], [-118.9135, 34.8919], [-118.9213, 34.898], [-118.9232, 34.9076], [-118.9228, 34.9159], [-118.9217, 34.9176], [-118.9231, 34.9198], [-118.9209, 34.9249], [-118.9215, 34.9275], [-118.9196, 34.9276], [-118.917, 34.9251], [-118.9136, 34.9214], [-118.9115, 34.9172], [-118.9105, 34.917], [-118.9078, 34.9145], [-118.9066, 34.9148]]]}, "properties": {"layer": "retained"}}]}
