{"type": "FeatureCollection", "features": [{"type": "Feature", "geometry": {"type": "Polygon", "coordinates": [[[-116.7213, 33.8786], [-116.7201, 33.879], [-116.7191, 33.8804], [-116.719, 33.8822], [-116.718, 33.8835], [-116.7185, 33.8841], [-116.7162, 33.8855], [-116.7162, 33.8886], [-116.7117, 33.8927], [-116.7099, 33.8965], [-116.7067, 33.8962], [-116.7033, 33.8973], [-116.7018, 33.8965], [-116.7008, 33.8969], [-116.6992, 33.8964], [-116.6972, 33.8978], [-116.6963, 33.8972], [-116.6948, 33.8974], [-116.69, 33.8997], [-116.6875, 33.8975], [-116.6897, 33.8963], [-116.6893, 33.895], [-116.6903, 33.895], [-116.6898, 33.8939], [-116.6889, 33.8937], [-116.6894, 33.8931], [-116.6882, 33.8931], [-116.6879, 33.8939], [-116.6869, 33.8924], [-116.6859, 33.8923], [-116.6854, 33.8912], [-116.6864, 33.8911], [-116.6868, 33.8901], [-116.6846, 33.8878], [-116.6839, 33.8882], [-116.6805, 33.8878], [-116.6751, 33.886], [-116.6728, 33.8865], [-116.6721, 33.8875], [-116.6715, 33.8866], [-116.6708, 33.8866], [-116.6704, 33.8887], [-116.6658, 33.8913], [-116.6648, 33.8909], [-116.6652, 33.8903], [-116.6638, 33.8902], [-116.6642, 33.8906], [-116.6641, 33.8909], [-116.6573, 33.8884], [-116.6565, 33.8894], [-116.657, 33.8905], [-116.6552, 33.8904], [-116.656, 33.8914], [-116.6545, 33.8911], [-116.6532, 33.8916], [-116.6501, 33.887], [-116.6513, 33.8863], [-116.6524, 33.8797], [-116.652, 33.8761], [-116.6512, 33.8754], [-116.65, 33.8769], [-116.6477, 33.8772], [-116.6466, 33.8751], [-116.6434, 33.8736], [-116.6415, 33.8678], [-116.642, 33.8659], [-116.6401, 33.8644], [-116.6404, 33.8621], [-116.639, 33.8605], [-116.6398, 33.8567], [-116.6424, 33.8557], [-116.6425, 33.8544], [-116.6443, 33.8543], [-116.6465, 33.8533], [-116.6497, 33.8534], [-116.6515, 33.8544], [-116.6533, 33.8545], [-116.6542, 33.86], [-116.6558, 33.8619], [-116.6571, 33.8609], [-116.6559, 33.8599], [-116.6561, 33.8574], [-116.6589, 33.857], [-116.658, 33.8563], [-116.6591, 33.8556], [-116.6581, 33.8547], [-116.6592, 33.854], [-116.6588, 33.853], [-116.6616, 33.853], [-116.6629, 33.8505], [-116.664, 33.8502], [-116.6636, 33.8493], [-116.6645, 33.8485], [-116.6665, 33.8508], [-116.6657, 33.8516], [-116.6663, 33.8534], [-116.6647, 33.8548], [-116.6665, 33.8563], [-116.6689, 33.8544], [-116.6694, 33.8489], [-116.6679, 33.8472], [-116.6677, 33.8455], [-116.6648, 33.8456], [-116.664, 33.8443], [-116.6621, 33.8437], [-116.6638, 33.8429], [-116.6632, 33.842], [-116.6652, 33.8389], [-116.6685, 33.8386], [-116.6694, 33.8396], [-116.669, 33.8405], [-116.6718, 33.844], [-116.6718, 33.8465], [-116.6697, 33.8483], [-116.6717, 33.8506], [-116.6736, 33.8559], [-116.6774, 33.8589], [-116.6787, 33.8618], [-116.6782, 33.8584], [-116.6788, 33.857], [-116.6777, 33.855], [-116.6789, 33.8516], [-116.6799, 33.8513], [-116.6811, 33.852], [-116.6812, 33.8536], [-116.6825, 33.8536], [-116.683, 33.856], [-116.6839, 33.8565], [-116.6838, 33.859], [-116.6852, 33.8599], [-116.686, 33.8568], [-116.688, 33.8577], [-116.6885, 33.8573], [-116.6867, 33.8547], [-116.6852, 33.8545], [-116.6852, 33.8537], [-116.688, 33.8528], [-116.6893, 33.8555], [-116.6893, 33.8571], [-116.6909, 33.8578], [-116.6924, 33.8601], [-116.6943, 33.8603], [-116.6952, 33.8612], [-116.6967, 33.8611], [-116.7003, 33.8634], [-116.7041, 33.864], [-116.7045, 33.8652], [-116.7065, 33.8664], [-116.708, 33.8694], [-116.7107, 33.8702], [-116.7122, 33.873], [-116.7143, 33.8724], [-116.7152, 33.8729], [-116.7155, 33.8745], [-116.7169, 33.8731], [-116.7207, 33.8732], [-116.7227, 33.8726], [-116.7245, 33.8732], [-116.7247, 33.875], [-116.7237, 33.8747], [-116.7227, 33.8754], [-116.7213, 33.8786]]]}, "properties": {"layer": "perimeter"}}, {"type": "Feature", "geometry": {"type": "MultiPolygon", "coordinates": [[[[-116.7165, 33.8873], [-116.7153, 33.89], [-116.7117, 33.8927], [-116.7102, 33.8964], [-116.7067, 33.8962], [-116.7033, 33.8973], [-116.7016, 33.8965], [-116.7016, 33.8877], [-116.7165, 33.8873]]], [[[-116.6888, 33.899], [-116.6875, 33.8975], [-116.6889, 33.8966], [-116.6888, 33.899]]], [[[-116.6897, 33.8952], [-116.6903, 33.8949], [-116.6889, 33.8937], [-116.6895, 33.8932], [-116.6889, 33.8931], [-116.6888, 33.8877], [-116.6973, 33.8877], [-116.6974, 33.8952], [-116.6897, 33.8952]]], [[[-116.686, 33.8892], [-116.6846, 33.8878], [-116.6839, 33.8882], [-116.6826, 33.8877], [-116.685, 33.8877], [-116.686, 33.8892]]]]}, "properties": {"layer": "retained"}}]}
