{"type": "FeatureCollection", "features": [{"type": "Feature", "geometry": {"type": "Polygon", "coordinates": [[[-118.3632, 34.4447], [-118.3525, 34.4507], [-118.3489, 34.4566], [-118.3445, 34.4594], [-118.3412, 34.4639], [-118.3382, 34.4657], [-118.3297, 34.4664], [-118.3293, 34.4644], [-118.3273, 34.466], [-118.3264, 34.4648], [-118.3256, 34.4658], [-118.3251, 34.4646], [-118.3238, 34.4643], [-118.3242, 34.4636], [-118.3233, 34.4633], [-118.323, 34.464], [-118.3223, 34.4633], [-118.3218, 34.4636], [-118.3227, 34.4643], [-118.3217, 34.4648], [-118.321, 34.4645], [-118.3206, 34.4653], [-118.3169, 34.4655], [-118.3158, 34.465], [-118.3155, 34.4639], [-118.3148, 34.4649], [-118.3149, 34.4641], [-118.3125, 34.4637], [-118.3131, 34.4624], [-118.3113, 34.4627], [-118.3122, 34.4607], [-118.3106, 34.4599], [-118.3119, 34.4591], [-118.313, 34.4596], [-118.3148, 34.4582], [-118.3148, 34.4574], [-118.3172, 34.4568], [-118.3186, 34.4542], [-118.3195, 34.4548], [-118.3207, 34.4543], [-118.3208, 34.4533], [-118.3219, 34.4529], [-118.3218, 34.4534], [-118.3245, 34.4512], [-118.326, 34.4521], [-118.3267, 34.4513], [-118.3286, 34.4512], [-118.3286, 34.4527], [-118.3307, 34.4521], [-118.3311, 34.4527], [-118.3329, 34.4527], [-118.3334, 34.4536], [-118.334, 34.4522], [-118.3331, 34.4506], [-118.3344, 34.4484], [-118.3356, 34.4482], [-118.3367, 34.4501], [-118.338, 34.4501], [-118.337, 34.4485], [-118.3377, 34.4489], [-118.3383, 34.4482], [-118.3372, 34.448], [-118.3355, 34.4459], [-118.337, 34.4449], [-118.3382, 34.4462], [-118.3378, 34.4443], [-118.3411, 34.4439], [-118.3408, 34.4422], [-118.3428, 34.4418], [-118.3441, 34.4407], [-118.3472, 34.4403], [-118.3478, 34.4412], [-118.3501, 34.4418], [-118.351, 34.4433], [-118.3532, 34.4446], [-118.3545, 34.4445], [-118.3549, 34.4452], [-118.3553, 34.4446], [-118.3566, 34.445], [-118.3574, 34.4442], [-118.3594, 34.4443], [-118.3604, 34.4422], [-118.3616, 34.4418], [-118.3624, 34.4424], [-118.3632, 34.4447]]]}, "properties": {"layer": "perimeter"}}, {"type": "Feature", "geometry": {"type": "Polygon", "coordinates": [[[-118.3632, 34.4446], [-118.3525, 34.4507], [-118.3489, 34.4566], [-118.3445, 34.4594], [-118.3412, 34.4639], [-118.3382, 34.4657], [-118.3297, 34.4664], [-118.3293, 34.4644], [-118.3273, 34.466], [-118.3264, 34.4648], [-118.3256, 34.4658], [-118.3251, 34.4646], [-118.3238, 34.4643], [-118.3242, 34.4636], [-118.3233, 34.4633], [-118.323, 34.464], [-118.3223, 34.4633], [-118.3218, 34.4636], [-118.3227, 34.4643], [-118.3217, 34.4648], [-118.321, 34.4645], [-118.3206, 34.4653], [-118.3169, 34.4655], [-118.3158, 34.465], [-118.3155, 34.4639], [-118.3148, 34.4649], [-118.3149, 34.4641], [-118.3125, 34.4637], [-118.3131, 34.4624], [-118.3113, 34.4627], [-118.3122, 34.4607], [-118.3106, 34.4599], [-118.3119, 34.4591], [-118.313, 34.4596], [-118.3148, 34.4582], [-118.3148, 34.4574], [-118.3172, 34.4568], [-118.3186, 34.4542], [-118.3195, 34.4548], [-118.3207, 34.4543], [-118.3208, 34.4533], [-118.3219, 34.4529], [-118.3218, 34.4534], [-118.3245, 34.4512], [-118.326, 34.4521], [-118.3267, 34.4513], [-118.3286, 34.4512], [-118.3286, 34.4527], [-118.3307, 34.4521], [-118.3311, 34.4527], [-118.3329, 34.4527], [-118.3334, 34.4536], [-118.334, 34.4522], [-118.3331, 34.4506], [-118.3344, 34.4484], [-118.3356, 34.4482], [-118.3367, 34.4501], [-118.338, 34.4501], [-118.337, 34.4485], [-118.3377, 34.4489], [-118.3383, 34.4482], [-118.3372, 34.448], [-118.3355, 34.4459], [-118.337, 34.4449], [-118.3382, 34.4462], [-118.3378, 34.4443], [-118.3411, 34.4439], [-118.3408, 34.4422], [-118.3428, 34.4418], [-118.3441, 34.4407], [-118.3472, 34.4403], [-118.3478, 34.4412], [-118.3501, 34.4418], [-118.351, 34.4433], [-118.3532, 34.4446], [-118.3545, 34.4445], [-118.3549, 34.4452], [-118.3553, 34.4446], [-118.3566, 34.445], [-118.3574, 34.4442], [-118.3594, 34.4443], [-118.3604, 34.4422], [-118.3616, 34.4418], [-118.3624, 34.4424], [-118.3632, 34.4446]]]}, "properties": {"layer": "retained"}}]}
