{"type": "FeatureCollection", "features": [{"type": "Feature", "geometry": {"type": "Polygon", "coordinates": [[[-116.4442, 32.9676], [-116.4391, 32.9663], [-116.4349, 32.9669], [-116.4354, 32.9636], [-116.4374, 32.9636], [-116.4378, 32.9628], [-116.4376, 32.9578], [-116.4347, 32.9559], [-116.4313, 32.9564], [-116.4305, 32.955], [-116.4312, 32.9544], [-116.4305, 32.9534], [-116.4309, 32.9526], [-116.4298, 32.9499], [-116.4311, 32.9494], [-116.4312, 32.9481], [-116.4325, 32.9481], [-116.4328, 32.9492], [-116.4351, 32.9484], [-116.434, 32.9483], [-116.4341, 32.9474], [-116.4352, 32.947], [-116.4364, 32.9482], [-116.4399, 32.9491], [-116.4385, 32.9509], [-116.4389, 32.9511], [-116.4425, 32.9493], [-116.4442, 32.9493], [-116.4459, 32.9517], [-116.4466, 32.9518], [-116.4473, 32.9539], [-116.4488, 32.9542], [-116.4515, 32.9576], [-116.4541, 32.9593], [-116.4551, 32.9593], [-116.4561, 32.9578], [-116.4578, 32.9576], [-116.4587, 32.9561], [-116.4601, 32.9555], [-116.4595, 32.9539], [-116.4557, 32.9519], [-116.4586, 32.9514], [-116.4601, 32.9523], [-116.4593, 32.9502], [-116.4601, 32.95], [-116.4607, 32.9474], [-116.4598, 32.9437], [-116.4609, 32.9421], [-116.463, 32.9421], [-116.4641, 32.9431], [-116.4665, 32.9485], [-116.4699, 32.9509], [-116.4701, 32.9546], [-116.4691, 32.9575], [-116.4674, 32.9568], [-116.4646, 32.9569], [-116.4719, 32.9599], [-116.4663, 32.9618], [-116.4665, 32.9623], [-116.4688, 32.9622], [-116.4681, 32.9631], [-116.4688, 32.9633], [-116.4685, 32.9643], [-116.4696, 32.9665], [-116.4724, 32.9673], [-116.4704, 32.968], [-116.4686, 32.9672], [-116.4676, 32.9675], [-116.4667, 32.968], [-116.4669, 32.9693], [-116.4687, 32.9714], [-116.4736, 32.9747], [-116.4748, 32.9765], [-116.477, 32.9776], [-116.4811, 32.9831], [-116.4822, 32.9829], [-116.4809, 32.9813], [-116.4821, 32.9801], [-116.486, 32.9805], [-116.4877, 32.9785], [-116.4887, 32.9799], [-116.4884, 32.9825], [-116.4915, 32.9806], [-116.4943, 32.9864], [-116.4968, 32.9889], [-116.4967, 32.9907], [-116.4978, 32.9913], [-116.4982, 32.9926], [-116.4978, 32.9949], [-116.4966, 32.9963], [-116.4973, 32.9985], [-116.4983, 32.9996], [-116.5001, 32.9999], [-116.5006, 33.0011], [-116.4976, 33.0049], [-116.4938, 33.0076], [-116.4901, 33.0082], [-116.491, 33.0107], [-116.4884, 33.0124], [-116.4873, 33.017], [-116.4859, 33.0188], [-116.4788, 33.0182], [-116.4759, 33.0173], [-116.4748, 33.016], [-116.4752, 33.0113], [-116.4733, 33.0046], [-116.4759, 33.0], [-116.4787, 32.9981], [-116.4768, 32.9964], [-116.4721, 32.9966], [-116.4707, 32.9961], [-116.469, 32.9972], [-116.4674, 32.9965], [-116.4649, 32.997], [-116.4642, 32.9963], [-116.4613, 32.9968], [-116.4601, 32.9953], [-116.4576, 32.9955], [-116.457, 32.9947], [-116.452, 32.9952], [-116.4474, 32.9927], [-116.4459, 32.9926], [-116.4451, 32.9911], [-116.4408, 32.992], [-116.4392, 32.9917], [-116.4373, 32.9931], [-116.4363, 32.9924], [-116.4349, 32.9928], [-116.436, 32.992], [-116.4357, 32.9912], [-116.4394, 32.9916], [-116.4394, 32.9909], [-116.4412, 32.9906], [-116.439, 32.9907], [-116.4396, 32.9904], [-116.4396, 32.9901], [-116.4385, 32.9902], [-116.4373, 32.9889], [-116.4349, 32.9886], [-116.435, 32.9872], [-116.4334, 32.9868], [-116.4312, 32.9854], [-116.4337, 32.985], [-116.4357, 32.9863], [-116.4382, 32.9858], [-116.4376, 32.9852], [-116.4384, 32.9853], [-116.4385, 32.9847], [-116.4394, 32.9849], [-116.4395, 32.9841], [-116.4413, 32.984], [-116.4398, 32.9834], [-116.4409, 32.9825], [-116.4474, 32.981], [-116.4496, 32.9786], [-116.4512, 32.9788], [-116.4519, 32.9772], [-116.4527, 32.9785], [-116.453, 32.9772], [-116.4543, 32.9771], [-116.4551, 32.9763], [-116.4546, 32.9748], [-116.452, 32.972], [-116.4509, 32.9726], [-116.4496, 32.975], [-116.4473, 32.975], [-116.4465, 32.9757], [-116.4442, 32.9748], [-116.4448, 32.9736], [-116.446, 32.9737], [-116.4456, 32.9722], [-116.4481, 32.9708], [-116.455, 32.9685], [-116.4547, 32.9677], [-116.4523, 32.9681], [-116.4489, 32.967], [-116.4442, 32.9676]]]}, "properties": {"layer": "perimeter"}}, {"type": "Feature", "geometry": {"type": "Polygon", "coordinates": [[[-116.4979, 32.9916], [-116.4978, 32.9949], [-116.4966, 32.9963], [-116.4973, 32.9985], [-116.4983, 32.9996], [-116.5001, 32.9999], [-116.5006, 33.0011], [-116.4976, 33.0049], [-116.4938, 33.0076], [-116.4901, 33.0082], [-116.491, 33.0107], [-116.4884, 33.0124], [-116.4873, 33.017], [-116.4859, 33.0188], [-116.4788, 33.0182], [-116.4759, 33.0173], [-116.4748, 33.016], [-116.4752, 33.0113], [-116.4733, 33.0046], [-116.4759, 33.0], [-116.4787, 32.9981], [-116.4768, 32.9964], [-116.4721, 32.9966], [-116.4707, 32.9961], [-116.469, 32.9972], [-116.4674, 32.9965], [-116.4649, 32.997], [-116.4642, 32.9963], [-116.4613, 32.9968], [-116.4601, 32.9953], [-116.4576, 32.9955], [-116.457, 32.9947], [-116.452, 32.9952], [-116.4474, 32.9927], [-116.4459, 32.9926], [-116.4451, 32.9911], [-116.4408, 32.992], [-116.4392, 32.9917], [-116.4373, 32.9931], [-116.4363, 32.9924], [-116.435, 32.9929], [-116.436, 32.992], [-116.4357, 32.9912], [-116.4379, 32.9917], [-116.4394, 32.9916], [-116.4394, 32.9909], [-116.4419, 32.9909], [-116.4422, 32.987], [-116.4345, 32.9869], [-116.4326, 32.9863], [-116.4328, 32.9852], [-116.4336, 32.985], [-116.4357, 32.9863], [-116.4382, 32.9858], [-116.4376, 32.9852], [-116.4384, 32.9853], [-116.4385, 32.9847], [-116.4394, 32.9849], [-116.4395, 32.9841], [-116.4413, 32.984], [-116.4398, 32.9834], [-116.4409, 32.9825], [-116.4474, 32.981], [-116.4473, 32.9834], [-116.4644, 32.9834], [-116.4644, 32.9872], [-116.4768, 32.9872], [-116.4768, 32.9912], [-116.4979, 32.9916]]]}, "properties": {"layer": "retained"}}]}
