{"type": "FeatureCollection", "features": [{"type": "Feature", "geometry": {"type": "MultiPolygon", "coordinates": [[[[-118.9181, 37.8662], [-118.9135, 37.8657], [-118.912, 37.862], [-118.9093, 37.86], [-118.9021, 37.8615], [-118.8981, 37.8646], [-118.8943, 37.8598], [-118.8879, 37.8549], [-118.8856, 37.8511], [-118.8823, 37.849], [-118.8813, 37.8471], [-118.8816, 37.8444], [-118.879, 37.8444], [-118.8773, 37.8434], [-118.8789, 37.8342], [-118.876, 37.8319], [-118.8745, 37.8321], [-118.8747, 37.8314], [-118.8721, 37.8302], [-118.8719, 37.8278], [-118.8711, 37.8278], [-118.871, 37.8248], [-118.8698, 37.8231], [-118.8706, 37.8211], [-118.8683, 37.819], [-118.8693, 37.8185], [-118.8704, 37.8144], [-118.8701, 37.8119], [-118.8722, 37.8097], [-118.8724, 37.8085], [-118.8762, 37.8069], [-118.8791, 37.8074], [-118.8822, 37.8064], [-118.8825, 37.8045], [-118.8835, 37.8036], [-118.886, 37.805], [-118.8891, 37.8094], [-118.8908, 37.809], [-118.8917, 37.8106], [-118.8957, 37.8129], [-118.8982, 37.8159], [-118.8996, 37.8156], [-118.9014, 37.8134], [-118.9047, 37.8124], [-118.9062, 37.8153], [-118.9078, 37.8162], [-118.9158, 37.8169], [-118.9226, 37.8166], [-118.9262, 37.8181], [-118.9291, 37.8168], [-118.9303, 37.8144], [-118.9308, 37.8162], [-118.9332, 37.8181], [-118.9359, 37.8273], [-118.9343, 37.8404], [-118.9386, 37.848], [-118.9383, 37.8492], [-118.9343, 37.8531], [-118.9288, 37.8548], [-118.9238, 37.858], [-118.9202, 37.8655], [-118.9181, 37.8662]], [[-118.8764, 37.828], [-118.8764, 37.828], [-118.8764, 37.8279], [-118.8764, 37.828]], [[-118.8979, 37.8192], [-118.8978, 37.8195], [-118.8979, 37.8192], [-118.8979, 37.8192]], [[-118.8985, 37.8178], [-118.8985, 37.8178], [-118.8985, 37.8172], [-118.8985, 37.8178]]], [[[-119.0107, 37.9315], [-119.011, 37.9315], [-119.0108, 37.9317], [-119.0107, 37.9315]]]]}, "properties": {"layer": "perimeter"}}]}
