{"type": "FeatureCollection", "features": [{"type": "Feature", "geometry": {"type": "Polygon", "coordinates": [[[-118.4721, 35.4449], [-118.4733, 35.4438], [-118.4762, 35.4431], [-118.4778, 35.4419], [-118.4779, 35.4405], [-118.482, 35.4409], [-118.4841, 35.4431], [-118.4875, 35.4444], [-118.4893, 35.4424], [-118.4925, 35.4407], [-118.4985, 35.4387], [-118.4993, 35.4377], [-118.5012, 35.4371], [-118.501, 35.4379], [-118.5017, 35.4379], [-118.5013, 35.4357], [-118.5037, 35.4359], [-118.5043, 35.4365], [-118.5063, 35.4355], [-118.5082, 35.4372], [-118.5087, 35.4344], [-118.507, 35.4333], [-118.508, 35.4325], [-118.5121, 35.433], [-118.5134, 35.4342], [-118.5152, 35.4343], [-118.5173, 35.4329], [-118.5202, 35.4325], [-118.5227, 35.434], [-118.5236, 35.4362], [-118.5255, 35.4377], [-118.5301, 35.4368], [-118.536, 35.4397], [-118.5365, 35.4409], [-118.536, 35.4415], [-118.5371, 35.4427], [-118.5362, 35.4439], [-118.5393, 35.4472], [-118.5391, 35.4481], [-118.5428, 35.4505], [-118.542, 35.4518], [-118.5427, 35.4536], [-118.5415, 35.4553], [-118.5423, 35.4567], [-118.5406, 35.4597], [-118.5391, 35.46], [-118.5383, 35.4595], [-118.5381, 35.4608], [-118.5371, 35.4613], [-118.5369, 35.4602], [-118.5346, 35.4584], [-118.5349, 35.458], [-118.5336, 35.4575], [-118.5295, 35.4575], [-118.5284, 35.4585], [-118.5255, 35.4583], [-118.5236, 35.4591], [-118.5198, 35.4586], [-118.5194, 35.4581], [-118.5204, 35.462], [-118.5197, 35.4639], [-118.5182, 35.4645], [-118.5189, 35.4671], [-118.5167, 35.4692], [-118.5151, 35.4678], [-118.5088, 35.4679], [-118.507, 35.469], [-118.5056, 35.469], [-118.5046, 35.468], [-118.5041, 35.4693], [-118.5029, 35.4693], [-118.5025, 35.4702], [-118.5014, 35.4699], [-118.5006, 35.4704], [-118.4995, 35.4698], [-118.4977, 35.4704], [-118.4949, 35.4729], [-118.4913, 35.4745], [-118.4885, 35.4726], [-118.4816, 35.4718], [-118.4803, 35.4708], [-118.4803, 35.4721], [-118.4782, 35.4737], [-118.4742, 35.4752], [-118.4726, 35.477], [-118.4692, 35.4775], [-118.4674, 35.4761], [-118.4674, 35.4725], [-118.4667, 35.4716], [-118.4641, 35.4719], [-118.4602, 35.4706], [-118.459, 35.4714], [-118.4571, 35.4704], [-118.4548, 35.4705], [-118.4489, 35.4686], [-118.4454, 35.4653], [-118.4439, 35.4665], [-118.4432, 35.465], [-118.4443, 35.4651], [-118.444, 35.4646], [-118.4425, 35.464], [-118.4404, 35.4608], [-118.4407, 35.456], [-118.4414, 35.4546], [-118.4427, 35.4545], [-118.4414, 35.4531], [-118.4392, 35.4528], [-118.4382, 35.4535], [-118.4357, 35.4534], [-118.4355, 35.4541], [-118.4324, 35.4547], [-118.4309, 35.456], [-118.4313, 35.4544], [-118.433, 35.4534], [-118.4332, 35.4516], [-118.4344, 35.4515], [-118.4342, 35.4507], [-118.4351, 35.4503], [-118.4348, 35.4494], [-118.4328, 35.4479], [-118.4285, 35.447], [-118.4287, 35.4462], [-118.425, 35.4458], [-118.4227, 35.4458], [-118.4216, 35.4467], [-118.4199, 35.4464], [-118.4179, 35.4479], [-118.4176, 35.4462], [-118.4164, 35.4462], [-118.415, 35.4451], [-118.418, 35.4433], [-118.4184, 35.4419], [-118.4219, 35.4391], [-118.423, 35.439], [-118.4235, 35.438], [-118.4269, 35.4374], [-118.4298, 35.4385], [-118.4319, 35.4381], [-118.4333, 35.4395], [-118.4348, 35.4392], [-118.4365, 35.4403], [-118.4376, 35.4422], [-118.4388, 35.441], [-118.4414, 35.4423], [-118.4487, 35.4413], [-118.4502, 35.4427], [-118.4522, 35.4405], [-118.4544, 35.4407], [-118.4587, 35.4382], [-118.4605, 35.4384], [-118.4635, 35.4394], [-118.4636, 35.4402], [-118.4678, 35.4398], [-118.4687, 35.441], [-118.4676, 35.4431], [-118.4687, 35.4446], [-118.4721, 35.4449]]]}, "properties": {"layer": "perimeter"}}, {"type": "Feature", "geometry": {"type": "MultiPolygon", "coordinates": [[[[-118.4711, 35.4451], [-118.4762, 35.4431], [-118.4836, 35.4431], [-118.4825, 35.4719], [-118.4803, 35.4708], [-118.4803, 35.4721], [-118.4782, 35.4737], [-118.4743, 35.4751], [-118.4743, 35.472], [-118.4641, 35.4719], [-118.4602, 35.4706], [-118.459, 35.4714], [-118.458, 35.4707], [-118.4548, 35.4705], [-118.4489, 35.4686], [-118.448, 35.4678], [-118.4479, 35.4576], [-118.4656, 35.4577], [-118.4657, 35.4431], [-118.4677, 35.4431], [-118.4687, 35.4446], [-118.4711, 35.4451]]], [[[-118.477, 35.4425], [-118.4779, 35.4405], [-118.4793, 35.4405], [-118.482, 35.4409], [-118.4836, 35.4425], [-118.477, 35.4425]]], [[[-118.4893, 35.4424], [-118.4985, 35.4387], [-118.4993, 35.4377], [-118.5012, 35.4371], [-118.501, 35.4379], [-118.5017, 35.4379], [-118.5013, 35.4357], [-118.5037, 35.4359], [-118.5043, 35.4365], [-118.5063, 35.4355], [-118.5082, 35.4372], [-118.5087, 35.4344], [-118.507, 35.4333], [-118.508, 35.4325], [-118.5121, 35.433], [-118.5134, 35.4342], [-118.5152, 35.4343], [-118.5173, 35.4329], [-118.5202, 35.4325], [-118.5227, 35.434], [-118.5236, 35.4362], [-118.5255, 35.4377], [-118.5301, 35.4368], [-118.536, 35.4397], [-118.5365, 35.4409], [-118.536, 35.4415], [-118.5371, 35.4427], [-118.53, 35.4431], [-118.537, 35.4431], [-118.5362, 35.4439], [-118.5393, 35.4472], [-118.5391, 35.4481], [-118.5428, 35.4505], [-118.542, 35.4518], [-118.5427, 35.4536], [-118.5415, 35.4553], [-118.5422, 35.457], [-118.5406, 35.4597], [-118.5391, 35.46], [-118.5383, 35.4595], [-118.5381, 35.4608], [-118.5371, 35.4613], [-118.5369, 35.4602], [-118.5346, 35.4584], [-118.5349, 35.458], [-118.5336, 35.4575], [-118.5295, 35.4575], [-118.5284, 35.4585], [-118.5268, 35.4584], [-118.5264, 35.4576], [-118.5239, 35.459], [-118.5234, 35.4584], [-118.5227, 35.459], [-118.5207, 35.4586], [-118.5229, 35.4564], [-118.5239, 35.4579], [-118.5266, 35.4553], [-118.5266, 35.4431], [-118.5301, 35.4427], [-118.4893, 35.4424]]], [[[-118.518, 35.4649], [-118.5189, 35.4671], [-118.518, 35.4681], [-118.518, 35.4649]]], [[[-118.441, 35.4573], [-118.4407, 35.456], [-118.4414, 35.4546], [-118.4426, 35.4543], [-118.4414, 35.4531], [-118.4392, 35.4528], [-118.4382, 35.4535], [-118.4357, 35.4534], [-118.4355, 35.4541], [-118.4324, 35.4547], [-118.4309, 35.456], [-118.4313, 35.4544], [-118.433, 35.4534], [-118.4327, 35.4524], [-118.4332, 35.4516], [-118.4344, 35.4515], [-118.4342, 35.4507], [-118.4351, 35.4498], [-118.4309, 35.4473], [-118.431, 35.4433], [-118.4212, 35.4433], [-118.4211, 35.44], [-118.4232, 35.4388], [-118.4235, 35.438], [-118.4269, 35.4374], [-118.4298, 35.4385], [-118.4319, 35.4381], [-118.4333, 35.4395], [-118.4356, 35.4396], [-118.4376, 35.4422], [-118.4388, 35.441], [-118.4414, 35.4423], [-118.4487, 35.4413], [-118.4502, 35.4427], [-118.4522, 35.4405], [-118.4544, 35.4407], [-118.4587, 35.4382], [-118.4635, 35.4394], [-118.4636, 35.4402], [-118.4678, 35.4398], [-118.4687, 35.441], [-118.4677, 35.443], [-118.4484, 35.4432], [-118.4479, 35.4576], [-118.441, 35.4573]]], [[[-118.4919, 35.4577], [-118.4921, 35.4504], [-118.5008, 35.4504], [-118.5006, 35.4577], [-118.4919, 35.4577]]]]}, "properties": {"layer": "retained"}}, {"type": "Feature", "geometry": {"type": "Polygon", "coordinates": [[[-118.4821, 35.4712], [-118.4824, 35.4709], [-118.4821, 35.4709], [-118.4821, 35.4712]]]}, "properties": {"layer": "high_severity"}}]}
