{"type": "FeatureCollection", "features": [{"type": "Feature", "geometry": {"type": "Polygon", "coordinates": [[[-118.2876, 34.5634], [-118.2875, 34.5622], [-118.2863, 34.562], [-118.2838, 34.5632], [-118.2822, 34.5625], [-118.2782, 34.5631], [-118.2779, 34.562], [-118.2762, 34.5615], [-118.2765, 34.5606], [-118.2775, 34.5608], [-118.278, 34.5601], [-118.2754, 34.5605], [-118.2776, 34.5591], [-118.2782, 34.557], [-118.2768, 34.554], [-118.2777, 34.5523], [-118.2769, 34.5522], [-118.2771, 34.5516], [-118.2785, 34.5506], [-118.2795, 34.548], [-118.2808, 34.5486], [-118.2807, 34.5472], [-118.2817, 34.5462], [-118.2818, 34.5436], [-118.2799, 34.5431], [-118.2812, 34.5431], [-118.2845, 34.5379], [-118.2868, 34.5368], [-118.2862, 34.5387], [-118.2933, 34.5378], [-118.2962, 34.5372], [-118.2964, 34.5365], [-118.3006, 34.5358], [-118.3039, 34.5365], [-118.3048, 34.5378], [-118.3079, 34.5381], [-118.3083, 34.5385], [-118.3069, 34.541], [-118.3079, 34.5418], [-118.3072, 34.5457], [-118.3053, 34.5457], [-118.3049, 34.547], [-118.3012, 34.549], [-118.3043, 34.551], [-118.3024, 34.5512], [-118.3032, 34.5522], [-118.3023, 34.5524], [-118.2987, 34.5518], [-118.3017, 34.5537], [-118.3009, 34.5554], [-118.3015, 34.5561], [-118.3, 34.5568], [-118.3004, 34.5579], [-118.2998, 34.5588], [-118.2975, 34.5581], [-118.2958, 34.5548], [-118.295, 34.5565], [-118.2952, 34.5592], [-118.2938, 34.56], [-118.293, 34.5617], [-118.2925, 34.5606], [-118.293, 34.5595], [-118.2922, 34.5595], [-118.2898, 34.5613], [-118.289, 34.5634], [-118.2887, 34.5623], [-118.2876, 34.5634]], [[-118.2939, 34.5488], [-118.2965, 34.5479], [-118.297, 34.5468], [-118.3013, 34.547], [-118.3012, 34.5453], [-118.2918, 34.5451], [-118.2898, 34.5463], [-118.2853, 34.5457], [-118.2847, 34.5467], [-118.2848, 34.548], [-118.286, 34.548], [-118.2859, 34.547], [-118.2876, 34.5468], [-118.2894, 34.5473], [-118.2905, 34.5484], [-118.2928, 34.5482], [-118.2939, 34.5488]]]}, "properties": {"layer": "perimeter"}}, {"type": "Feature", "geometry": {"type": "Polygon", "coordinates": [[[-118.2778, 34.5581], [-118.2782, 34.557], [-118.2768, 34.554], [-118.2777, 34.5523], [-118.2769, 34.5522], [-118.2785, 34.5506], [-118.2795, 34.548], [-118.2808, 34.5486], [-118.2818, 34.5436], [-118.2799, 34.5431], [-118.2812, 34.5431], [-118.2845, 34.5379], [-118.2868, 34.5368], [-118.2862, 34.5387], [-118.2904, 34.5379], [-118.2903, 34.5433], [-118.3079, 34.5437], [-118.3075, 34.5452], [-118.3068, 34.5452], [-118.3072, 34.5457], [-118.3053, 34.5457], [-118.3046, 34.5471], [-118.2993, 34.547], [-118.3013, 34.547], [-118.3012, 34.5453], [-118.2918, 34.5451], [-118.2898, 34.5463], [-118.2853, 34.5457], [-118.2848, 34.548], [-118.286, 34.548], [-118.2859, 34.547], [-118.2876, 34.5468], [-118.2894, 34.5473], [-118.2905, 34.5484], [-118.2928, 34.5482], [-118.2939, 34.5488], [-118.2965, 34.5479], [-118.297, 34.5468], [-118.2982, 34.5468], [-118.299, 34.547], [-118.2988, 34.5487], [-118.2944, 34.5486], [-118.2942, 34.5521], [-118.2921, 34.5521], [-118.2922, 34.5504], [-118.2899, 34.5503], [-118.2895, 34.5582], [-118.2778, 34.5581]]]}, "properties": {"layer": "retained"}}]}
