{"type": "FeatureCollection", "features": [{"type": "Feature", "geometry": {"type": "MultiPolygon", "coordinates": [[[[-118.375, 36.9943], [-118.3757, 36.995], [-118.3748, 36.995], [-118.375, 36.9943]]], [[[-118.3773, 36.9951], [-118.3776, 36.9948], [-118.3777, 36.995], [-118.3773, 36.9951]]], [[[-118.3795, 36.9957], [-118.3789, 36.9954], [-118.3795, 36.9953], [-118.3795, 36.9957]]], [[[-118.3806, 36.9961], [-118.3808, 36.997], [-118.3801, 36.996], [-118.3806, 36.9961]]], [[[-118.3609, 37.0613], [-118.3587, 37.0596], [-118.3553, 37.0596], [-118.3498, 37.0568], [-118.3487, 37.0571], [-118.347, 37.056], [-118.3458, 37.0564], [-118.3447, 37.0557], [-118.3437, 37.0559], [-118.344, 37.0553], [-118.3417, 37.054], [-118.3379, 37.0554], [-118.3331, 37.0547], [-118.3277, 37.0554], [-118.3263, 37.0532], [-118.3251, 37.0529], [-118.3263, 37.052], [-118.3255, 37.0503], [-118.3235, 37.0495], [-118.3201, 37.0495], [-118.3195, 37.0499], [-118.32, 37.0507], [-118.3175, 37.051], [-118.3184, 37.0519], [-118.3174, 37.0518], [-118.3169, 37.0528], [-118.3161, 37.0519], [-118.3126, 37.0511], [-118.3127, 37.0504], [-118.3109, 37.0504], [-118.3126, 37.0491], [-118.3137, 37.05], [-118.3154, 37.047], [-118.3144, 37.0468], [-118.3144, 37.0451], [-118.3126, 37.044], [-118.3135, 37.0441], [-118.3134, 37.043], [-118.3066, 37.0408], [-118.3072, 37.0407], [-118.3066, 37.0405], [-118.3073, 37.0402], [-118.3066, 37.0393], [-118.3073, 37.0383], [-118.3046, 37.0382], [-118.3024, 37.037], [-118.3037, 37.0357], [-118.3043, 37.0362], [-118.3055, 37.0355], [-118.3056, 37.0342], [-118.3068, 37.0332], [-118.3026, 37.0311], [-118.2992, 37.0326], [-118.2981, 37.0315], [-118.2966, 37.0312], [-118.2988, 37.0289], [-118.2965, 37.027], [-118.2974, 37.0255], [-118.3007, 37.026], [-118.3017, 37.0269], [-118.3028, 37.0252], [-118.3066, 37.0256], [-118.306, 37.0254], [-118.3064, 37.0246], [-118.3014, 37.0226], [-118.3011, 37.0208], [-118.2994, 37.0204], [-118.3003, 37.0197], [-118.3017, 37.0205], [-118.3025, 37.0199], [-118.3035, 37.0201], [-118.3028, 37.0198], [-118.3029, 37.0191], [-118.304, 37.0191], [-118.3038, 37.0184], [-118.3108, 37.0212], [-118.3161, 37.0214], [-118.3174, 37.0223], [-118.3181, 37.0213], [-118.3192, 37.0217], [-118.3199, 37.0229], [-118.3208, 37.0222], [-118.322, 37.0227], [-118.3214, 37.0215], [-118.3224, 37.0173], [-118.3223, 37.0196], [-118.3231, 37.0189], [-118.3228, 37.0225], [-118.3221, 37.0235], [-118.3255, 37.0242], [-118.3265, 37.0212], [-118.3274, 37.0211], [-118.3278, 37.02], [-118.328, 37.0209], [-118.3288, 37.021], [-118.33, 37.0197], [-118.33, 37.0173], [-118.3308, 37.0162], [-118.3301, 37.0141], [-118.3289, 37.0139], [-118.33, 37.0103], [-118.3325, 37.0085], [-118.3327, 37.0074], [-118.3387, 37.0038], [-118.3386, 37.0024], [-118.3418, 37.0], [-118.3432, 36.9955], [-118.3426, 36.9943], [-118.3405, 36.9939], [-118.3412, 36.9927], [-118.3389, 36.9906], [-118.3388, 36.9888], [-118.3357, 36.9879], [-118.33, 36.9875], [-118.3293, 36.987], [-118.3298, 36.9855], [-118.3279, 36.9838], [-118.3277, 36.9843], [-118.3266, 36.9841], [-118.3269, 36.9852], [-118.3262, 36.9855], [-118.3254, 36.9851], [-118.3255, 36.9837], [-118.3247, 36.9838], [-118.3238, 36.9828], [-118.3233, 36.9838], [-118.3225, 36.983], [-118.3223, 36.98], [-118.3245, 36.9781], [-118.3275, 36.9788], [-118.3298, 36.9778], [-118.3346, 36.9788], [-118.3363, 36.9779], [-118.3375, 36.9781], [-118.3375, 36.9787], [-118.3395, 36.9785], [-118.3427, 36.9766], [-118.3446, 36.9768], [-118.3452, 36.9762], [-118.3506, 36.9781], [-118.3523, 36.9773], [-118.3548, 36.9772], [-118.3552, 36.9778], [-118.3543, 36.9787], [-118.3583, 36.9792], [-118.3594, 36.9784], [-118.3604, 36.9786], [-118.3588, 36.9805], [-118.3569, 36.9805], [-118.3562, 36.9813], [-118.358, 36.9813], [-118.358, 36.9824], [-118.3638, 36.9814], [-118.3644, 36.9822], [-118.364, 36.9837], [-118.3626, 36.9845], [-118.3632, 36.9859], [-118.3653, 36.9858], [-118.3658, 36.9851], [-118.3659, 36.9866], [-118.3671, 36.9861], [-118.3685, 36.9868], [-118.3678, 36.9871], [-118.368, 36.9906], [-118.3692, 36.9924], [-118.3685, 36.994], [-118.369, 36.9944], [-118.3701, 36.9932], [-118.3728, 36.9935], [-118.3725, 36.9942], [-118.3706, 36.9939], [-118.3699, 36.9942], [-118.3699, 36.9948], [-118.3711, 36.9943], [-118.3713, 36.9959], [-118.3725, 36.9943], [-118.3765, 36.9962], [-118.3773, 36.9963], [-118.3773, 36.9954], [-118.378, 36.9953], [-118.3799, 36.9965], [-118.3791, 36.9969], [-118.3799, 36.9972], [-118.379, 36.999], [-118.3833, 37.0001], [-118.3765, 37.0001], [-118.3786, 37.0011], [-118.3782, 37.0018], [-118.3895, 37.0047], [-118.379, 37.0035], [-118.3799, 37.0053], [-118.3888, 37.0086], [-118.3902, 37.0098], [-118.3755, 37.0091], [-118.3763, 37.0104], [-118.3785, 37.011], [-118.3798, 37.012], [-118.3821, 37.0156], [-118.3846, 37.0144], [-118.3865, 37.0145], [-118.3878, 37.0136], [-118.3919, 37.0152], [-118.392, 37.0165], [-118.3913, 37.0159], [-118.3902, 37.017], [-118.3866, 37.0182], [-118.3861, 37.0169], [-118.386, 37.018], [-118.3852, 37.0184], [-118.3832, 37.0171], [-118.3814, 37.0167], [-118.38, 37.0177], [-118.3815, 37.0176], [-118.3817, 37.0185], [-118.381, 37.0187], [-118.3814, 37.0192], [-118.3805, 37.0204], [-118.3824, 37.0201], [-118.3817, 37.0212], [-118.3839, 37.0207], [-118.3866, 37.0223], [-118.3833, 37.0212], [-118.3834, 37.0219], [-118.3849, 37.022], [-118.3844, 37.0238], [-118.3853, 37.0244], [-118.3831, 37.0241], [-118.3796, 37.0247], [-118.3793, 37.0257], [-118.3807, 37.0256], [-118.3827, 37.0267], [-118.3821, 37.0277], [-118.3829, 37.0295], [-118.3871, 37.0307], [-118.3885, 37.0319], [-118.3852, 37.0318], [-118.3849, 37.0337], [-118.3821, 37.0351], [-118.3795, 37.0339], [-118.3792, 37.0345], [-118.3805, 37.0352], [-118.3806, 37.036], [-118.379, 37.0367], [-118.3796, 37.0354], [-118.3788, 37.0358], [-118.3762, 37.035], [-118.3734, 37.0359], [-118.3717, 37.0358], [-118.369, 37.04], [-118.3694, 37.0404], [-118.3744, 37.0392], [-118.3785, 37.0376], [-118.3806, 37.0377], [-118.3805, 37.0386], [-118.3739, 37.0412], [-118.3703, 37.0439], [-118.3778, 37.0415], [-118.3785, 37.0421], [-118.3767, 37.0433], [-118.3768, 37.0438], [-118.3783, 37.0431], [-118.3789, 37.0436], [-118.3823, 37.0431], [-118.3777, 37.047], [-118.3821, 37.0459], [-118.3809, 37.0485], [-118.3831, 37.0484], [-118.3822, 37.0501], [-118.3802, 37.0513], [-118.376, 37.0517], [-118.3736, 37.0529], [-118.3609, 37.051], [-118.3577, 37.0516], [-118.353, 37.0512], [-118.3528, 37.0525], [-118.3572, 37.056], [-118.3581, 37.0558], [-118.3601, 37.059], [-118.3622, 37.0588], [-118.3616, 37.0598], [-118.3622, 37.0607], [-118.3609, 37.0613]], [[-118.3738, 37.0223], [-118.3744, 37.0211], [-118.375, 37.0215], [-118.3757, 37.0191], [-118.3766, 37.0199], [-118.3767, 37.0189], [-118.3796, 37.0179], [-118.3791, 37.0168], [-118.3775, 37.0169], [-118.3746, 37.0194], [-118.3749, 37.0208], [-118.3743, 37.021], [-118.3738, 37.0215], [-118.3738, 37.0223]], [[-118.381, 37.0324], [-118.3806, 37.0329], [-118.382, 37.0335], [-118.3823, 37.0326], [-118.381, 37.0324]]], [[[-118.3815, 37.0357], [-118.3817, 37.0357], [-118.3816, 37.0358], [-118.3815, 37.0357]]], [[[-118.3825, 37.0359], [-118.382, 37.0357], [-118.3825, 37.0358], [-118.3825, 37.0359]]]]}, "properties": {"layer": "perimeter"}}, {"type": "Feature", "geometry": {"type": "MultiPolygon", "coordinates": [[[[-118.3553, 37.0595], [-118.3512, 37.0577], [-118.3508, 37.0571], [-118.3553, 37.0571], [-118.3553, 37.0595]]], [[[-118.326, 37.0533], [-118.3251, 37.0528], [-118.326, 37.052], [-118.326, 37.0521], [-118.326, 37.0533]]], [[[-118.326, 37.0519], [-118.3255, 37.0503], [-118.3235, 37.0495], [-118.3201, 37.0495], [-118.3195, 37.0499], [-118.32, 37.0507], [-118.3175, 37.051], [-118.3184, 37.0519], [-118.3174, 37.0518], [-118.3169, 37.0528], [-118.3161, 37.0519], [-118.3126, 37.0511], [-118.3127, 37.0504], [-118.3108, 37.0503], [-118.3122, 37.0499], [-118.3126, 37.0491], [-118.3137, 37.05], [-118.3154, 37.047], [-118.3216, 37.047], [-118.3216, 37.0434], [-118.312, 37.0429], [-118.3092, 37.0413], [-118.3069, 37.0411], [-118.3072, 37.0406], [-118.3065, 37.0404], [-118.3073, 37.04], [-118.3066, 37.0393], [-118.3073, 37.0383], [-118.3046, 37.0382], [-118.3024, 37.037], [-118.3033, 37.0362], [-118.3081, 37.0362], [-118.3083, 37.029], [-118.3261, 37.029], [-118.326, 37.0519]]]]}, "properties": {"layer": "retained"}}]}
