{"type": "FeatureCollection", "features": [{"type": "Feature", "geometry": {"type": "Polygon", "coordinates": [[[-122.0557, 41.7649], [-122.0532, 41.7642], [-122.0531, 41.7632], [-122.0558, 41.7636], [-122.0558, 41.7646], [-122.0585, 41.7648], [-122.061, 41.7613], [-122.058, 41.7609], [-122.0577, 41.7539], [-122.0515, 41.7535], [-122.062, 41.7535], [-122.0605, 41.7511], [-122.0561, 41.7493], [-122.0547, 41.7434], [-122.0534, 41.7439], [-122.0495, 41.7425], [-122.0448, 41.7427], [-122.0457, 41.7425], [-122.0393, 41.7419], [-122.0337, 41.7391], [-122.0293, 41.7382], [-122.0193, 41.738], [-122.0172, 41.7342], [-122.0122, 41.7335], [-122.0102, 41.7316], [-122.01, 41.73], [-122.0038, 41.7234], [-122.0029, 41.7215], [-122.0033, 41.7195], [-122.0039, 41.7199], [-122.0042, 41.719], [-121.9976, 41.7147], [-121.9962, 41.7102], [-121.9976, 41.7087], [-121.9969, 41.706], [-121.9928, 41.7035], [-121.9918, 41.7016], [-121.9921, 41.6969], [-121.9944, 41.692], [-121.9942, 41.6883], [-121.9999, 41.6884], [-122.0003, 41.6877], [-122.0007, 41.6882], [-122.0012, 41.6877], [-122.0002, 41.6858], [-122.0008, 41.6855], [-122.0018, 41.6867], [-122.0017, 41.6883], [-122.0042, 41.6866], [-122.005, 41.6876], [-122.0069, 41.6874], [-122.0074, 41.6868], [-122.0066, 41.6862], [-122.0082, 41.6863], [-122.008, 41.6856], [-122.0092, 41.6853], [-122.0092, 41.6844], [-122.0113, 41.6843], [-122.0113, 41.6835], [-122.0131, 41.6827], [-122.0127, 41.6822], [-122.0114, 41.6823], [-122.0126, 41.6812], [-122.0113, 41.68], [-122.0115, 41.6792], [-122.0098, 41.6795], [-122.0089, 41.6805], [-122.008, 41.6802], [-122.0097, 41.6775], [-122.0096, 41.6756], [-122.0105, 41.6753], [-122.0108, 41.6758], [-122.0103, 41.6766], [-122.0111, 41.6788], [-122.0117, 41.6786], [-122.0122, 41.6748], [-122.0198, 41.6748], [-122.0188, 41.6731], [-122.0197, 41.6733], [-122.0198, 41.6726], [-122.0221, 41.6716], [-122.0224, 41.6695], [-122.025, 41.6674], [-122.0266, 41.668], [-122.0267, 41.6689], [-122.0252, 41.6698], [-122.0237, 41.6694], [-122.0237, 41.6702], [-122.0248, 41.6706], [-122.0247, 41.6713], [-122.0253, 41.6709], [-122.0252, 41.6724], [-122.0268, 41.6717], [-122.0275, 41.674], [-122.0289, 41.6738], [-122.0298, 41.6744], [-122.0313, 41.6737], [-122.0335, 41.6742], [-122.0352, 41.6759], [-122.0366, 41.6748], [-122.0372, 41.6759], [-122.0387, 41.6758], [-122.0407, 41.6768], [-122.0417, 41.6783], [-122.0456, 41.6757], [-122.0511, 41.6663], [-122.0539, 41.6654], [-122.0532, 41.6694], [-122.0544, 41.6749], [-122.053, 41.6787], [-122.0529, 41.6838], [-122.0514, 41.6857], [-122.0528, 41.687], [-122.053, 41.6886], [-122.0547, 41.6884], [-122.0568, 41.6914], [-122.059, 41.6945], [-122.0601, 41.6978], [-122.0616, 41.6989], [-122.0616, 41.7001], [-122.0637, 41.7008], [-122.0641, 41.7034], [-122.0656, 41.7059], [-122.0664, 41.7055], [-122.068, 41.7087], [-122.0669, 41.7106], [-122.0677, 41.7107], [-122.0667, 41.7118], [-122.0673, 41.7127], [-122.0656, 41.7143], [-122.0674, 41.7143], [-122.0679, 41.7157], [-122.0684, 41.7192], [-122.0674, 41.72], [-122.0674, 41.7228], [-122.0684, 41.7249], [-122.0693, 41.7251], [-122.0683, 41.7265], [-122.0671, 41.726], [-122.0672, 41.725], [-122.0663, 41.7257], [-122.0675, 41.7306], [-122.0724, 41.7334], [-122.0736, 41.733], [-122.0723, 41.7306], [-122.0748, 41.7308], [-122.074, 41.7323], [-122.0743, 41.7346], [-122.0764, 41.7367], [-122.0778, 41.7344], [-122.0792, 41.7354], [-122.0821, 41.7351], [-122.0828, 41.736], [-122.0839, 41.7361], [-122.0883, 41.7352], [-122.0929, 41.7383], [-122.0916, 41.7396], [-122.0918, 41.7423], [-122.0908, 41.7423], [-122.0891, 41.7439], [-122.0898, 41.7445], [-122.0913, 41.7445], [-122.0907, 41.7464], [-122.0918, 41.7475], [-122.0904, 41.748], [-122.0913, 41.7484], [-122.0918, 41.7503], [-122.0908, 41.7505], [-122.0905, 41.7521], [-122.0949, 41.7539], [-122.0955, 41.7547], [-122.0946, 41.7554], [-122.0949, 41.7564], [-122.093, 41.7573], [-122.094, 41.7573], [-122.0941, 41.7591], [-122.0953, 41.7595], [-122.0936, 41.7614], [-122.0944, 41.7638], [-122.0939, 41.765], [-122.0914, 41.7656], [-122.0909, 41.7663], [-122.09, 41.7659], [-122.0868, 41.7665], [-122.0845, 41.7638], [-122.082, 41.7631], [-122.081, 41.7649], [-122.0788, 41.766], [-122.0726, 41.7667], [-122.0716, 41.7661], [-122.0685, 41.767], [-122.0675, 41.766], [-122.0676, 41.7621], [-122.0615, 41.7624], [-122.0602, 41.7678], [-122.0568, 41.7684], [-122.0557, 41.7649]], [[-122.001, 41.7034], [-122.0016, 41.7045], [-122.0042, 41.7044], [-122.0038, 41.7031], [-122.0053, 41.7035], [-122.0051, 41.7016], [-122.0062, 41.7026], [-122.0074, 41.7016], [-122.0064, 41.7015], [-122.0061, 41.7002], [-122.0049, 41.7], [-122.0049, 41.6982], [-122.0035, 41.6982], [-122.0016, 41.6994], [-122.0024, 41.7003], [-122.0009, 41.7001], [-121.9998, 41.7009], [-121.9986, 41.6999], [-121.9992, 41.7013], [-121.9982, 41.7018], [-121.9992, 41.7034], [-121.9998, 41.704], [-122.001, 41.7034]], [[-122.0097, 41.7005], [-122.0082, 41.7007], [-122.0075, 41.701], [-122.0097, 41.7017], [-122.0097, 41.7005]], [[-122.0083, 41.7021], [-122.009, 41.7017], [-122.0077, 41.7022], [-122.0083, 41.7021]], [[-122.0269, 41.704], [-122.0162, 41.7024], [-122.0136, 41.7032], [-122.0121, 41.7014], [-122.0106, 41.7017], [-122.0099, 41.7026], [-122.0097, 41.7054], [-122.0123, 41.7035], [-122.0141, 41.7034], [-122.0154, 41.7046], [-122.0154, 41.7051], [-122.0133, 41.7054], [-122.0123, 41.7064], [-122.0127, 41.708], [-122.0112, 41.7098], [-122.0119, 41.7102], [-122.0129, 41.7088], [-122.0132, 41.7091], [-122.0121, 41.7128], [-122.0131, 41.715], [-122.014, 41.7138], [-122.0165, 41.7147], [-122.0167, 41.7153], [-122.0178, 41.7138], [-122.0196, 41.714], [-122.0194, 41.7148], [-122.0209, 41.7144], [-122.0222, 41.7149], [-122.0221, 41.7132], [-122.0237, 41.7139], [-122.0231, 41.715], [-122.0245, 41.7138], [-122.0286, 41.7147], [-122.0313, 41.7136], [-122.0308, 41.713], [-122.0324, 41.7137], [-122.0333, 41.7134], [-122.033, 41.7119], [-122.0351, 41.7089], [-122.0356, 41.7092], [-122.0348, 41.7121], [-122.0372, 41.7116], [-122.0373, 41.7126], [-122.0396, 41.7137], [-122.04, 41.713], [-122.0403, 41.7141], [-122.0441, 41.7132], [-122.045, 41.7117], [-122.0478, 41.7123], [-122.0483, 41.7115], [-122.0469, 41.7107], [-122.0469, 41.709], [-122.0443, 41.7042], [-122.0417, 41.7057], [-122.0372, 41.7044], [-122.031, 41.7039], [-122.0298, 41.7053], [-122.0269, 41.704]]]}, "properties": {"layer": "perimeter"}}, {"type": "Feature", "geometry": {"type": "MultiPolygon", "coordinates": [[[[-122.0555, 41.7647], [-122.0532, 41.7642], [-122.0531, 41.7632], [-122.0558, 41.7636], [-122.0559, 41.7667], [-122.0555, 41.7647]]], [[[-122.0582, 41.7611], [-122.0577, 41.7539], [-122.0515, 41.7535], [-122.062, 41.7535], [-122.0605, 41.7511], [-122.0561, 41.7493], [-122.0547, 41.7434], [-122.0534, 41.7439], [-122.0495, 41.7425], [-122.0448, 41.7427], [-122.0457, 41.7425], [-122.0393, 41.7419], [-122.0337, 41.7391], [-122.0293, 41.7382], [-122.0193, 41.738], [-122.0172, 41.7342], [-122.0132, 41.7339], [-122.0102, 41.7316], [-122.01, 41.73], [-122.0038, 41.7234], [-122.0029, 41.7215], [-122.004, 41.7189], [-122.0071, 41.7188], [-122.0071, 41.7226], [-122.0097, 41.7225], [-122.0097, 41.7245], [-122.0145, 41.7244], [-122.0146, 41.7318], [-122.0194, 41.7317], [-122.0195, 41.7355], [-122.0291, 41.7354], [-122.0291, 41.7372], [-122.034, 41.7373], [-122.0341, 41.7391], [-122.0485, 41.7391], [-122.0484, 41.7415], [-122.0532, 41.7417], [-122.0532, 41.7429], [-122.0581, 41.7428], [-122.0582, 41.7465], [-122.064, 41.7465], [-122.0639, 41.7457], [-122.0648, 41.7465], [-122.0728, 41.7462], [-122.0728, 41.7536], [-122.0679, 41.7536], [-122.0679, 41.7607], [-122.0778, 41.7609], [-122.0778, 41.7572], [-122.0875, 41.7572], [-122.0875, 41.7608], [-122.0925, 41.7609], [-122.0925, 41.7536], [-122.0875, 41.7536], [-122.0877, 41.7389], [-122.0679, 41.7389], [-122.068, 41.7318], [-122.0582, 41.732], [-122.0583, 41.7246], [-122.0681, 41.7243], [-122.0693, 41.7251], [-122.0686, 41.7263], [-122.0671, 41.726], [-122.0672, 41.725], [-122.0663, 41.7259], [-122.0675, 41.7306], [-122.0724, 41.7334], [-122.0736, 41.733], [-122.0723, 41.7306], [-122.0748, 41.7308], [-122.074, 41.7323], [-122.0743, 41.7346], [-122.0764, 41.7367], [-122.0778, 41.7344], [-122.0792, 41.7354], [-122.0821, 41.7351], [-122.0828, 41.736], [-122.0839, 41.7361], [-122.0883, 41.7352], [-122.0929, 41.7383], [-122.0916, 41.7396], [-122.0918, 41.7423], [-122.0908, 41.7423], [-122.0891, 41.7439], [-122.0898, 41.7445], [-122.0913, 41.7445], [-122.0907, 41.7464], [-122.0918, 41.7475], [-122.0904, 41.748], [-122.0913, 41.7484], [-122.0918, 41.7503], [-122.0908, 41.7505], [-122.0905, 41.7521], [-122.0949, 41.7539], [-122.0955, 41.7547], [-122.0946, 41.7554], [-122.0949, 41.7564], [-122.093, 41.7573], [-122.094, 41.7573], [-122.0941, 41.7591], [-122.0953, 41.7595], [-122.0936, 41.7614], [-122.0944, 41.7638], [-122.0939, 41.765], [-122.0914, 41.7656], [-122.0909, 41.7663], [-122.09, 41.7659], [-122.0868, 41.7665], [-122.0845, 41.7638], [-122.082, 41.7631], [-122.081, 41.7649], [-122.0788, 41.766], [-122.0726, 41.7667], [-122.0716, 41.7661], [-122.0685, 41.767], [-122.0675, 41.766], [-122.0676, 41.7621], [-122.0615, 41.7624], [-122.0602, 41.7678], [-122.0595, 41.7684], [-122.0565, 41.7683], [-122.062, 41.761], [-122.0582, 41.7611]]], [[[-122.0021, 41.7177], [-121.9992, 41.7157], [-121.9986, 41.7153], [-122.0021, 41.7153], [-122.0021, 41.7177]]], [[[-122.0268, 41.6717], [-122.0276, 41.6741], [-122.0289, 41.6738], [-122.0298, 41.6744], [-122.0313, 41.6737], [-122.0335, 41.6742], [-122.0352, 41.6759], [-122.0366, 41.6748], [-122.0372, 41.6759], [-122.0387, 41.6758], [-122.0407, 41.6768], [-122.0418, 41.6795], [-122.0317, 41.679], [-122.0318, 41.6828], [-122.0267, 41.6825], [-122.0268, 41.6717]]], [[[-122.068, 41.7091], [-122.068, 41.7091], [-122.068, 41.709], [-122.068, 41.7091]]], [[[-122.0681, 41.7169], [-122.0682, 41.7174], [-122.0681, 41.7176], [-122.0681, 41.7169]]], [[[-122.0681, 41.7184], [-122.0684, 41.7192], [-122.0681, 41.7197], [-122.0681, 41.7184]]], [[[-122.0097, 41.7062], [-122.0097, 41.6973], [-122.002, 41.6973], [-122.002, 41.6936], [-122.017, 41.6935], [-122.0168, 41.6823], [-122.0218, 41.6823], [-122.0217, 41.6953], [-122.0291, 41.6953], [-122.0291, 41.7051], [-122.0259, 41.7034], [-122.0162, 41.7024], [-122.0136, 41.7032], [-122.0121, 41.7014], [-122.01, 41.7022], [-122.0097, 41.7054], [-122.0132, 41.7034], [-122.0151, 41.704], [-122.0154, 41.7051], [-122.0133, 41.7054], [-122.0131, 41.7062], [-122.0097, 41.7062]]]]}, "properties": {"layer": "retained"}}, {"type": "Feature", "geometry": {"type": "MultiPolygon", "coordinates": [[[[-122.0842, 41.7626], [-122.0846, 41.7621], [-122.0835, 41.7618], [-122.0831, 41.7624], [-122.0842, 41.7626]]], [[[-122.0871, 41.7639], [-122.0878, 41.7634], [-122.0874, 41.7618], [-122.086, 41.7615], [-122.086, 41.7626], [-122.0849, 41.7629], [-122.0871, 41.7639]]], [[[-122.0824, 41.7621], [-122.0835, 41.7613], [-122.082, 41.7616], [-122.0824, 41.7621]]], [[[-122.0912, 41.766], [-122.0911, 41.7647], [-122.0922, 41.7647], [-122.0922, 41.7639], [-122.094, 41.7638], [-122.0929, 41.763], [-122.0928, 41.762], [-122.0914, 41.762], [-122.0921, 41.7609], [-122.0896, 41.7612], [-122.0907, 41.7642], [-122.0897, 41.7642], [-122.089, 41.7658], [-122.0912, 41.766]]], [[[-122.0716, 41.762], [-122.0726, 41.7612], [-122.0766, 41.7617], [-122.0773, 41.7609], [-122.0705, 41.7607], [-122.0705, 41.7618], [-122.0716, 41.762]]], [[[-122.0842, 41.7616], [-122.0849, 41.7602], [-122.0859, 41.7602], [-122.086, 41.761], [-122.0871, 41.7612], [-122.0863, 41.7599], [-122.0874, 41.7599], [-122.0873, 41.7588], [-122.087, 41.7593], [-122.0859, 41.7591], [-122.0859, 41.7596], [-122.0848, 41.7591], [-122.0845, 41.7602], [-122.0831, 41.76], [-122.0827, 41.7608], [-122.0842, 41.7616]], [[-122.0838, 41.7602], [-122.0834, 41.7605], [-122.0834, 41.7602], [-122.0838, 41.7602]]], [[[-122.0798, 41.7606], [-122.0791, 41.7589], [-122.0783, 41.7587], [-122.0784, 41.7603], [-122.0798, 41.7606]]], [[[-122.0848, 41.7586], [-122.0877, 41.7583], [-122.0877, 41.7572], [-122.0841, 41.7572], [-122.0841, 41.7578], [-122.0855, 41.7578], [-122.0848, 41.7586]]], [[[-122.0927, 41.7563], [-122.0941, 41.7557], [-122.093, 41.7555], [-122.0927, 41.7563]]], [[[-122.0728, 41.7531], [-122.0727, 41.7509], [-122.0716, 41.7509], [-122.0713, 41.7515], [-122.0728, 41.7531]]], [[[-122.063, 41.75], [-122.0633, 41.7495], [-122.0622, 41.7489], [-122.0619, 41.7498], [-122.063, 41.75]]], [[[-122.0878, 41.7496], [-122.0885, 41.749], [-122.0881, 41.7485], [-122.0874, 41.7488], [-122.0878, 41.7496]]], [[[-122.0705, 41.751], [-122.0712, 41.7496], [-122.0701, 41.7493], [-122.0712, 41.7493], [-122.0712, 41.7488], [-122.0701, 41.7483], [-122.0683, 41.7486], [-122.068, 41.7502], [-122.0702, 41.7502], [-122.0705, 41.751]]], [[[-122.089, 41.7428], [-122.089, 41.7423], [-122.0901, 41.7423], [-122.0897, 41.7409], [-122.089, 41.7417], [-122.0876, 41.7418], [-122.0876, 41.7426], [-122.089, 41.7428]]], [[[-122.0756, 41.739], [-122.0759, 41.7384], [-122.0748, 41.7366], [-122.0741, 41.7366], [-122.074, 41.7352], [-122.0726, 41.735], [-122.0718, 41.7336], [-122.07, 41.7328], [-122.0682, 41.7329], [-122.068, 41.7388], [-122.0756, 41.739]], [[-122.0705, 41.7369], [-122.0698, 41.7369], [-122.0694, 41.7364], [-122.0701, 41.7361], [-122.0705, 41.7369]], [[-122.0697, 41.7345], [-122.0694, 41.7347], [-122.0693, 41.7345], [-122.0697, 41.7345]], [[-122.0693, 41.7342], [-122.069, 41.7345], [-122.069, 41.7342], [-122.0693, 41.7342]], [[-122.0697, 41.7337], [-122.0693, 41.7339], [-122.0693, 41.7337], [-122.0697, 41.7337]]], [[[-122.0678, 41.7318], [-122.0674, 41.731], [-122.0664, 41.7313], [-122.0664, 41.7318], [-122.0678, 41.7318]]], [[[-122.0657, 41.7318], [-122.0664, 41.7307], [-122.0653, 41.7305], [-122.0646, 41.7316], [-122.0657, 41.7318]]], [[[-122.0642, 41.7319], [-122.0638, 41.7308], [-122.0624, 41.7305], [-122.0624, 41.73], [-122.0595, 41.7314], [-122.0595, 41.7319], [-122.0642, 41.7319]], [[-122.0617, 41.7308], [-122.061, 41.7316], [-122.061, 41.7308], [-122.0617, 41.7308]]], [[[-122.062, 41.7297], [-122.062, 41.7289], [-122.0609, 41.7287], [-122.0613, 41.7297], [-122.062, 41.7297]]], [[[-122.0638, 41.73], [-122.066, 41.7294], [-122.0663, 41.7286], [-122.0634, 41.7289], [-122.0638, 41.73]]], [[[-122.013, 41.7278], [-122.0144, 41.7275], [-122.0144, 41.7264], [-122.0137, 41.7264], [-122.0144, 41.7259], [-122.0126, 41.7257], [-122.0122, 41.7265], [-122.0133, 41.727], [-122.013, 41.7278]]], [[[-122.0648, 41.7272], [-122.0655, 41.7267], [-122.0655, 41.7245], [-122.0637, 41.7246], [-122.0637, 41.7254], [-122.0648, 41.7251], [-122.0651, 41.7256], [-122.0644, 41.7262], [-122.0648, 41.7272]]], [[[-122.0627, 41.7273], [-122.0626, 41.7246], [-122.059, 41.7246], [-122.0601, 41.7254], [-122.0594, 41.7254], [-122.0587, 41.7265], [-122.0604, 41.7257], [-122.0616, 41.7268], [-122.0612, 41.7273], [-122.0627, 41.7273]], [[-122.0619, 41.7262], [-122.0616, 41.7265], [-122.0615, 41.7262], [-122.0619, 41.7262]], [[-122.0597, 41.7257], [-122.0594, 41.726], [-122.0594, 41.7257], [-122.0597, 41.7257]], [[-122.0608, 41.7249], [-122.0604, 41.7254], [-122.0604, 41.7249], [-122.0608, 41.7249]]], [[[-122.0118, 41.7257], [-122.0132, 41.7246], [-122.0096, 41.7243], [-122.0097, 41.7249], [-122.0118, 41.7257]]], [[[-122.0066, 41.7198], [-122.007, 41.719], [-122.0062, 41.7187], [-122.0041, 41.719], [-122.0055, 41.719], [-122.0052, 41.7198], [-122.0066, 41.7198]]], [[[-122.0375, 41.6793], [-122.0364, 41.6787], [-122.0357, 41.679], [-122.0357, 41.6793], [-122.0375, 41.6793]]]]}, "properties": {"layer": "high_severity"}}, {"type": "Feature", "geometry": {"type": "Polygon", "coordinates": [[[-122.0745, 41.739], [-122.0749, 41.7382], [-122.0711, 41.7342], [-122.0704, 41.7342], [-122.0701, 41.7355], [-122.0712, 41.7358], [-122.0716, 41.7369], [-122.0705, 41.7377], [-122.0687, 41.7372], [-122.0683, 41.7364], [-122.0694, 41.7353], [-122.0679, 41.7345], [-122.0688, 41.7388], [-122.0745, 41.739]]]}, "properties": {"layer": "interior"}}, {"type": "Feature", "geometry": {"type": "Polygon", "coordinates": [[[-122.0684, 41.7386], [-122.0702, 41.7385], [-122.068, 41.7372], [-122.0684, 41.7386]]]}, "properties": {"layer": "cell", "cell_id": "741_4500", "seed_zone": "741", "elevation_band": "4500–5000 ft"}}, {"type": "Feature", "geometry": {"type": "Polygon", "coordinates": [[[-122.0745, 41.739], [-122.0749, 41.7382], [-122.0711, 41.7342], [-122.0704, 41.7342], [-122.0701, 41.7355], [-122.0712, 41.7358], [-122.0716, 41.7369], [-122.0705, 41.7377], [-122.0687, 41.7372], [-122.0683, 41.7364], [-122.0694, 41.7353], [-122.0679, 41.7345], [-122.068, 41.7372], [-122.0691, 41.7383], [-122.0713, 41.739], [-122.0745, 41.739]]]}, "properties": {"layer": "cell", "cell_id": "741_5000", "seed_zone": "741", "elevation_band": "5000–5500 ft"}}]}
