{"type": "FeatureCollection", "features": [{"type": "Feature", "geometry": {"type": "Polygon", "coordinates": [[[-119.6971, 38.0089], [-119.6967, 38.0124], [-119.7006, 38.0118], [-119.7053, 38.0096], [-119.706, 38.0101], [-119.7032, 38.0118], [-119.7032, 38.0129], [-119.7013, 38.0137], [-119.6949, 38.0141], [-119.6904, 38.0187], [-119.6873, 38.0257], [-119.6836, 38.0283], [-119.6788, 38.0297], [-119.677, 38.0294], [-119.6768, 38.0281], [-119.6798, 38.0254], [-119.6809, 38.0222], [-119.6843, 38.0206], [-119.6856, 38.0175], [-119.692, 38.0119], [-119.6908, 38.0104], [-119.6887, 38.0099], [-119.6875, 38.0079], [-119.6883, 38.0034], [-119.6869, 38.0005], [-119.683, 37.9991], [-119.6826, 37.9982], [-119.6832, 37.9964], [-119.6852, 37.9956], [-119.69, 37.9917], [-119.6894, 37.9891], [-119.6922, 37.9878], [-119.6907, 37.9867], [-119.6909, 37.9848], [-119.6914, 37.984], [-119.6936, 37.9843], [-119.6942, 37.9828], [-119.6936, 37.9814], [-119.6959, 37.9791], [-119.6953, 37.9775], [-119.6989, 37.9755], [-119.7056, 37.9742], [-119.7075, 37.9757], [-119.7077, 37.9772], [-119.7092, 37.9776], [-119.7135, 37.9771], [-119.7221, 37.9783], [-119.7226, 37.9802], [-119.7219, 37.984], [-119.7191, 37.9868], [-119.7181, 37.9908], [-119.7146, 37.9954], [-119.7139, 37.9978], [-119.7115, 37.9997], [-119.7113, 38.0024], [-119.7096, 38.0044], [-119.7082, 38.0049], [-119.7021, 38.0051], [-119.6991, 38.0082], [-119.6971, 38.0089]], [[-119.6868, 38.0184], [-119.6841, 38.0232], [-119.6843, 38.0242], [-119.6846, 38.0232], [-119.6858, 38.0231], [-119.686, 38.0221], [-119.6852, 38.0221], [-119.688, 38.0182], [-119.6868, 38.0184]], [[-119.6929, 38.0127], [-119.6937, 38.0127], [-119.6946, 38.0118], [-119.6921, 38.0121], [-119.6916, 38.0131], [-119.6923, 38.0132], [-119.6923, 38.014], [-119.693, 38.0137], [-119.6929, 38.0127]]]}, "properties": {"layer": "perimeter"}}]}
