{"type": "FeatureCollection", "features": [{"type": "Feature", "geometry": {"type": "Polygon", "coordinates": [[[-120.2982, 40.9761], [-120.2889, 40.984], [-120.2893, 40.9845], [-120.2883, 40.9861], [-120.2865, 40.9865], [-120.2865, 40.9871], [-120.2857, 40.9867], [-120.283, 40.9875], [-120.2834, 40.9863], [-120.2814, 40.9858], [-120.2801, 40.9863], [-120.2793, 40.9856], [-120.2781, 40.9877], [-120.2785, 40.9867], [-120.2776, 40.986], [-120.2782, 40.9855], [-120.2777, 40.9844], [-120.2762, 40.9852], [-120.2768, 40.9837], [-120.2754, 40.9834], [-120.2742, 40.9822], [-120.2722, 40.9826], [-120.2716, 40.9841], [-120.2685, 40.9848], [-120.2673, 40.9837], [-120.2691, 40.984], [-120.2688, 40.9823], [-120.2708, 40.983], [-120.2715, 40.9818], [-120.2735, 40.9813], [-120.274, 40.9802], [-120.2757, 40.9795], [-120.2764, 40.9798], [-120.2772, 40.9789], [-120.277, 40.9804], [-120.2749, 40.9815], [-120.2749, 40.9822], [-120.278, 40.9814], [-120.2796, 40.9824], [-120.2811, 40.9815], [-120.2819, 40.98], [-120.2793, 40.9791], [-120.2791, 40.9778], [-120.2784, 40.9779], [-120.2796, 40.977], [-120.2779, 40.9767], [-120.2786, 40.9759], [-120.2749, 40.9757], [-120.2739, 40.9761], [-120.2716, 40.9745], [-120.2763, 40.9734], [-120.2773, 40.972], [-120.2785, 40.9722], [-120.2809, 40.9689], [-120.2818, 40.9692], [-120.2895, 40.9672], [-120.2907, 40.9654], [-120.2964, 40.9643], [-120.3002, 40.9619], [-120.3034, 40.961], [-120.3059, 40.9612], [-120.3091, 40.9596], [-120.31, 40.962], [-120.3032, 40.9686], [-120.3026, 40.9709], [-120.2982, 40.9761]]]}, "properties": {"layer": "perimeter"}}, {"type": "Feature", "geometry": {"type": "Polygon", "coordinates": [[[-120.287, 40.9783], [-120.2865, 40.9871], [-120.2857, 40.9867], [-120.283, 40.9875], [-120.2834, 40.9863], [-120.2814, 40.9858], [-120.2801, 40.9863], [-120.2793, 40.9856], [-120.2781, 40.9877], [-120.2785, 40.9867], [-120.2776, 40.986], [-120.2782, 40.9855], [-120.2777, 40.9844], [-120.2762, 40.9852], [-120.2768, 40.9837], [-120.2754, 40.9834], [-120.2742, 40.9822], [-120.2722, 40.9826], [-120.2716, 40.9841], [-120.2685, 40.9848], [-120.2679, 40.9836], [-120.2691, 40.984], [-120.2688, 40.9823], [-120.2708, 40.983], [-120.2715, 40.9818], [-120.2735, 40.9813], [-120.274, 40.9802], [-120.2757, 40.9795], [-120.2764, 40.9798], [-120.2772, 40.9789], [-120.277, 40.9804], [-120.2747, 40.982], [-120.2765, 40.9822], [-120.278, 40.9814], [-120.2799, 40.9823], [-120.2819, 40.98], [-120.2801, 40.979], [-120.2794, 40.9792], [-120.2789, 40.9783], [-120.287, 40.9783]]]}, "properties": {"layer": "retained"}}]}
