{"type": "FeatureCollection", "features": [{"type": "Feature", "geometry": {"type": "Polygon", "coordinates": [[[-120.1523, 41.0392], [-120.1516, 41.0381], [-120.1522, 41.0382], [-120.1518, 41.0364], [-120.1526, 41.0359], [-120.1511, 41.0359], [-120.1501, 41.035], [-120.1472, 41.0344], [-120.1397, 41.0339], [-120.1391, 41.0259], [-120.1364, 41.0227], [-120.1387, 41.0221], [-120.1409, 41.0241], [-120.1409, 41.0214], [-120.1388, 41.0199], [-120.1399, 41.0174], [-120.139, 41.0165], [-120.1429, 41.0148], [-120.1465, 41.0092], [-120.1464, 41.0121], [-120.1505, 41.0135], [-120.155, 41.0086], [-120.1563, 41.0086], [-120.1584, 41.0049], [-120.1599, 41.0044], [-120.1585, 41.0034], [-120.1584, 40.9964], [-120.1569, 40.9953], [-120.1584, 40.9943], [-120.1608, 40.9905], [-120.1612, 40.9882], [-120.1626, 40.9876], [-120.1654, 40.9891], [-120.1663, 40.9878], [-120.1696, 40.9873], [-120.171, 40.9857], [-120.1737, 40.9851], [-120.1756, 40.981], [-120.1767, 40.9805], [-120.1774, 40.9831], [-120.1799, 40.9845], [-120.1816, 40.9877], [-120.1807, 40.989], [-120.1813, 40.9911], [-120.1808, 40.993], [-120.1789, 40.9962], [-120.1816, 40.9965], [-120.1872, 40.9984], [-120.1887, 40.9962], [-120.188, 40.9953], [-120.1887, 40.9926], [-120.19, 40.9929], [-120.1906, 40.9923], [-120.1912, 40.9925], [-120.1908, 40.9939], [-120.1929, 40.9939], [-120.1935, 40.9949], [-120.1955, 40.9953], [-120.1958, 40.9969], [-120.1972, 40.9973], [-120.1965, 40.9978], [-120.1966, 40.9989], [-120.1996, 40.9996], [-120.2013, 41.0019], [-120.1995, 41.0033], [-120.2014, 41.0029], [-120.2025, 41.0047], [-120.204, 41.0053], [-120.2043, 41.0129], [-120.2091, 41.0163], [-120.2106, 41.0165], [-120.2129, 41.0179], [-120.2141, 41.02], [-120.2138, 41.0214], [-120.2182, 41.0266], [-120.2221, 41.0268], [-120.2208, 41.0246], [-120.2227, 41.0247], [-120.2258, 41.0231], [-120.228, 41.021], [-120.2299, 41.0209], [-120.2316, 41.022], [-120.2323, 41.0205], [-120.2301, 41.0195], [-120.2303, 41.0185], [-120.2293, 41.0173], [-120.2293, 41.0162], [-120.2302, 41.016], [-120.2325, 41.019], [-120.2335, 41.0193], [-120.2332, 41.0201], [-120.2349, 41.0204], [-120.2364, 41.0216], [-120.2373, 41.0234], [-120.2385, 41.0237], [-120.2407, 41.026], [-120.2406, 41.027], [-120.2445, 41.0303], [-120.245, 41.0299], [-120.2435, 41.0277], [-120.2513, 41.0328], [-120.2499, 41.0304], [-120.2516, 41.0312], [-120.2536, 41.0361], [-120.2542, 41.0354], [-120.2554, 41.0357], [-120.2548, 41.0346], [-120.2563, 41.0349], [-120.2576, 41.0338], [-120.2585, 41.0347], [-120.2596, 41.0344], [-120.2604, 41.0355], [-120.2619, 41.0352], [-120.2635, 41.0362], [-120.2674, 41.0326], [-120.2778, 41.0313], [-120.2806, 41.0297], [-120.2818, 41.0302], [-120.2829, 41.0283], [-120.2833, 41.0288], [-120.2821, 41.0303], [-120.2831, 41.0358], [-120.279, 41.0423], [-120.2796, 41.0447], [-120.2778, 41.048], [-120.2712, 41.0526], [-120.2681, 41.053], [-120.2678, 41.0547], [-120.2653, 41.0561], [-120.2618, 41.0622], [-120.2603, 41.0624], [-120.258, 41.0646], [-120.2569, 41.0645], [-120.2562, 41.0621], [-120.2537, 41.062], [-120.2526, 41.0612], [-120.2521, 41.06], [-120.2542, 41.0562], [-120.2539, 41.0532], [-120.2516, 41.0521], [-120.2518, 41.0511], [-120.2499, 41.0515], [-120.2502, 41.0509], [-120.2492, 41.0506], [-120.2498, 41.0502], [-120.2469, 41.0495], [-120.244, 41.05], [-120.2412, 41.0517], [-120.2417, 41.0529], [-120.2393, 41.0517], [-120.2386, 41.0501], [-120.2372, 41.05], [-120.2362, 41.0515], [-120.2326, 41.0539], [-120.2324, 41.0555], [-120.2315, 41.0544], [-120.2302, 41.0547], [-120.225, 41.0521], [-120.2203, 41.0488], [-120.2189, 41.047], [-120.213, 41.0448], [-120.2067, 41.0436], [-120.2034, 41.0414], [-120.1989, 41.0419], [-120.197, 41.0465], [-120.1967, 41.0529], [-120.2005, 41.0528], [-120.2001, 41.0576], [-120.2017, 41.0587], [-120.2047, 41.0584], [-120.207, 41.0594], [-120.2069, 41.0604], [-120.2088, 41.0612], [-120.211, 41.0643], [-120.2103, 41.0657], [-120.2111, 41.07], [-120.2098, 41.0715], [-120.2096, 41.0766], [-120.2076, 41.0801], [-120.2043, 41.0828], [-120.2024, 41.0862], [-120.2, 41.0875], [-120.1958, 41.0875], [-120.1873, 41.0896], [-120.1858, 41.0894], [-120.1833, 41.0911], [-120.1828, 41.0902], [-120.1854, 41.0887], [-120.1851, 41.0877], [-120.1889, 41.0869], [-120.1893, 41.086], [-120.1883, 41.086], [-120.188, 41.0846], [-120.1898, 41.0825], [-120.1881, 41.0823], [-120.1877, 41.0827], [-120.1871, 41.0815], [-120.1867, 41.0822], [-120.1854, 41.082], [-120.1859, 41.0839], [-120.1851, 41.0847], [-120.1816, 41.0798], [-120.1806, 41.0806], [-120.1793, 41.0793], [-120.1784, 41.0805], [-120.1772, 41.0806], [-120.1747, 41.0842], [-120.1732, 41.0843], [-120.1739, 41.0857], [-120.1733, 41.0872], [-120.1746, 41.0885], [-120.1739, 41.0927], [-120.1725, 41.0935], [-120.1715, 41.0932], [-120.1715, 41.0905], [-120.171, 41.0902], [-120.1701, 41.0914], [-120.1694, 41.0908], [-120.1695, 41.0872], [-120.1638, 41.0887], [-120.1602, 41.0923], [-120.1594, 41.0917], [-120.1595, 41.0883], [-120.1575, 41.0854], [-120.1548, 41.0858], [-120.1506, 41.0892], [-120.1492, 41.0915], [-120.1488, 41.0972], [-120.1469, 41.1017], [-120.1474, 41.104], [-120.1448, 41.1091], [-120.1441, 41.1173], [-120.1432, 41.1184], [-120.1437, 41.119], [-120.1382, 41.128], [-120.1378, 41.1305], [-120.1354, 41.1343], [-120.1361, 41.1345], [-120.136, 41.136], [-120.134, 41.1391], [-120.1322, 41.1444], [-120.1289, 41.1481], [-120.1272, 41.1492], [-120.1261, 41.149], [-120.1254, 41.1504], [-120.1271, 41.1514], [-120.1287, 41.1505], [-120.1295, 41.1532], [-120.1313, 41.1537], [-120.1313, 41.1552], [-120.1274, 41.1558], [-120.1271, 41.1571], [-120.1282, 41.157], [-120.1286, 41.1577], [-120.1274, 41.1595], [-120.1242, 41.1605], [-120.1208, 41.1603], [-120.1185, 41.1615], [-120.1184, 41.1623], [-120.1249, 41.1633], [-120.1288, 41.1649], [-120.1296, 41.1673], [-120.1308, 41.168], [-120.1304, 41.1697], [-120.1326, 41.1715], [-120.1322, 41.1728], [-120.1297, 41.173], [-120.1283, 41.1754], [-120.1286, 41.1766], [-120.1317, 41.1777], [-120.1326, 41.179], [-120.1305, 41.1876], [-120.129, 41.189], [-120.127, 41.1884], [-120.1239, 41.1896], [-120.1187, 41.1962], [-120.1185, 41.1949], [-120.1161, 41.1918], [-120.1117, 41.1912], [-120.1101, 41.1946], [-120.1104, 41.1971], [-120.1084, 41.1991], [-120.1072, 41.204], [-120.1106, 41.2097], [-120.1087, 41.2138], [-120.1089, 41.2199], [-120.1096, 41.2196], [-120.1109, 41.2203], [-120.1123, 41.2217], [-120.1115, 41.2227], [-120.1126, 41.2232], [-120.1108, 41.2234], [-120.1113, 41.2262], [-120.1106, 41.2259], [-120.11, 41.2269], [-120.1071, 41.2272], [-120.1095, 41.2285], [-120.1101, 41.2308], [-120.1091, 41.2318], [-120.1052, 41.2312], [-120.0986, 41.2322], [-120.097, 41.2319], [-120.0921, 41.2333], [-120.0914, 41.2347], [-120.0918, 41.2385], [-120.0933, 41.2393], [-120.097, 41.2387], [-120.1057, 41.2388], [-120.1076, 41.2383], [-120.1102, 41.2355], [-120.112, 41.2356], [-120.109, 41.2405], [-120.1023, 41.2415], [-120.0959, 41.2416], [-120.0898, 41.2436], [-120.0843, 41.2426], [-120.0826, 41.2447], [-120.0813, 41.2447], [-120.0787, 41.2423], [-120.0784, 41.2396], [-120.0795, 41.2379], [-120.0752, 41.2357], [-120.0755, 41.2332], [-120.0702, 41.2227], [-120.0647, 41.2166], [-120.0618, 41.2157], [-120.0609, 41.2127], [-120.0547, 41.2072], [-120.0499, 41.1977], [-120.0498, 41.1892], [-120.0448, 41.1793], [-120.0434, 41.1732], [-120.0387, 41.167], [-120.0408, 41.163], [-120.0415, 41.163], [-120.0409, 41.162], [-120.0486, 41.1667], [-120.0508, 41.1647], [-120.0503, 41.1589], [-120.046, 41.1536], [-120.0411, 41.1506], [-120.0393, 41.1502], [-120.0372, 41.1509], [-120.0387, 41.1534], [-120.0384, 41.1543], [-120.032, 41.1546], [-120.0282, 41.1525], [-120.0252, 41.1529], [-120.0212, 41.1496], [-120.0186, 41.1504], [-120.0125, 41.1487], [-120.004, 41.1442], [-119.9993, 41.1445], [-119.9979, 41.1438], [-119.996, 41.145], [-119.9954, 41.1446], [-119.9892, 41.1459], [-119.9887, 41.1453], [-119.9862, 41.1461], [-119.9823, 41.1454], [-119.9749, 41.1405], [-119.9731, 41.1376], [-119.9663, 41.1333], [-119.9625, 41.1417], [-119.9627, 41.1425], [-119.9669, 41.1415], [-119.9654, 41.1452], [-119.9641, 41.1461], [-119.9649, 41.1477], [-119.9678, 41.15], [-119.9679, 41.1509], [-119.9639, 41.1493], [-119.963, 41.1496], [-119.9636, 41.151], [-119.967, 41.1531], [-119.9675, 41.1543], [-119.9649, 41.1551], [-119.9601, 41.1548], [-119.9562, 41.1491], [-119.9554, 41.1419], [-119.9508, 41.1409], [-119.9503, 41.1393], [-119.9511, 41.1362], [-119.9458, 41.1317], [-119.9443, 41.1274], [-119.9378, 41.1205], [-119.9352, 41.1132], [-119.9334, 41.101], [-119.9268, 41.0943], [-119.9266, 41.093], [-119.927, 41.0925], [-119.9312, 41.0926], [-119.9305, 41.0903], [-119.9324, 41.09], [-119.9307, 41.0884], [-119.9322, 41.087], [-119.9337, 41.0876], [-119.9351, 41.0896], [-119.9381, 41.0898], [-119.9454, 41.0767], [-119.9445, 41.0724], [-119.9497, 41.0658], [-119.9482, 41.0658], [-119.9464, 41.0476], [-119.9525, 41.0476], [-119.9532, 41.0461], [-119.9543, 41.0457], [-119.9604, 41.0509], [-119.9629, 41.0507], [-119.9641, 41.0489], [-119.963, 41.0455], [-119.9633, 41.0428], [-119.9723, 41.0362], [-119.9766, 41.0311], [-119.9796, 41.0248], [-119.9831, 41.0206], [-119.9864, 41.0179], [-119.9945, 41.021], [-120.0093, 41.0234], [-120.0114, 41.0228], [-120.0156, 41.0202], [-120.0194, 41.0208], [-120.0217, 41.0197], [-120.025, 41.0226], [-120.0283, 41.0238], [-120.0426, 41.021], [-120.0587, 41.0194], [-120.066, 41.02], [-120.0702, 41.0215], [-120.0808, 41.0289], [-120.0805, 41.0305], [-120.0827, 41.0357], [-120.0902, 41.035], [-120.0908, 41.0337], [-120.0932, 41.0342], [-120.0938, 41.0335], [-120.0954, 41.0336], [-120.0956, 41.0322], [-120.101, 41.0308], [-120.1029, 41.0311], [-120.1045, 41.0364], [-120.1068, 41.0402], [-120.1094, 41.0391], [-120.1082, 41.0383], [-120.1077, 41.0361], [-120.1082, 41.0337], [-120.1112, 41.0331], [-120.1114, 41.0322], [-120.1164, 41.0348], [-120.1221, 41.0405], [-120.1266, 41.043], [-120.1279, 41.0415], [-120.1326, 41.0413], [-120.1339, 41.0419], [-120.1356, 41.0408], [-120.1362, 41.0417], [-120.1377, 41.0407], [-120.1367, 41.0407], [-120.1366, 41.0402], [-120.1385, 41.0406], [-120.1382, 41.0389], [-120.1415, 41.0381], [-120.1435, 41.0399], [-120.1451, 41.0395], [-120.1483, 41.0415], [-120.1523, 41.0392]]]}, "properties": {"layer": "perimeter"}}, {"type": "Feature", "geometry": {"type": "MultiPolygon", "coordinates": [[[[-120.1523, 41.0391], [-120.1516, 41.0381], [-120.1522, 41.0382], [-120.1518, 41.0364], [-120.1526, 41.0359], [-120.1511, 41.0359], [-120.1501, 41.035], [-120.1472, 41.0344], [-120.1434, 41.0341], [-120.1434, 41.0326], [-120.1482, 41.0326], [-120.1481, 41.0216], [-120.1623, 41.0216], [-120.1624, 41.0144], [-120.1815, 41.0142], [-120.1814, 41.0324], [-120.1768, 41.0327], [-120.1768, 41.0362], [-120.1814, 41.0362], [-120.1815, 41.0398], [-120.172, 41.0399], [-120.1723, 41.0542], [-120.1627, 41.0541], [-120.163, 41.0614], [-120.1583, 41.0614], [-120.1583, 41.0648], [-120.1726, 41.0651], [-120.1727, 41.0723], [-120.1822, 41.0723], [-120.1822, 41.0811], [-120.1816, 41.0798], [-120.1806, 41.0806], [-120.1791, 41.0793], [-120.1784, 41.0805], [-120.1772, 41.0806], [-120.1747, 41.0842], [-120.1732, 41.0843], [-120.1735, 41.0869], [-120.1679, 41.0869], [-120.1679, 41.0875], [-120.1638, 41.0887], [-120.1602, 41.0923], [-120.1594, 41.0917], [-120.1595, 41.0883], [-120.1584, 41.0867], [-120.1629, 41.0868], [-120.1629, 41.0831], [-120.158, 41.083], [-120.1581, 41.0862], [-120.1575, 41.0854], [-120.1548, 41.0858], [-120.1532, 41.0869], [-120.1535, 41.0651], [-120.1439, 41.0653], [-120.1434, 41.0796], [-120.1445, 41.0796], [-120.1444, 41.0869], [-120.1397, 41.0871], [-120.1392, 41.0907], [-120.1295, 41.0909], [-120.1289, 41.08], [-120.1242, 41.0801], [-120.1243, 41.0838], [-120.1151, 41.0838], [-120.1153, 41.0947], [-120.1105, 41.0946], [-120.1104, 41.091], [-120.1057, 41.091], [-120.1057, 41.0945], [-120.0962, 41.0944], [-120.0962, 41.0981], [-120.0864, 41.0981], [-120.0864, 41.0945], [-120.0817, 41.0945], [-120.0817, 41.0909], [-120.0864, 41.0909], [-120.0864, 41.0836], [-120.0911, 41.0836], [-120.0911, 41.08], [-120.1008, 41.08], [-120.1007, 41.0764], [-120.1055, 41.0765], [-120.1055, 41.0729], [-120.1292, 41.0728], [-120.1292, 41.0765], [-120.1339, 41.0765], [-120.134, 41.08], [-120.1356, 41.0799], [-120.1372, 41.0764], [-120.136, 41.0736], [-120.1356, 41.0698], [-120.1363, 41.0692], [-120.1357, 41.0687], [-120.1339, 41.0691], [-120.1298, 41.0655], [-120.1292, 41.0618], [-120.1348, 41.0623], [-120.1391, 41.0666], [-120.1391, 41.0617], [-120.1439, 41.0617], [-120.1436, 41.0543], [-120.1388, 41.0544], [-120.1385, 41.0435], [-120.1435, 41.0435], [-120.1435, 41.0399], [-120.1451, 41.0395], [-120.1483, 41.0415], [-120.1523, 41.0391]], [[-120.1436, 41.0543], [-120.1531, 41.0542], [-120.153, 41.0469], [-120.1435, 41.047], [-120.1436, 41.0543]], [[-120.1768, 41.0215], [-120.1673, 41.0216], [-120.1671, 41.0291], [-120.1766, 41.029], [-120.1768, 41.0215]]], [[[-120.1593, 40.9926], [-120.1612, 40.9882], [-120.1626, 40.9876], [-120.1655, 40.9891], [-120.1663, 40.9878], [-120.1696, 40.9873], [-120.171, 40.9858], [-120.1719, 40.9857], [-120.1721, 40.9889], [-120.1674, 40.9889], [-120.1675, 40.9926], [-120.1593, 40.9926]]], [[[-120.2139, 41.0213], [-120.2176, 41.0262], [-120.2203, 41.0269], [-120.2223, 41.0266], [-120.2208, 41.0246], [-120.2227, 41.0247], [-120.2285, 41.021], [-120.2286, 41.0355], [-120.2532, 41.0355], [-120.2537, 41.0361], [-120.2542, 41.0355], [-120.2577, 41.0356], [-120.257, 41.0575], [-120.2618, 41.0576], [-120.2618, 41.0622], [-120.2603, 41.0624], [-120.2585, 41.0644], [-120.2569, 41.0645], [-120.2562, 41.0621], [-120.2537, 41.062], [-120.2521, 41.0601], [-120.2542, 41.0562], [-120.2539, 41.0532], [-120.2516, 41.0521], [-120.2518, 41.0511], [-120.2502, 41.0516], [-120.2502, 41.0509], [-120.2492, 41.0507], [-120.2498, 41.0502], [-120.2455, 41.0496], [-120.2415, 41.0514], [-120.2413, 41.0529], [-120.2393, 41.0517], [-120.2386, 41.0501], [-120.2331, 41.05], [-120.2332, 41.0464], [-120.2235, 41.0465], [-120.2236, 41.0428], [-120.2141, 41.0429], [-120.2143, 41.0356], [-120.2096, 41.0356], [-120.2093, 41.0212], [-120.2139, 41.0213]], [[-120.2333, 41.0428], [-120.2334, 41.0391], [-120.2286, 41.0392], [-120.2285, 41.0429], [-120.2333, 41.0428]]], [[[-120.2331, 41.05], [-120.2324, 41.0555], [-120.2315, 41.0544], [-120.2302, 41.0547], [-120.225, 41.0521], [-120.2203, 41.0488], [-120.2189, 41.047], [-120.213, 41.0448], [-120.2067, 41.0436], [-120.2051, 41.0427], [-120.2034, 41.0414], [-120.2004, 41.0415], [-120.2004, 41.0393], [-120.2049, 41.0391], [-120.2052, 41.0426], [-120.2141, 41.0429], [-120.214, 41.0451], [-120.2187, 41.0465], [-120.2222, 41.05], [-120.2331, 41.05]]], [[[-120.197, 41.0468], [-120.1967, 41.0529], [-120.2005, 41.0528], [-120.2001, 41.0576], [-120.2017, 41.0587], [-120.2047, 41.0584], [-120.207, 41.0594], [-120.2069, 41.0604], [-120.2088, 41.0612], [-120.211, 41.0643], [-120.2103, 41.0657], [-120.2111, 41.07], [-120.2098, 41.0715], [-120.2095, 41.0767], [-120.2076, 41.0801], [-120.2043, 41.0827], [-120.2024, 41.0862], [-120.2015, 41.0863], [-120.2013, 41.0792], [-120.2003, 41.0793], [-120.2001, 41.0685], [-120.1917, 41.0688], [-120.1917, 41.0579], [-120.187, 41.0579], [-120.187, 41.0542], [-120.1823, 41.0542], [-120.1822, 41.0506], [-120.1869, 41.0506], [-120.1861, 41.0362], [-120.1814, 41.0362], [-120.1814, 41.0324], [-120.191, 41.0325], [-120.1913, 41.0434], [-120.1957, 41.0433], [-120.1959, 41.0468], [-120.197, 41.0468]]], [[[-120.1859, 41.0832], [-120.1851, 41.0847], [-120.1839, 41.0832], [-120.1859, 41.0832]]], [[[-120.1249, 41.1603], [-120.1208, 41.1603], [-120.1185, 41.1615], [-120.1184, 41.1623], [-120.1249, 41.1633], [-120.1248, 41.1706], [-120.1202, 41.1706], [-120.1201, 41.1776], [-120.1156, 41.1776], [-120.1153, 41.1919], [-120.1117, 41.1912], [-120.1101, 41.1946], [-120.1104, 41.1971], [-120.1084, 41.1991], [-120.1072, 41.204], [-120.1106, 41.2096], [-120.1103, 41.2109], [-120.0973, 41.2111], [-120.0963, 41.1966], [-120.0965, 41.1765], [-120.0869, 41.1765], [-120.0868, 41.1729], [-120.082, 41.1729], [-120.0819, 41.1658], [-120.0917, 41.1658], [-120.0916, 41.1586], [-120.0966, 41.1586], [-120.0966, 41.13], [-120.1013, 41.13], [-120.1014, 41.1382], [-120.1158, 41.138], [-120.1159, 41.1525], [-120.1249, 41.1528], [-120.1249, 41.1603]]], [[[-120.1317, 41.182], [-120.1314, 41.1851], [-120.1302, 41.1883], [-120.1299, 41.1886], [-120.1297, 41.1888], [-120.1294, 41.1889], [-120.1291, 41.1818], [-120.1317, 41.182]]], [[[-120.1087, 41.2148], [-120.1089, 41.2199], [-120.1096, 41.2196], [-120.1109, 41.2203], [-120.112, 41.2219], [-120.1024, 41.2219], [-120.1022, 41.2147], [-120.1087, 41.2148]]], [[[-120.1073, 41.2256], [-120.1074, 41.2318], [-120.1052, 41.2312], [-120.0978, 41.232], [-120.0977, 41.2241], [-120.088, 41.2241], [-120.0881, 41.2277], [-120.0832, 41.2277], [-120.0831, 41.2205], [-120.0976, 41.2204], [-120.0976, 41.2219], [-120.1024, 41.2219], [-120.1025, 41.2256], [-120.1073, 41.2256]]], [[[-120.0784, 41.2396], [-120.0785, 41.2394], [-120.0785, 41.2397], [-120.0784, 41.2396]]], [[[-120.0784, 41.2372], [-120.0753, 41.2357], [-120.0755, 41.2332], [-120.07, 41.2223], [-120.0625, 41.2139], [-120.0552, 41.2078], [-120.0542, 41.2066], [-120.0533, 41.2051], [-120.0498, 41.1974], [-120.0501, 41.1903], [-120.0484, 41.1853], [-120.0449, 41.1795], [-120.0432, 41.1728], [-120.0387, 41.1669], [-120.0408, 41.163], [-120.0415, 41.163], [-120.0409, 41.162], [-120.0456, 41.1652], [-120.0476, 41.166], [-120.0435, 41.1659], [-120.0437, 41.1727], [-120.0487, 41.1728], [-120.0486, 41.1843], [-120.0584, 41.1843], [-120.0582, 41.1951], [-120.0534, 41.1951], [-120.0539, 41.2059], [-120.0683, 41.2059], [-120.0685, 41.2096], [-120.0769, 41.2096], [-120.078, 41.2103], [-120.0805, 41.2096], [-120.0827, 41.2059], [-120.0875, 41.206], [-120.0878, 41.2132], [-120.0733, 41.2132], [-120.0735, 41.2277], [-120.0783, 41.2277], [-120.0784, 41.2372]]], [[[-120.0508, 41.1647], [-120.0503, 41.1589], [-120.046, 41.1536], [-120.0421, 41.1513], [-120.0483, 41.1514], [-120.0483, 41.1477], [-120.058, 41.1477], [-120.0579, 41.144], [-120.0629, 41.144], [-120.063, 41.1514], [-120.058, 41.1515], [-120.0583, 41.166], [-120.0497, 41.166], [-120.0508, 41.1647]]], [[[-120.0385, 41.1531], [-120.0387, 41.1534], [-120.0385, 41.154], [-120.0385, 41.1531]]], [[[-120.029, 41.1529], [-120.0252, 41.1529], [-120.021, 41.1496], [-120.0186, 41.1504], [-120.0135, 41.149], [-120.004, 41.1442], [-120.0003, 41.1444], [-120.0, 41.1094], [-120.0102, 41.1092], [-120.0104, 41.1262], [-120.0153, 41.1262], [-120.0158, 41.1369], [-120.0288, 41.1369], [-120.029, 41.1529]]], [[[-120.0126, 41.0219], [-120.0134, 41.0214], [-120.014, 41.021], [-120.0142, 41.0222], [-120.0126, 41.0219]]], [[[-120.0236, 41.0213], [-120.0245, 41.0221], [-120.0237, 41.0221], [-120.0236, 41.0213]]], [[[-120.0372, 41.0221], [-120.0403, 41.0215], [-120.0427, 41.021], [-120.0427, 41.0221], [-120.0372, 41.0221]]], [[[-120.0709, 41.022], [-120.0808, 41.0289], [-120.081, 41.0293], [-120.0764, 41.0292], [-120.0764, 41.0259], [-120.0712, 41.0257], [-120.0709, 41.022]]], [[[-120.0812, 41.0317], [-120.0816, 41.0324], [-120.0817, 41.0328], [-120.0812, 41.0328], [-120.0812, 41.0317]]], [[[-120.0955, 41.0364], [-120.0956, 41.0322], [-120.0967, 41.0323], [-120.0995, 41.0308], [-120.1029, 41.0311], [-120.1053, 41.0378], [-120.1053, 41.04], [-120.1147, 41.04], [-120.1148, 41.0437], [-120.1005, 41.0437], [-120.1004, 41.0364], [-120.0955, 41.0364]]], [[[-120.1077, 41.0361], [-120.1082, 41.0337], [-120.1112, 41.0331], [-120.1114, 41.0322], [-120.1147, 41.0343], [-120.1147, 41.0363], [-120.1077, 41.0361]]], [[[-120.1196, 41.038], [-120.1214, 41.0397], [-120.1217, 41.04], [-120.1196, 41.04], [-120.1196, 41.038]]], [[[-120.1724, 41.0578], [-120.1725, 41.0614], [-120.1678, 41.0614], [-120.1678, 41.0578], [-120.1724, 41.0578]]], [[[-120.0861, 41.0472], [-120.0859, 41.0364], [-120.0955, 41.0364], [-120.0956, 41.04], [-120.0907, 41.04], [-120.0908, 41.0473], [-120.0861, 41.0472]]], [[[-120.0768, 41.0693], [-120.0767, 41.0621], [-120.0815, 41.062], [-120.0814, 41.0584], [-120.0862, 41.0583], [-120.0864, 41.0656], [-120.0816, 41.0656], [-120.0816, 41.0693], [-120.0768, 41.0693]]], [[[-120.125, 41.1088], [-120.1247, 41.0982], [-120.1294, 41.0982], [-120.1298, 41.1087], [-120.125, 41.1088]]], [[[-120.0769, 41.1089], [-120.0864, 41.1089], [-120.0866, 41.1166], [-120.0769, 41.1167], [-120.0769, 41.1089]]], [[[-120.0771, 41.1331], [-120.0771, 41.1299], [-120.0819, 41.1299], [-120.0819, 41.1264], [-120.0867, 41.1264], [-120.0866, 41.1205], [-120.0914, 41.1205], [-120.0915, 41.1299], [-120.0867, 41.13], [-120.0869, 41.1404], [-120.0821, 41.1405], [-120.0818, 41.1334], [-120.0771, 41.1331]]], [[[-120.0285, 41.0367], [-120.0285, 41.033], [-120.0332, 41.033], [-120.0333, 41.0367], [-120.0285, 41.0367]]], [[[-120.0621, 41.0365], [-120.0668, 41.0364], [-120.0669, 41.0401], [-120.0621, 41.0401], [-120.0621, 41.0365]]], [[[-120.0575, 41.0656], [-120.0577, 41.0803], [-120.0384, 41.0801], [-120.0382, 41.0658], [-120.0575, 41.0656]]], [[[-120.019, 41.0767], [-120.0239, 41.0767], [-120.0239, 41.0803], [-120.019, 41.0804], [-120.019, 41.0767]]], [[[-120.0337, 41.1166], [-120.0386, 41.1166], [-120.0385, 41.1203], [-120.0336, 41.1204], [-120.0337, 41.1166]]], [[[-120.0803, 41.2022], [-120.0825, 41.2022], [-120.0826, 41.2045], [-120.0803, 41.2022]]]]}, "properties": {"layer": "retained"}}, {"type": "Feature", "geometry": {"type": "MultiPolygon", "coordinates": [[[[-120.1065, 41.217], [-120.1083, 41.2167], [-120.1076, 41.2159], [-120.1065, 41.217]]], [[[-120.1058, 41.2159], [-120.1062, 41.2154], [-120.1051, 41.2149], [-120.1051, 41.2154], [-120.1058, 41.2159]]], [[[-120.1154, 41.1838], [-120.1154, 41.1832], [-120.1136, 41.1835], [-120.1136, 41.1838], [-120.1154, 41.1838]]], [[[-120.1125, 41.1813], [-120.114, 41.1805], [-120.1129, 41.1802], [-120.1125, 41.1813]]], [[[-120.1129, 41.1797], [-120.1129, 41.1789], [-120.115, 41.1778], [-120.114, 41.1778], [-120.1136, 41.177], [-120.1129, 41.1773], [-120.1129, 41.1765], [-120.1118, 41.1767], [-120.1107, 41.1765], [-120.1104, 41.1783], [-120.1107, 41.1778], [-120.1125, 41.1781], [-120.1122, 41.1792], [-120.1129, 41.1797]], [[-120.1136, 41.1781], [-120.1133, 41.1783], [-120.1132, 41.1781], [-120.1136, 41.1781]]], [[[-120.1104, 41.1775], [-120.11, 41.1762], [-120.1093, 41.1762], [-120.109, 41.1775], [-120.1104, 41.1775]]], [[[-120.1061, 41.1765], [-120.1061, 41.1756], [-120.105, 41.1759], [-120.1054, 41.1765], [-120.1061, 41.1765]]], [[[-120.1165, 41.1746], [-120.1179, 41.1746], [-120.1179, 41.1737], [-120.1165, 41.1746]]], [[[-120.09, 41.1743], [-120.0907, 41.1738], [-120.089, 41.1735], [-120.089, 41.1738], [-120.09, 41.1743]]], [[[-120.094, 41.1735], [-120.0929, 41.173], [-120.0929, 41.1721], [-120.0918, 41.1724], [-120.0918, 41.1732], [-120.094, 41.1735]]], [[[-120.089, 41.1735], [-120.0889, 41.1724], [-120.0875, 41.1721], [-120.0879, 41.1732], [-120.089, 41.1735]]], [[[-120.12, 41.1724], [-120.12, 41.1719], [-120.1186, 41.1716], [-120.119, 41.1724], [-120.12, 41.1724]]], [[[-120.1057, 41.1719], [-120.1068, 41.1716], [-120.1061, 41.1708], [-120.1054, 41.1711], [-120.1057, 41.1719]]], [[[-120.1075, 41.1702], [-120.1082, 41.1697], [-120.1082, 41.1675], [-120.1068, 41.1689], [-120.1075, 41.1702]]], [[[-120.1, 41.1667], [-120.1007, 41.1659], [-120.1, 41.1657], [-120.1, 41.1667]]], [[[-120.1118, 41.1765], [-120.1118, 41.1756], [-120.1143, 41.1756], [-120.1147, 41.1748], [-120.115, 41.1748], [-120.1154, 41.1754], [-120.1161, 41.1754], [-120.1154, 41.1743], [-120.1157, 41.1721], [-120.1168, 41.1729], [-120.1186, 41.1724], [-120.1172, 41.1719], [-120.1182, 41.1716], [-120.1186, 41.1702], [-120.1211, 41.1697], [-120.1218, 41.1705], [-120.1247, 41.1705], [-120.125, 41.1645], [-120.1243, 41.1651], [-120.1218, 41.164], [-120.1218, 41.1648], [-120.1204, 41.1651], [-120.12, 41.1643], [-120.1186, 41.1646], [-120.1179, 41.1635], [-120.1164, 41.1635], [-120.1168, 41.1654], [-120.1157, 41.164], [-120.1139, 41.1648], [-120.1147, 41.1656], [-120.1132, 41.167], [-120.1122, 41.1665], [-120.1118, 41.1673], [-120.1118, 41.1702], [-120.1097, 41.1711], [-120.1104, 41.1724], [-120.1086, 41.1729], [-120.1086, 41.1735], [-120.1097, 41.1732], [-120.11, 41.1738], [-120.11, 41.1751], [-120.1111, 41.1748], [-120.1111, 41.1762], [-120.1118, 41.1765]], [[-120.1136, 41.1748], [-120.1132, 41.1751], [-120.1132, 41.1748], [-120.1136, 41.1748]], [[-120.1154, 41.1746], [-120.115, 41.1748], [-120.115, 41.1746], [-120.1154, 41.1746]], [[-120.115, 41.1743], [-120.1147, 41.1746], [-120.1147, 41.1743], [-120.115, 41.1743]], [[-120.1107, 41.1732], [-120.11, 41.1738], [-120.11, 41.1735], [-120.1107, 41.1732]], [[-120.1118, 41.1724], [-120.1115, 41.1727], [-120.1115, 41.1724], [-120.1118, 41.1724]], [[-120.1125, 41.1719], [-120.1104, 41.1716], [-120.1118, 41.171], [-120.1125, 41.1719]], [[-120.1165, 41.1713], [-120.1157, 41.1716], [-120.1157, 41.1713], [-120.1165, 41.1713]], [[-120.1125, 41.1705], [-120.1122, 41.1708], [-120.1122, 41.1705], [-120.1125, 41.1705]], [[-120.1243, 41.17], [-120.1225, 41.1691], [-120.1218, 41.1694], [-120.1222, 41.1686], [-120.1207, 41.1681], [-120.1207, 41.1673], [-120.1211, 41.1678], [-120.1222, 41.1675], [-120.1222, 41.1664], [-120.1229, 41.1664], [-120.1243, 41.17]], [[-120.1129, 41.1697], [-120.1125, 41.17], [-120.1125, 41.1697], [-120.1129, 41.1697]], [[-120.1204, 41.1689], [-120.1179, 41.1689], [-120.1182, 41.1681], [-120.12, 41.1683], [-120.1204, 41.1689]], [[-120.1164, 41.1675], [-120.115, 41.1678], [-120.115, 41.1673], [-120.1164, 41.1675]], [[-120.115, 41.1678], [-120.1147, 41.1681], [-120.1147, 41.1678], [-120.115, 41.1678]], [[-120.1197, 41.1675], [-120.1193, 41.1678], [-120.1193, 41.1675], [-120.1197, 41.1675]], [[-120.1193, 41.1675], [-120.1186, 41.167], [-120.1193, 41.1662], [-120.1189, 41.1651], [-120.1207, 41.1664], [-120.1193, 41.1675]], [[-120.115, 41.167], [-120.1143, 41.1675], [-120.1143, 41.167], [-120.115, 41.167]], [[-120.1139, 41.1673], [-120.1136, 41.1675], [-120.1136, 41.1673], [-120.1139, 41.1673]], [[-120.1139, 41.1667], [-120.1136, 41.167], [-120.1136, 41.1667], [-120.1139, 41.1667]], [[-120.1214, 41.1667], [-120.1204, 41.1656], [-120.1207, 41.1651], [-120.1218, 41.1654], [-120.1222, 41.1664], [-120.1214, 41.1667]], [[-120.1154, 41.1659], [-120.115, 41.1662], [-120.115, 41.1659], [-120.1154, 41.1659]], [[-120.1179, 41.1656], [-120.1172, 41.1654], [-120.1175, 41.1646], [-120.1179, 41.1646], [-120.1179, 41.1656]], [[-120.1239, 41.1651], [-120.1236, 41.1654], [-120.1236, 41.1651], [-120.1239, 41.1651]]], [[[-120.1111, 41.1656], [-120.1118, 41.1627], [-120.1125, 41.1627], [-120.1122, 41.1619], [-120.1136, 41.1619], [-120.1125, 41.1605], [-120.1111, 41.1608], [-120.1114, 41.1629], [-120.1097, 41.1643], [-120.11, 41.1654], [-120.1111, 41.1656]]], [[[-120.1132, 41.1605], [-120.1129, 41.1594], [-120.1114, 41.16], [-120.1114, 41.1602], [-120.1132, 41.1605]]], [[[-120.1179, 41.1591], [-120.1175, 41.1575], [-120.1164, 41.1578], [-120.1171, 41.1591], [-120.1179, 41.1591]]], [[[-120.1096, 41.1602], [-120.11, 41.1592], [-120.1093, 41.1586], [-120.1111, 41.1581], [-120.1104, 41.1575], [-120.1089, 41.1578], [-120.1096, 41.157], [-120.1086, 41.1562], [-120.1079, 41.157], [-120.1082, 41.1581], [-120.1071, 41.1586], [-120.1064, 41.1578], [-120.1054, 41.1581], [-120.105, 41.157], [-120.1057, 41.1565], [-120.1029, 41.1565], [-120.1043, 41.1567], [-120.1046, 41.1589], [-120.1061, 41.1589], [-120.1061, 41.1594], [-120.1079, 41.16], [-120.1093, 41.1594], [-120.1089, 41.1602], [-120.1096, 41.1602]], [[-120.1082, 41.1589], [-120.1079, 41.1594], [-120.1079, 41.1589], [-120.1082, 41.1589]], [[-120.1093, 41.1589], [-120.1089, 41.1592], [-120.1089, 41.1589], [-120.1093, 41.1589]], [[-120.1093, 41.1583], [-120.1089, 41.1586], [-120.1089, 41.1583], [-120.1093, 41.1583]], [[-120.1096, 41.1581], [-120.1093, 41.1583], [-120.1093, 41.1581], [-120.1096, 41.1581]], [[-120.1089, 41.1573], [-120.1086, 41.1575], [-120.1086, 41.1573], [-120.1089, 41.1573]]], [[[-120.1196, 41.1567], [-120.1207, 41.1559], [-120.1193, 41.1556], [-120.1196, 41.1567]]], [[[-120.1207, 41.1548], [-120.1207, 41.154], [-120.1193, 41.1535], [-120.1189, 41.1546], [-120.1207, 41.1548]]], [[[-120.1236, 41.1562], [-120.1239, 41.1529], [-120.1214, 41.1527], [-120.1218, 41.1562], [-120.1236, 41.1562]], [[-120.1236, 41.1543], [-120.1229, 41.1545], [-120.1229, 41.1543], [-120.1236, 41.1543]], [[-120.1229, 41.1535], [-120.1225, 41.1537], [-120.1225, 41.1535], [-120.1229, 41.1535]]], [[[-120.1104, 41.1565], [-120.1096, 41.1554], [-120.1107, 41.1554], [-120.1107, 41.1543], [-120.1125, 41.1548], [-120.1125, 41.1543], [-120.1143, 41.1537], [-120.1154, 41.1548], [-120.1168, 41.1548], [-120.1171, 41.1537], [-120.1179, 41.1546], [-120.1189, 41.1537], [-120.1179, 41.1532], [-120.1182, 41.1527], [-120.1171, 41.1527], [-120.1175, 41.1535], [-120.1161, 41.1529], [-120.1161, 41.15], [-120.1157, 41.1505], [-120.1146, 41.1497], [-120.1139, 41.1502], [-120.1132, 41.1492], [-120.1118, 41.1492], [-120.1121, 41.1483], [-120.1111, 41.1483], [-120.1111, 41.1492], [-120.1103, 41.1492], [-120.1111, 41.15], [-120.1096, 41.15], [-120.1096, 41.1483], [-120.1107, 41.1481], [-120.1107, 41.1473], [-120.1096, 41.147], [-120.1093, 41.1475], [-120.1086, 41.147], [-120.1082, 41.1478], [-120.1071, 41.1481], [-120.1057, 41.1475], [-120.1046, 41.1492], [-120.1064, 41.1486], [-120.1064, 41.1489], [-120.1068, 41.1489], [-120.1071, 41.1492], [-120.1071, 41.1497], [-120.1078, 41.1497], [-120.1071, 41.1508], [-120.1093, 41.1508], [-120.1089, 41.1521], [-120.1079, 41.1519], [-120.1079, 41.1524], [-120.1096, 41.1524], [-120.11, 41.1532], [-120.1111, 41.1532], [-120.1096, 41.1548], [-120.1086, 41.1548], [-120.1093, 41.1562], [-120.1104, 41.1565]], [[-120.11, 41.1548], [-120.1096, 41.1551], [-120.1096, 41.1548], [-120.11, 41.1548]], [[-120.1168, 41.1537], [-120.1161, 41.1546], [-120.1157, 41.1537], [-120.1168, 41.1537]], [[-120.1157, 41.1535], [-120.1154, 41.1537], [-120.1154, 41.1535], [-120.1157, 41.1535]], [[-120.1132, 41.1537], [-120.1125, 41.1537], [-120.1125, 41.1532], [-120.1129, 41.1532], [-120.1132, 41.1537]], [[-120.1132, 41.1527], [-120.1129, 41.1529], [-120.1129, 41.1527], [-120.1132, 41.1527]], [[-120.1125, 41.1529], [-120.1118, 41.1524], [-120.1118, 41.1513], [-120.1132, 41.1516], [-120.1125, 41.1529]], [[-120.1104, 41.1519], [-120.11, 41.1524], [-120.11, 41.1519], [-120.1104, 41.1519]], [[-120.1111, 41.1516], [-120.1107, 41.1521], [-120.1107, 41.1516], [-120.1111, 41.1516]], [[-120.11, 41.151], [-120.1096, 41.1516], [-120.1096, 41.151], [-120.11, 41.151]], [[-120.1153, 41.1505], [-120.115, 41.151], [-120.115, 41.1505], [-120.1153, 41.1505]], [[-120.1136, 41.1502], [-120.1132, 41.1508], [-120.1132, 41.1502], [-120.1136, 41.1502]], [[-120.1132, 41.1494], [-120.1128, 41.1497], [-120.1128, 41.1494], [-120.1132, 41.1494]], [[-120.1082, 41.1486], [-120.1078, 41.1489], [-120.1078, 41.1486], [-120.1082, 41.1486]], [[-120.1075, 41.1486], [-120.1068, 41.1489], [-120.1068, 41.1486], [-120.1075, 41.1486]]], [[[-120.1082, 41.1473], [-120.1082, 41.1465], [-120.1075, 41.147], [-120.1068, 41.1462], [-120.1068, 41.147], [-120.1082, 41.1473]]], [[[-120.1057, 41.1467], [-120.1064, 41.1456], [-120.1075, 41.1459], [-120.1068, 41.1451], [-120.105, 41.1451], [-120.1046, 41.1459], [-120.1057, 41.1467]]], [[[-120.1086, 41.1419], [-120.1089, 41.1413], [-120.1075, 41.141], [-120.1075, 41.1413], [-120.1086, 41.1419]]], [[[-120.0985, 41.1351], [-120.0982, 41.1343], [-120.0971, 41.1343], [-120.0975, 41.1351], [-120.0985, 41.1351]]], [[[-120.1003, 41.1351], [-120.1003, 41.134], [-120.0993, 41.1343], [-120.0996, 41.1351], [-120.1003, 41.1351]]], [[[-120.1014, 41.1324], [-120.1014, 41.1316], [-120.1007, 41.1316], [-120.1007, 41.1324], [-120.1014, 41.1324]]], [[[-120.1288, 41.1053], [-120.1295, 41.104], [-120.1278, 41.1035], [-120.1281, 41.1051], [-120.1288, 41.1053]]], [[[-120.1142, 41.0916], [-120.1138, 41.0902], [-120.1128, 41.0899], [-120.1128, 41.0913], [-120.1142, 41.0916]]], [[[-120.1131, 41.0891], [-120.1138, 41.0881], [-120.1138, 41.0872], [-120.1128, 41.0878], [-120.1131, 41.0891]]], [[[-120.1409, 41.0872], [-120.1409, 41.0867], [-120.142, 41.0869], [-120.1431, 41.0867], [-120.1402, 41.0859], [-120.1392, 41.0872], [-120.1409, 41.0872]]], [[[-120.1299, 41.0832], [-120.1309, 41.0826], [-120.1295, 41.0824], [-120.1299, 41.0832]]], [[[-120.1074, 41.0821], [-120.1074, 41.0813], [-120.1067, 41.0813], [-120.1063, 41.0818], [-120.1074, 41.0821]]], [[[-120.1074, 41.081], [-120.1077, 41.0802], [-120.1067, 41.0802], [-120.1067, 41.0808], [-120.1074, 41.081]]], [[[-120.122, 41.0821], [-120.1227, 41.0813], [-120.122, 41.0808], [-120.1224, 41.0797], [-120.1217, 41.0797], [-120.1217, 41.0813], [-120.1209, 41.0816], [-120.122, 41.0821]]], [[[-120.1138, 41.074], [-120.1149, 41.0732], [-120.1106, 41.0729], [-120.1109, 41.0737], [-120.1138, 41.074]]], [[[-120.1067, 41.0775], [-120.1067, 41.0762], [-120.1085, 41.0762], [-120.1081, 41.0754], [-120.1092, 41.0748], [-120.1099, 41.0759], [-120.1088, 41.0767], [-120.1106, 41.0764], [-120.1109, 41.0754], [-120.1124, 41.0759], [-120.1127, 41.0748], [-120.1095, 41.0732], [-120.1063, 41.0729], [-120.1056, 41.077], [-120.1067, 41.0775]], [[-120.1077, 41.0748], [-120.107, 41.0754], [-120.1067, 41.0745], [-120.1077, 41.0748]], [[-120.1088, 41.0745], [-120.1084, 41.0748], [-120.1084, 41.0745], [-120.1088, 41.0745]], [[-120.1088, 41.0735], [-120.1081, 41.0745], [-120.1081, 41.0735], [-120.1088, 41.0735]], [[-120.1081, 41.0732], [-120.1077, 41.0735], [-120.1077, 41.0732], [-120.1081, 41.0732]]], [[[-120.1708, 41.0526], [-120.1712, 41.0518], [-120.1701, 41.051], [-120.1698, 41.0518], [-120.1708, 41.0526]]], [[[-120.1722, 41.051], [-120.1722, 41.0501], [-120.1715, 41.0501], [-120.1712, 41.051], [-120.1722, 41.051]]], [[[-120.1701, 41.051], [-120.1697, 41.0496], [-120.1694, 41.0496], [-120.1687, 41.0507], [-120.1701, 41.051]]], [[[-120.1665, 41.0288], [-120.1665, 41.028], [-120.1658, 41.028], [-120.1658, 41.0288], [-120.1665, 41.0288]]]]}, "properties": {"layer": "high_severity"}}, {"type": "Feature", "geometry": {"type": "MultiPolygon", "coordinates": [[[[-120.1118, 41.1748], [-120.1125, 41.1743], [-120.1143, 41.1743], [-120.1154, 41.1735], [-120.1157, 41.1721], [-120.1172, 41.1729], [-120.1172, 41.1716], [-120.1182, 41.1716], [-120.119, 41.1697], [-120.1172, 41.1694], [-120.1172, 41.1683], [-120.1147, 41.1689], [-120.1132, 41.1681], [-120.1129, 41.1692], [-120.114, 41.17], [-120.1125, 41.171], [-120.1136, 41.1719], [-120.1115, 41.1738], [-120.1118, 41.1748]], [[-120.1165, 41.1713], [-120.1157, 41.1716], [-120.1157, 41.1713], [-120.1165, 41.1713]]], [[[-120.1179, 41.1675], [-120.1179, 41.1656], [-120.1154, 41.1656], [-120.115, 41.1665], [-120.1179, 41.1675]]], [[[-120.1146, 41.1532], [-120.1154, 41.1521], [-120.115, 41.1516], [-120.1136, 41.1527], [-120.1136, 41.1532], [-120.1146, 41.1532]]], [[[-120.1089, 41.1486], [-120.11, 41.1478], [-120.1089, 41.1478], [-120.1089, 41.1486]]]]}, "properties": {"layer": "interior"}}, {"type": "Feature", "geometry": {"type": "Polygon", "coordinates": [[[-120.1118, 41.1748], [-120.1125, 41.1743], [-120.1143, 41.1743], [-120.1154, 41.1735], [-120.1157, 41.1721], [-120.1168, 41.1729], [-120.1175, 41.1724], [-120.1161, 41.1686], [-120.1147, 41.1689], [-120.1136, 41.1681], [-120.1129, 41.1692], [-120.114, 41.17], [-120.1125, 41.1708], [-120.1136, 41.1719], [-120.1115, 41.1738], [-120.1118, 41.1748]], [[-120.1165, 41.1713], [-120.1157, 41.1716], [-120.1157, 41.1713], [-120.1165, 41.1713]]]}, "properties": {"layer": "cell", "cell_id": "752_6000", "seed_zone": "752", "elevation_band": "6000–6500 ft"}}, {"type": "Feature", "geometry": {"type": "MultiPolygon", "coordinates": [[[[-120.1182, 41.1716], [-120.119, 41.1697], [-120.1172, 41.1694], [-120.1172, 41.1683], [-120.1164, 41.1683], [-120.1161, 41.1697], [-120.1172, 41.1713], [-120.1182, 41.1716]]], [[[-120.1179, 41.1675], [-120.1179, 41.1656], [-120.1154, 41.1656], [-120.115, 41.1665], [-120.1179, 41.1675]]]]}, "properties": {"layer": "cell", "cell_id": "752_6500", "seed_zone": "752", "elevation_band": "6500–7000 ft"}}, {"type": "Feature", "geometry": {"type": "MultiPolygon", "coordinates": [[[[-120.1146, 41.1532], [-120.1154, 41.1521], [-120.115, 41.1516], [-120.1136, 41.1527], [-120.1136, 41.1532], [-120.1146, 41.1532]]], [[[-120.1089, 41.1486], [-120.11, 41.1478], [-120.1089, 41.1478], [-120.1089, 41.1486]]]]}, "properties": {"layer": "cell", "cell_id": "752_7000", "seed_zone": "752", "elevation_band": "7000–7500 ft"}}]}
