{"type": "FeatureCollection", "features": [{"type": "Feature", "geometry": {"type": "MultiPolygon", "coordinates": [[[[-118.5744, 36.2939], [-118.5748, 36.2946], [-118.5742, 36.2948], [-118.5735, 36.2944], [-118.5744, 36.2939]]], [[[-118.5607, 36.2966], [-118.5604, 36.2965], [-118.5607, 36.2963], [-118.5607, 36.2966]]], [[[-118.5705, 36.3029], [-118.5701, 36.3026], [-118.5705, 36.3027], [-118.5705, 36.3029]]], [[[-118.5715, 36.3044], [-118.5713, 36.3045], [-118.5714, 36.3044], [-118.5715, 36.3044]]], [[[-118.5501, 36.341], [-118.5504, 36.3407], [-118.5506, 36.341], [-118.5501, 36.341]]], [[[-118.5512, 36.343], [-118.5506, 36.3429], [-118.551, 36.3428], [-118.5512, 36.343]]], [[[-118.5833, 36.3449], [-118.5827, 36.3449], [-118.5827, 36.3444], [-118.5833, 36.3449]]], [[[-118.5762, 36.3507], [-118.5761, 36.351], [-118.576, 36.3509], [-118.5762, 36.3507]]], [[[-118.5625, 36.3529], [-118.5619, 36.3531], [-118.5619, 36.3527], [-118.5625, 36.3529]]], [[[-118.5794, 36.3535], [-118.5793, 36.3535], [-118.5793, 36.3534], [-118.5794, 36.3535]]], [[[-118.5696, 36.3576], [-118.5698, 36.3581], [-118.5692, 36.3581], [-118.5696, 36.3576]]], [[[-118.5224, 36.263], [-118.5225, 36.2631], [-118.5224, 36.2631], [-118.5224, 36.263]]], [[[-118.5123, 36.2759], [-118.5121, 36.2784], [-118.5097, 36.2787], [-118.5081, 36.2779], [-118.5079, 36.2771], [-118.5093, 36.2761], [-118.5123, 36.2759]]], [[[-118.5559, 36.3458], [-118.5523, 36.3448], [-118.5529, 36.3443], [-118.5523, 36.3445], [-118.5515, 36.3432], [-118.5524, 36.34], [-118.5497, 36.3381], [-118.5473, 36.3386], [-118.5484, 36.3392], [-118.5453, 36.3407], [-118.5452, 36.3416], [-118.5471, 36.3418], [-118.547, 36.3429], [-118.5439, 36.3437], [-118.543, 36.3418], [-118.5419, 36.3414], [-118.5426, 36.3407], [-118.5379, 36.3368], [-118.5373, 36.3386], [-118.5361, 36.3381], [-118.5356, 36.3393], [-118.5328, 36.3396], [-118.5327, 36.3417], [-118.532, 36.3404], [-118.5306, 36.3399], [-118.5318, 36.3401], [-118.5325, 36.3395], [-118.5312, 36.3388], [-118.5321, 36.3367], [-118.5311, 36.3364], [-118.532, 36.3354], [-118.5305, 36.3348], [-118.5295, 36.3335], [-118.5295, 36.3329], [-118.5302, 36.3332], [-118.5291, 36.332], [-118.5301, 36.332], [-118.5307, 36.3313], [-118.5298, 36.3299], [-118.5297, 36.3307], [-118.5287, 36.3297], [-118.5288, 36.328], [-118.5296, 36.3273], [-118.5309, 36.3283], [-118.5314, 36.3279], [-118.5318, 36.3289], [-118.5313, 36.3293], [-118.5328, 36.3296], [-118.5323, 36.3275], [-118.5333, 36.3261], [-118.5321, 36.3258], [-118.5326, 36.3255], [-118.5301, 36.3243], [-118.5298, 36.3233], [-118.5318, 36.3218], [-118.5324, 36.3227], [-118.5348, 36.3237], [-118.5357, 36.3229], [-118.5363, 36.3228], [-118.5363, 36.3235], [-118.5388, 36.3229], [-118.538, 36.3205], [-118.5393, 36.3175], [-118.5375, 36.3176], [-118.5353, 36.3166], [-118.5338, 36.3196], [-118.5326, 36.3183], [-118.5297, 36.3191], [-118.5271, 36.3178], [-118.5262, 36.3196], [-118.5253, 36.3199], [-118.525, 36.3194], [-118.5258, 36.319], [-118.5244, 36.3187], [-118.5246, 36.3199], [-118.5239, 36.3198], [-118.523, 36.3188], [-118.5233, 36.3179], [-118.5221, 36.3168], [-118.5213, 36.317], [-118.522, 36.3154], [-118.5243, 36.3153], [-118.524, 36.3133], [-118.5231, 36.3141], [-118.5213, 36.3137], [-118.5211, 36.3071], [-118.5194, 36.3045], [-118.5208, 36.3039], [-118.5197, 36.304], [-118.5189, 36.3025], [-118.5189, 36.3016], [-118.5203, 36.3006], [-118.5173, 36.2999], [-118.5177, 36.2984], [-118.5157, 36.2993], [-118.5145, 36.2988], [-118.5136, 36.298], [-118.5137, 36.2961], [-118.5111, 36.2959], [-118.5065, 36.2911], [-118.5082, 36.29], [-118.5141, 36.2902], [-118.5165, 36.2879], [-118.5172, 36.2884], [-118.5178, 36.2873], [-118.5198, 36.287], [-118.52, 36.2893], [-118.5209, 36.2905], [-118.5218, 36.2883], [-118.5237, 36.2883], [-118.5246, 36.2868], [-118.523, 36.2855], [-118.5235, 36.2831], [-118.522, 36.2816], [-118.5213, 36.2818], [-118.5219, 36.2802], [-118.5207, 36.2779], [-118.521, 36.2771], [-118.5185, 36.278], [-118.518, 36.2758], [-118.5187, 36.2746], [-118.5158, 36.2746], [-118.5163, 36.2737], [-118.5189, 36.2731], [-118.5185, 36.2705], [-118.517, 36.2699], [-118.5185, 36.2686], [-118.5185, 36.2677], [-118.5176, 36.2675], [-118.5149, 36.2699], [-118.5101, 36.2689], [-118.5106, 36.2671], [-118.5131, 36.2669], [-118.5142, 36.2655], [-118.5171, 36.2639], [-118.519, 36.2665], [-118.5216, 36.2651], [-118.5215, 36.2641], [-118.5221, 36.2638], [-118.5256, 36.2643], [-118.5269, 36.2653], [-118.5288, 36.2649], [-118.5289, 36.2665], [-118.5319, 36.265], [-118.5342, 36.2647], [-118.535, 36.2626], [-118.5425, 36.2637], [-118.5436, 36.2656], [-118.5426, 36.2659], [-118.5418, 36.2654], [-118.5414, 36.2662], [-118.5421, 36.2667], [-118.5414, 36.2668], [-118.5428, 36.2671], [-118.5427, 36.2683], [-118.544, 36.2685], [-118.545, 36.272], [-118.5471, 36.2726], [-118.5496, 36.276], [-118.5537, 36.2751], [-118.5549, 36.2762], [-118.5544, 36.2785], [-118.5563, 36.2773], [-118.5587, 36.2784], [-118.5596, 36.2802], [-118.5581, 36.2828], [-118.5591, 36.2835], [-118.5587, 36.2849], [-118.5577, 36.2854], [-118.5569, 36.2905], [-118.5541, 36.29], [-118.5551, 36.2914], [-118.5539, 36.2921], [-118.5545, 36.2934], [-118.5565, 36.2931], [-118.5573, 36.295], [-118.559, 36.2942], [-118.5597, 36.2972], [-118.5645, 36.3], [-118.5667, 36.2976], [-118.5674, 36.2976], [-118.5674, 36.2966], [-118.5688, 36.2969], [-118.5695, 36.296], [-118.5705, 36.2967], [-118.5743, 36.2969], [-118.5758, 36.2994], [-118.5793, 36.2987], [-118.5803, 36.2995], [-118.5816, 36.2985], [-118.5845, 36.3], [-118.5832, 36.3006], [-118.5791, 36.3004], [-118.5768, 36.3021], [-118.575, 36.302], [-118.5752, 36.303], [-118.5745, 36.3033], [-118.5744, 36.3028], [-118.5734, 36.3031], [-118.5729, 36.3022], [-118.5697, 36.3013], [-118.5679, 36.302], [-118.5678, 36.304], [-118.5668, 36.304], [-118.5662, 36.3058], [-118.5674, 36.3065], [-118.568, 36.3062], [-118.5684, 36.3072], [-118.5706, 36.3067], [-118.5738, 36.3072], [-118.5719, 36.3098], [-118.5709, 36.3099], [-118.5689, 36.3115], [-118.569, 36.312], [-118.571, 36.3115], [-118.5697, 36.3127], [-118.5711, 36.3151], [-118.5741, 36.3155], [-118.5787, 36.315], [-118.5788, 36.3159], [-118.5806, 36.3174], [-118.5792, 36.3188], [-118.5805, 36.3212], [-118.5789, 36.3232], [-118.5795, 36.3238], [-118.5781, 36.3245], [-118.5787, 36.3276], [-118.5774, 36.3341], [-118.5794, 36.336], [-118.5799, 36.338], [-118.582, 36.3385], [-118.5815, 36.3408], [-118.5828, 36.3409], [-118.5837, 36.3426], [-118.5818, 36.3421], [-118.5814, 36.3443], [-118.5788, 36.3473], [-118.5761, 36.3485], [-118.574, 36.3512], [-118.5728, 36.3516], [-118.5687, 36.3515], [-118.5671, 36.3491], [-118.5638, 36.3505], [-118.5623, 36.3499], [-118.5591, 36.3499], [-118.5568, 36.3476], [-118.5578, 36.3453], [-118.5591, 36.3449], [-118.5587, 36.344], [-118.5559, 36.3458]], [[-118.5328, 36.3296], [-118.535, 36.3324], [-118.5373, 36.332], [-118.5374, 36.333], [-118.5383, 36.3326], [-118.5395, 36.3333], [-118.5393, 36.3329], [-118.5406, 36.3325], [-118.5403, 36.3336], [-118.5444, 36.3336], [-118.5446, 36.3324], [-118.5432, 36.332], [-118.5419, 36.3324], [-118.5383, 36.3286], [-118.5362, 36.3289], [-118.5362, 36.3293], [-118.5348, 36.3284], [-118.5328, 36.3296]]], [[[-118.5302, 36.3208], [-118.53, 36.322], [-118.5277, 36.3219], [-118.529, 36.3207], [-118.5302, 36.3208]]], [[[-118.5341, 36.3206], [-118.5344, 36.3228], [-118.533, 36.3227], [-118.5333, 36.3209], [-118.5341, 36.3206]]], [[[-118.5438, 36.3332], [-118.5441, 36.3332], [-118.5438, 36.3333], [-118.5438, 36.3332]]], [[[-118.5501, 36.3399], [-118.5499, 36.3398], [-118.5501, 36.3397], [-118.5501, 36.3399]]], [[[-118.548, 36.3408], [-118.5486, 36.3402], [-118.5484, 36.3408], [-118.548, 36.3408]]], [[[-118.5488, 36.3393], [-118.5486, 36.3424], [-118.5479, 36.3411], [-118.5485, 36.3408], [-118.5488, 36.3393]]], [[[-118.548, 36.3414], [-118.5474, 36.3418], [-118.5474, 36.3415], [-118.548, 36.3414]]], [[[-118.55, 36.3417], [-118.5501, 36.3419], [-118.55, 36.3419], [-118.55, 36.3417]]]]}, "properties": {"layer": "perimeter"}}]}
