{"type": "FeatureCollection", "features": [{"type": "Feature", "geometry": {"type": "MultiPolygon", "coordinates": [[[[-120.7857, 40.6764], [-120.7894, 40.6738], [-120.787, 40.6714], [-120.7888, 40.6709], [-120.7905, 40.6683], [-120.7898, 40.6667], [-120.7919, 40.6657], [-120.7918, 40.6651], [-120.7887, 40.6632], [-120.7891, 40.6617], [-120.7878, 40.6584], [-120.7854, 40.6563], [-120.7831, 40.6562], [-120.7813, 40.6551], [-120.7813, 40.6534], [-120.7798, 40.6519], [-120.7809, 40.6487], [-120.7777, 40.6449], [-120.7714, 40.6427], [-120.7671, 40.6432], [-120.7647, 40.6417], [-120.7617, 40.6361], [-120.7621, 40.633], [-120.7599, 40.6315], [-120.7603, 40.6291], [-120.7622, 40.6286], [-120.7631, 40.6273], [-120.7647, 40.6272], [-120.7663, 40.623], [-120.769, 40.6214], [-120.7676, 40.6205], [-120.7694, 40.6189], [-120.7691, 40.618], [-120.7721, 40.6123], [-120.7736, 40.6112], [-120.7767, 40.6106], [-120.7795, 40.6082], [-120.7801, 40.6083], [-120.781, 40.6074], [-120.7801, 40.6069], [-120.7809, 40.6057], [-120.7806, 40.6048], [-120.7826, 40.6035], [-120.7844, 40.6032], [-120.7879, 40.6006], [-120.7894, 40.5987], [-120.79, 40.5959], [-120.7916, 40.5948], [-120.794, 40.5943], [-120.7945, 40.5935], [-120.7967, 40.5937], [-120.7973, 40.5923], [-120.7988, 40.5917], [-120.7983, 40.5902], [-120.7998, 40.5868], [-120.8023, 40.5872], [-120.8059, 40.5842], [-120.8074, 40.5841], [-120.8082, 40.5791], [-120.8092, 40.5782], [-120.8106, 40.5788], [-120.814, 40.5782], [-120.8154, 40.5793], [-120.817, 40.5787], [-120.8189, 40.5764], [-120.8206, 40.5765], [-120.8235, 40.5752], [-120.826, 40.576], [-120.8329, 40.5758], [-120.8342, 40.5764], [-120.8367, 40.576], [-120.8371, 40.5766], [-120.8405, 40.5758], [-120.843, 40.576], [-120.8474, 40.5783], [-120.8484, 40.5814], [-120.8511, 40.583], [-120.8503, 40.584], [-120.8518, 40.5845], [-120.8517, 40.5855], [-120.853, 40.5866], [-120.8553, 40.5874], [-120.8538, 40.5898], [-120.8546, 40.591], [-120.8531, 40.5942], [-120.8506, 40.5969], [-120.8507, 40.5993], [-120.8492, 40.6013], [-120.8501, 40.6027], [-120.8551, 40.6068], [-120.8588, 40.6082], [-120.8636, 40.6087], [-120.8641, 40.6125], [-120.8654, 40.6138], [-120.869, 40.6156], [-120.8733, 40.6153], [-120.8765, 40.6188], [-120.8785, 40.6189], [-120.8764, 40.6209], [-120.877, 40.6235], [-120.8798, 40.625], [-120.884, 40.6246], [-120.8891, 40.6312], [-120.8886, 40.6367], [-120.8852, 40.6405], [-120.8841, 40.6448], [-120.881, 40.6492], [-120.8739, 40.6515], [-120.8729, 40.6566], [-120.8743, 40.6596], [-120.8771, 40.6606], [-120.8773, 40.6635], [-120.8764, 40.6645], [-120.8746, 40.6643], [-120.8736, 40.6649], [-120.8739, 40.6678], [-120.8718, 40.6701], [-120.8726, 40.675], [-120.872, 40.6754], [-120.8658, 40.6745], [-120.8609, 40.6754], [-120.8579, 40.6744], [-120.8532, 40.6712], [-120.8514, 40.6787], [-120.8498, 40.6796], [-120.8417, 40.6735], [-120.8371, 40.6668], [-120.8356, 40.6599], [-120.8359, 40.6545], [-120.8311, 40.6564], [-120.8206, 40.6581], [-120.8164, 40.6608], [-120.8154, 40.6627], [-120.8135, 40.6641], [-120.8043, 40.6638], [-120.8022, 40.6626], [-120.8003, 40.6667], [-120.8, 40.67], [-120.7878, 40.6799], [-120.7847, 40.6791], [-120.7857, 40.6764]]], [[[-120.8448, 40.6785], [-120.8454, 40.6783], [-120.8454, 40.6785], [-120.8448, 40.6785]]]]}, "properties": {"layer": "perimeter"}}, {"type": "Feature", "geometry": {"type": "MultiPolygon", "coordinates": [[[[-120.7857, 40.6764], [-120.7858, 40.6764], [-120.7857, 40.6767], [-120.7857, 40.6764]]], [[[-120.7707, 40.6428], [-120.7671, 40.6432], [-120.7671, 40.6428], [-120.7707, 40.6428]]], [[[-120.767, 40.6428], [-120.7664, 40.643], [-120.7658, 40.6428], [-120.767, 40.6428]]], [[[-120.8297, 40.5761], [-120.8367, 40.576], [-120.8371, 40.5766], [-120.8402, 40.5758], [-120.8424, 40.5759], [-120.8468, 40.5779], [-120.8479, 40.579], [-120.8484, 40.5814], [-120.8511, 40.583], [-120.8503, 40.584], [-120.8518, 40.5845], [-120.8517, 40.5855], [-120.853, 40.5866], [-120.8553, 40.5874], [-120.8538, 40.5898], [-120.8545, 40.5912], [-120.8492, 40.5911], [-120.8491, 40.5838], [-120.8201, 40.5837], [-120.8201, 40.5793], [-120.8297, 40.5794], [-120.8297, 40.5761]]]]}, "properties": {"layer": "retained"}}, {"type": "Feature", "geometry": {"type": "MultiPolygon", "coordinates": [[[[-120.8245, 40.5803], [-120.8245, 40.5797], [-120.8223, 40.5798], [-120.8231, 40.5803], [-120.8245, 40.5803]]], [[[-120.8259, 40.5805], [-120.8259, 40.58], [-120.8266, 40.5803], [-120.8262, 40.5795], [-120.8252, 40.58], [-120.8259, 40.5805]]]]}, "properties": {"layer": "high_severity"}}]}
