{"type": "FeatureCollection", "features": [{"type": "Feature", "geometry": {"type": "Polygon", "coordinates": [[[-121.5147, 36.1978], [-121.5227, 36.1954], [-121.5258, 36.1951], [-121.5276, 36.1965], [-121.5293, 36.1964], [-121.5325, 36.1978], [-121.5343, 36.1963], [-121.535, 36.1965], [-121.5357, 36.1952], [-121.5398, 36.1963], [-121.5417, 36.1963], [-121.5418, 36.1958], [-121.544, 36.1972], [-121.5479, 36.1972], [-121.5525, 36.1985], [-121.5548, 36.1979], [-121.5604, 36.1995], [-121.5646, 36.1986], [-121.5672, 36.1992], [-121.5691, 36.2009], [-121.5719, 36.2017], [-121.5716, 36.2031], [-121.5719, 36.2034], [-121.5746, 36.2039], [-121.5786, 36.2123], [-121.5777, 36.215], [-121.5783, 36.2163], [-121.5759, 36.2173], [-121.572, 36.2169], [-121.566, 36.2185], [-121.5654, 36.2174], [-121.5632, 36.218], [-121.563, 36.217], [-121.5651, 36.2168], [-121.5623, 36.2156], [-121.5566, 36.2172], [-121.5562, 36.2183], [-121.5521, 36.2197], [-121.5513, 36.2205], [-121.5491, 36.2199], [-121.5474, 36.2212], [-121.5451, 36.2215], [-121.5393, 36.2202], [-121.5387, 36.2192], [-121.5338, 36.2185], [-121.5321, 36.217], [-121.5304, 36.2169], [-121.5307, 36.2157], [-121.5292, 36.2134], [-121.5262, 36.2136], [-121.5227, 36.2111], [-121.5215, 36.2117], [-121.5212, 36.2108], [-121.5197, 36.2108], [-121.5208, 36.2074], [-121.5193, 36.2078], [-121.5191, 36.2091], [-121.5175, 36.208], [-121.5185, 36.207], [-121.518, 36.2064], [-121.5137, 36.2057], [-121.5133, 36.2064], [-121.5119, 36.2047], [-121.5126, 36.2038], [-121.5125, 36.2027], [-121.5119, 36.2026], [-121.5146, 36.2002], [-121.5134, 36.1989], [-121.5147, 36.1978]]]}, "properties": {"layer": "perimeter"}}]}
