{"type": "FeatureCollection", "features": [{"type": "Feature", "geometry": {"type": "Polygon", "coordinates": [[[-121.3436, 39.3799], [-121.3333, 39.3849], [-121.3314, 39.385], [-121.328, 39.3844], [-121.3264, 39.3825], [-121.3248, 39.3821], [-121.3216, 39.3797], [-121.3196, 39.3834], [-121.3163, 39.3853], [-121.3128, 39.3823], [-121.3118, 39.3794], [-121.3121, 39.3769], [-121.3135, 39.3751], [-121.314, 39.3702], [-121.3177, 39.3688], [-121.3188, 39.3675], [-121.3206, 39.3675], [-121.3233, 39.3688], [-121.3276, 39.3681], [-121.3294, 39.371], [-121.3363, 39.3712], [-121.34, 39.3678], [-121.3445, 39.3654], [-121.3443, 39.3624], [-121.3452, 39.3618], [-121.348, 39.3639], [-121.3529, 39.3661], [-121.3523, 39.3698], [-121.3528, 39.371], [-121.3517, 39.3759], [-121.3475, 39.3797], [-121.3436, 39.3799]]]}, "properties": {"layer": "perimeter"}}, {"type": "Feature", "geometry": {"type": "Polygon", "coordinates": [[[-121.3436, 39.3799], [-121.3333, 39.3849], [-121.3314, 39.385], [-121.328, 39.3844], [-121.3264, 39.3825], [-121.3248, 39.3821], [-121.3216, 39.3797], [-121.3196, 39.3834], [-121.3163, 39.3853], [-121.3128, 39.3823], [-121.3118, 39.3794], [-121.3121, 39.3769], [-121.3135, 39.3751], [-121.314, 39.3702], [-121.3177, 39.3688], [-121.3188, 39.3675], [-121.3206, 39.3675], [-121.3233, 39.3688], [-121.3276, 39.3681], [-121.3294, 39.371], [-121.3363, 39.3712], [-121.34, 39.3678], [-121.3445, 39.3654], [-121.3443, 39.3624], [-121.3452, 39.3618], [-121.348, 39.3639], [-121.3529, 39.3661], [-121.3523, 39.3698], [-121.3528, 39.371], [-121.3517, 39.3759], [-121.3475, 39.3797], [-121.3436, 39.3799]]]}, "properties": {"layer": "retained"}}]}
