{"type": "FeatureCollection", "features": [{"type": "Feature", "geometry": {"type": "MultiPolygon", "coordinates": [[[[-118.5979, 35.8278], [-118.5982, 35.8262], [-118.5975, 35.8248], [-118.5989, 35.8245], [-118.5993, 35.8254], [-118.6009, 35.8252], [-118.6012, 35.8273], [-118.5999, 35.8282], [-118.5979, 35.8278]]], [[[-118.6021, 35.8293], [-118.6023, 35.8294], [-118.602, 35.8293], [-118.6021, 35.8293]]], [[[-118.6264, 35.8315], [-118.6263, 35.8319], [-118.626, 35.8316], [-118.6264, 35.8315]]], [[[-118.5722, 35.8346], [-118.5717, 35.8346], [-118.5717, 35.8343], [-118.5722, 35.8346]]], [[[-118.5783, 35.8368], [-118.5781, 35.8372], [-118.578, 35.8368], [-118.5783, 35.8368]]], [[[-118.5702, 35.8371], [-118.5704, 35.8369], [-118.5706, 35.8371], [-118.5702, 35.8371]]], [[[-118.5908, 35.8386], [-118.5894, 35.8386], [-118.59, 35.8381], [-118.5908, 35.8386]]], [[[-118.5822, 35.8396], [-118.5818, 35.8394], [-118.582, 35.8393], [-118.5822, 35.8396]]], [[[-118.5666, 35.8393], [-118.568, 35.8397], [-118.5682, 35.84], [-118.5661, 35.8404], [-118.5658, 35.8384], [-118.567, 35.8387], [-118.5666, 35.8393]]], [[[-118.5762, 35.8413], [-118.5766, 35.8415], [-118.5762, 35.8415], [-118.5762, 35.8413]]], [[[-118.6262, 35.8466], [-118.6261, 35.8458], [-118.6267, 35.8458], [-118.6262, 35.8466]]], [[[-118.633, 35.8523], [-118.6338, 35.8517], [-118.6339, 35.852], [-118.633, 35.8523]]], [[[-118.6306, 35.8621], [-118.631, 35.8615], [-118.6302, 35.8606], [-118.6306, 35.8599], [-118.6318, 35.8606], [-118.6306, 35.8621]]], [[[-118.6379, 35.8839], [-118.6383, 35.8833], [-118.6388, 35.8838], [-118.6379, 35.8839]]], [[[-118.6168, 36.1126], [-118.614, 36.1117], [-118.6135, 36.1131], [-118.6121, 36.1136], [-118.6091, 36.1116], [-118.6055, 36.1116], [-118.6057, 36.11], [-118.6032, 36.1087], [-118.6014, 36.1061], [-118.6031, 36.106], [-118.6029, 36.1048], [-118.6059, 36.1053], [-118.605, 36.1027], [-118.6044, 36.1042], [-118.6033, 36.1039], [-118.6025, 36.1045], [-118.6021, 36.1025], [-118.6003, 36.1003], [-118.5991, 36.1006], [-118.5986, 36.1], [-118.5986, 36.1011], [-118.5968, 36.0991], [-118.5956, 36.0998], [-118.5942, 36.0996], [-118.5943, 36.1002], [-118.5925, 36.0997], [-118.5925, 36.1001], [-118.5916, 36.1001], [-118.5901, 36.0982], [-118.5888, 36.0984], [-118.5887, 36.0971], [-118.5882, 36.0985], [-118.5853, 36.0978], [-118.5858, 36.0992], [-118.5852, 36.0995], [-118.5839, 36.0986], [-118.5848, 36.0983], [-118.5833, 36.0973], [-118.5831, 36.096], [-118.5822, 36.0961], [-118.5806, 36.0939], [-118.5791, 36.0935], [-118.5785, 36.0942], [-118.5776, 36.0941], [-118.5764, 36.0935], [-118.5767, 36.093], [-118.5747, 36.0924], [-118.5765, 36.0916], [-118.5764, 36.0894], [-118.5778, 36.0882], [-118.5779, 36.084], [-118.5786, 36.0821], [-118.58, 36.0813], [-118.5791, 36.0807], [-118.5802, 36.0792], [-118.58, 36.0771], [-118.5813, 36.0753], [-118.5837, 36.074], [-118.5849, 36.0741], [-118.5854, 36.0731], [-118.5822, 36.0723], [-118.5807, 36.0726], [-118.5808, 36.0732], [-118.5786, 36.0744], [-118.5751, 36.0736], [-118.5757, 36.0741], [-118.5749, 36.0742], [-118.575, 36.0748], [-118.5741, 36.0741], [-118.5732, 36.0748], [-118.5727, 36.0739], [-118.5719, 36.0741], [-118.5725, 36.0732], [-118.5666, 36.0722], [-118.5656, 36.0707], [-118.5627, 36.0702], [-118.5611, 36.0713], [-118.5595, 36.0708], [-118.5573, 36.0727], [-118.5539, 36.0731], [-118.552, 36.0747], [-118.5503, 36.0744], [-118.5492, 36.0754], [-118.5483, 36.0746], [-118.5491, 36.0738], [-118.5455, 36.0733], [-118.5444, 36.0723], [-118.5449, 36.0713], [-118.5437, 36.0713], [-118.5433, 36.0702], [-118.5399, 36.07], [-118.5383, 36.0705], [-118.5375, 36.0712], [-118.5378, 36.0729], [-118.5368, 36.0753], [-118.5372, 36.0788], [-118.5351, 36.0842], [-118.5352, 36.0905], [-118.5322, 36.0916], [-118.5309, 36.0917], [-118.5302, 36.0908], [-118.5284, 36.0904], [-118.5268, 36.0907], [-118.5236, 36.0946], [-118.5217, 36.0941], [-118.5198, 36.0946], [-118.5113, 36.0928], [-118.5109, 36.09], [-118.5063, 36.0877], [-118.5024, 36.0843], [-118.5011, 36.0846], [-118.4985, 36.082], [-118.4966, 36.0831], [-118.4944, 36.0826], [-118.4941, 36.0833], [-118.4923, 36.0828], [-118.4891, 36.0837], [-118.4875, 36.0836], [-118.4868, 36.0815], [-118.4857, 36.0804], [-118.4848, 36.0805], [-118.4838, 36.079], [-118.4819, 36.0799], [-118.4806, 36.0789], [-118.4799, 36.08], [-118.4785, 36.0797], [-118.4784, 36.0771], [-118.4768, 36.0767], [-118.4769, 36.0754], [-118.4749, 36.0714], [-118.4788, 36.0684], [-118.4802, 36.0691], [-118.4807, 36.0705], [-118.4819, 36.0703], [-118.4836, 36.0668], [-118.4853, 36.0657], [-118.4878, 36.066], [-118.4908, 36.0681], [-118.4917, 36.066], [-118.4907, 36.0647], [-118.491, 36.0621], [-118.4922, 36.0589], [-118.491, 36.0586], [-118.491, 36.058], [-118.4933, 36.0585], [-118.4938, 36.0574], [-118.4949, 36.058], [-118.4946, 36.0587], [-118.4967, 36.0586], [-118.497, 36.06], [-118.4975, 36.0583], [-118.4986, 36.0576], [-118.4985, 36.0558], [-118.4994, 36.0559], [-118.4997, 36.055], [-118.4977, 36.0538], [-118.4988, 36.0531], [-118.4988, 36.0519], [-118.4979, 36.0518], [-118.4984, 36.0515], [-118.497, 36.0502], [-118.4992, 36.0511], [-118.5001, 36.0506], [-118.4997, 36.0501], [-118.4988, 36.0505], [-118.4983, 36.0496], [-118.4991, 36.0495], [-118.5003, 36.0504], [-118.5, 36.0495], [-118.5015, 36.0496], [-118.5018, 36.0473], [-118.5031, 36.0472], [-118.5044, 36.0445], [-118.507, 36.0443], [-118.5073, 36.043], [-118.5088, 36.0435], [-118.5091, 36.0424], [-118.5079, 36.0411], [-118.5099, 36.0416], [-118.5133, 36.039], [-118.511, 36.0373], [-118.5092, 36.037], [-118.5068, 36.0339], [-118.5052, 36.0341], [-118.5062, 36.0334], [-118.5055, 36.0323], [-118.5083, 36.0307], [-118.5076, 36.0295], [-118.5096, 36.0287], [-118.5084, 36.0276], [-118.5081, 36.0281], [-118.5061, 36.0277], [-118.5051, 36.0283], [-118.5042, 36.0273], [-118.5049, 36.0259], [-118.5049, 36.0265], [-118.5065, 36.0263], [-118.5061, 36.025], [-118.5072, 36.024], [-118.5058, 36.0239], [-118.5058, 36.0225], [-118.5075, 36.0217], [-118.5075, 36.0205], [-118.5086, 36.0203], [-118.5073, 36.0195], [-118.5113, 36.0193], [-118.5129, 36.0197], [-118.5131, 36.0211], [-118.5159, 36.0207], [-118.5199, 36.0216], [-118.5231, 36.0183], [-118.5238, 36.0157], [-118.5245, 36.0157], [-118.5235, 36.0147], [-118.5212, 36.015], [-118.5198, 36.014], [-118.518, 36.014], [-118.519, 36.0122], [-118.5192, 36.0094], [-118.5214, 36.0084], [-118.5218, 36.0066], [-118.5234, 36.0084], [-118.5243, 36.0082], [-118.5241, 36.0066], [-118.5226, 36.005], [-118.5233, 36.0013], [-118.5242, 36.0009], [-118.5226, 36.0013], [-118.5219, 36.0006], [-118.5213, 35.9984], [-118.522, 35.9979], [-118.5219, 35.9958], [-118.5168, 35.9969], [-118.5162, 35.9965], [-118.5166, 35.9948], [-118.5155, 35.9945], [-118.5116, 35.9967], [-118.5114, 36.0003], [-118.5138, 35.9993], [-118.5124, 36.0017], [-118.5132, 36.0041], [-118.5118, 36.0037], [-118.5098, 36.0041], [-118.5087, 36.0032], [-118.5088, 35.9996], [-118.5084, 36.0011], [-118.5042, 36.0038], [-118.5025, 36.0032], [-118.5025, 36.0013], [-118.5015, 35.9993], [-118.5002, 35.9997], [-118.4972, 35.9993], [-118.4982, 36.0002], [-118.4954, 36.0022], [-118.4928, 36.0005], [-118.4932, 35.9986], [-118.4942, 35.9992], [-118.4953, 35.999], [-118.4975, 35.9951], [-118.5017, 35.9964], [-118.5015, 35.9955], [-118.5052, 35.9937], [-118.5052, 35.9931], [-118.5026, 35.9936], [-118.5027, 35.9918], [-118.5054, 35.9913], [-118.5045, 35.9911], [-118.5044, 35.9902], [-118.5031, 35.9901], [-118.5075, 35.9897], [-118.5059, 35.9894], [-118.5067, 35.9892], [-118.5062, 35.9884], [-118.5041, 35.9884], [-118.5043, 35.9863], [-118.5076, 35.9864], [-118.5075, 35.9855], [-118.5089, 35.9855], [-118.5078, 35.987], [-118.511, 35.9872], [-118.5105, 35.9878], [-118.5113, 35.9881], [-118.511, 35.9878], [-118.5123, 35.9879], [-118.5134, 35.9871], [-118.5152, 35.9878], [-118.5196, 35.9874], [-118.5217, 35.9858], [-118.5202, 35.9844], [-118.5223, 35.9822], [-118.522, 35.9809], [-118.5163, 35.9802], [-118.5163, 35.9792], [-118.5219, 35.9785], [-118.5237, 35.9798], [-118.5259, 35.9791], [-118.528, 35.9795], [-118.5303, 35.9782], [-118.5309, 35.9765], [-118.5321, 35.9762], [-118.5352, 35.9773], [-118.536, 35.9764], [-118.5369, 35.9769], [-118.5375, 35.9759], [-118.5406, 35.9778], [-118.5412, 35.9767], [-118.5421, 35.9772], [-118.5422, 35.9748], [-118.5416, 35.9745], [-118.5426, 35.971], [-118.5422, 35.9694], [-118.54, 35.9683], [-118.5377, 35.969], [-118.5377, 35.9699], [-118.5351, 35.97], [-118.5354, 35.9691], [-118.5372, 35.9687], [-118.5353, 35.9681], [-118.536, 35.966], [-118.5349, 35.9643], [-118.5338, 35.9645], [-118.5334, 35.9656], [-118.5317, 35.9647], [-118.5334, 35.9641], [-118.5327, 35.9639], [-118.5341, 35.9617], [-118.5326, 35.9613], [-118.5324, 35.9584], [-118.5303, 35.9562], [-118.5312, 35.9551], [-118.5301, 35.954], [-118.53, 35.9521], [-118.5319, 35.9509], [-118.5333, 35.9514], [-118.5341, 35.9509], [-118.5348, 35.9515], [-118.5341, 35.952], [-118.536, 35.9512], [-118.536, 35.9504], [-118.5354, 35.9504], [-118.5359, 35.9501], [-118.5343, 35.949], [-118.5332, 35.9472], [-118.5332, 35.9448], [-118.5338, 35.9454], [-118.5372, 35.9453], [-118.539, 35.9431], [-118.541, 35.9422], [-118.5398, 35.9418], [-118.5388, 35.9406], [-118.5374, 35.9404], [-118.5346, 35.938], [-118.5357, 35.937], [-118.5352, 35.9365], [-118.5361, 35.935], [-118.5369, 35.9347], [-118.534, 35.9339], [-118.5329, 35.9304], [-118.5333, 35.9291], [-118.5361, 35.9282], [-118.5364, 35.9271], [-118.5348, 35.9275], [-118.5343, 35.9267], [-118.5333, 35.9265], [-118.5317, 35.9273], [-118.5326, 35.9264], [-118.5309, 35.926], [-118.528, 35.9268], [-118.5276, 35.9261], [-118.5244, 35.9251], [-118.5232, 35.9218], [-118.5252, 35.9202], [-118.5278, 35.9197], [-118.5286, 35.9204], [-118.5318, 35.9193], [-118.5302, 35.9192], [-118.5298, 35.918], [-118.5296, 35.9132], [-118.5279, 35.9115], [-118.5291, 35.9109], [-118.5282, 35.9103], [-118.5272, 35.9109], [-118.5269, 35.9095], [-118.5254, 35.9097], [-118.5248, 35.9091], [-118.5251, 35.9083], [-118.5244, 35.9084], [-118.5249, 35.908], [-118.524, 35.908], [-118.5235, 35.9068], [-118.5218, 35.907], [-118.5227, 35.9073], [-118.5226, 35.9075], [-118.5218, 35.9072], [-118.5216, 35.9068], [-118.5225, 35.9062], [-118.5222, 35.9058], [-118.5194, 35.905], [-118.5172, 35.9066], [-118.515, 35.904], [-118.5162, 35.9028], [-118.5158, 35.9023], [-118.5169, 35.9019], [-118.5174, 35.9028], [-118.5182, 35.9028], [-118.5192, 35.9021], [-118.5186, 35.9017], [-118.5211, 35.8996], [-118.5267, 35.8969], [-118.5265, 35.8958], [-118.5246, 35.8949], [-118.5199, 35.8977], [-118.5177, 35.8969], [-118.5157, 35.8955], [-118.5148, 35.892], [-118.5127, 35.8922], [-118.5124, 35.8916], [-118.5096, 35.8912], [-118.509, 35.8889], [-118.507, 35.8883], [-118.506, 35.8886], [-118.505, 35.8869], [-118.5068, 35.8854], [-118.5135, 35.884], [-118.5161, 35.881], [-118.5171, 35.8814], [-118.5208, 35.88], [-118.5228, 35.8813], [-118.5222, 35.88], [-118.5243, 35.8803], [-118.5241, 35.8796], [-118.5225, 35.8791], [-118.523, 35.878], [-118.5221, 35.8781], [-118.5215, 35.8768], [-118.523, 35.8756], [-118.5214, 35.8748], [-118.5208, 35.8725], [-118.5176, 35.8743], [-118.5163, 35.8741], [-118.5142, 35.8727], [-118.5143, 35.8713], [-118.5151, 35.8713], [-118.5158, 35.8697], [-118.5165, 35.8699], [-118.5185, 35.868], [-118.5189, 35.8668], [-118.5217, 35.8657], [-118.5226, 35.8639], [-118.5246, 35.8627], [-118.5261, 35.8629], [-118.5255, 35.8623], [-118.5264, 35.862], [-118.5265, 35.8626], [-118.5278, 35.8626], [-118.5272, 35.8615], [-118.5278, 35.8606], [-118.5268, 35.8595], [-118.5255, 35.86], [-118.5244, 35.8589], [-118.525, 35.8581], [-118.5246, 35.8561], [-118.5252, 35.8562], [-118.5257, 35.8542], [-118.527, 35.8538], [-118.5275, 35.8543], [-118.527, 35.8546], [-118.5275, 35.856], [-118.526, 35.8571], [-118.5281, 35.8581], [-118.5305, 35.8555], [-118.5334, 35.8553], [-118.5342, 35.8542], [-118.5363, 35.854], [-118.5355, 35.8535], [-118.5354, 35.8512], [-118.5386, 35.853], [-118.5395, 35.8527], [-118.5401, 35.8515], [-118.539, 35.8509], [-118.5401, 35.8502], [-118.5409, 35.8521], [-118.5428, 35.8527], [-118.5424, 35.8511], [-118.5443, 35.8509], [-118.5442, 35.8504], [-118.5466, 35.8516], [-118.5475, 35.8513], [-118.5461, 35.851], [-118.5471, 35.8503], [-118.5463, 35.8501], [-118.5454, 35.8483], [-118.5446, 35.8482], [-118.5447, 35.8471], [-118.5462, 35.8475], [-118.5472, 35.8498], [-118.548, 35.8491], [-118.5495, 35.8492], [-118.5495, 35.8481], [-118.5519, 35.8495], [-118.5525, 35.8487], [-118.5539, 35.8487], [-118.5547, 35.8477], [-118.5544, 35.8468], [-118.5558, 35.8477], [-118.5575, 35.8476], [-118.5561, 35.8449], [-118.5551, 35.8453], [-118.555, 35.8444], [-118.5537, 35.8445], [-118.5547, 35.8435], [-118.5558, 35.8441], [-118.557, 35.844], [-118.5571, 35.8434], [-118.5573, 35.8445], [-118.5583, 35.8443], [-118.557, 35.8413], [-118.558, 35.8412], [-118.5581, 35.8419], [-118.558, 35.8408], [-118.5594, 35.8401], [-118.5605, 35.8412], [-118.5619, 35.8401], [-118.5626, 35.841], [-118.5658, 35.8418], [-118.5667, 35.8423], [-118.567, 35.8439], [-118.5684, 35.8434], [-118.5693, 35.8439], [-118.5701, 35.8428], [-118.5726, 35.8432], [-118.573, 35.8439], [-118.5743, 35.8437], [-118.5757, 35.8449], [-118.5762, 35.844], [-118.5773, 35.8443], [-118.5778, 35.8431], [-118.5803, 35.8436], [-118.5801, 35.8427], [-118.5808, 35.8431], [-118.5805, 35.8426], [-118.582, 35.8424], [-118.5808, 35.841], [-118.579, 35.8415], [-118.5786, 35.8405], [-118.5766, 35.8399], [-118.5759, 35.8388], [-118.5745, 35.839], [-118.5735, 35.8385], [-118.5736, 35.8379], [-118.5719, 35.8378], [-118.5727, 35.837], [-118.5714, 35.836], [-118.5725, 35.8367], [-118.5744, 35.8365], [-118.5734, 35.8361], [-118.5738, 35.8353], [-118.5753, 35.836], [-118.5752, 35.8371], [-118.5772, 35.8372], [-118.577, 35.8387], [-118.5814, 35.8395], [-118.5818, 35.8406], [-118.5843, 35.8399], [-118.585, 35.8411], [-118.5858, 35.8409], [-118.5865, 35.8405], [-118.5864, 35.8389], [-118.5879, 35.8384], [-118.5878, 35.839], [-118.5904, 35.8403], [-118.5917, 35.8391], [-118.5913, 35.8386], [-118.5924, 35.8387], [-118.5923, 35.8398], [-118.5928, 35.8395], [-118.5935, 35.8403], [-118.5953, 35.8377], [-118.5935, 35.834], [-118.5954, 35.8337], [-118.5947, 35.8314], [-118.5971, 35.8315], [-118.599, 35.8294], [-118.5998, 35.8302], [-118.6007, 35.8299], [-118.6, 35.8294], [-118.6005, 35.8286], [-118.6024, 35.8288], [-118.6025, 35.8292], [-118.6019, 35.8292], [-118.6018, 35.8298], [-118.6032, 35.8301], [-118.605, 35.8285], [-118.6062, 35.8289], [-118.6061, 35.828], [-118.6071, 35.8277], [-118.6119, 35.8309], [-118.6105, 35.8317], [-118.6112, 35.8331], [-118.6136, 35.8335], [-118.6157, 35.8364], [-118.6167, 35.8365], [-118.6164, 35.8406], [-118.6154, 35.8405], [-118.616, 35.8418], [-118.6147, 35.8426], [-118.6159, 35.8447], [-118.6158, 35.8467], [-118.6171, 35.848], [-118.6154, 35.8512], [-118.6169, 35.8521], [-118.615, 35.8537], [-118.6172, 35.8537], [-118.6179, 35.8522], [-118.6198, 35.8517], [-118.6204, 35.8522], [-118.6216, 35.8513], [-118.6211, 35.852], [-118.6219, 35.8525], [-118.6209, 35.8533], [-118.6225, 35.8529], [-118.6227, 35.8537], [-118.624, 35.8535], [-118.6238, 35.8543], [-118.6209, 35.8539], [-118.6201, 35.8557], [-118.6187, 35.8556], [-118.6231, 35.859], [-118.6244, 35.8592], [-118.6238, 35.8604], [-118.6246, 35.8609], [-118.6236, 35.8618], [-118.626, 35.8654], [-118.6249, 35.866], [-118.6275, 35.8666], [-118.629, 35.8638], [-118.6299, 35.866], [-118.633, 35.8664], [-118.6328, 35.8679], [-118.6316, 35.868], [-118.6313, 35.8692], [-118.63, 35.8693], [-118.6283, 35.8728], [-118.6326, 35.8733], [-118.6326, 35.8747], [-118.6291, 35.8781], [-118.6273, 35.8788], [-118.6279, 35.8795], [-118.6264, 35.8809], [-118.6272, 35.882], [-118.6262, 35.8838], [-118.6301, 35.8851], [-118.6328, 35.8851], [-118.6322, 35.8867], [-118.6309, 35.8869], [-118.6325, 35.8876], [-118.6297, 35.8887], [-118.6326, 35.8906], [-118.6362, 35.8904], [-118.6363, 35.8886], [-118.6374, 35.89], [-118.6372, 35.8909], [-118.6392, 35.8904], [-118.6395, 35.8894], [-118.6397, 35.8903], [-118.6411, 35.89], [-118.6414, 35.8905], [-118.6408, 35.8913], [-118.6383, 35.8921], [-118.6347, 35.8914], [-118.6355, 35.8927], [-118.6348, 35.8928], [-118.6347, 35.8939], [-118.6363, 35.8939], [-118.6368, 35.8958], [-118.6363, 35.8962], [-118.6371, 35.8962], [-118.6368, 35.8971], [-118.635, 35.897], [-118.6355, 35.8981], [-118.6343, 35.8981], [-118.635, 35.899], [-118.6342, 35.8996], [-118.6349, 35.9008], [-118.6377, 35.8989], [-118.6391, 35.8993], [-118.6405, 35.8984], [-118.641, 35.899], [-118.6423, 35.8977], [-118.6424, 35.8962], [-118.6432, 35.8965], [-118.6454, 35.8987], [-118.6457, 35.9001], [-118.6439, 35.9019], [-118.6443, 35.9031], [-118.6417, 35.9014], [-118.6421, 35.9023], [-118.6397, 35.9029], [-118.6391, 35.9042], [-118.6393, 35.9052], [-118.64, 35.9045], [-118.6426, 35.9062], [-118.6416, 35.9079], [-118.6426, 35.9077], [-118.6431, 35.9085], [-118.642, 35.9087], [-118.6419, 35.9093], [-118.6458, 35.9078], [-118.6464, 35.9089], [-118.6453, 35.9089], [-118.6445, 35.9099], [-118.6448, 35.9115], [-118.6462, 35.912], [-118.6461, 35.9134], [-118.6475, 35.9133], [-118.6489, 35.9111], [-118.6509, 35.9114], [-118.6514, 35.9123], [-118.6505, 35.9127], [-118.6518, 35.9136], [-118.6532, 35.913], [-118.6539, 35.9135], [-118.6531, 35.9149], [-118.6543, 35.9169], [-118.6534, 35.9168], [-118.6533, 35.9174], [-118.6523, 35.9169], [-118.6514, 35.918], [-118.6499, 35.9173], [-118.6491, 35.9179], [-118.6495, 35.919], [-118.6506, 35.9189], [-118.651, 35.9197], [-118.6532, 35.9188], [-118.6553, 35.9195], [-118.6551, 35.9206], [-118.6537, 35.9204], [-118.6565, 35.9225], [-118.6586, 35.9228], [-118.6622, 35.9216], [-118.6628, 35.9231], [-118.6645, 35.9228], [-118.6656, 35.9237], [-118.6652, 35.9254], [-118.6659, 35.9262], [-118.6664, 35.9259], [-118.6672, 35.9272], [-118.6662, 35.9277], [-118.6661, 35.9297], [-118.6689, 35.9301], [-118.6688, 35.931], [-118.6679, 35.9309], [-118.6688, 35.9316], [-118.6724, 35.9298], [-118.673, 35.9311], [-118.6717, 35.9324], [-118.6706, 35.9323], [-118.6688, 35.9334], [-118.6706, 35.9337], [-118.6708, 35.9353], [-118.6719, 35.9356], [-118.6723, 35.937], [-118.6703, 35.9375], [-118.6698, 35.9365], [-118.6693, 35.9363], [-118.6692, 35.9373], [-118.6698, 35.9377], [-118.6733, 35.9379], [-118.6736, 35.9393], [-118.675, 35.9389], [-118.6743, 35.9381], [-118.6744, 35.9376], [-118.6756, 35.9382], [-118.6767, 35.9372], [-118.6772, 35.9379], [-118.6792, 35.9359], [-118.6823, 35.9359], [-118.6828, 35.9343], [-118.6847, 35.9339], [-118.6845, 35.9329], [-118.6863, 35.9319], [-118.687, 35.9318], [-118.6873, 35.9328], [-118.689, 35.9327], [-118.6889, 35.9322], [-118.6893, 35.9325], [-118.6893, 35.9319], [-118.691, 35.9311], [-118.6909, 35.9302], [-118.6929, 35.9298], [-118.692, 35.9283], [-118.6932, 35.9269], [-118.6967, 35.9254], [-118.7, 35.9267], [-118.7009, 35.9288], [-118.6974, 35.9293], [-118.6966, 35.9302], [-118.6983, 35.9317], [-118.699, 35.9315], [-118.6992, 35.9323], [-118.698, 35.9328], [-118.6999, 35.9355], [-118.7015, 35.9343], [-118.702, 35.9359], [-118.7032, 35.9358], [-118.7053, 35.9367], [-118.7047, 35.939], [-118.7054, 35.9407], [-118.7047, 35.9443], [-118.7006, 35.9453], [-118.702, 35.9472], [-118.7001, 35.948], [-118.6991, 35.9502], [-118.7004, 35.9517], [-118.7003, 35.9535], [-118.7013, 35.9545], [-118.702, 35.9542], [-118.703, 35.9559], [-118.7021, 35.9573], [-118.7024, 35.9587], [-118.704, 35.9566], [-118.7072, 35.956], [-118.7087, 35.9568], [-118.7086, 35.9587], [-118.7068, 35.9598], [-118.7064, 35.9593], [-118.7053, 35.9597], [-118.7046, 35.9613], [-118.7051, 35.9617], [-118.7057, 35.9611], [-118.7055, 35.9619], [-118.7062, 35.9615], [-118.7085, 35.9619], [-118.7067, 35.9637], [-118.7049, 35.9631], [-118.7046, 35.965], [-118.703, 35.9651], [-118.7026, 35.9642], [-118.7016, 35.9642], [-118.7023, 35.9664], [-118.7041, 35.968], [-118.706, 35.9664], [-118.7084, 35.9684], [-118.7099, 35.9682], [-118.712, 35.969], [-118.7135, 35.9682], [-118.7165, 35.9712], [-118.7239, 35.9735], [-118.7257, 35.9764], [-118.7275, 35.9762], [-118.7286, 35.9793], [-118.7284, 35.9812], [-118.7307, 35.9849], [-118.7357, 35.9897], [-118.738, 35.9983], [-118.7372, 36.0005], [-118.7376, 36.0035], [-118.7339, 36.0037], [-118.7326, 36.005], [-118.7308, 36.0055], [-118.7313, 36.0062], [-118.7301, 36.0091], [-118.7275, 36.0111], [-118.7282, 36.0115], [-118.7271, 36.013], [-118.7277, 36.0131], [-118.7266, 36.0137], [-118.7269, 36.0147], [-118.7224, 36.0173], [-118.7161, 36.0136], [-118.7137, 36.0177], [-118.7134, 36.0228], [-118.7117, 36.0252], [-118.7058, 36.0265], [-118.7045, 36.0276], [-118.7032, 36.0275], [-118.7016, 36.0256], [-118.6966, 36.024], [-118.6961, 36.0208], [-118.6969, 36.0196], [-118.6967, 36.0183], [-118.6932, 36.0147], [-118.6937, 36.0142], [-118.6928, 36.014], [-118.6926, 36.0131], [-118.6932, 36.013], [-118.6893, 36.0112], [-118.6887, 36.0091], [-118.6873, 36.0085], [-118.6866, 36.009], [-118.685, 36.008], [-118.6839, 36.0088], [-118.6836, 36.0082], [-118.684, 36.0092], [-118.6834, 36.0096], [-118.6845, 36.0104], [-118.6836, 36.0118], [-118.6839, 36.0129], [-118.6832, 36.0139], [-118.6822, 36.014], [-118.6816, 36.0155], [-118.6811, 36.0134], [-118.6799, 36.0121], [-118.6795, 36.0126], [-118.6792, 36.0119], [-118.6788, 36.0125], [-118.6778, 36.012], [-118.6777, 36.0104], [-118.6768, 36.0106], [-118.6763, 36.0097], [-118.6755, 36.01], [-118.6745, 36.009], [-118.6689, 36.0105], [-118.6681, 36.007], [-118.6644, 36.0037], [-118.6622, 36.0025], [-118.6608, 36.0037], [-118.6597, 36.0035], [-118.6598, 36.0056], [-118.6584, 36.0051], [-118.6591, 36.0059], [-118.6582, 36.008], [-118.6564, 36.0081], [-118.6557, 36.0094], [-118.6545, 36.0092], [-118.6539, 36.01], [-118.6547, 36.0102], [-118.6549, 36.0113], [-118.6582, 36.0118], [-118.6591, 36.0131], [-118.6602, 36.0134], [-118.6596, 36.0146], [-118.661, 36.0151], [-118.6612, 36.016], [-118.6595, 36.0167], [-118.6584, 36.016], [-118.6587, 36.0166], [-118.6578, 36.0175], [-118.6569, 36.0164], [-118.6557, 36.0162], [-118.6571, 36.0181], [-118.6586, 36.0188], [-118.6565, 36.0201], [-118.6584, 36.0219], [-118.657, 36.0228], [-118.6586, 36.0229], [-118.6605, 36.0248], [-118.6627, 36.0261], [-118.6638, 36.026], [-118.664, 36.0278], [-118.662, 36.0273], [-118.6616, 36.0288], [-118.6641, 36.0299], [-118.6648, 36.0324], [-118.6629, 36.0342], [-118.6618, 36.0328], [-118.6597, 36.0324], [-118.6591, 36.0332], [-118.6586, 36.0323], [-118.6578, 36.0324], [-118.6582, 36.0329], [-118.6561, 36.0326], [-118.6517, 36.0312], [-118.6509, 36.0304], [-118.6504, 36.0323], [-118.6519, 36.0336], [-118.6559, 36.0332], [-118.6575, 36.0342], [-118.6588, 36.0334], [-118.659, 36.0354], [-118.6568, 36.0346], [-118.6564, 36.0361], [-118.6591, 36.0369], [-118.6606, 36.039], [-118.6573, 36.0422], [-118.6566, 36.0457], [-118.6541, 36.0463], [-118.653, 36.0473], [-118.653, 36.0485], [-118.6543, 36.0506], [-118.6534, 36.0523], [-118.6541, 36.0524], [-118.6548, 36.0512], [-118.6546, 36.0475], [-118.6573, 36.047], [-118.6611, 36.0412], [-118.6648, 36.0411], [-118.6667, 36.0402], [-118.6702, 36.0402], [-118.6721, 36.0391], [-118.6726, 36.038], [-118.6763, 36.038], [-118.6764, 36.0372], [-118.6792, 36.035], [-118.6797, 36.0377], [-118.6806, 36.0385], [-118.6803, 36.0394], [-118.682, 36.0442], [-118.6819, 36.0456], [-118.6805, 36.0475], [-118.6794, 36.0514], [-118.6759, 36.0522], [-118.6749, 36.0543], [-118.6728, 36.056], [-118.674, 36.0595], [-118.6729, 36.0617], [-118.6738, 36.0635], [-118.673, 36.0645], [-118.6729, 36.068], [-118.6737, 36.0692], [-118.6737, 36.0718], [-118.675, 36.0735], [-118.6742, 36.0739], [-118.6732, 36.0795], [-118.6753, 36.0799], [-118.6741, 36.081], [-118.6736, 36.0827], [-118.6723, 36.0828], [-118.6719, 36.0817], [-118.6707, 36.0818], [-118.6706, 36.083], [-118.6684, 36.0854], [-118.6655, 36.0846], [-118.6647, 36.0855], [-118.6652, 36.0872], [-118.6635, 36.0886], [-118.6619, 36.0877], [-118.6602, 36.0883], [-118.6596, 36.0866], [-118.6586, 36.0858], [-118.658, 36.0861], [-118.6574, 36.0873], [-118.6587, 36.0885], [-118.6582, 36.0895], [-118.6592, 36.0909], [-118.6578, 36.0933], [-118.6586, 36.0955], [-118.654, 36.0951], [-118.652, 36.0961], [-118.65, 36.0991], [-118.6489, 36.0995], [-118.6483, 36.0977], [-118.6476, 36.0993], [-118.6467, 36.0993], [-118.6474, 36.0995], [-118.6467, 36.1006], [-118.6469, 36.1029], [-118.6446, 36.1045], [-118.6424, 36.105], [-118.6403, 36.1072], [-118.6383, 36.1075], [-118.6375, 36.1087], [-118.6351, 36.1094], [-118.6347, 36.1086], [-118.631, 36.109], [-118.63, 36.1077], [-118.628, 36.1082], [-118.6246, 36.1107], [-118.6251, 36.1123], [-118.6233, 36.1126], [-118.6225, 36.1143], [-118.621, 36.1135], [-118.6198, 36.1137], [-118.6183, 36.1165], [-118.6171, 36.1158], [-118.6168, 36.1126]], [[-118.5999, 35.9753], [-118.599, 35.9755], [-118.5993, 35.9763], [-118.5978, 35.9756], [-118.5954, 35.9769], [-118.5949, 35.9761], [-118.5981, 35.9753], [-118.5977, 35.9743], [-118.5968, 35.9749], [-118.5957, 35.9744], [-118.596, 35.9748], [-118.5946, 35.9758], [-118.5934, 35.9754], [-118.5928, 35.9759], [-118.5918, 35.975], [-118.5913, 35.976], [-118.5919, 35.9762], [-118.5909, 35.9765], [-118.5904, 35.978], [-118.5912, 35.978], [-118.5915, 35.979], [-118.5959, 35.9795], [-118.5978, 35.9786], [-118.5982, 35.9772], [-118.5994, 35.9773], [-118.6007, 35.9765], [-118.5999, 35.9753]]], [[[-118.5704, 36.0756], [-118.5692, 36.0746], [-118.5673, 36.0752], [-118.5686, 36.0743], [-118.5671, 36.0736], [-118.5673, 36.0726], [-118.5689, 36.0741], [-118.5699, 36.074], [-118.5696, 36.0749], [-118.5708, 36.0748], [-118.5716, 36.0756], [-118.5704, 36.0756]]], [[[-118.5831, 36.0996], [-118.5782, 36.0985], [-118.5794, 36.098], [-118.578, 36.0968], [-118.5808, 36.0965], [-118.5807, 36.0957], [-118.5798, 36.0957], [-118.581, 36.0956], [-118.5812, 36.0973], [-118.5837, 36.099], [-118.5831, 36.0996]]], [[[-118.5514, 35.8359], [-118.5512, 35.8349], [-118.5515, 35.8347], [-118.5514, 35.8359]]], [[[-118.5312, 35.8439], [-118.5312, 35.8439], [-118.5312, 35.8439], [-118.5312, 35.8439]]], [[[-118.5408, 35.8443], [-118.5411, 35.8443], [-118.5409, 35.8444], [-118.5408, 35.8443]]], [[[-118.5316, 35.8448], [-118.531, 35.844], [-118.531, 35.844], [-118.532, 35.8442], [-118.5316, 35.8448]]], [[[-118.5412, 35.8459], [-118.5414, 35.846], [-118.5412, 35.846], [-118.5412, 35.8459]]], [[[-118.5359, 35.8461], [-118.5366, 35.8457], [-118.5372, 35.8463], [-118.5367, 35.8465], [-118.5359, 35.8461]]], [[[-118.5422, 35.8466], [-118.5421, 35.8471], [-118.542, 35.8469], [-118.5422, 35.8466]]], [[[-118.539, 35.8478], [-118.5388, 35.8479], [-118.5387, 35.8478], [-118.539, 35.8478]]], [[[-118.5349, 35.8492], [-118.5328, 35.8481], [-118.5329, 35.8474], [-118.5333, 35.8477], [-118.5339, 35.8473], [-118.5339, 35.848], [-118.5348, 35.8481], [-118.5349, 35.8492]]], [[[-118.5434, 35.8484], [-118.543, 35.8487], [-118.5434, 35.8484], [-118.5434, 35.8484]]], [[[-118.5304, 35.8499], [-118.5308, 35.8486], [-118.5312, 35.848], [-118.5316, 35.8494], [-118.5304, 35.8499]]], [[[-118.5354, 35.8492], [-118.5359, 35.8499], [-118.5352, 35.8494], [-118.5354, 35.8492]]], [[[-118.5364, 35.8506], [-118.5372, 35.8507], [-118.5364, 35.8509], [-118.5364, 35.8506]]], [[[-118.5316, 35.8543], [-118.5312, 35.8544], [-118.5315, 35.8542], [-118.5316, 35.8543]]], [[[-118.5343, 35.9494], [-118.5348, 35.9498], [-118.5349, 35.9502], [-118.5341, 35.9498], [-118.5343, 35.9494]]], [[[-118.5517, 36.0774], [-118.5513, 36.0754], [-118.5523, 36.076], [-118.5517, 36.0774]]], [[[-118.5371, 36.0906], [-118.5369, 36.0906], [-118.537, 36.0905], [-118.5371, 36.0906]]], [[[-118.5233, 35.8342], [-118.5219, 35.8336], [-118.5223, 35.8324], [-118.5246, 35.8329], [-118.5233, 35.8342]]], [[[-118.5226, 35.843], [-118.5225, 35.8406], [-118.5237, 35.8394], [-118.5249, 35.841], [-118.5239, 35.8415], [-118.5246, 35.8431], [-118.5226, 35.843]]], [[[-118.5263, 35.8427], [-118.5267, 35.8426], [-118.527, 35.8428], [-118.5268, 35.843], [-118.5263, 35.8427]]], [[[-118.5275, 35.8449], [-118.5276, 35.8446], [-118.5279, 35.8449], [-118.5275, 35.8449]]], [[[-118.5271, 35.846], [-118.527, 35.8458], [-118.5272, 35.8459], [-118.5271, 35.846]]], [[[-118.5277, 35.8478], [-118.5282, 35.8476], [-118.528, 35.8483], [-118.5277, 35.8478]]], [[[-118.5233, 35.8491], [-118.523, 35.849], [-118.5233, 35.8489], [-118.5233, 35.8491]]], [[[-118.5293, 35.8531], [-118.5302, 35.853], [-118.5304, 35.8532], [-118.5293, 35.8531]]], [[[-118.5304, 35.8539], [-118.53, 35.8539], [-118.5301, 35.8537], [-118.5304, 35.8539]]], [[[-118.5155, 35.9864], [-118.5149, 35.9865], [-118.5149, 35.9864], [-118.5155, 35.9864]]], [[[-118.5197, 35.9965], [-118.5195, 35.9964], [-118.5197, 35.9964], [-118.5197, 35.9965]]], [[[-118.5207, 36.0039], [-118.5205, 36.0038], [-118.5206, 36.0037], [-118.5207, 36.0039]]], [[[-118.5171, 36.0128], [-118.517, 36.0133], [-118.5166, 36.0134], [-118.5171, 36.0128]]], [[[-118.5078, 36.0368], [-118.5084, 36.0365], [-118.5085, 36.0368], [-118.5078, 36.0368]]], [[[-118.5025, 36.0453], [-118.502, 36.0459], [-118.5019, 36.0457], [-118.5025, 36.0453]]], [[[-118.5008, 36.0487], [-118.5003, 36.0483], [-118.5008, 36.0482], [-118.5008, 36.0487]]], [[[-118.5101, 36.0901], [-118.5099, 36.0901], [-118.5099, 36.09], [-118.5101, 36.0901]]]]}, "properties": {"layer": "perimeter"}}, {"type": "Feature", "geometry": {"type": "MultiPolygon", "coordinates": [[[[-118.6379, 35.8839], [-118.6387, 35.8834], [-118.6388, 35.8838], [-118.6379, 35.8839]]], [[[-118.4845, 36.0675], [-118.4836, 36.0668], [-118.4845, 36.066], [-118.4845, 36.0675]]], [[[-118.5229, 36.0052], [-118.5233, 36.0014], [-118.5273, 36.0016], [-118.5272, 36.0054], [-118.5229, 36.0052]]], [[[-118.5228, 36.0013], [-118.5213, 35.9984], [-118.5219, 35.9983], [-118.5221, 35.9962], [-118.5219, 35.9958], [-118.5188, 35.9961], [-118.5188, 35.9939], [-118.5229, 35.994], [-118.5228, 36.0013]]], [[[-118.5321, 35.9762], [-118.5352, 35.9773], [-118.536, 35.9764], [-118.5369, 35.9769], [-118.5379, 35.9759], [-118.5406, 35.9778], [-118.5412, 35.9767], [-118.542, 35.9772], [-118.5422, 35.9748], [-118.5416, 35.9745], [-118.5426, 35.971], [-118.5422, 35.9694], [-118.5406, 35.9683], [-118.5377, 35.969], [-118.5377, 35.9699], [-118.5351, 35.97], [-118.5354, 35.9691], [-118.5372, 35.9687], [-118.5353, 35.9681], [-118.536, 35.966], [-118.5349, 35.9643], [-118.5338, 35.9645], [-118.5334, 35.9656], [-118.5328, 35.9656], [-118.5327, 35.9649], [-118.5317, 35.9647], [-118.5334, 35.9641], [-118.5328, 35.964], [-118.5533, 35.9643], [-118.5597, 35.9656], [-118.5571, 35.9675], [-118.554, 35.9675], [-118.5475, 35.97], [-118.5478, 35.9712], [-118.5504, 35.9737], [-118.555, 35.9732], [-118.5512, 35.9781], [-118.5499, 35.9776], [-118.548, 35.9778], [-118.5468, 35.9771], [-118.5454, 35.9776], [-118.5453, 35.9788], [-118.5464, 35.9795], [-118.5491, 35.9796], [-118.5491, 35.9868], [-118.5364, 35.9866], [-118.5363, 35.983], [-118.5321, 35.9829], [-118.5321, 35.9762]]], [[[-118.6142, 35.8339], [-118.6149, 35.8356], [-118.6167, 35.8365], [-118.6142, 35.8366], [-118.6143, 35.8356], [-118.6133, 35.8356], [-118.6134, 35.8338], [-118.6142, 35.8339]]], [[[-118.6299, 35.8695], [-118.6283, 35.8728], [-118.6291, 35.8732], [-118.6282, 35.8732], [-118.6281, 35.8695], [-118.6299, 35.8695]]], [[[-118.6301, 35.8731], [-118.6304, 35.8731], [-118.6301, 35.8731], [-118.6301, 35.8731]]], [[[-118.6327, 35.8735], [-118.6327, 35.8744], [-118.6326, 35.8747], [-118.6327, 35.8735]]], [[[-118.6303, 35.8852], [-118.6326, 35.8849], [-118.6329, 35.8857], [-118.6302, 35.886], [-118.6303, 35.8852]]], [[[-118.6324, 35.8862], [-118.6324, 35.8862], [-118.6324, 35.8862], [-118.6324, 35.8862]]], [[[-118.6368, 35.8895], [-118.6369, 35.8894], [-118.6369, 35.8895], [-118.6368, 35.8895]]], [[[-118.6394, 35.8916], [-118.6395, 35.8894], [-118.6397, 35.8903], [-118.6411, 35.89], [-118.6414, 35.8906], [-118.6394, 35.8916]]], [[[-118.6811, 35.9359], [-118.6823, 35.9359], [-118.6828, 35.9343], [-118.6847, 35.9339], [-118.6845, 35.9329], [-118.6863, 35.9319], [-118.688, 35.9329], [-118.6902, 35.9317], [-118.6901, 35.9345], [-118.6856, 35.9345], [-118.6856, 35.9417], [-118.6809, 35.9417], [-118.6811, 35.9359]]], [[[-118.6923, 35.9274], [-118.6979, 35.9254], [-118.7, 35.9267], [-118.7009, 35.9288], [-118.6993, 35.9291], [-118.6994, 35.9273], [-118.6923, 35.9274]]], [[[-118.6992, 35.9343], [-118.6999, 35.9355], [-118.7015, 35.9343], [-118.702, 35.9359], [-118.7036, 35.9359], [-118.7053, 35.9368], [-118.7047, 35.9377], [-118.7054, 35.9407], [-118.7048, 35.944], [-118.7006, 35.9453], [-118.702, 35.9472], [-118.7001, 35.948], [-118.6991, 35.9502], [-118.7004, 35.9517], [-118.7003, 35.9535], [-118.7013, 35.9545], [-118.702, 35.9542], [-118.703, 35.9563], [-118.699, 35.9563], [-118.6992, 35.9343]]], [[[-118.7057, 35.9563], [-118.7072, 35.956], [-118.7079, 35.9562], [-118.7084, 35.9564], [-118.7086, 35.9566], [-118.7081, 35.9592], [-118.7081, 35.9563], [-118.7057, 35.9563]]], [[[-118.7035, 35.9617], [-118.7085, 35.9619], [-118.7067, 35.9637], [-118.7052, 35.9628], [-118.7046, 35.965], [-118.7036, 35.965], [-118.7035, 35.9617]]], [[[-118.7081, 35.968], [-118.7081, 35.968], [-118.7081, 35.968], [-118.7081, 35.968]]], [[[-118.7081, 35.969], [-118.7099, 35.9682], [-118.7121, 35.969], [-118.7081, 35.969]]], [[[-118.7121, 35.969], [-118.7124, 35.9689], [-118.7126, 35.969], [-118.7121, 35.969]]], [[[-118.7127, 35.969], [-118.7135, 35.9682], [-118.7165, 35.9712], [-118.7186, 35.9717], [-118.7127, 35.9723], [-118.7127, 35.969]]], [[[-118.6384, 36.1067], [-118.6373, 36.1088], [-118.6351, 36.1094], [-118.6347, 36.1086], [-118.6339, 36.1088], [-118.6339, 36.1068], [-118.6384, 36.1067]]], [[[-118.6264, 36.1088], [-118.6254, 36.1102], [-118.625, 36.1103], [-118.625, 36.1088], [-118.6264, 36.1088]]], [[[-118.5197, 35.9965], [-118.5195, 35.9964], [-118.5197, 35.9964], [-118.5197, 35.9965]]], [[[-118.5207, 36.0039], [-118.5205, 36.0038], [-118.5206, 36.0037], [-118.5207, 36.0039]]], [[[-118.6009, 35.8402], [-118.6011, 35.8357], [-118.6067, 35.8356], [-118.6065, 35.841], [-118.6053, 35.841], [-118.6054, 35.8402], [-118.6009, 35.8402]]], [[[-118.6009, 35.8402], [-118.6006, 35.8474], [-118.5962, 35.8474], [-118.5964, 35.8402], [-118.6009, 35.8402]]], [[[-118.5657, 35.8668], [-118.5656, 35.863], [-118.5701, 35.863], [-118.5701, 35.8593], [-118.5745, 35.8593], [-118.5745, 35.8668], [-118.5657, 35.8668]]], [[[-118.5438, 35.875], [-118.5393, 35.8749], [-118.5396, 35.863], [-118.5525, 35.8631], [-118.5526, 35.867], [-118.5482, 35.8669], [-118.5482, 35.8711], [-118.5438, 35.8711], [-118.5438, 35.875]]], [[[-118.5527, 35.8777], [-118.5482, 35.8777], [-118.5482, 35.8751], [-118.5527, 35.8752], [-118.5527, 35.8777]]], [[[-118.5608, 35.8886], [-118.5605, 35.8922], [-118.5649, 35.8922], [-118.5643, 35.8993], [-118.5599, 35.8993], [-118.5602, 35.8958], [-118.5558, 35.8958], [-118.5564, 35.8886], [-118.5608, 35.8886]]]]}, "properties": {"layer": "retained"}}, {"type": "Feature", "geometry": {"type": "MultiPolygon", "coordinates": [[[[-118.5541, 35.9737], [-118.5551, 35.9731], [-118.5545, 35.9729], [-118.5541, 35.9737]]], [[[-118.5493, 35.9663], [-118.5509, 35.9658], [-118.5493, 35.966], [-118.5493, 35.9663]]], [[[-118.5419, 35.9662], [-118.5429, 35.9665], [-118.543, 35.9654], [-118.5419, 35.9662]]], [[[-118.5573, 35.9667], [-118.5579, 35.9664], [-118.5576, 35.9651], [-118.5546, 35.9648], [-118.5543, 35.9658], [-118.5529, 35.9655], [-118.5529, 35.9661], [-118.5559, 35.9656], [-118.5573, 35.9667]], [[-118.5563, 35.965], [-118.5556, 35.9653], [-118.5556, 35.965], [-118.5563, 35.965]]], [[[-118.5436, 35.9654], [-118.5436, 35.9641], [-118.5423, 35.9641], [-118.543, 35.9654], [-118.5436, 35.9654]]], [[[-118.542, 35.9651], [-118.5417, 35.9641], [-118.541, 35.964], [-118.541, 35.9649], [-118.542, 35.9651]]], [[[-118.5642, 35.8992], [-118.5622, 35.8979], [-118.5626, 35.8968], [-118.5612, 35.8971], [-118.5615, 35.8992], [-118.5642, 35.8992]]], [[[-118.5646, 35.8939], [-118.565, 35.8922], [-118.562, 35.8922], [-118.563, 35.8933], [-118.5636, 35.893], [-118.5636, 35.8938], [-118.5646, 35.8939]]], [[[-118.5573, 35.8951], [-118.558, 35.8935], [-118.5593, 35.8938], [-118.5596, 35.8927], [-118.5606, 35.893], [-118.5613, 35.8925], [-118.5603, 35.8916], [-118.5607, 35.8887], [-118.5564, 35.8886], [-118.557, 35.8897], [-118.5564, 35.8897], [-118.5559, 35.8946], [-118.5573, 35.8951]], [[-118.5593, 35.8916], [-118.5587, 35.8922], [-118.5583, 35.8913], [-118.5593, 35.8916]], [[-118.5577, 35.8921], [-118.5567, 35.8921], [-118.5567, 35.8919], [-118.5573, 35.8916], [-118.5577, 35.8921]], [[-118.5597, 35.8914], [-118.5593, 35.8916], [-118.5593, 35.8914], [-118.5597, 35.8914]], [[-118.56, 35.8914], [-118.5597, 35.8906], [-118.5584, 35.8903], [-118.559, 35.8889], [-118.5594, 35.8895], [-118.5597, 35.8895], [-118.5597, 35.8892], [-118.56, 35.8892], [-118.56, 35.8914]], [[-118.5583, 35.8908], [-118.5577, 35.8913], [-118.5577, 35.8905], [-118.558, 35.8905], [-118.5583, 35.8908]], [[-118.559, 35.8905], [-118.5587, 35.8908], [-118.5587, 35.8905], [-118.559, 35.8905]], [[-118.5584, 35.8903], [-118.558, 35.8905], [-118.558, 35.8903], [-118.5584, 35.8903]], [[-118.5604, 35.8889], [-118.56, 35.8892], [-118.56, 35.8889], [-118.5604, 35.8889]]], [[[-118.5675, 35.8658], [-118.5685, 35.8655], [-118.5685, 35.8647], [-118.5671, 35.8653], [-118.5675, 35.8658]]], [[[-118.5525, 35.867], [-118.5525, 35.8632], [-118.5522, 35.8632], [-118.5512, 35.8664], [-118.5525, 35.867]]], [[[-118.5502, 35.864], [-118.5512, 35.8632], [-118.5502, 35.8632], [-118.5502, 35.864]]], [[[-118.5735, 35.8624], [-118.5739, 35.8613], [-118.5732, 35.861], [-118.5745, 35.8613], [-118.5746, 35.8599], [-118.5742, 35.8594], [-118.5719, 35.8594], [-118.5719, 35.861], [-118.5729, 35.8613], [-118.5725, 35.8621], [-118.5735, 35.8624]], [[-118.5735, 35.8618], [-118.5732, 35.8621], [-118.5732, 35.8618], [-118.5735, 35.8618]]], [[[-118.6029, 35.8403], [-118.6035, 35.8395], [-118.6009, 35.8395], [-118.6009, 35.8403], [-118.6029, 35.8403]]], [[[-118.6065, 35.8409], [-118.6065, 35.839], [-118.6059, 35.8387], [-118.6052, 35.8398], [-118.6059, 35.8398], [-118.6055, 35.8409], [-118.6065, 35.8409]]]]}, "properties": {"layer": "high_severity"}}, {"type": "Feature", "geometry": {"type": "Polygon", "coordinates": [[[-118.5566, 35.8929], [-118.5573, 35.8935], [-118.5573, 35.893], [-118.5566, 35.8929]]]}, "properties": {"layer": "interior"}}, {"type": "Feature", "geometry": {"type": "Polygon", "coordinates": [[[-118.6062, 35.8409], [-118.6065, 35.8406], [-118.6062, 35.8406], [-118.6062, 35.8409]]]}, "properties": {"layer": "cell", "cell_id": "540_5500", "seed_zone": "540", "elevation_band": "5500–6000 ft"}}, {"type": "Feature", "geometry": {"type": "Polygon", "coordinates": [[[-118.5546, 35.965], [-118.5553, 35.9648], [-118.5546, 35.9648], [-118.5546, 35.965]]]}, "properties": {"layer": "cell", "cell_id": "550_5000", "seed_zone": "550", "elevation_band": "5000–5500 ft"}}, {"type": "Feature", "geometry": {"type": "Polygon", "coordinates": [[[-118.5563, 35.891], [-118.5567, 35.8905], [-118.5564, 35.8905], [-118.5563, 35.891]]]}, "properties": {"layer": "cell", "cell_id": "550_6500", "seed_zone": "550", "elevation_band": "6500–7000 ft"}}, {"type": "Feature", "geometry": {"type": "Polygon", "coordinates": [[[-118.5566, 35.8929], [-118.5573, 35.8935], [-118.5573, 35.893], [-118.5566, 35.8929]]]}, "properties": {"layer": "cell", "cell_id": "550_7000", "seed_zone": "550", "elevation_band": "7000–7500 ft"}}]}
