{"type": "FeatureCollection", "features": [{"type": "Feature", "geometry": {"type": "Polygon", "coordinates": [[[-119.6008, 37.876], [-119.6011, 37.8749], [-119.6079, 37.8702], [-119.6113, 37.8712], [-119.6134, 37.8695], [-119.6134, 37.8688], [-119.6157, 37.868], [-119.6165, 37.8685], [-119.6175, 37.867], [-119.621, 37.8663], [-119.6213, 37.8649], [-119.6228, 37.865], [-119.6252, 37.8656], [-119.6257, 37.8677], [-119.6287, 37.8678], [-119.6307, 37.8693], [-119.6332, 37.8696], [-119.6344, 37.8719], [-119.6368, 37.8716], [-119.637, 37.8764], [-119.6404, 37.8774], [-119.6408, 37.8787], [-119.6434, 37.8802], [-119.6438, 37.8821], [-119.645, 37.8822], [-119.6444, 37.883], [-119.6454, 37.8849], [-119.6451, 37.8861], [-119.6408, 37.8873], [-119.6392, 37.8909], [-119.6367, 37.8911], [-119.6343, 37.892], [-119.6338, 37.8929], [-119.6322, 37.8925], [-119.6313, 37.8932], [-119.6318, 37.8937], [-119.6303, 37.8947], [-119.6341, 37.8953], [-119.6355, 37.8966], [-119.6343, 37.8992], [-119.6284, 37.8972], [-119.626, 37.8953], [-119.6222, 37.8937], [-119.6107, 37.8919], [-119.6068, 37.8921], [-119.6071, 37.8904], [-119.6112, 37.8889], [-119.6127, 37.8863], [-119.6151, 37.8846], [-119.6157, 37.8826], [-119.614, 37.8803], [-119.608, 37.8812], [-119.6064, 37.8808], [-119.6043, 37.8843], [-119.6034, 37.884], [-119.604, 37.884], [-119.6032, 37.8832], [-119.6037, 37.8826], [-119.6009, 37.881], [-119.6003, 37.8823], [-119.5994, 37.8825], [-119.598, 37.8811], [-119.5985, 37.8799], [-119.5971, 37.8779], [-119.5991, 37.8762], [-119.6008, 37.876]]]}, "properties": {"layer": "perimeter"}}]}
