{"type": "FeatureCollection", "features": [{"type": "Feature", "geometry": {"type": "Polygon", "coordinates": [[[-122.8307, 38.0519], [-122.8286, 38.053], [-122.8231, 38.0532], [-122.8209, 38.0547], [-122.8196, 38.0543], [-122.8193, 38.0518], [-122.8161, 38.052], [-122.8144, 38.0529], [-122.8129, 38.0526], [-122.8095, 38.0486], [-122.8079, 38.0485], [-122.8052, 38.0469], [-122.804, 38.0473], [-122.8032, 38.0404], [-122.801, 38.0378], [-122.7999, 38.0379], [-122.8021, 38.0339], [-122.8019, 38.0329], [-122.8003, 38.0329], [-122.8004, 38.0322], [-122.8021, 38.0318], [-122.8028, 38.0295], [-122.7992, 38.0238], [-122.7995, 38.0217], [-122.8013, 38.0198], [-122.8004, 38.0171], [-122.8014, 38.0127], [-122.7971, 38.0072], [-122.7965, 38.0015], [-122.7973, 38.0], [-122.7988, 37.9994], [-122.8009, 37.9999], [-122.8015, 37.9995], [-122.8014, 38.0004], [-122.8, 38.0012], [-122.8067, 38.0032], [-122.8082, 38.0022], [-122.8076, 38.0009], [-122.8083, 38.0005], [-122.8074, 37.9993], [-122.8085, 37.9978], [-122.8098, 37.998], [-122.8102, 37.9967], [-122.8117, 37.9964], [-122.8118, 37.9952], [-122.8144, 37.995], [-122.8136, 37.9943], [-122.815, 37.9939], [-122.818, 37.997], [-122.8193, 37.9959], [-122.8198, 37.9975], [-122.8205, 37.9968], [-122.8221, 37.9972], [-122.8243, 37.9983], [-122.8249, 37.9999], [-122.8274, 37.9987], [-122.8281, 38.0007], [-122.8304, 38.0022], [-122.8307, 38.003], [-122.8358, 38.0053], [-122.8409, 38.009], [-122.8455, 38.0107], [-122.8461, 38.0119], [-122.8488, 38.0126], [-122.8526, 38.0153], [-122.8507, 38.0161], [-122.8491, 38.0157], [-122.8474, 38.018], [-122.8471, 38.0211], [-122.8478, 38.0223], [-122.846, 38.0228], [-122.8469, 38.0232], [-122.8464, 38.0247], [-122.8482, 38.0249], [-122.8461, 38.0259], [-122.8464, 38.0263], [-122.8443, 38.0264], [-122.8438, 38.0272], [-122.8445, 38.0289], [-122.8421, 38.0293], [-122.8418, 38.0297], [-122.8433, 38.0304], [-122.8419, 38.0305], [-122.8415, 38.032], [-122.8401, 38.0317], [-122.8399, 38.0333], [-122.8427, 38.0349], [-122.8404, 38.0355], [-122.8399, 38.0348], [-122.8388, 38.0359], [-122.838, 38.0358], [-122.8378, 38.0365], [-122.8388, 38.0376], [-122.8376, 38.0375], [-122.8377, 38.0384], [-122.8369, 38.0384], [-122.8375, 38.0409], [-122.8364, 38.0432], [-122.8352, 38.0439], [-122.8347, 38.0457], [-122.8329, 38.0466], [-122.8308, 38.0465], [-122.8294, 38.045], [-122.8304, 38.0439], [-122.8292, 38.0435], [-122.829, 38.0425], [-122.8259, 38.0447], [-122.8259, 38.0482], [-122.8268, 38.0496], [-122.8307, 38.0519]], [[-122.8231, 38.0351], [-122.8223, 38.0351], [-122.8222, 38.0361], [-122.8213, 38.0346], [-122.8203, 38.0347], [-122.8224, 38.0371], [-122.8229, 38.0366], [-122.824, 38.0368], [-122.8231, 38.0351]], [[-122.8255, 38.0341], [-122.8251, 38.0347], [-122.826, 38.036], [-122.8239, 38.0379], [-122.8261, 38.0389], [-122.8271, 38.0372], [-122.826, 38.0368], [-122.8276, 38.0351], [-122.8267, 38.0342], [-122.8255, 38.0341]]]}, "properties": {"layer": "perimeter"}}, {"type": "Feature", "geometry": {"type": "MultiPolygon", "coordinates": [[[[-122.8021, 38.0339], [-122.8019, 38.0329], [-122.8003, 38.0329], [-122.8004, 38.0322], [-122.8021, 38.0318], [-122.8025, 38.0311], [-122.8024, 38.0303], [-122.8026, 38.0298], [-122.8028, 38.0321], [-122.8021, 38.0339]]], [[[-122.8028, 38.0295], [-122.8028, 38.029], [-122.8024, 38.0284], [-122.8031, 38.0289], [-122.8028, 38.0295]]], [[[-122.8024, 38.0284], [-122.8021, 38.0283], [-122.802, 38.0282], [-122.8024, 38.0284]]], [[[-122.8016, 38.0276], [-122.8012, 38.0271], [-122.8012, 38.027], [-122.8016, 38.0276]]], [[[-122.8011, 38.0269], [-122.8007, 38.0265], [-122.8007, 38.0262], [-122.8011, 38.0269]]], [[[-122.8006, 38.0258], [-122.7994, 38.0247], [-122.7992, 38.0239], [-122.8003, 38.0247], [-122.8006, 38.0258]]], [[[-122.8004, 38.0155], [-122.8006, 38.0142], [-122.8008, 38.0139], [-122.8004, 38.0155]]], [[[-122.7998, 38.0101], [-122.7971, 38.0072], [-122.7969, 38.0061], [-122.7991, 38.0087], [-122.7998, 38.0101]]], [[[-122.7969, 38.0061], [-122.7965, 38.0055], [-122.7965, 38.0051], [-122.7969, 38.0061]]], [[[-122.7967, 38.0041], [-122.7965, 38.0034], [-122.7968, 38.0027], [-122.7969, 38.0037], [-122.7967, 38.0041]]], [[[-122.7969, 38.0019], [-122.7965, 38.0015], [-122.7967, 38.001], [-122.7969, 38.0019]]]]}, "properties": {"layer": "retained"}}]}
