{"type": "FeatureCollection", "features": [{"type": "Feature", "geometry": {"type": "MultiPolygon", "coordinates": [[[[-118.8043, 34.0199], [-118.805, 34.0189], [-118.8043, 34.0189], [-118.8046, 34.0178], [-118.8033, 34.0149], [-118.8011, 34.0153], [-118.8007, 34.0146], [-118.8006, 34.0158], [-118.7989, 34.0153], [-118.7993, 34.0144], [-118.8018, 34.0139], [-118.802, 34.0144], [-118.8023, 34.014], [-118.8036, 34.0144], [-118.8057, 34.0136], [-118.8055, 34.0145], [-118.8072, 34.0152], [-118.8079, 34.0142], [-118.807, 34.0139], [-118.8077, 34.0116], [-118.8069, 34.0111], [-118.8079, 34.0103], [-118.8074, 34.0099], [-118.8083, 34.0095], [-118.809, 34.0072], [-118.8094, 34.0076], [-118.8106, 34.0071], [-118.8099, 34.0091], [-118.8088, 34.0088], [-118.8088, 34.0102], [-118.8081, 34.0102], [-118.8087, 34.0112], [-118.8094, 34.0104], [-118.8106, 34.0109], [-118.8113, 34.0101], [-118.8113, 34.0109], [-118.8123, 34.0113], [-118.8135, 34.0096], [-118.8146, 34.0104], [-118.8155, 34.0098], [-118.8146, 34.0094], [-118.8146, 34.0084], [-118.8172, 34.0119], [-118.814, 34.0124], [-118.8127, 34.0142], [-118.8116, 34.0132], [-118.8116, 34.018], [-118.811, 34.0183], [-118.8103, 34.0167], [-118.8092, 34.0169], [-118.8099, 34.0182], [-118.8092, 34.0189], [-118.8079, 34.0189], [-118.8088, 34.0193], [-118.8082, 34.022], [-118.8047, 34.022], [-118.8043, 34.0199]]], [[[-118.8175, 34.0234], [-118.8153, 34.0234], [-118.815, 34.0227], [-118.8167, 34.0221], [-118.8166, 34.0209], [-118.8173, 34.0219], [-118.8165, 34.0229], [-118.8178, 34.023], [-118.8189, 34.0244], [-118.8175, 34.0234]]], [[[-118.839, 34.0282], [-118.8374, 34.0274], [-118.8374, 34.0269], [-118.839, 34.0282]]], [[[-118.8409, 34.0327], [-118.8405, 34.0322], [-118.8411, 34.0326], [-118.8409, 34.0327]]], [[[-118.9529, 34.0487], [-118.9531, 34.0487], [-118.953, 34.0488], [-118.9529, 34.0487]]], [[[-118.9528, 34.049], [-118.953, 34.049], [-118.953, 34.0491], [-118.9528, 34.049]]], [[[-118.9544, 34.049], [-118.9547, 34.049], [-118.9546, 34.0491], [-118.9544, 34.049]]], [[[-118.9551, 34.0492], [-118.955, 34.0492], [-118.955, 34.0491], [-118.9551, 34.0492]]], [[[-118.9667, 34.0549], [-118.9664, 34.055], [-118.9666, 34.0548], [-118.9667, 34.0549]]], [[[-118.968, 34.0875], [-118.9659, 34.0897], [-118.9613, 34.0901], [-118.9603, 34.0897], [-118.9599, 34.0905], [-118.9603, 34.0921], [-118.958, 34.0953], [-118.9598, 34.099], [-118.9581, 34.0999], [-118.9596, 34.1008], [-118.959, 34.102], [-118.9599, 34.1041], [-118.9633, 34.1058], [-118.9661, 34.1046], [-118.9669, 34.1052], [-118.9681, 34.1039], [-118.9707, 34.1035], [-118.9745, 34.1013], [-118.9751, 34.0998], [-118.9766, 34.0994], [-118.9759, 34.0984], [-118.9788, 34.0978], [-118.9774, 34.0977], [-118.9768, 34.0966], [-118.9786, 34.0935], [-118.9786, 34.0959], [-118.9799, 34.0939], [-118.9797, 34.096], [-118.9815, 34.0961], [-118.9846, 34.0947], [-118.985, 34.096], [-118.9842, 34.0967], [-118.9855, 34.0977], [-118.9863, 34.0974], [-118.9865, 34.0983], [-118.9875, 34.0983], [-118.9872, 34.0996], [-118.9852, 34.1017], [-118.9814, 34.1013], [-118.978, 34.1034], [-118.9773, 34.1041], [-118.9777, 34.1051], [-118.9771, 34.1047], [-118.9763, 34.1059], [-118.977, 34.1069], [-118.9743, 34.1092], [-118.9804, 34.111], [-118.9824, 34.1107], [-118.9837, 34.1089], [-118.9866, 34.1083], [-118.9883, 34.1091], [-118.9881, 34.1111], [-118.9903, 34.1116], [-118.9912, 34.1128], [-118.9968, 34.1116], [-118.9973, 34.113], [-118.9956, 34.1132], [-118.9957, 34.1158], [-118.9974, 34.117], [-118.9962, 34.1171], [-118.9945, 34.1188], [-118.9933, 34.1189], [-118.9926, 34.1205], [-118.9887, 34.1206], [-118.987, 34.1222], [-118.9838, 34.1224], [-118.9845, 34.1232], [-118.9832, 34.1235], [-118.9832, 34.1225], [-118.9817, 34.1219], [-118.9794, 34.1221], [-118.9767, 34.1204], [-118.9675, 34.1221], [-118.9649, 34.1204], [-118.9621, 34.1203], [-118.9591, 34.1192], [-118.9592, 34.1182], [-118.9552, 34.1191], [-118.9548, 34.1181], [-118.954, 34.118], [-118.9537, 34.1228], [-118.9528, 34.125], [-118.9487, 34.1253], [-118.9466, 34.1242], [-118.9462, 34.1254], [-118.9442, 34.1264], [-118.9434, 34.1249], [-118.9405, 34.1266], [-118.9361, 34.1274], [-118.9357, 34.1294], [-118.935, 34.1291], [-118.9329, 34.1303], [-118.929, 34.1306], [-118.9285, 34.1296], [-118.9219, 34.1283], [-118.9187, 34.1266], [-118.9159, 34.1262], [-118.9172, 34.1245], [-118.9155, 34.124], [-118.9146, 34.1225], [-118.9137, 34.1225], [-118.9113, 34.1201], [-118.9114, 34.1181], [-118.9093, 34.1173], [-118.9098, 34.1162], [-118.9116, 34.1156], [-118.9104, 34.1147], [-118.9109, 34.1142], [-118.9127, 34.1133], [-118.9123, 34.1102], [-118.9138, 34.1092], [-118.914, 34.1076], [-118.9127, 34.1078], [-118.9084, 34.1063], [-118.9072, 34.1081], [-118.9077, 34.1085], [-118.9063, 34.1089], [-118.9038, 34.1067], [-118.9014, 34.1068], [-118.9007, 34.106], [-118.8967, 34.1073], [-118.8962, 34.1063], [-118.8941, 34.107], [-118.8893, 34.1063], [-118.8832, 34.103], [-118.8809, 34.1025], [-118.8805, 34.1014], [-118.8766, 34.1007], [-118.8756, 34.1013], [-118.876, 34.103], [-118.8752, 34.1037], [-118.8742, 34.103], [-118.8731, 34.1032], [-118.871, 34.105], [-118.8685, 34.1037], [-118.8682, 34.1045], [-118.8668, 34.104], [-118.8662, 34.1057], [-118.8636, 34.1064], [-118.863, 34.1081], [-118.864, 34.1106], [-118.8604, 34.1096], [-118.8597, 34.1106], [-118.8601, 34.1115], [-118.8614, 34.1117], [-118.8611, 34.1126], [-118.8653, 34.1129], [-118.8653, 34.114], [-118.8644, 34.1139], [-118.8643, 34.1146], [-118.8622, 34.1143], [-118.8615, 34.1153], [-118.8581, 34.1143], [-118.8573, 34.1151], [-118.8561, 34.1145], [-118.8561, 34.1137], [-118.855, 34.114], [-118.8544, 34.1149], [-118.8548, 34.1164], [-118.8536, 34.1161], [-118.8523, 34.1176], [-118.8534, 34.1183], [-118.8545, 34.1214], [-118.8524, 34.1211], [-118.8526, 34.1201], [-118.8516, 34.1202], [-118.8523, 34.1216], [-118.8514, 34.1221], [-118.8507, 34.1216], [-118.8508, 34.1225], [-118.852, 34.1222], [-118.8521, 34.1231], [-118.8514, 34.1239], [-118.85, 34.1236], [-118.8502, 34.1242], [-118.8489, 34.1242], [-118.8492, 34.1252], [-118.85, 34.1254], [-118.8494, 34.1264], [-118.8475, 34.1259], [-118.8464, 34.1268], [-118.8448, 34.1256], [-118.841, 34.1262], [-118.8416, 34.1276], [-118.8405, 34.1267], [-118.8391, 34.1283], [-118.84, 34.1294], [-118.8388, 34.1305], [-118.8394, 34.1319], [-118.8384, 34.1335], [-118.8362, 34.1339], [-118.836, 34.1327], [-118.8353, 34.1328], [-118.8356, 34.1349], [-118.8336, 34.1352], [-118.833, 34.1361], [-118.8315, 34.136], [-118.8315, 34.1368], [-118.8301, 34.1364], [-118.8301, 34.1348], [-118.8292, 34.1348], [-118.8289, 34.1334], [-118.8276, 34.1338], [-118.8276, 34.1327], [-118.8264, 34.1336], [-118.8253, 34.1329], [-118.8247, 34.1333], [-118.8216, 34.1314], [-118.8218, 34.1306], [-118.8206, 34.131], [-118.8167, 34.1301], [-118.8145, 34.1305], [-118.8147, 34.1312], [-118.8136, 34.1314], [-118.8136, 34.1306], [-118.8121, 34.1303], [-118.8112, 34.1312], [-118.812, 34.1328], [-118.8221, 34.1322], [-118.8219, 34.1333], [-118.8183, 34.134], [-118.8213, 34.1356], [-118.8223, 34.1357], [-118.8224, 34.1351], [-118.8227, 34.1368], [-118.8201, 34.1369], [-118.8199, 34.1352], [-118.8168, 34.135], [-118.8171, 34.1346], [-118.8151, 34.1352], [-118.8092, 34.1351], [-118.8073, 34.1358], [-118.8069, 34.1364], [-118.8102, 34.1361], [-118.81, 34.1375], [-118.8077, 34.1397], [-118.8079, 34.1408], [-118.8058, 34.1409], [-118.8059, 34.1415], [-118.8039, 34.1424], [-118.8047, 34.1437], [-118.8039, 34.1438], [-118.8031, 34.1426], [-118.8016, 34.1425], [-118.798, 34.1435], [-118.7976, 34.142], [-118.7964, 34.1429], [-118.7952, 34.1423], [-118.7925, 34.1445], [-118.7886, 34.1438], [-118.7867, 34.1442], [-118.784, 34.1436], [-118.7825, 34.1425], [-118.7812, 34.1439], [-118.7786, 34.1438], [-118.7775, 34.1427], [-118.7765, 34.1434], [-118.775, 34.1423], [-118.774, 34.1431], [-118.7705, 34.1432], [-118.7696, 34.1442], [-118.7707, 34.1448], [-118.7698, 34.145], [-118.7647, 34.1429], [-118.7628, 34.143], [-118.757, 34.1341], [-118.7572, 34.1326], [-118.7613, 34.1311], [-118.7629, 34.1313], [-118.7625, 34.1307], [-118.7635, 34.1304], [-118.7656, 34.1303], [-118.7662, 34.131], [-118.767, 34.1303], [-118.7716, 34.13], [-118.7635, 34.1275], [-118.7575, 34.1266], [-118.7576, 34.1259], [-118.7586, 34.1263], [-118.7595, 34.1254], [-118.7585, 34.124], [-118.7565, 34.1243], [-118.7555, 34.1256], [-118.7536, 34.1262], [-118.7522, 34.1262], [-118.7519, 34.1255], [-118.7512, 34.1264], [-118.7504, 34.1259], [-118.7498, 34.1266], [-118.7476, 34.1264], [-118.7439, 34.1275], [-118.7443, 34.1283], [-118.7432, 34.1291], [-118.7453, 34.1306], [-118.7466, 34.1303], [-118.7469, 34.1296], [-118.7491, 34.1308], [-118.7503, 34.1303], [-118.7504, 34.1309], [-118.7521, 34.1314], [-118.7506, 34.1302], [-118.7509, 34.1294], [-118.7527, 34.1312], [-118.7534, 34.1331], [-118.753, 34.1344], [-118.754, 34.1347], [-118.7542, 34.1359], [-118.7562, 34.1372], [-118.7575, 34.1357], [-118.7562, 34.1349], [-118.7546, 34.1322], [-118.7533, 34.1323], [-118.7531, 34.1319], [-118.7539, 34.1315], [-118.7536, 34.1301], [-118.7543, 34.1299], [-118.7556, 34.1303], [-118.7538, 34.1304], [-118.7544, 34.1319], [-118.7553, 34.1328], [-118.7567, 34.1328], [-118.7568, 34.1341], [-118.7619, 34.1422], [-118.7599, 34.1424], [-118.7581, 34.1414], [-118.757, 34.1418], [-118.7561, 34.1433], [-118.7556, 34.1421], [-118.7547, 34.1424], [-118.7543, 34.1416], [-118.7534, 34.1419], [-118.7535, 34.1425], [-118.7515, 34.1423], [-118.75, 34.1403], [-118.7472, 34.1394], [-118.746, 34.14], [-118.7455, 34.139], [-118.7446, 34.1393], [-118.7433, 34.1387], [-118.741, 34.1398], [-118.7396, 34.1394], [-118.7387, 34.1383], [-118.737, 34.1392], [-118.7321, 34.1378], [-118.7313, 34.1389], [-118.7345, 34.1409], [-118.7367, 34.1411], [-118.7369, 34.1416], [-118.7355, 34.142], [-118.7297, 34.1383], [-118.7246, 34.1377], [-118.7263, 34.1372], [-118.726, 34.1365], [-118.7266, 34.1358], [-118.7282, 34.1361], [-118.7286, 34.1332], [-118.7282, 34.1315], [-118.7268, 34.1315], [-118.7271, 34.1306], [-118.7263, 34.1308], [-118.7261, 34.1288], [-118.7252, 34.1282], [-118.7255, 34.1276], [-118.7261, 34.1279], [-118.7267, 34.1259], [-118.7258, 34.1261], [-118.7248, 34.1253], [-118.7242, 34.1253], [-118.7239, 34.1266], [-118.721, 34.1272], [-118.7219, 34.1285], [-118.7204, 34.1297], [-118.7217, 34.1311], [-118.7205, 34.1319], [-118.7199, 34.1321], [-118.7192, 34.1319], [-118.72, 34.1314], [-118.7195, 34.129], [-118.7156, 34.1291], [-118.7154, 34.1308], [-118.7162, 34.1307], [-118.7164, 34.1315], [-118.7155, 34.1315], [-118.7154, 34.1323], [-118.7161, 34.1324], [-118.7153, 34.1326], [-118.7173, 34.1333], [-118.7189, 34.1326], [-118.7206, 34.1331], [-118.7194, 34.1352], [-118.7198, 34.1363], [-118.7213, 34.1365], [-118.7203, 34.1373], [-118.7174, 34.1368], [-118.7159, 34.1376], [-118.7155, 34.1362], [-118.713, 34.1356], [-118.7111, 34.1342], [-118.7125, 34.1344], [-118.713, 34.1338], [-118.7118, 34.1317], [-118.7124, 34.1288], [-118.7114, 34.1287], [-118.7099, 34.1296], [-118.7082, 34.1285], [-118.7103, 34.1268], [-118.709, 34.1267], [-118.7086, 34.1258], [-118.7064, 34.1261], [-118.7089, 34.1238], [-118.7072, 34.1226], [-118.708, 34.1195], [-118.7087, 34.1194], [-118.7082, 34.119], [-118.7093, 34.1149], [-118.7086, 34.1154], [-118.7077, 34.1192], [-118.7065, 34.1195], [-118.7066, 34.1202], [-118.7074, 34.1198], [-118.7061, 34.1229], [-118.7067, 34.1232], [-118.7038, 34.1276], [-118.7029, 34.1332], [-118.7022, 34.1337], [-118.7028, 34.1338], [-118.7024, 34.1358], [-118.6981, 34.136], [-118.698, 34.1372], [-118.7007, 34.1369], [-118.699, 34.1376], [-118.6998, 34.1399], [-118.698, 34.1402], [-118.6974, 34.1418], [-118.6979, 34.1423], [-118.697, 34.1426], [-118.698, 34.1435], [-118.698, 34.1448], [-118.6972, 34.1485], [-118.6961, 34.1498], [-118.6928, 34.151], [-118.6883, 34.1502], [-118.6799, 34.1509], [-118.6731, 34.1488], [-118.6729, 34.1475], [-118.6714, 34.1479], [-118.6714, 34.1488], [-118.6686, 34.1488], [-118.6702, 34.148], [-118.668, 34.1482], [-118.6678, 34.1473], [-118.6661, 34.1468], [-118.6717, 34.1429], [-118.6716, 34.1436], [-118.6719, 34.1434], [-118.6723, 34.1433], [-118.6723, 34.1433], [-118.6717, 34.1439], [-118.6732, 34.1436], [-118.6739, 34.1447], [-118.6742, 34.1422], [-118.6793, 34.1429], [-118.6803, 34.1408], [-118.6828, 34.1408], [-118.6832, 34.1395], [-118.6866, 34.137], [-118.6874, 34.137], [-118.6874, 34.1365], [-118.6859, 34.1364], [-118.6856, 34.1343], [-118.6836, 34.1347], [-118.6838, 34.134], [-118.683, 34.1344], [-118.6823, 34.1337], [-118.6809, 34.1337], [-118.6804, 34.1328], [-118.6781, 34.1329], [-118.6794, 34.132], [-118.6783, 34.1322], [-118.6778, 34.1318], [-118.6796, 34.1318], [-118.6802, 34.1291], [-118.682, 34.128], [-118.6827, 34.1286], [-118.6828, 34.128], [-118.6816, 34.1275], [-118.6819, 34.1263], [-118.6841, 34.1266], [-118.6838, 34.1261], [-118.685, 34.1257], [-118.6842, 34.1246], [-118.685, 34.1254], [-118.6857, 34.1249], [-118.6852, 34.1246], [-118.6872, 34.1244], [-118.6873, 34.1235], [-118.6847, 34.123], [-118.6846, 34.121], [-118.6835, 34.1195], [-118.6841, 34.1184], [-118.6846, 34.118], [-118.6854, 34.1188], [-118.6863, 34.1186], [-118.6876, 34.1206], [-118.6892, 34.1209], [-118.6901, 34.12], [-118.6909, 34.1201], [-118.6906, 34.1191], [-118.6927, 34.1179], [-118.6928, 34.1129], [-118.694, 34.1115], [-118.6961, 34.1107], [-118.6965, 34.1111], [-118.6983, 34.1093], [-118.699, 34.1097], [-118.6999, 34.1085], [-118.7027, 34.1079], [-118.7026, 34.1067], [-118.7038, 34.1064], [-118.7042, 34.1053], [-118.7045, 34.1066], [-118.7048, 34.1061], [-118.7053, 34.1061], [-118.7056, 34.1067], [-118.7047, 34.1068], [-118.7056, 34.1075], [-118.7064, 34.1059], [-118.7073, 34.1072], [-118.7074, 34.1062], [-118.7094, 34.1061], [-118.7096, 34.1048], [-118.7108, 34.105], [-118.7108, 34.1043], [-118.7116, 34.1041], [-118.7112, 34.1009], [-118.7125, 34.1006], [-118.7145, 34.0994], [-118.7171, 34.0967], [-118.717, 34.0954], [-118.715, 34.0951], [-118.7149, 34.0942], [-118.7112, 34.0935], [-118.7116, 34.0944], [-118.7111, 34.0946], [-118.7133, 34.0951], [-118.7157, 34.0977], [-118.7149, 34.0985], [-118.7143, 34.0975], [-118.7131, 34.0979], [-118.7123, 34.1005], [-118.7112, 34.1007], [-118.7116, 34.0961], [-118.7094, 34.0932], [-118.7105, 34.0932], [-118.7099, 34.0922], [-118.7106, 34.0923], [-118.7106, 34.0918], [-118.7083, 34.0896], [-118.7113, 34.09], [-118.7122, 34.0917], [-118.7129, 34.0882], [-118.7142, 34.0874], [-118.7137, 34.087], [-118.7162, 34.0882], [-118.7167, 34.0879], [-118.7129, 34.0837], [-118.7135, 34.0818], [-118.7113, 34.0819], [-118.7095, 34.0807], [-118.7087, 34.0809], [-118.7086, 34.0804], [-118.7107, 34.0793], [-118.7105, 34.0781], [-118.7124, 34.0781], [-118.7122, 34.0773], [-118.7103, 34.0774], [-118.7083, 34.0763], [-118.7064, 34.0767], [-118.7053, 34.0753], [-118.7068, 34.0722], [-118.7083, 34.0721], [-118.7069, 34.071], [-118.7084, 34.0678], [-118.7113, 34.0684], [-118.7112, 34.0676], [-118.7133, 34.0662], [-118.713, 34.0656], [-118.7155, 34.0648], [-118.7149, 34.0646], [-118.7166, 34.0638], [-118.7175, 34.0641], [-118.7161, 34.0633], [-118.7168, 34.0626], [-118.7163, 34.0623], [-118.7187, 34.0611], [-118.7181, 34.0613], [-118.7182, 34.0604], [-118.7174, 34.0603], [-118.7165, 34.0609], [-118.7164, 34.0597], [-118.7145, 34.0584], [-118.7147, 34.057], [-118.7135, 34.0567], [-118.7136, 34.056], [-118.7126, 34.0563], [-118.7131, 34.0556], [-118.7102, 34.0556], [-118.711, 34.0548], [-118.709, 34.0524], [-118.7075, 34.0526], [-118.7075, 34.0519], [-118.7088, 34.0518], [-118.7073, 34.0499], [-118.7067, 34.0508], [-118.7052, 34.0491], [-118.705, 34.05], [-118.7023, 34.0502], [-118.701, 34.0482], [-118.6979, 34.0499], [-118.6962, 34.0481], [-118.6939, 34.0482], [-118.6921, 34.0469], [-118.693, 34.0449], [-118.6974, 34.0464], [-118.6971, 34.0457], [-118.698, 34.0449], [-118.6971, 34.0441], [-118.6981, 34.0439], [-118.6977, 34.0423], [-118.6987, 34.0416], [-118.698, 34.0409], [-118.7, 34.0413], [-118.7002, 34.0403], [-118.7021, 34.0397], [-118.7041, 34.0406], [-118.7047, 34.0395], [-118.7062, 34.0402], [-118.7063, 34.0417], [-118.7052, 34.0417], [-118.7063, 34.0429], [-118.7056, 34.0452], [-118.7064, 34.0453], [-118.7073, 34.044], [-118.7083, 34.0457], [-118.7091, 34.0461], [-118.7092, 34.0453], [-118.7096, 34.046], [-118.7099, 34.0454], [-118.7101, 34.0464], [-118.7112, 34.0468], [-118.7117, 34.0444], [-118.7137, 34.0421], [-118.7135, 34.0404], [-118.7157, 34.0397], [-118.7158, 34.0388], [-118.714, 34.0384], [-118.7149, 34.0366], [-118.7134, 34.0359], [-118.7124, 34.0341], [-118.7153, 34.0339], [-118.7182, 34.0347], [-118.719, 34.0341], [-118.7196, 34.0349], [-118.7187, 34.035], [-118.7204, 34.0351], [-118.7206, 34.0357], [-118.7218, 34.0348], [-118.723, 34.0353], [-118.7223, 34.036], [-118.7211, 34.0357], [-118.7224, 34.0364], [-118.7236, 34.0363], [-118.7231, 34.0346], [-118.7244, 34.0332], [-118.7276, 34.0332], [-118.7292, 34.0339], [-118.7347, 34.0335], [-118.735, 34.0342], [-118.7356, 34.034], [-118.7351, 34.0336], [-118.7359, 34.0336], [-118.7366, 34.0349], [-118.7359, 34.0353], [-118.7384, 34.0351], [-118.7388, 34.0348], [-118.7379, 34.0344], [-118.7386, 34.0345], [-118.7389, 34.0337], [-118.7418, 34.0334], [-118.7446, 34.035], [-118.744, 34.0331], [-118.7501, 34.0314], [-118.7503, 34.0339], [-118.7532, 34.0343], [-118.7543, 34.0328], [-118.7535, 34.0317], [-118.7555, 34.0306], [-118.7551, 34.03], [-118.7558, 34.0297], [-118.7554, 34.0303], [-118.7571, 34.0316], [-118.7581, 34.0316], [-118.7585, 34.0331], [-118.7606, 34.0339], [-118.7606, 34.0331], [-118.7615, 34.0328], [-118.761, 34.0321], [-118.7621, 34.0325], [-118.7622, 34.032], [-118.7628, 34.0327], [-118.7617, 34.0334], [-118.7639, 34.0329], [-118.7645, 34.0343], [-118.7658, 34.0341], [-118.7652, 34.0315], [-118.7662, 34.0313], [-118.7678, 34.0322], [-118.77, 34.032], [-118.7707, 34.0312], [-118.7713, 34.0335], [-118.7725, 34.031], [-118.7743, 34.032], [-118.7748, 34.0316], [-118.7763, 34.0334], [-118.7766, 34.0328], [-118.7758, 34.0324], [-118.7783, 34.0322], [-118.7772, 34.0313], [-118.7784, 34.0308], [-118.7786, 34.032], [-118.7801, 34.0321], [-118.7794, 34.0301], [-118.7805, 34.0294], [-118.7797, 34.0288], [-118.7807, 34.0291], [-118.7801, 34.0285], [-118.7804, 34.0261], [-118.781, 34.0262], [-118.7818, 34.0299], [-118.7812, 34.0306], [-118.7832, 34.0299], [-118.7815, 34.0309], [-118.783, 34.0314], [-118.7846, 34.0299], [-118.7838, 34.0279], [-118.7845, 34.0272], [-118.7842, 34.0268], [-118.7837, 34.0271], [-118.7834, 34.0268], [-118.7846, 34.0268], [-118.7851, 34.0273], [-118.7845, 34.0286], [-118.7857, 34.028], [-118.7846, 34.029], [-118.7851, 34.0296], [-118.7856, 34.029], [-118.7862, 34.0293], [-118.7865, 34.028], [-118.7877, 34.0282], [-118.7867, 34.0289], [-118.7871, 34.0293], [-118.7879, 34.0291], [-118.7879, 34.0282], [-118.7885, 34.0285], [-118.7892, 34.0274], [-118.7888, 34.0271], [-118.788, 34.028], [-118.7869, 34.0261], [-118.786, 34.0266], [-118.7854, 34.0248], [-118.7837, 34.0251], [-118.788, 34.0238], [-118.7878, 34.0247], [-118.7895, 34.0256], [-118.7903, 34.0253], [-118.7915, 34.0268], [-118.7919, 34.0262], [-118.7909, 34.0253], [-118.792, 34.0256], [-118.7915, 34.0251], [-118.7936, 34.0237], [-118.7916, 34.0222], [-118.7933, 34.0215], [-118.7929, 34.0221], [-118.7949, 34.0229], [-118.7946, 34.0237], [-118.7952, 34.0241], [-118.7935, 34.0248], [-118.7956, 34.0247], [-118.7969, 34.0256], [-118.7968, 34.0244], [-118.7957, 34.0242], [-118.7955, 34.0231], [-118.797, 34.022], [-118.797, 34.0212], [-118.7972, 34.0218], [-118.7983, 34.0209], [-118.7972, 34.0205], [-118.8011, 34.0212], [-118.8013, 34.0223], [-118.8006, 34.0212], [-118.7998, 34.0216], [-118.8004, 34.0221], [-118.8, 34.0229], [-118.8004, 34.0222], [-118.8029, 34.0228], [-118.8022, 34.0253], [-118.8043, 34.0286], [-118.8035, 34.0286], [-118.8038, 34.029], [-118.8026, 34.0297], [-118.8013, 34.0296], [-118.8019, 34.0312], [-118.804, 34.0297], [-118.8042, 34.0301], [-118.8051, 34.0287], [-118.8058, 34.029], [-118.8058, 34.028], [-118.8093, 34.029], [-118.8103, 34.0279], [-118.8101, 34.0269], [-118.8115, 34.0265], [-118.8105, 34.026], [-118.8097, 34.0268], [-118.8078, 34.027], [-118.8082, 34.0265], [-118.8067, 34.0263], [-118.808, 34.026], [-118.8078, 34.0253], [-118.8068, 34.0254], [-118.8076, 34.025], [-118.8093, 34.0248], [-118.8099, 34.0253], [-118.8114, 34.0243], [-118.8076, 34.0243], [-118.8085, 34.0235], [-118.8083, 34.0223], [-118.8132, 34.0217], [-118.8136, 34.0228], [-118.8109, 34.0222], [-118.8108, 34.0229], [-118.8117, 34.0231], [-118.8105, 34.0235], [-118.8121, 34.0239], [-118.812, 34.0254], [-118.8129, 34.0256], [-118.8117, 34.026], [-118.8135, 34.0259], [-118.8138, 34.027], [-118.8151, 34.0263], [-118.8146, 34.0252], [-118.8154, 34.0255], [-118.8159, 34.0243], [-118.8173, 34.0256], [-118.8184, 34.0252], [-118.8174, 34.0259], [-118.8169, 34.0256], [-118.8168, 34.0262], [-118.8188, 34.0251], [-118.8178, 34.0243], [-118.8212, 34.0262], [-118.8209, 34.0244], [-118.8226, 34.0237], [-118.8223, 34.0226], [-118.8199, 34.0226], [-118.818, 34.0215], [-118.8196, 34.0212], [-118.8202, 34.0218], [-118.8209, 34.0202], [-118.8221, 34.021], [-118.8219, 34.0215], [-118.8226, 34.0206], [-118.8237, 34.022], [-118.825, 34.0217], [-118.8246, 34.0233], [-118.8261, 34.0237], [-118.8261, 34.0243], [-118.8249, 34.0234], [-118.8246, 34.0234], [-118.8243, 34.0246], [-118.8255, 34.0239], [-118.8243, 34.0257], [-118.8249, 34.0261], [-118.8238, 34.0274], [-118.825, 34.0281], [-118.8266, 34.0267], [-118.826, 34.0264], [-118.8272, 34.0268], [-118.8275, 34.0261], [-118.8292, 34.0258], [-118.8293, 34.0248], [-118.8298, 34.0254], [-118.8313, 34.0243], [-118.8322, 34.0245], [-118.832, 34.0237], [-118.8335, 34.0244], [-118.8316, 34.026], [-118.8311, 34.0254], [-118.8306, 34.0256], [-118.8313, 34.0265], [-118.8308, 34.0272], [-118.831, 34.0277], [-118.8314, 34.0268], [-118.8322, 34.0278], [-118.8329, 34.0271], [-118.8315, 34.0292], [-118.832, 34.0294], [-118.8328, 34.0287], [-118.8324, 34.0296], [-118.8339, 34.0303], [-118.8343, 34.0296], [-118.8368, 34.0314], [-118.8378, 34.0304], [-118.8384, 34.0311], [-118.8377, 34.0319], [-118.8392, 34.0316], [-118.8392, 34.0309], [-118.8402, 34.0305], [-118.8401, 34.0294], [-118.8422, 34.0303], [-118.8415, 34.0313], [-118.8397, 34.0318], [-118.8411, 34.0366], [-118.8406, 34.0373], [-118.8426, 34.0396], [-118.8417, 34.0406], [-118.8421, 34.0394], [-118.8418, 34.0393], [-118.8412, 34.0411], [-118.8425, 34.0408], [-118.8431, 34.0419], [-118.8434, 34.0414], [-118.8438, 34.0427], [-118.8449, 34.0415], [-118.8428, 34.0395], [-118.8441, 34.0393], [-118.8442, 34.0389], [-118.8436, 34.0391], [-118.8437, 34.0382], [-118.8422, 34.0366], [-118.843, 34.0352], [-118.8427, 34.0342], [-118.8438, 34.0348], [-118.8428, 34.0363], [-118.8447, 34.0374], [-118.845, 34.0402], [-118.8461, 34.0396], [-118.8457, 34.0372], [-118.846, 34.0378], [-118.8462, 34.0375], [-118.845, 34.0351], [-118.8464, 34.0339], [-118.8483, 34.0347], [-118.8486, 34.034], [-118.8491, 34.0342], [-118.8485, 34.0348], [-118.8493, 34.0352], [-118.8498, 34.0345], [-118.8512, 34.0351], [-118.8509, 34.0361], [-118.8499, 34.0353], [-118.8482, 34.0365], [-118.8501, 34.0368], [-118.8491, 34.0369], [-118.8488, 34.0376], [-118.8504, 34.037], [-118.8509, 34.0374], [-118.8505, 34.0393], [-118.8514, 34.039], [-118.8509, 34.0386], [-118.8518, 34.0392], [-118.8526, 34.0385], [-118.8526, 34.0391], [-118.8539, 34.0395], [-118.8541, 34.0364], [-118.8552, 34.0361], [-118.8551, 34.0386], [-118.8558, 34.0385], [-118.8562, 34.0401], [-118.8567, 34.0381], [-118.8573, 34.0382], [-118.857, 34.0397], [-118.8587, 34.0397], [-118.8579, 34.0363], [-118.8606, 34.0366], [-118.8588, 34.0365], [-118.8587, 34.0377], [-118.859, 34.0383], [-118.8595, 34.0375], [-118.8608, 34.0378], [-118.8593, 34.0391], [-118.8601, 34.0398], [-118.8607, 34.0393], [-118.8613, 34.0404], [-118.8612, 34.0385], [-118.8635, 34.0382], [-118.8633, 34.0373], [-118.8659, 34.0381], [-118.8651, 34.0384], [-118.8647, 34.0378], [-118.8647, 34.0386], [-118.8664, 34.039], [-118.8674, 34.0403], [-118.8677, 34.0388], [-118.8696, 34.0385], [-118.8702, 34.0369], [-118.8699, 34.0394], [-118.8713, 34.0396], [-118.8739, 34.0394], [-118.8733, 34.0388], [-118.8741, 34.0383], [-118.8774, 34.0388], [-118.8778, 34.0383], [-118.8785, 34.0387], [-118.8788, 34.0381], [-118.8802, 34.0387], [-118.8792, 34.0385], [-118.8792, 34.0393], [-118.8776, 34.0387], [-118.8782, 34.0413], [-118.8787, 34.04], [-118.882, 34.0397], [-118.8822, 34.0402], [-118.8847, 34.0404], [-118.8829, 34.0412], [-118.8827, 34.0426], [-118.8839, 34.044], [-118.8845, 34.0439], [-118.8835, 34.0424], [-118.8837, 34.0413], [-118.885, 34.042], [-118.8851, 34.0428], [-118.8861, 34.0421], [-118.8861, 34.0429], [-118.8874, 34.0431], [-118.8877, 34.0442], [-118.8879, 34.0441], [-118.8881, 34.0433], [-118.8869, 34.0428], [-118.8873, 34.0424], [-118.8859, 34.041], [-118.8873, 34.0389], [-118.8877, 34.0395], [-118.8871, 34.0406], [-118.889, 34.0408], [-118.8908, 34.0398], [-118.8901, 34.0393], [-118.8919, 34.039], [-118.8907, 34.0402], [-118.8906, 34.0411], [-118.8912, 34.0411], [-118.892, 34.0395], [-118.8927, 34.0397], [-118.8924, 34.0393], [-118.8954, 34.0393], [-118.8952, 34.0399], [-118.8936, 34.0397], [-118.8935, 34.0415], [-118.8971, 34.042], [-118.8963, 34.042], [-118.8969, 34.0425], [-118.8973, 34.042], [-118.9003, 34.0424], [-118.9001, 34.0432], [-118.901, 34.043], [-118.9005, 34.0429], [-118.9004, 34.0425], [-118.9012, 34.0428], [-118.9011, 34.0433], [-118.9034, 34.0445], [-118.9049, 34.0446], [-118.9051, 34.0436], [-118.9061, 34.0449], [-118.9077, 34.0442], [-118.9086, 34.0447], [-118.9087, 34.0436], [-118.9073, 34.0433], [-118.9088, 34.0435], [-118.9088, 34.0427], [-118.9095, 34.0423], [-118.9107, 34.0423], [-118.9104, 34.0438], [-118.9138, 34.0442], [-118.9136, 34.0422], [-118.9153, 34.0419], [-118.9209, 34.045], [-118.9252, 34.0462], [-118.9315, 34.0459], [-118.9337, 34.0449], [-118.9343, 34.0455], [-118.9344, 34.0442], [-118.9371, 34.0436], [-118.9392, 34.0448], [-118.9455, 34.0462], [-118.9484, 34.0477], [-118.9519, 34.0476], [-118.9529, 34.0484], [-118.9524, 34.0493], [-118.9545, 34.0502], [-118.9547, 34.051], [-118.9553, 34.0504], [-118.9563, 34.0508], [-118.9559, 34.0516], [-118.9546, 34.0514], [-118.9553, 34.053], [-118.9575, 34.0532], [-118.9628, 34.0553], [-118.9638, 34.055], [-118.9643, 34.0537], [-118.9675, 34.0562], [-118.9778, 34.0613], [-118.9842, 34.0616], [-118.9921, 34.0651], [-118.9929, 34.066], [-118.9955, 34.0662], [-118.9956, 34.0671], [-118.9943, 34.0673], [-118.9952, 34.0676], [-118.9948, 34.0683], [-118.9939, 34.0677], [-118.9925, 34.0692], [-118.9914, 34.0685], [-118.9902, 34.0691], [-118.9907, 34.0704], [-118.9901, 34.0722], [-118.9913, 34.0726], [-118.992, 34.0725], [-118.9932, 34.0702], [-118.9946, 34.0696], [-118.9975, 34.0702], [-118.993, 34.0716], [-118.9959, 34.0713], [-118.9969, 34.0725], [-118.9933, 34.0749], [-118.9929, 34.0765], [-118.9911, 34.0764], [-118.9905, 34.0801], [-118.9883, 34.0822], [-118.9912, 34.085], [-118.9924, 34.0842], [-118.993, 34.0845], [-118.9914, 34.0858], [-118.9873, 34.0849], [-118.988, 34.0857], [-118.989, 34.0854], [-118.9895, 34.0863], [-118.9911, 34.0865], [-118.9931, 34.0856], [-118.9915, 34.0872], [-118.9875, 34.0886], [-118.9847, 34.0874], [-118.9813, 34.0889], [-118.979, 34.0887], [-118.9783, 34.0876], [-118.9802, 34.086], [-118.9801, 34.0854], [-118.9787, 34.0854], [-118.9769, 34.0871], [-118.9766, 34.0854], [-118.9749, 34.0852], [-118.9748, 34.0847], [-118.9726, 34.0857], [-118.9729, 34.0843], [-118.9718, 34.084], [-118.9714, 34.085], [-118.9682, 34.0845], [-118.9681, 34.0855], [-118.9709, 34.0855], [-118.9696, 34.0871], [-118.968, 34.0875]], [[-118.7054, 34.0473], [-118.7047, 34.0451], [-118.7031, 34.0446], [-118.7017, 34.0455], [-118.7028, 34.0458], [-118.7033, 34.0475], [-118.7047, 34.0474], [-118.7041, 34.048], [-118.7046, 34.0483], [-118.7054, 34.0473]], [[-118.7169, 34.0464], [-118.7174, 34.0452], [-118.716, 34.045], [-118.7148, 34.0427], [-118.7143, 34.0439], [-118.7151, 34.0438], [-118.714, 34.0444], [-118.7135, 34.0467], [-118.7153, 34.0475], [-118.7169, 34.0464]], [[-118.7369, 34.043], [-118.7385, 34.045], [-118.7374, 34.0456], [-118.7387, 34.0468], [-118.7388, 34.0459], [-118.7402, 34.0455], [-118.7413, 34.0488], [-118.7415, 34.0458], [-118.7425, 34.0443], [-118.7421, 34.0433], [-118.7369, 34.043]], [[-118.745, 34.0732], [-118.7463, 34.0733], [-118.7448, 34.072], [-118.746, 34.072], [-118.7463, 34.0718], [-118.7456, 34.0719], [-118.7458, 34.0716], [-118.745, 34.0715], [-118.7449, 34.0713], [-118.7487, 34.0714], [-118.7479, 34.07], [-118.7496, 34.0713], [-118.7493, 34.0704], [-118.7509, 34.0711], [-118.7518, 34.0721], [-118.7537, 34.0723], [-118.7535, 34.0713], [-118.7548, 34.0724], [-118.7551, 34.0701], [-118.7545, 34.0701], [-118.7542, 34.0693], [-118.7552, 34.0689], [-118.7549, 34.0685], [-118.7555, 34.0688], [-118.7548, 34.0699], [-118.7563, 34.0687], [-118.7574, 34.0692], [-118.7572, 34.0677], [-118.755, 34.0677], [-118.7525, 34.0688], [-118.7522, 34.0682], [-118.7548, 34.0672], [-118.7549, 34.0666], [-118.7564, 34.0668], [-118.7576, 34.0655], [-118.7544, 34.0641], [-118.7567, 34.0634], [-118.7537, 34.0624], [-118.7543, 34.0604], [-118.7549, 34.0599], [-118.7586, 34.0602], [-118.7596, 34.059], [-118.7618, 34.06], [-118.7634, 34.0591], [-118.7636, 34.0582], [-118.7654, 34.0575], [-118.7649, 34.0569], [-118.7664, 34.0557], [-118.7662, 34.0551], [-118.7633, 34.0569], [-118.7625, 34.0565], [-118.7654, 34.0507], [-118.7654, 34.0496], [-118.764, 34.048], [-118.7651, 34.0443], [-118.7641, 34.043], [-118.7634, 34.0428], [-118.7623, 34.0455], [-118.7626, 34.0471], [-118.7616, 34.0473], [-118.7604, 34.0467], [-118.7592, 34.0471], [-118.7598, 34.0462], [-118.7595, 34.0446], [-118.7584, 34.0448], [-118.7567, 34.0437], [-118.7558, 34.0445], [-118.758, 34.0458], [-118.7582, 34.0469], [-118.7562, 34.0466], [-118.7549, 34.0446], [-118.7532, 34.0437], [-118.7488, 34.0449], [-118.7499, 34.0449], [-118.7509, 34.0458], [-118.7512, 34.0475], [-118.7506, 34.0486], [-118.7517, 34.0502], [-118.7491, 34.0512], [-118.7511, 34.0518], [-118.7481, 34.0524], [-118.7484, 34.0547], [-118.7458, 34.0571], [-118.7473, 34.0623], [-118.7486, 34.0622], [-118.7495, 34.0629], [-118.7483, 34.0633], [-118.7458, 34.062], [-118.7459, 34.0629], [-118.7436, 34.0631], [-118.7445, 34.0625], [-118.7451, 34.0603], [-118.7446, 34.0599], [-118.7438, 34.0606], [-118.7424, 34.0597], [-118.7404, 34.0602], [-118.7406, 34.0619], [-118.7418, 34.0624], [-118.7421, 34.0614], [-118.7431, 34.0614], [-118.7424, 34.0611], [-118.7423, 34.06], [-118.7428, 34.06], [-118.7434, 34.061], [-118.7435, 34.0635], [-118.7417, 34.0635], [-118.7408, 34.0642], [-118.7403, 34.0635], [-118.7387, 34.0646], [-118.7406, 34.0649], [-118.7395, 34.0653], [-118.7408, 34.0667], [-118.7425, 34.0657], [-118.7437, 34.0638], [-118.7459, 34.0642], [-118.7471, 34.063], [-118.7477, 34.0637], [-118.7494, 34.0639], [-118.7491, 34.0645], [-118.7472, 34.0643], [-118.7459, 34.0651], [-118.7446, 34.0647], [-118.7443, 34.0669], [-118.7425, 34.0665], [-118.7413, 34.0673], [-118.7423, 34.0682], [-118.7411, 34.0684], [-118.7431, 34.0682], [-118.7433, 34.0689], [-118.7441, 34.0672], [-118.7466, 34.0669], [-118.7472, 34.0658], [-118.7488, 34.0654], [-118.7473, 34.0659], [-118.7487, 34.0662], [-118.7472, 34.0685], [-118.7497, 34.069], [-118.7507, 34.0682], [-118.7515, 34.0686], [-118.7491, 34.0694], [-118.7484, 34.069], [-118.7488, 34.0696], [-118.7482, 34.0699], [-118.747, 34.0686], [-118.7471, 34.0695], [-118.7461, 34.0695], [-118.7467, 34.07], [-118.7463, 34.0709], [-118.7448, 34.0707], [-118.7432, 34.0714], [-118.7426, 34.0704], [-118.7412, 34.0705], [-118.7404, 34.0695], [-118.7403, 34.0704], [-118.7384, 34.0699], [-118.7388, 34.0707], [-118.7406, 34.0709], [-118.7406, 34.0701], [-118.7412, 34.071], [-118.7422, 34.0704], [-118.7431, 34.0723], [-118.7423, 34.0726], [-118.7433, 34.0724], [-118.7432, 34.0717], [-118.7446, 34.0738], [-118.745, 34.0732]], [[-118.7439, 34.0533], [-118.7467, 34.0533], [-118.7455, 34.0523], [-118.7458, 34.0515], [-118.7404, 34.0538], [-118.7418, 34.0549], [-118.7425, 34.0577], [-118.7435, 34.0565], [-118.7437, 34.0544], [-118.7451, 34.0541], [-118.7439, 34.0533]], [[-118.7473, 34.0492], [-118.7485, 34.0477], [-118.7479, 34.0459], [-118.7467, 34.048], [-118.7474, 34.0482], [-118.7473, 34.0492]], [[-118.7533, 34.0761], [-118.7549, 34.0745], [-118.7544, 34.073], [-118.7528, 34.0725], [-118.7516, 34.0731], [-118.7534, 34.0734], [-118.7517, 34.0737], [-118.7515, 34.0748], [-118.7499, 34.0754], [-118.7533, 34.0761]], [[-118.7567, 34.0413], [-118.7553, 34.0411], [-118.7548, 34.0413], [-118.7567, 34.0413]], [[-118.7561, 34.0714], [-118.7552, 34.0723], [-118.7569, 34.0729], [-118.7576, 34.0723], [-118.7568, 34.0724], [-118.7572, 34.0721], [-118.7561, 34.0714]], [[-118.8551, 34.1071], [-118.8544, 34.1077], [-118.8535, 34.107], [-118.8533, 34.1083], [-118.851, 34.1076], [-118.8526, 34.109], [-118.8529, 34.1083], [-118.8544, 34.109], [-118.8545, 34.108], [-118.8559, 34.108], [-118.857, 34.109], [-118.8572, 34.1077], [-118.8562, 34.1075], [-118.8571, 34.1057], [-118.8548, 34.1057], [-118.8551, 34.1071]], [[-118.9264, 34.1031], [-118.9258, 34.1025], [-118.9253, 34.1033], [-118.9264, 34.1031]], [[-118.9303, 34.0995], [-118.9279, 34.1009], [-118.9282, 34.1018], [-118.9267, 34.1029], [-118.928, 34.1033], [-118.9268, 34.1036], [-118.9286, 34.1032], [-118.9294, 34.1025], [-118.9307, 34.1044], [-118.9324, 34.1033], [-118.931, 34.1033], [-118.9309, 34.1023], [-118.9306, 34.1029], [-118.9298, 34.1026], [-118.9313, 34.101], [-118.9303, 34.1011], [-118.9301, 34.1019], [-118.9292, 34.1011], [-118.9294, 34.1003], [-118.9311, 34.1004], [-118.9313, 34.1], [-118.9303, 34.0995]], [[-118.9343, 34.1073], [-118.9355, 34.1071], [-118.9351, 34.1068], [-118.9363, 34.1069], [-118.9345, 34.1064], [-118.9343, 34.1073]], [[-118.9375, 34.1042], [-118.9373, 34.1052], [-118.9351, 34.1044], [-118.9343, 34.1046], [-118.9355, 34.1053], [-118.9355, 34.1048], [-118.9364, 34.1049], [-118.9367, 34.1061], [-118.9368, 34.1051], [-118.9376, 34.1053], [-118.939, 34.1049], [-118.9375, 34.1042]], [[-118.9384, 34.1089], [-118.9366, 34.108], [-118.9365, 34.1086], [-118.9378, 34.1087], [-118.9366, 34.109], [-118.9369, 34.11], [-118.9367, 34.1099], [-118.9358, 34.1096], [-118.9356, 34.1099], [-118.9361, 34.1107], [-118.9363, 34.11], [-118.9366, 34.1102], [-118.9375, 34.11], [-118.9378, 34.1089], [-118.9384, 34.1089]], [[-118.9382, 34.1074], [-118.9371, 34.108], [-118.9394, 34.1086], [-118.9392, 34.1073], [-118.9371, 34.1071], [-118.9382, 34.1074]], [[-118.9393, 34.1089], [-118.9392, 34.1096], [-118.94, 34.1094], [-118.9398, 34.11], [-118.941, 34.1098], [-118.9393, 34.1089]], [[-118.9504, 34.0921], [-118.9514, 34.0926], [-118.9531, 34.0912], [-118.9513, 34.0905], [-118.9504, 34.0921]], [[-118.9553, 34.0977], [-118.955, 34.097], [-118.954, 34.0975], [-118.9575, 34.0984], [-118.9582, 34.098], [-118.9571, 34.0973], [-118.9583, 34.0965], [-118.9571, 34.096], [-118.9553, 34.0977]]], [[[-118.9669, 34.0888], [-118.9669, 34.0888], [-118.9669, 34.0888], [-118.9669, 34.0888]]], [[[-118.8203, 34.1317], [-118.8202, 34.1319], [-118.8202, 34.1318], [-118.8203, 34.1317]]], [[[-118.8193, 34.1343], [-118.819, 34.1343], [-118.8191, 34.1342], [-118.8193, 34.1343]]], [[[-118.8365, 34.1728], [-118.8367, 34.1728], [-118.8366, 34.1729], [-118.8365, 34.1728]]], [[[-118.8405, 34.175], [-118.841, 34.1749], [-118.8412, 34.1753], [-118.8405, 34.175]]], [[[-118.8399, 34.1754], [-118.8403, 34.1754], [-118.84, 34.1756], [-118.8399, 34.1754]]], [[[-118.8393, 34.176], [-118.8396, 34.1761], [-118.839, 34.176], [-118.8393, 34.176]]], [[[-118.8402, 34.176], [-118.8403, 34.1765], [-118.8394, 34.1765], [-118.8402, 34.176]]], [[[-118.8389, 34.1765], [-118.839, 34.1763], [-118.8391, 34.1764], [-118.8389, 34.1765]]], [[[-118.8038, 34.1914], [-118.8022, 34.191], [-118.8029, 34.1907], [-118.8026, 34.1911], [-118.8038, 34.1914]]], [[[-118.8401, 34.1952], [-118.8398, 34.195], [-118.84, 34.1949], [-118.8401, 34.1952]]], [[[-118.8053, 34.1971], [-118.8049, 34.1972], [-118.8058, 34.1971], [-118.8053, 34.1971]]], [[[-118.8149, 34.1971], [-118.8156, 34.1973], [-118.8156, 34.1975], [-118.8149, 34.1971]]], [[[-118.8188, 34.1981], [-118.819, 34.197], [-118.8184, 34.1969], [-118.8197, 34.1962], [-118.8206, 34.1966], [-118.8206, 34.1968], [-118.8194, 34.1963], [-118.8189, 34.198], [-118.8197, 34.1983], [-118.8203, 34.1971], [-118.821, 34.1976], [-118.82, 34.1989], [-118.8188, 34.1981]]], [[[-118.8146, 34.1983], [-118.8149, 34.1977], [-118.8149, 34.1984], [-118.8146, 34.1983]]], [[[-118.799, 34.0204], [-118.7966, 34.0189], [-118.7957, 34.019], [-118.7953, 34.0174], [-118.7973, 34.0177], [-118.7972, 34.0184], [-118.7988, 34.0191], [-118.8007, 34.0186], [-118.801, 34.0194], [-118.8022, 34.0195], [-118.8022, 34.0204], [-118.8029, 34.02], [-118.8027, 34.0205], [-118.8019, 34.0204], [-118.803, 34.0215], [-118.8012, 34.0204], [-118.8017, 34.0211], [-118.799, 34.0204]]], [[[-118.7958, 34.0204], [-118.7935, 34.02], [-118.7918, 34.019], [-118.7945, 34.0189], [-118.7942, 34.0194], [-118.7953, 34.0195], [-118.7958, 34.0204]]], [[[-118.7846, 34.024], [-118.7854, 34.0243], [-118.7853, 34.0225], [-118.7864, 34.0241], [-118.7845, 34.0246], [-118.7846, 34.024]]], [[[-118.7899, 34.0247], [-118.7925, 34.0235], [-118.7916, 34.0243], [-118.7899, 34.0247]]], [[[-118.7749, 34.0314], [-118.7734, 34.0292], [-118.7728, 34.0282], [-118.7736, 34.0291], [-118.7748, 34.0291], [-118.7752, 34.0308], [-118.776, 34.0312], [-118.7749, 34.0314]]], [[[-118.7625, 34.1307], [-118.7625, 34.1307], [-118.7625, 34.1307], [-118.7625, 34.1307]]], [[[-118.7803, 34.1587], [-118.7807, 34.1588], [-118.7803, 34.1589], [-118.7803, 34.1587]]], [[[-118.781, 34.1592], [-118.7811, 34.1592], [-118.7809, 34.1593], [-118.781, 34.1592]]], [[[-118.7805, 34.1603], [-118.7803, 34.1602], [-118.7805, 34.1602], [-118.7805, 34.1603]]], [[[-118.7811, 34.1605], [-118.7818, 34.1603], [-118.7818, 34.1606], [-118.7811, 34.1605]]], [[[-118.7603, 34.1773], [-118.7614, 34.1767], [-118.7609, 34.1791], [-118.7603, 34.1773]]], [[[-118.755, 34.183], [-118.7588, 34.1806], [-118.7575, 34.1783], [-118.7589, 34.179], [-118.7599, 34.1779], [-118.7607, 34.1795], [-118.7601, 34.1802], [-118.7609, 34.1799], [-118.7611, 34.1804], [-118.7581, 34.1813], [-118.7561, 34.1834], [-118.755, 34.183]]], [[[-118.7787, 34.1807], [-118.778, 34.1816], [-118.777, 34.181], [-118.778, 34.1813], [-118.7787, 34.1807]]], [[[-118.7786, 34.1815], [-118.7788, 34.1811], [-118.7789, 34.1812], [-118.7786, 34.1815]]], [[[-118.7785, 34.1818], [-118.7789, 34.1816], [-118.7789, 34.1818], [-118.7785, 34.1818]]], [[[-118.7807, 34.1816], [-118.7806, 34.1819], [-118.7805, 34.1816], [-118.7807, 34.1816]]], [[[-118.7799, 34.1818], [-118.7802, 34.182], [-118.78, 34.182], [-118.7799, 34.1818]]], [[[-118.7772, 34.192], [-118.7774, 34.1923], [-118.7771, 34.1922], [-118.7772, 34.192]]], [[[-118.8013, 34.1926], [-118.8015, 34.1929], [-118.8013, 34.1929], [-118.8013, 34.1926]]], [[[-118.7721, 34.1939], [-118.7725, 34.1936], [-118.7726, 34.1938], [-118.7721, 34.1939]]], [[[-118.7845, 34.1935], [-118.7848, 34.1941], [-118.7844, 34.1944], [-118.7845, 34.1935]]], [[[-118.7724, 34.1947], [-118.7727, 34.1948], [-118.7725, 34.1948], [-118.7724, 34.1947]]], [[[-118.7846, 34.1947], [-118.7844, 34.195], [-118.7844, 34.1948], [-118.7846, 34.1947]]], [[[-118.7769, 34.195], [-118.7771, 34.1951], [-118.777, 34.1952], [-118.7769, 34.195]]], [[[-118.7831, 34.2412], [-118.7831, 34.2412], [-118.7831, 34.2412], [-118.7831, 34.2412]]], [[[-118.726, 34.1369], [-118.7259, 34.1367], [-118.726, 34.1368], [-118.726, 34.1369]]], [[[-118.7221, 34.1394], [-118.7222, 34.1393], [-118.7222, 34.1394], [-118.7221, 34.1394]]], [[[-118.7006, 34.1425], [-118.7007, 34.1408], [-118.7037, 34.1391], [-118.7036, 34.1401], [-118.7014, 34.1409], [-118.7006, 34.1434], [-118.6989, 34.143], [-118.7006, 34.1425]]], [[[-118.7112, 34.1417], [-118.7111, 34.1416], [-118.7112, 34.1416], [-118.7112, 34.1417]]], [[[-118.7111, 34.1422], [-118.7113, 34.142], [-118.7112, 34.1422], [-118.7111, 34.1422]]], [[[-118.7012, 34.1443], [-118.7068, 34.1416], [-118.7068, 34.1406], [-118.7072, 34.1414], [-118.7086, 34.1408], [-118.7016, 34.1447], [-118.7012, 34.1443]]], [[[-118.7395, 34.15], [-118.7398, 34.1502], [-118.7393, 34.1504], [-118.7395, 34.15]]], [[[-118.672, 34.1495], [-118.6744, 34.1497], [-118.6733, 34.1499], [-118.6691, 34.1514], [-118.6692, 34.1507], [-118.6723, 34.15], [-118.672, 34.1495]]], [[[-118.739, 34.1511], [-118.7388, 34.1517], [-118.7388, 34.151], [-118.739, 34.1511]]], [[[-118.689, 34.152], [-118.6785, 34.1516], [-118.6757, 34.1503], [-118.6757, 34.1502], [-118.6799, 34.1513], [-118.6875, 34.1508], [-118.6923, 34.1516], [-118.6978, 34.1497], [-118.6938, 34.1515], [-118.6938, 34.1522], [-118.6923, 34.1524], [-118.689, 34.152]]], [[[-118.6951, 34.1521], [-118.6948, 34.1522], [-118.6948, 34.1521], [-118.6951, 34.1521]]], [[[-118.6942, 34.1524], [-118.6946, 34.1524], [-118.6942, 34.1524], [-118.6942, 34.1524]]], [[[-118.6971, 34.1528], [-118.6968, 34.1526], [-118.6971, 34.1526], [-118.6971, 34.1528]]], [[[-118.6942, 34.155], [-118.6946, 34.1544], [-118.6947, 34.1544], [-118.6942, 34.155]]], [[[-118.6952, 34.1559], [-118.6954, 34.1554], [-118.6956, 34.1556], [-118.6952, 34.1559]]], [[[-118.6886, 34.1626], [-118.6868, 34.1618], [-118.6862, 34.1623], [-118.6866, 34.1617], [-118.6875, 34.1616], [-118.6875, 34.159], [-118.6857, 34.1569], [-118.6835, 34.1567], [-118.683, 34.1556], [-118.6818, 34.1556], [-118.6807, 34.1526], [-118.6812, 34.1521], [-118.6937, 34.1525], [-118.6938, 34.1554], [-118.695, 34.1546], [-118.6938, 34.1568], [-118.6938, 34.1592], [-118.6909, 34.1614], [-118.69, 34.161], [-118.6886, 34.1626]]], [[[-118.738, 34.1672], [-118.7383, 34.1675], [-118.7381, 34.1675], [-118.738, 34.1672]]], [[[-118.7524, 34.1814], [-118.7525, 34.1812], [-118.7525, 34.1814], [-118.7524, 34.1814]]], [[[-118.7524, 34.1817], [-118.7522, 34.1818], [-118.7522, 34.1817], [-118.7524, 34.1817]]], [[[-118.7523, 34.1821], [-118.7521, 34.1822], [-118.7521, 34.182], [-118.7523, 34.1821]]], [[[-118.754, 34.1833], [-118.7538, 34.1831], [-118.7541, 34.1831], [-118.754, 34.1833]]], [[[-118.7828, 34.2411], [-118.7815, 34.2397], [-118.7809, 34.2399], [-118.7811, 34.2424], [-118.7792, 34.2415], [-118.7789, 34.2406], [-118.772, 34.2403], [-118.7715, 34.2389], [-118.7664, 34.2398], [-118.7667, 34.2389], [-118.766, 34.239], [-118.7664, 34.2394], [-118.7648, 34.2385], [-118.7627, 34.2387], [-118.759, 34.2371], [-118.7554, 34.233], [-118.7516, 34.2336], [-118.7493, 34.2334], [-118.7488, 34.2321], [-118.7497, 34.2308], [-118.7496, 34.2287], [-118.7476, 34.2289], [-118.7461, 34.2276], [-118.7465, 34.2271], [-118.7456, 34.2275], [-118.7458, 34.227], [-118.7454, 34.2274], [-118.7446, 34.2267], [-118.7436, 34.2258], [-118.7431, 34.2228], [-118.7354, 34.2228], [-118.7345, 34.2239], [-118.7329, 34.2242], [-118.7297, 34.2232], [-118.728, 34.2236], [-118.7263, 34.2222], [-118.7252, 34.2222], [-118.7244, 34.2233], [-118.722, 34.2241], [-118.721, 34.2262], [-118.7188, 34.2263], [-118.7165, 34.2284], [-118.7128, 34.2288], [-118.7127, 34.2297], [-118.7111, 34.2299], [-118.7075, 34.2328], [-118.7056, 34.2329], [-118.7037, 34.2352], [-118.7017, 34.2356], [-118.7017, 34.2345], [-118.7009, 34.2345], [-118.7006, 34.2355], [-118.6963, 34.2363], [-118.6955, 34.2362], [-118.6953, 34.2353], [-118.6947, 34.2357], [-118.6944, 34.2356], [-118.6951, 34.2353], [-118.695, 34.2345], [-118.6927, 34.2357], [-118.6929, 34.2366], [-118.6892, 34.2362], [-118.6921, 34.2354], [-118.693, 34.2333], [-118.6917, 34.2335], [-118.6912, 34.2345], [-118.691, 34.2338], [-118.6899, 34.2336], [-118.6906, 34.2347], [-118.688, 34.2335], [-118.6873, 34.2349], [-118.6855, 34.2355], [-118.685, 34.2342], [-118.684, 34.2339], [-118.6825, 34.2341], [-118.6819, 34.2351], [-118.6812, 34.2343], [-118.6794, 34.2353], [-118.6792, 34.2335], [-118.6778, 34.2332], [-118.6781, 34.2342], [-118.6771, 34.2345], [-118.6744, 34.234], [-118.6738, 34.2344], [-118.6744, 34.2356], [-118.6737, 34.2373], [-118.6727, 34.238], [-118.6722, 34.2374], [-118.6696, 34.2372], [-118.6706, 34.2367], [-118.669, 34.2369], [-118.6694, 34.2362], [-118.6677, 34.2366], [-118.6668, 34.2352], [-118.6654, 34.2359], [-118.6655, 34.2352], [-118.667, 34.2345], [-118.6645, 34.2343], [-118.6645, 34.2324], [-118.6621, 34.2339], [-118.6599, 34.2344], [-118.6592, 34.2341], [-118.6595, 34.2326], [-118.6584, 34.2325], [-118.6576, 34.2316], [-118.6565, 34.2321], [-118.6563, 34.2333], [-118.6556, 34.2331], [-118.6568, 34.2299], [-118.6567, 34.2275], [-118.6557, 34.2271], [-118.6559, 34.2262], [-118.6539, 34.2257], [-118.654, 34.2247], [-118.651, 34.2242], [-118.6516, 34.2227], [-118.651, 34.2219], [-118.6513, 34.2208], [-118.6526, 34.2207], [-118.6567, 34.2219], [-118.6569, 34.2214], [-118.658, 34.2217], [-118.659, 34.2196], [-118.6583, 34.2192], [-118.6585, 34.2178], [-118.6556, 34.2178], [-118.6509, 34.22], [-118.6499, 34.2193], [-118.6508, 34.2194], [-118.6507, 34.2187], [-118.6494, 34.2189], [-118.6509, 34.2176], [-118.6495, 34.2168], [-118.6479, 34.2168], [-118.652, 34.2149], [-118.6527, 34.2132], [-118.6551, 34.2129], [-118.6555, 34.2119], [-118.6573, 34.2132], [-118.6588, 34.2124], [-118.6603, 34.2125], [-118.6607, 34.21], [-118.6634, 34.2091], [-118.6634, 34.2083], [-118.6649, 34.2074], [-118.6664, 34.208], [-118.6691, 34.2061], [-118.6669, 34.2071], [-118.6651, 34.207], [-118.6603, 34.2032], [-118.6621, 34.2022], [-118.6613, 34.1996], [-118.6628, 34.1975], [-118.661, 34.1969], [-118.6606, 34.1973], [-118.6609, 34.1966], [-118.659, 34.1951], [-118.6628, 34.1954], [-118.6631, 34.1916], [-118.6642, 34.1912], [-118.664, 34.1903], [-118.6652, 34.1904], [-118.664, 34.1899], [-118.6661, 34.1896], [-118.6659, 34.189], [-118.6639, 34.1889], [-118.6641, 34.1884], [-118.6629, 34.1875], [-118.6642, 34.1865], [-118.666, 34.1866], [-118.6663, 34.1877], [-118.6675, 34.1877], [-118.6683, 34.1859], [-118.6689, 34.1862], [-118.6697, 34.1856], [-118.669, 34.1847], [-118.6703, 34.184], [-118.6696, 34.1807], [-118.6709, 34.1791], [-118.6692, 34.1767], [-118.6682, 34.1767], [-118.6682, 34.1704], [-118.6688, 34.1698], [-118.6687, 34.1689], [-118.6677, 34.1687], [-118.6725, 34.1686], [-118.6746, 34.1678], [-118.6743, 34.1636], [-118.6731, 34.1624], [-118.6742, 34.1623], [-118.6737, 34.1615], [-118.6742, 34.1561], [-118.6717, 34.1542], [-118.6715, 34.1552], [-118.6704, 34.1536], [-118.6697, 34.1538], [-118.6715, 34.1527], [-118.6723, 34.1504], [-118.6743, 34.1499], [-118.6766, 34.1508], [-118.6792, 34.152], [-118.68, 34.1542], [-118.6809, 34.1546], [-118.6802, 34.1549], [-118.6807, 34.156], [-118.6787, 34.1573], [-118.6783, 34.1595], [-118.679, 34.1597], [-118.6782, 34.1605], [-118.6792, 34.1607], [-118.6793, 34.1614], [-118.6781, 34.1607], [-118.6788, 34.1621], [-118.6783, 34.1626], [-118.6805, 34.1631], [-118.6812, 34.1641], [-118.6809, 34.1661], [-118.6795, 34.166], [-118.6797, 34.165], [-118.6793, 34.1647], [-118.6795, 34.1662], [-118.679, 34.1665], [-118.6798, 34.1673], [-118.6831, 34.1676], [-118.6841, 34.1665], [-118.6837, 34.1652], [-118.6853, 34.1645], [-118.6843, 34.1655], [-118.6855, 34.1661], [-118.6844, 34.1683], [-118.6874, 34.1675], [-118.6872, 34.1683], [-118.6881, 34.1682], [-118.6897, 34.1649], [-118.6911, 34.1649], [-118.6904, 34.1629], [-118.6912, 34.1633], [-118.6916, 34.1628], [-118.6911, 34.1626], [-118.6934, 34.1616], [-118.6939, 34.1663], [-118.6987, 34.1637], [-118.6989, 34.1627], [-118.6993, 34.1635], [-118.6958, 34.1659], [-118.6942, 34.1686], [-118.6951, 34.1686], [-118.696, 34.1668], [-118.6976, 34.1668], [-118.6985, 34.1657], [-118.6995, 34.166], [-118.7005, 34.1647], [-118.7007, 34.1674], [-118.7033, 34.1686], [-118.7026, 34.165], [-118.7032, 34.1625], [-118.7072, 34.1665], [-118.7116, 34.1658], [-118.7115, 34.1649], [-118.7122, 34.1651], [-118.711, 34.1645], [-118.711, 34.1637], [-118.7124, 34.1643], [-118.7121, 34.1631], [-118.7133, 34.1621], [-118.7123, 34.1612], [-118.7109, 34.1614], [-118.71, 34.1606], [-118.7031, 34.1597], [-118.7017, 34.1589], [-118.7006, 34.1576], [-118.7017, 34.1574], [-118.7016, 34.1569], [-118.6987, 34.155], [-118.6974, 34.1525], [-118.6984, 34.1513], [-118.6977, 34.151], [-118.6991, 34.1476], [-118.7021, 34.145], [-118.7108, 34.1408], [-118.7103, 34.1418], [-118.7111, 34.1429], [-118.7112, 34.1467], [-118.7125, 34.1476], [-118.7151, 34.1474], [-118.7164, 34.1441], [-118.7163, 34.1399], [-118.7209, 34.1389], [-118.7216, 34.14], [-118.7212, 34.141], [-118.7226, 34.1394], [-118.7261, 34.1382], [-118.73, 34.1391], [-118.7353, 34.1428], [-118.7378, 34.1437], [-118.737, 34.1437], [-118.738, 34.1448], [-118.7367, 34.1458], [-118.7371, 34.148], [-118.7383, 34.1466], [-118.7399, 34.1458], [-118.7398, 34.1465], [-118.7383, 34.1471], [-118.7381, 34.1483], [-118.7371, 34.1486], [-118.7368, 34.1543], [-118.7328, 34.1543], [-118.7322, 34.1552], [-118.7308, 34.1608], [-118.7316, 34.1612], [-118.7302, 34.1629], [-118.7313, 34.162], [-118.7337, 34.1617], [-118.7328, 34.1622], [-118.7335, 34.1624], [-118.7345, 34.1642], [-118.7366, 34.1637], [-118.7374, 34.1647], [-118.7363, 34.166], [-118.7372, 34.1661], [-118.7367, 34.168], [-118.7402, 34.168], [-118.74, 34.1659], [-118.7393, 34.1654], [-118.7387, 34.1661], [-118.7363, 34.162], [-118.7388, 34.1617], [-118.7411, 34.1601], [-118.7419, 34.1589], [-118.7405, 34.1584], [-118.7425, 34.1577], [-118.7423, 34.1566], [-118.7441, 34.1565], [-118.7434, 34.1578], [-118.7455, 34.1567], [-118.7465, 34.1541], [-118.7471, 34.1536], [-118.7479, 34.1541], [-118.7481, 34.1529], [-118.7513, 34.1529], [-118.7513, 34.152], [-118.7522, 34.1519], [-118.7515, 34.1528], [-118.7527, 34.153], [-118.7511, 34.1531], [-118.7515, 34.154], [-118.7505, 34.1561], [-118.7515, 34.1586], [-118.7535, 34.1603], [-118.7531, 34.1614], [-118.7544, 34.1614], [-118.7546, 34.1622], [-118.7524, 34.1628], [-118.7533, 34.1633], [-118.7522, 34.164], [-118.7496, 34.1636], [-118.7494, 34.1648], [-118.7477, 34.1657], [-118.7486, 34.1661], [-118.7481, 34.1672], [-118.7474, 34.1672], [-118.7477, 34.168], [-118.7487, 34.1677], [-118.7503, 34.1686], [-118.7495, 34.1687], [-118.7475, 34.1709], [-118.7489, 34.1725], [-118.75, 34.1727], [-118.7499, 34.1733], [-118.7523, 34.1741], [-118.7523, 34.1751], [-118.7556, 34.1753], [-118.7553, 34.1775], [-118.753, 34.1784], [-118.7519, 34.1785], [-118.7514, 34.1783], [-118.75, 34.1785], [-118.7497, 34.179], [-118.7503, 34.1792], [-118.7506, 34.1814], [-118.7513, 34.1814], [-118.7519, 34.1826], [-118.7535, 34.1827], [-118.7538, 34.1842], [-118.753, 34.1847], [-118.7536, 34.1855], [-118.7525, 34.1881], [-118.7508, 34.1887], [-118.7511, 34.1901], [-118.7485, 34.1902], [-118.7471, 34.1918], [-118.7486, 34.193], [-118.7516, 34.191], [-118.7528, 34.1926], [-118.7537, 34.1925], [-118.7543, 34.1916], [-118.7591, 34.1918], [-118.7624, 34.1908], [-118.7637, 34.1892], [-118.7642, 34.1865], [-118.7632, 34.1859], [-118.7633, 34.185], [-118.7667, 34.1868], [-118.7664, 34.1853], [-118.7676, 34.1825], [-118.7699, 34.1821], [-118.7705, 34.1829], [-118.7708, 34.1816], [-118.774, 34.1819], [-118.7727, 34.1812], [-118.7726, 34.1803], [-118.7719, 34.1806], [-118.772, 34.1795], [-118.7694, 34.1801], [-118.7699, 34.1794], [-118.7691, 34.1791], [-118.7709, 34.179], [-118.7707, 34.1777], [-118.7688, 34.176], [-118.7677, 34.1762], [-118.7659, 34.1743], [-118.7662, 34.1733], [-118.7673, 34.1735], [-118.769, 34.1726], [-118.7688, 34.1711], [-118.767, 34.1707], [-118.7677, 34.1681], [-118.7689, 34.1679], [-118.7689, 34.1672], [-118.7725, 34.1667], [-118.7727, 34.1674], [-118.7758, 34.1681], [-118.7769, 34.1681], [-118.7772, 34.1674], [-118.7751, 34.1668], [-118.7748, 34.1658], [-118.7727, 34.1656], [-118.7733, 34.1651], [-118.7727, 34.1649], [-118.7725, 34.163], [-118.7709, 34.1628], [-118.77, 34.1614], [-118.7676, 34.1601], [-118.7678, 34.1581], [-118.7685, 34.1583], [-118.7693, 34.1571], [-118.7722, 34.157], [-118.7733, 34.1563], [-118.7746, 34.1571], [-118.7751, 34.1566], [-118.7742, 34.1598], [-118.7765, 34.1599], [-118.7778, 34.161], [-118.7793, 34.1599], [-118.7802, 34.1612], [-118.7818, 34.1611], [-118.7826, 34.1622], [-118.7836, 34.1622], [-118.7838, 34.1643], [-118.7823, 34.1664], [-118.7829, 34.1667], [-118.7854, 34.165], [-118.7859, 34.1635], [-118.7876, 34.1634], [-118.7882, 34.1645], [-118.7873, 34.1682], [-118.7891, 34.1677], [-118.7887, 34.1691], [-118.7906, 34.169], [-118.7916, 34.17], [-118.7911, 34.1676], [-118.7904, 34.1671], [-118.795, 34.1632], [-118.7934, 34.161], [-118.7951, 34.1609], [-118.7942, 34.1607], [-118.7951, 34.1605], [-118.7958, 34.1573], [-118.7948, 34.1569], [-118.7969, 34.157], [-118.796, 34.1574], [-118.7962, 34.1591], [-118.7975, 34.1599], [-118.7984, 34.1593], [-118.7989, 34.1599], [-118.8, 34.1596], [-118.8004, 34.1601], [-118.8054, 34.1578], [-118.8052, 34.1591], [-118.8068, 34.1619], [-118.8058, 34.1626], [-118.8053, 34.1659], [-118.8076, 34.1658], [-118.8082, 34.1664], [-118.809, 34.1656], [-118.809, 34.1668], [-118.8069, 34.1686], [-118.8062, 34.1697], [-118.8069, 34.1699], [-118.8055, 34.1706], [-118.8059, 34.1713], [-118.8076, 34.1707], [-118.8063, 34.1717], [-118.806, 34.173], [-118.8051, 34.1731], [-118.8047, 34.1747], [-118.8036, 34.1752], [-118.8042, 34.1759], [-118.8033, 34.1779], [-118.7995, 34.18], [-118.8011, 34.1811], [-118.801, 34.1825], [-118.8049, 34.1834], [-118.8054, 34.1845], [-118.8067, 34.1844], [-118.8054, 34.1851], [-118.8052, 34.1879], [-118.8048, 34.1873], [-118.8022, 34.1887], [-118.8016, 34.1873], [-118.801, 34.1875], [-118.8, 34.1865], [-118.7974, 34.1864], [-118.7967, 34.187], [-118.7957, 34.1856], [-118.7934, 34.186], [-118.7922, 34.1855], [-118.7925, 34.1845], [-118.791, 34.1841], [-118.7904, 34.1823], [-118.7919, 34.1814], [-118.7933, 34.1816], [-118.7939, 34.1803], [-118.795, 34.1797], [-118.7948, 34.179], [-118.7928, 34.1785], [-118.7929, 34.1768], [-118.7886, 34.1721], [-118.7891, 34.1705], [-118.7884, 34.1689], [-118.7873, 34.1687], [-118.788, 34.1697], [-118.7875, 34.1705], [-118.786, 34.1707], [-118.7846, 34.1723], [-118.782, 34.1722], [-118.783, 34.1731], [-118.7819, 34.1742], [-118.7831, 34.1748], [-118.7829, 34.1755], [-118.781, 34.1762], [-118.782, 34.1749], [-118.776, 34.174], [-118.7739, 34.1751], [-118.7755, 34.1756], [-118.7749, 34.1769], [-118.7731, 34.1765], [-118.7732, 34.1777], [-118.7744, 34.1794], [-118.7727, 34.1802], [-118.773, 34.1806], [-118.7748, 34.1802], [-118.7781, 34.1824], [-118.7819, 34.1824], [-118.7819, 34.1832], [-118.7793, 34.1852], [-118.7811, 34.1854], [-118.7802, 34.1872], [-118.7841, 34.1897], [-118.7754, 34.1911], [-118.7738, 34.1899], [-118.7714, 34.1922], [-118.7705, 34.192], [-118.7717, 34.1954], [-118.7746, 34.1953], [-118.7753, 34.1944], [-118.7754, 34.1913], [-118.7763, 34.1911], [-118.7769, 34.1911], [-118.7762, 34.1913], [-118.7761, 34.1953], [-118.7803, 34.1952], [-118.7781, 34.1953], [-118.778, 34.1962], [-118.7807, 34.1961], [-118.7803, 34.1965], [-118.7815, 34.1972], [-118.7826, 34.197], [-118.7825, 34.1965], [-118.7837, 34.1968], [-118.7833, 34.1952], [-118.7843, 34.1951], [-118.7851, 34.1963], [-118.7847, 34.1977], [-118.7856, 34.1982], [-118.7845, 34.1985], [-118.7846, 34.1991], [-118.7874, 34.1995], [-118.7878, 34.1987], [-118.7869, 34.199], [-118.7869, 34.1986], [-118.7882, 34.1986], [-118.7894, 34.1974], [-118.7891, 34.1969], [-118.7899, 34.1971], [-118.7914, 34.1963], [-118.7925, 34.1983], [-118.7947, 34.1976], [-118.7961, 34.1965], [-118.7946, 34.1964], [-118.795, 34.1957], [-118.7937, 34.1941], [-118.795, 34.1949], [-118.7961, 34.1946], [-118.7966, 34.1928], [-118.7977, 34.1919], [-118.799, 34.1926], [-118.7991, 34.1945], [-118.7982, 34.1948], [-118.8006, 34.1949], [-118.8018, 34.1956], [-118.8011, 34.1968], [-118.8034, 34.1973], [-118.8032, 34.1955], [-118.806, 34.1963], [-118.806, 34.1969], [-118.8043, 34.1965], [-118.8038, 34.1967], [-118.8048, 34.1968], [-118.8049, 34.1981], [-118.8079, 34.1974], [-118.8084, 34.1987], [-118.8102, 34.1989], [-118.8106, 34.1982], [-118.8119, 34.1987], [-118.8097, 34.2009], [-118.81, 34.2012], [-118.8129, 34.2003], [-118.8127, 34.2009], [-118.8136, 34.2008], [-118.8132, 34.2014], [-118.8143, 34.202], [-118.8145, 34.2002], [-118.813, 34.1999], [-118.8163, 34.1996], [-118.8169, 34.2025], [-118.8193, 34.2027], [-118.8206, 34.2007], [-118.8198, 34.2028], [-118.8215, 34.2026], [-118.8224, 34.2015], [-118.8245, 34.2011], [-118.8254, 34.2028], [-118.8266, 34.2029], [-118.825, 34.2002], [-118.8262, 34.2003], [-118.8269, 34.1997], [-118.8253, 34.1989], [-118.8253, 34.1974], [-118.823, 34.1964], [-118.824, 34.1918], [-118.8219, 34.1884], [-118.8228, 34.1829], [-118.8254, 34.1845], [-118.826, 34.1856], [-118.827, 34.185], [-118.8251, 34.1839], [-118.8241, 34.1802], [-118.8231, 34.1801], [-118.8228, 34.1788], [-118.822, 34.179], [-118.8216, 34.1756], [-118.8226, 34.1726], [-118.8232, 34.1715], [-118.8268, 34.1731], [-118.8309, 34.1718], [-118.8334, 34.1738], [-118.8334, 34.1748], [-118.8351, 34.1749], [-118.8352, 34.176], [-118.8364, 34.1767], [-118.838, 34.1766], [-118.8376, 34.1772], [-118.8386, 34.1769], [-118.8401, 34.179], [-118.8371, 34.1808], [-118.8385, 34.1817], [-118.8374, 34.1857], [-118.8385, 34.1849], [-118.8395, 34.1852], [-118.8401, 34.1822], [-118.8406, 34.1839], [-118.8427, 34.184], [-118.8414, 34.1831], [-118.8419, 34.1811], [-118.841, 34.1811], [-118.841, 34.182], [-118.8403, 34.1812], [-118.8405, 34.1804], [-118.8417, 34.1802], [-118.8439, 34.1814], [-118.843, 34.1827], [-118.8438, 34.1832], [-118.8431, 34.1843], [-118.8455, 34.1856], [-118.8431, 34.1868], [-118.8432, 34.1853], [-118.8421, 34.1851], [-118.8405, 34.1865], [-118.8401, 34.1862], [-118.84, 34.187], [-118.8392, 34.1861], [-118.8367, 34.1859], [-118.8357, 34.1865], [-118.8359, 34.1872], [-118.8368, 34.1871], [-118.8365, 34.188], [-118.8327, 34.1881], [-118.8325, 34.1897], [-118.8345, 34.1927], [-118.8329, 34.1919], [-118.8309, 34.1954], [-118.8316, 34.1976], [-118.8329, 34.1977], [-118.8325, 34.1981], [-118.8339, 34.1991], [-118.8362, 34.1978], [-118.8368, 34.1961], [-118.8377, 34.1959], [-118.8384, 34.1966], [-118.8376, 34.1978], [-118.8384, 34.1986], [-118.8404, 34.1975], [-118.8401, 34.1959], [-118.8423, 34.1957], [-118.8423, 34.1964], [-118.8413, 34.1964], [-118.841, 34.1979], [-118.8395, 34.1989], [-118.8399, 34.2007], [-118.8414, 34.2012], [-118.8392, 34.2036], [-118.8393, 34.2067], [-118.8371, 34.2056], [-118.8345, 34.2055], [-118.8329, 34.2043], [-118.8296, 34.2033], [-118.8251, 34.2037], [-118.8243, 34.2033], [-118.8244, 34.2048], [-118.826, 34.2044], [-118.8244, 34.2067], [-118.8262, 34.2092], [-118.8228, 34.209], [-118.8234, 34.2099], [-118.821, 34.2123], [-118.8167, 34.2124], [-118.8172, 34.2131], [-118.8201, 34.2126], [-118.8187, 34.2134], [-118.8162, 34.2133], [-118.8165, 34.2125], [-118.8151, 34.2117], [-118.8147, 34.2125], [-118.8162, 34.2127], [-118.8158, 34.213], [-118.8096, 34.2125], [-118.8087, 34.2139], [-118.8087, 34.2151], [-118.8104, 34.2159], [-118.8099, 34.217], [-118.8148, 34.2172], [-118.8161, 34.2167], [-118.8155, 34.2175], [-118.8158, 34.2204], [-118.822, 34.2199], [-118.8226, 34.2207], [-118.8215, 34.2227], [-118.8155, 34.224], [-118.8144, 34.2231], [-118.8145, 34.2237], [-118.8135, 34.2237], [-118.8132, 34.2251], [-118.8114, 34.2262], [-118.8042, 34.2285], [-118.8031, 34.2281], [-118.8002, 34.2289], [-118.7996, 34.227], [-118.7985, 34.2269], [-118.7975, 34.2278], [-118.7943, 34.227], [-118.7931, 34.2295], [-118.7941, 34.2316], [-118.792, 34.2335], [-118.7886, 34.2326], [-118.7882, 34.2308], [-118.7889, 34.2304], [-118.7875, 34.23], [-118.7865, 34.2343], [-118.7815, 34.2388], [-118.7842, 34.2371], [-118.7867, 34.2375], [-118.7871, 34.237], [-118.789, 34.2379], [-118.7915, 34.2379], [-118.7968, 34.237], [-118.798, 34.2358], [-118.7978, 34.2352], [-118.8001, 34.2332], [-118.8003, 34.2317], [-118.7996, 34.2312], [-118.8005, 34.2293], [-118.8012, 34.2295], [-118.8019, 34.2315], [-118.8028, 34.2314], [-118.8019, 34.2336], [-118.8036, 34.2351], [-118.8008, 34.2355], [-118.7998, 34.2365], [-118.8, 34.2372], [-118.8014, 34.2377], [-118.7996, 34.2393], [-118.7998, 34.2408], [-118.7976, 34.2406], [-118.7957, 34.2421], [-118.7957, 34.2411], [-118.7931, 34.243], [-118.7919, 34.2423], [-118.7828, 34.2411]], [[-118.7527, 34.1784], [-118.7527, 34.1784], [-118.7527, 34.1784], [-118.7527, 34.1784]], [[-118.7237, 34.1542], [-118.7231, 34.1523], [-118.7242, 34.1503], [-118.7226, 34.1486], [-118.7205, 34.1477], [-118.7162, 34.1492], [-118.7095, 34.15], [-118.7092, 34.1513], [-118.7099, 34.1518], [-118.7091, 34.153], [-118.71, 34.1543], [-118.7185, 34.1582], [-118.7211, 34.1572], [-118.7232, 34.1573], [-118.7237, 34.1542]]], [[[-118.6611, 34.2076], [-118.6605, 34.2056], [-118.6589, 34.2057], [-118.66, 34.2038], [-118.6623, 34.206], [-118.6623, 34.2077], [-118.6611, 34.2076]]], [[[-118.7461, 34.2274], [-118.7461, 34.2274], [-118.7461, 34.2274], [-118.7461, 34.2274]]], [[[-118.6903, 34.2365], [-118.6903, 34.2365], [-118.6903, 34.2365], [-118.6903, 34.2365]]]]}, "properties": {"layer": "perimeter"}}, {"type": "Feature", "geometry": {"type": "MultiPolygon", "coordinates": [[[[-118.953, 34.0486], [-118.953, 34.0488], [-118.9529, 34.0487], [-118.953, 34.0486]]], [[[-118.9528, 34.0489], [-118.953, 34.0491], [-118.9528, 34.049], [-118.9528, 34.0489]]], [[[-118.9545, 34.0489], [-118.9546, 34.0491], [-118.9544, 34.049], [-118.9545, 34.0489]]], [[[-118.955, 34.0493], [-118.955, 34.0491], [-118.9551, 34.0492], [-118.955, 34.0493]]], [[[-118.9665, 34.0551], [-118.9666, 34.0548], [-118.9667, 34.0549], [-118.9665, 34.0551]]], [[[-118.9668, 34.0889], [-118.9659, 34.0897], [-118.9613, 34.0901], [-118.9603, 34.0897], [-118.9599, 34.0905], [-118.9603, 34.0921], [-118.958, 34.0953], [-118.9598, 34.099], [-118.9581, 34.0999], [-118.9596, 34.1008], [-118.959, 34.102], [-118.9599, 34.1041], [-118.9634, 34.1057], [-118.9634, 34.1072], [-118.9569, 34.1072], [-118.9568, 34.1108], [-118.9677, 34.1107], [-118.9677, 34.1072], [-118.9765, 34.1072], [-118.9754, 34.1087], [-118.9746, 34.1085], [-118.9746, 34.1097], [-118.9765, 34.1097], [-118.9802, 34.111], [-118.9822, 34.1108], [-118.9837, 34.1089], [-118.9866, 34.1083], [-118.9883, 34.1091], [-118.9881, 34.1111], [-118.9903, 34.1116], [-118.9912, 34.1128], [-118.996, 34.1114], [-118.9971, 34.1119], [-118.9973, 34.1132], [-118.9956, 34.1132], [-118.9956, 34.1151], [-118.996, 34.1162], [-118.9974, 34.117], [-118.9962, 34.1171], [-118.9945, 34.1188], [-118.9933, 34.1189], [-118.9926, 34.1205], [-118.9887, 34.1206], [-118.987, 34.1222], [-118.9838, 34.1224], [-118.9845, 34.1232], [-118.9832, 34.1235], [-118.9832, 34.1225], [-118.9817, 34.1219], [-118.9794, 34.1221], [-118.9767, 34.1204], [-118.9675, 34.1221], [-118.9649, 34.1204], [-118.9621, 34.1203], [-118.9591, 34.1192], [-118.9592, 34.1182], [-118.9552, 34.1191], [-118.9548, 34.1181], [-118.954, 34.118], [-118.9537, 34.1228], [-118.9528, 34.125], [-118.9487, 34.1253], [-118.9466, 34.1242], [-118.9462, 34.1254], [-118.9442, 34.1264], [-118.9434, 34.1249], [-118.9388, 34.127], [-118.9388, 34.1267], [-118.9502, 34.1218], [-118.9503, 34.1144], [-118.9461, 34.1144], [-118.946, 34.1108], [-118.9417, 34.1108], [-118.9416, 34.1036], [-118.9373, 34.1036], [-118.9373, 34.0928], [-118.9382, 34.0928], [-118.9382, 34.0891], [-118.9373, 34.0891], [-118.9373, 34.0818], [-118.933, 34.0818], [-118.933, 34.0891], [-118.9343, 34.0891], [-118.9343, 34.0964], [-118.9244, 34.0964], [-118.9245, 34.1], [-118.9202, 34.1], [-118.9201, 34.0877], [-118.9176, 34.0892], [-118.9157, 34.0892], [-118.9157, 34.0856], [-118.9123, 34.0856], [-118.9147, 34.0843], [-118.9179, 34.0842], [-118.9201, 34.0818], [-118.9202, 34.0783], [-118.922, 34.0783], [-118.9246, 34.075], [-118.9247, 34.0696], [-118.9202, 34.0682], [-118.9202, 34.0746], [-118.907, 34.0746], [-118.907, 34.0764], [-118.9059, 34.0764], [-118.9059, 34.0783], [-118.907, 34.0783], [-118.907, 34.0819], [-118.9027, 34.0819], [-118.9027, 34.0856], [-118.907, 34.0856], [-118.907, 34.0928], [-118.9027, 34.0928], [-118.9027, 34.0965], [-118.8983, 34.0965], [-118.8983, 34.1001], [-118.894, 34.1001], [-118.8939, 34.1038], [-118.8896, 34.1038], [-118.8896, 34.1001], [-118.8874, 34.1001], [-118.8874, 34.102], [-118.8852, 34.102], [-118.8852, 34.1001], [-118.8847, 34.1001], [-118.8847, 34.1038], [-118.8863, 34.1038], [-118.8863, 34.1047], [-118.8835, 34.1032], [-118.8835, 34.1001], [-118.8797, 34.1001], [-118.8797, 34.1014], [-118.8786, 34.1014], [-118.8786, 34.1], [-118.8764, 34.1], [-118.8764, 34.0964], [-118.8707, 34.0963], [-118.8704, 34.0937], [-118.8691, 34.0913], [-118.8671, 34.0917], [-118.8673, 34.0999], [-118.8742, 34.1], [-118.8742, 34.103], [-118.871, 34.105], [-118.8685, 34.1037], [-118.8682, 34.1045], [-118.8668, 34.104], [-118.8662, 34.1057], [-118.8636, 34.1064], [-118.863, 34.1081], [-118.8639, 34.1091], [-118.8634, 34.1099], [-118.8639, 34.1107], [-118.8601, 34.1098], [-118.8597, 34.1106], [-118.8601, 34.1115], [-118.8614, 34.1117], [-118.8611, 34.1126], [-118.8653, 34.1129], [-118.8653, 34.114], [-118.8644, 34.1139], [-118.8643, 34.1146], [-118.8622, 34.1143], [-118.8615, 34.1153], [-118.8581, 34.1143], [-118.8573, 34.1151], [-118.8561, 34.1145], [-118.8561, 34.1137], [-118.855, 34.114], [-118.8544, 34.1149], [-118.8548, 34.1164], [-118.8536, 34.1161], [-118.8523, 34.1176], [-118.8534, 34.1183], [-118.8543, 34.1214], [-118.8511, 34.1189], [-118.8506, 34.1168], [-118.853, 34.1147], [-118.8519, 34.1139], [-118.852, 34.113], [-118.8535, 34.1129], [-118.8539, 34.1119], [-118.8477, 34.1103], [-118.8368, 34.1164], [-118.8368, 34.1108], [-118.8281, 34.1109], [-118.8281, 34.1181], [-118.8338, 34.1181], [-118.8088, 34.132], [-118.8004, 34.1394], [-118.7874, 34.1363], [-118.7698, 34.1346], [-118.7603, 34.1391], [-118.757, 34.1341], [-118.7575, 34.1323], [-118.7613, 34.1311], [-118.7629, 34.1313], [-118.7625, 34.1307], [-118.7635, 34.1304], [-118.7656, 34.1303], [-118.7662, 34.131], [-118.767, 34.1303], [-118.7716, 34.13], [-118.7687, 34.129], [-118.7668, 34.1193], [-118.7761, 34.1179], [-118.7666, 34.1136], [-118.7641, 34.111], [-118.7556, 34.1111], [-118.753, 34.1128], [-118.7502, 34.1134], [-118.7481, 34.1127], [-118.7457, 34.1107], [-118.7457, 34.1181], [-118.7504, 34.1181], [-118.7494, 34.1247], [-118.7503, 34.126], [-118.7498, 34.1266], [-118.7476, 34.1264], [-118.7438, 34.1275], [-118.7443, 34.1283], [-118.7432, 34.1291], [-118.7453, 34.1306], [-118.7466, 34.1303], [-118.7469, 34.1296], [-118.7491, 34.1308], [-118.7503, 34.1303], [-118.7504, 34.1309], [-118.7521, 34.1314], [-118.7506, 34.1302], [-118.7509, 34.1294], [-118.7527, 34.1312], [-118.7534, 34.1331], [-118.753, 34.1344], [-118.754, 34.1347], [-118.7542, 34.1359], [-118.7562, 34.1372], [-118.7575, 34.1357], [-118.7562, 34.1349], [-118.7546, 34.1322], [-118.7533, 34.1323], [-118.7531, 34.1319], [-118.7539, 34.1315], [-118.7536, 34.1301], [-118.7543, 34.1299], [-118.7556, 34.1303], [-118.7538, 34.1304], [-118.7544, 34.1319], [-118.7553, 34.1328], [-118.7567, 34.1328], [-118.7568, 34.1341], [-118.7602, 34.1391], [-118.7566, 34.1408], [-118.7384, 34.1328], [-118.7368, 34.1312], [-118.7348, 34.1326], [-118.7285, 34.1326], [-118.7285, 34.1315], [-118.7268, 34.1315], [-118.7271, 34.1306], [-118.7263, 34.1308], [-118.7261, 34.1288], [-118.7252, 34.1282], [-118.7255, 34.1276], [-118.7261, 34.1279], [-118.7267, 34.1259], [-118.7258, 34.1261], [-118.725, 34.1253], [-118.7242, 34.1253], [-118.7241, 34.1261], [-118.7241, 34.1253], [-118.707, 34.1254], [-118.7089, 34.1238], [-118.7072, 34.1226], [-118.7118, 34.1089], [-118.7112, 34.1009], [-118.7129, 34.1003], [-118.7147, 34.0992], [-118.7154, 34.098], [-118.7166, 34.0977], [-118.7172, 34.0959], [-118.7169, 34.0953], [-118.715, 34.0951], [-118.7147, 34.0941], [-118.7112, 34.0935], [-118.7116, 34.0944], [-118.7111, 34.0946], [-118.7133, 34.0951], [-118.7157, 34.0977], [-118.7149, 34.0985], [-118.7143, 34.0975], [-118.7131, 34.0979], [-118.7123, 34.1005], [-118.7112, 34.1007], [-118.7116, 34.0961], [-118.7094, 34.0932], [-118.7105, 34.0932], [-118.7099, 34.0922], [-118.7106, 34.0923], [-118.7106, 34.0918], [-118.7083, 34.0896], [-118.7113, 34.09], [-118.7122, 34.0917], [-118.7129, 34.0882], [-118.7142, 34.0874], [-118.7137, 34.087], [-118.7162, 34.0882], [-118.7167, 34.0879], [-118.7129, 34.0837], [-118.7135, 34.0818], [-118.7113, 34.0819], [-118.7095, 34.0807], [-118.7087, 34.0809], [-118.7086, 34.0804], [-118.7107, 34.0793], [-118.7105, 34.0781], [-118.7124, 34.0781], [-118.7122, 34.0773], [-118.7103, 34.0774], [-118.7083, 34.0763], [-118.7064, 34.0767], [-118.7053, 34.0752], [-118.7068, 34.0722], [-118.7083, 34.0721], [-118.7069, 34.071], [-118.7084, 34.0678], [-118.7113, 34.0684], [-118.7112, 34.0676], [-118.7133, 34.0662], [-118.713, 34.0656], [-118.7155, 34.0648], [-118.7149, 34.0646], [-118.7166, 34.0638], [-118.7175, 34.0641], [-118.7161, 34.0633], [-118.7168, 34.0626], [-118.7163, 34.0623], [-118.7187, 34.0611], [-118.7181, 34.0613], [-118.7182, 34.0604], [-118.7174, 34.0603], [-118.7165, 34.0609], [-118.7164, 34.0597], [-118.7145, 34.0584], [-118.7147, 34.057], [-118.7135, 34.0567], [-118.7136, 34.056], [-118.7126, 34.0563], [-118.7131, 34.0556], [-118.7102, 34.0556], [-118.711, 34.0548], [-118.709, 34.0524], [-118.7075, 34.0526], [-118.7075, 34.0519], [-118.7088, 34.0518], [-118.7073, 34.0499], [-118.7067, 34.0508], [-118.7052, 34.0491], [-118.705, 34.05], [-118.7023, 34.0502], [-118.701, 34.0482], [-118.6979, 34.0499], [-118.6962, 34.0481], [-118.6939, 34.0482], [-118.6921, 34.0469], [-118.6922, 34.0459], [-118.6941, 34.0453], [-118.6974, 34.0464], [-118.6972, 34.0456], [-118.699, 34.0447], [-118.6993, 34.0436], [-118.698, 34.0409], [-118.7, 34.0413], [-118.7002, 34.0403], [-118.7021, 34.0397], [-118.7041, 34.0406], [-118.7047, 34.0395], [-118.7062, 34.0402], [-118.7063, 34.0417], [-118.7052, 34.0417], [-118.7063, 34.0429], [-118.7056, 34.0452], [-118.7064, 34.0453], [-118.7073, 34.044], [-118.7083, 34.0457], [-118.7091, 34.0461], [-118.7092, 34.0453], [-118.7096, 34.046], [-118.7099, 34.0454], [-118.7101, 34.0464], [-118.7112, 34.0468], [-118.7117, 34.0444], [-118.7137, 34.0421], [-118.7135, 34.0404], [-118.7157, 34.0397], [-118.715, 34.0377], [-118.7157, 34.0369], [-118.7136, 34.035], [-118.7148, 34.0349], [-118.718, 34.0368], [-118.7196, 34.0437], [-118.7333, 34.0429], [-118.7493, 34.0427], [-118.7488, 34.0449], [-118.7492, 34.0509], [-118.7499, 34.0509], [-118.7491, 34.0512], [-118.7511, 34.0518], [-118.7481, 34.0524], [-118.7484, 34.0547], [-118.7458, 34.0571], [-118.7473, 34.0623], [-118.7486, 34.0622], [-118.7495, 34.0629], [-118.7483, 34.0633], [-118.7458, 34.062], [-118.7459, 34.0629], [-118.7436, 34.0631], [-118.7445, 34.0625], [-118.7451, 34.0603], [-118.7446, 34.0599], [-118.7438, 34.0606], [-118.7424, 34.0597], [-118.7404, 34.0602], [-118.7406, 34.0619], [-118.7418, 34.0624], [-118.7421, 34.0614], [-118.7431, 34.0614], [-118.7424, 34.0611], [-118.7423, 34.06], [-118.7428, 34.06], [-118.7434, 34.061], [-118.7435, 34.0635], [-118.7417, 34.0635], [-118.7408, 34.0642], [-118.7403, 34.0635], [-118.7387, 34.0646], [-118.7406, 34.0649], [-118.7395, 34.0653], [-118.7408, 34.0667], [-118.7425, 34.0657], [-118.7437, 34.0638], [-118.7459, 34.0642], [-118.7471, 34.063], [-118.749, 34.0639], [-118.749, 34.0645], [-118.7443, 34.0648], [-118.7443, 34.0669], [-118.7425, 34.0665], [-118.7413, 34.0673], [-118.7423, 34.0682], [-118.7411, 34.0684], [-118.7431, 34.0682], [-118.7433, 34.0689], [-118.7441, 34.0672], [-118.7466, 34.0669], [-118.7472, 34.0658], [-118.7488, 34.0654], [-118.7473, 34.0659], [-118.7487, 34.0662], [-118.7472, 34.0685], [-118.7487, 34.0685], [-118.7491, 34.0694], [-118.7484, 34.069], [-118.7488, 34.0696], [-118.7476, 34.0698], [-118.7478, 34.0694], [-118.747, 34.0686], [-118.7471, 34.0695], [-118.7461, 34.0695], [-118.7467, 34.07], [-118.7463, 34.0709], [-118.7448, 34.0707], [-118.7432, 34.0714], [-118.7426, 34.0704], [-118.7412, 34.0705], [-118.7404, 34.0695], [-118.7403, 34.0704], [-118.7384, 34.0699], [-118.7388, 34.0707], [-118.7406, 34.0709], [-118.7406, 34.0701], [-118.7412, 34.071], [-118.7422, 34.0704], [-118.7431, 34.0723], [-118.7423, 34.0726], [-118.7432, 34.0724], [-118.7432, 34.0717], [-118.7446, 34.0738], [-118.7448, 34.0732], [-118.7463, 34.0733], [-118.7448, 34.072], [-118.746, 34.072], [-118.7463, 34.0718], [-118.7456, 34.0719], [-118.7458, 34.0716], [-118.745, 34.0715], [-118.7449, 34.0713], [-118.7485, 34.0715], [-118.7478, 34.0701], [-118.7484, 34.0706], [-118.7485, 34.0702], [-118.7492, 34.0747], [-118.7515, 34.0746], [-118.7499, 34.0754], [-118.7533, 34.0761], [-118.7543, 34.0746], [-118.7576, 34.0743], [-118.7574, 34.0671], [-118.7548, 34.0671], [-118.7549, 34.0666], [-118.7572, 34.0665], [-118.7576, 34.0655], [-118.7544, 34.0641], [-118.7567, 34.0634], [-118.7537, 34.0624], [-118.7537, 34.0614], [-118.7549, 34.0599], [-118.7586, 34.0602], [-118.7596, 34.059], [-118.7618, 34.06], [-118.7634, 34.0591], [-118.7636, 34.0582], [-118.7654, 34.0575], [-118.7652, 34.0562], [-118.7664, 34.0557], [-118.7662, 34.0551], [-118.7653, 34.0552], [-118.7626, 34.057], [-118.7654, 34.0496], [-118.764, 34.048], [-118.7651, 34.0443], [-118.7634, 34.0428], [-118.7623, 34.0455], [-118.7626, 34.0471], [-118.7619, 34.0473], [-118.762, 34.0425], [-118.7802, 34.0422], [-118.7933, 34.0384], [-118.792, 34.0389], [-118.792, 34.0454], [-118.7878, 34.0454], [-118.7877, 34.0527], [-118.7937, 34.0528], [-118.7936, 34.0564], [-118.7996, 34.0564], [-118.7996, 34.0597], [-118.8036, 34.0599], [-118.8034, 34.0612], [-118.8059, 34.0635], [-118.8073, 34.0635], [-118.8072, 34.0653], [-118.8118, 34.0689], [-118.8119, 34.0708], [-118.809, 34.0709], [-118.809, 34.0727], [-118.811, 34.0727], [-118.811, 34.0716], [-118.8136, 34.0715], [-118.8136, 34.0745], [-118.8148, 34.0749], [-118.8149, 34.0783], [-118.8186, 34.0793], [-118.8194, 34.0802], [-118.8193, 34.082], [-118.8237, 34.082], [-118.8237, 34.0856], [-118.8325, 34.0855], [-118.8325, 34.0892], [-118.837, 34.0892], [-118.8413, 34.0892], [-118.8413, 34.0855], [-118.8501, 34.0856], [-118.8501, 34.0866], [-118.8513, 34.0872], [-118.8556, 34.0875], [-118.8555, 34.0891], [-118.8623, 34.0891], [-118.8654, 34.0919], [-118.8692, 34.0912], [-118.8692, 34.0891], [-118.8765, 34.0891], [-118.8764, 34.082], [-118.8677, 34.0819], [-118.8677, 34.0855], [-118.8633, 34.0855], [-118.8633, 34.0819], [-118.8589, 34.0819], [-118.8589, 34.0599], [-118.8545, 34.0599], [-118.8545, 34.0581], [-118.8502, 34.0582], [-118.8502, 34.06], [-118.8456, 34.06], [-118.8455, 34.0564], [-118.8568, 34.0563], [-118.8568, 34.0549], [-118.8589, 34.0545], [-118.8589, 34.0563], [-118.8633, 34.0563], [-118.8632, 34.0526], [-118.8589, 34.0527], [-118.8589, 34.0492], [-118.8501, 34.0493], [-118.8501, 34.0467], [-118.8471, 34.0467], [-118.8469, 34.0488], [-118.8456, 34.0488], [-118.8445, 34.0472], [-118.8461, 34.0464], [-118.8461, 34.0445], [-118.8586, 34.0485], [-118.8592, 34.0466], [-118.8607, 34.0477], [-118.8616, 34.0457], [-118.8616, 34.0428], [-118.8697, 34.0428], [-118.8697, 34.0491], [-118.8706, 34.0491], [-118.8706, 34.0523], [-118.9171, 34.0672], [-118.9192, 34.0628], [-118.9194, 34.0557], [-118.9237, 34.0459], [-118.9316, 34.0459], [-118.9337, 34.0449], [-118.9346, 34.0454], [-118.9344, 34.0442], [-118.9371, 34.0436], [-118.9392, 34.0448], [-118.9455, 34.0462], [-118.9484, 34.0477], [-118.9519, 34.0476], [-118.9529, 34.0484], [-118.9524, 34.0493], [-118.9545, 34.0502], [-118.9547, 34.051], [-118.9553, 34.0504], [-118.9563, 34.0508], [-118.9559, 34.0516], [-118.9546, 34.0514], [-118.9553, 34.053], [-118.9575, 34.0532], [-118.9628, 34.0553], [-118.9638, 34.055], [-118.9643, 34.0537], [-118.9675, 34.0562], [-118.9778, 34.0613], [-118.9842, 34.0616], [-118.9921, 34.0651], [-118.9929, 34.066], [-118.9955, 34.0662], [-118.9956, 34.0671], [-118.9943, 34.0673], [-118.9952, 34.0676], [-118.9948, 34.0683], [-118.9939, 34.0677], [-118.9925, 34.0692], [-118.9914, 34.0685], [-118.9902, 34.0691], [-118.9907, 34.0704], [-118.9901, 34.0722], [-118.9913, 34.0726], [-118.992, 34.0725], [-118.9932, 34.0702], [-118.9946, 34.0696], [-118.9975, 34.0702], [-118.993, 34.0716], [-118.9959, 34.0713], [-118.9969, 34.0725], [-118.9933, 34.0749], [-118.9929, 34.0765], [-118.9911, 34.0764], [-118.9905, 34.0801], [-118.9883, 34.0822], [-118.9912, 34.085], [-118.9924, 34.0842], [-118.993, 34.0845], [-118.9914, 34.0858], [-118.9873, 34.0849], [-118.988, 34.0857], [-118.989, 34.0854], [-118.9895, 34.0863], [-118.9911, 34.0865], [-118.9931, 34.0856], [-118.9915, 34.0872], [-118.9875, 34.0886], [-118.9865, 34.0879], [-118.9883, 34.0871], [-118.9872, 34.0864], [-118.9866, 34.0845], [-118.9886, 34.0805], [-118.9896, 34.0799], [-118.9894, 34.0743], [-118.9721, 34.0744], [-118.9722, 34.081], [-118.9744, 34.081], [-118.9744, 34.0819], [-118.9766, 34.0818], [-118.9766, 34.0854], [-118.9749, 34.0852], [-118.9748, 34.0847], [-118.9726, 34.0857], [-118.9729, 34.0843], [-118.9723, 34.084], [-118.9714, 34.085], [-118.9686, 34.0843], [-118.968, 34.0854], [-118.9709, 34.0855], [-118.9696, 34.0871], [-118.968, 34.0875], [-118.9677, 34.0883], [-118.9671, 34.0883], [-118.9668, 34.0885], [-118.9669, 34.0888], [-118.9668, 34.0889]], [[-118.8983, 34.0945], [-118.8954, 34.0945], [-118.8954, 34.0965], [-118.8983, 34.0965], [-118.8983, 34.0945]], [[-118.8072, 34.0653], [-118.8072, 34.0653], [-118.8072, 34.0653], [-118.8072, 34.0653]], [[-118.7053, 34.047], [-118.7047, 34.0451], [-118.7031, 34.0446], [-118.7017, 34.0455], [-118.7028, 34.0458], [-118.7033, 34.0475], [-118.7047, 34.0474], [-118.7041, 34.048], [-118.7046, 34.0483], [-118.7053, 34.047]], [[-118.717, 34.0464], [-118.7174, 34.0452], [-118.716, 34.045], [-118.7148, 34.0427], [-118.7143, 34.0439], [-118.7151, 34.0438], [-118.714, 34.0444], [-118.7135, 34.0467], [-118.7153, 34.0475], [-118.717, 34.0464]], [[-118.7369, 34.043], [-118.7385, 34.045], [-118.7374, 34.0456], [-118.7387, 34.0468], [-118.7388, 34.0459], [-118.7402, 34.0455], [-118.7413, 34.0488], [-118.7415, 34.0458], [-118.7425, 34.0443], [-118.7421, 34.0433], [-118.7369, 34.043]], [[-118.7441, 34.053], [-118.7467, 34.0533], [-118.7455, 34.0523], [-118.7458, 34.0515], [-118.7404, 34.0538], [-118.7418, 34.0549], [-118.7425, 34.0577], [-118.7435, 34.0565], [-118.7437, 34.0544], [-118.7451, 34.0541], [-118.7441, 34.053]], [[-118.7471, 34.0494], [-118.7477, 34.0491], [-118.7485, 34.0477], [-118.7479, 34.0459], [-118.7467, 34.048], [-118.7474, 34.0482], [-118.7471, 34.0494]], [[-118.8552, 34.1072], [-118.8544, 34.1077], [-118.8536, 34.107], [-118.8533, 34.1083], [-118.851, 34.1076], [-118.8526, 34.109], [-118.8529, 34.1083], [-118.8544, 34.109], [-118.8545, 34.108], [-118.8559, 34.108], [-118.857, 34.109], [-118.8572, 34.1077], [-118.8562, 34.1075], [-118.8572, 34.106], [-118.8566, 34.1054], [-118.8548, 34.1057], [-118.8552, 34.1072]], [[-118.9504, 34.0923], [-118.9514, 34.0926], [-118.9531, 34.0911], [-118.9516, 34.0904], [-118.9507, 34.0907], [-118.9504, 34.0923]], [[-118.9552, 34.0976], [-118.955, 34.097], [-118.954, 34.0975], [-118.9575, 34.0984], [-118.9582, 34.098], [-118.9571, 34.0973], [-118.9583, 34.0965], [-118.9571, 34.096], [-118.9552, 34.0976]], [[-118.728, 34.0736], [-118.7344, 34.0741], [-118.7344, 34.0723], [-118.7322, 34.0722], [-118.7322, 34.0671], [-118.728, 34.0671], [-118.728, 34.0736]], [[-118.7616, 34.0671], [-118.7632, 34.0888], [-118.7803, 34.0897], [-118.7798, 34.0857], [-118.7821, 34.0857], [-118.7816, 34.0817], [-118.784, 34.0817], [-118.7843, 34.0857], [-118.7889, 34.0857], [-118.7887, 34.0817], [-118.8003, 34.0818], [-118.8021, 34.0809], [-118.8021, 34.0782], [-118.8068, 34.0783], [-118.8068, 34.0766], [-118.8109, 34.0766], [-118.8119, 34.0753], [-118.8069, 34.0746], [-118.807, 34.0709], [-118.8027, 34.0709], [-118.8025, 34.0727], [-118.8045, 34.0727], [-118.8044, 34.0746], [-118.7975, 34.0745], [-118.7975, 34.076], [-118.7952, 34.0759], [-118.794, 34.0781], [-118.7885, 34.0781], [-118.7884, 34.0745], [-118.7878, 34.0745], [-118.7854, 34.0747], [-118.7838, 34.0745], [-118.7839, 34.0781], [-118.7792, 34.0781], [-118.7793, 34.0745], [-118.7719, 34.0744], [-118.7722, 34.072], [-118.7709, 34.071], [-118.7706, 34.0744], [-118.7661, 34.0743], [-118.7661, 34.0726], [-118.7678, 34.071], [-118.7661, 34.0706], [-118.766, 34.0671], [-118.7616, 34.0671]], [[-118.7615, 34.0615], [-118.7594, 34.0614], [-118.7595, 34.0651], [-118.7582, 34.0671], [-118.7616, 34.0671], [-118.7615, 34.0615]], [[-118.7761, 34.104], [-118.7933, 34.1039], [-118.7933, 34.1028], [-118.7916, 34.1037], [-118.7916, 34.1021], [-118.7889, 34.1021], [-118.7889, 34.1004], [-118.7933, 34.1003], [-118.7934, 34.0986], [-118.7912, 34.0986], [-118.7912, 34.0968], [-118.789, 34.0968], [-118.789, 34.0933], [-118.7803, 34.0933], [-118.7803, 34.0968], [-118.776, 34.0967], [-118.7761, 34.1004], [-118.7675, 34.1003], [-118.7675, 34.104], [-118.7719, 34.104], [-118.7719, 34.1074], [-118.7761, 34.1074], [-118.7761, 34.104]], [[-118.7761, 34.1074], [-118.7761, 34.1112], [-118.7749, 34.1107], [-118.773, 34.1124], [-118.7758, 34.1121], [-118.7787, 34.1143], [-118.7811, 34.114], [-118.7804, 34.1132], [-118.7804, 34.1074], [-118.7761, 34.1074]], [[-118.7698, 34.0648], [-118.7694, 34.0659], [-118.771, 34.0665], [-118.7713, 34.0653], [-118.7698, 34.0648]], [[-118.7714, 34.064], [-118.7747, 34.0649], [-118.7747, 34.0627], [-118.7724, 34.0627], [-118.7724, 34.0618], [-118.7703, 34.0618], [-118.7703, 34.0634], [-118.771, 34.0628], [-118.7714, 34.0633], [-118.7712, 34.0625], [-118.7713, 34.0622], [-118.7717, 34.0634], [-118.7714, 34.064]], [[-118.7853, 34.0745], [-118.7855, 34.0746], [-118.7856, 34.0745], [-118.7853, 34.0745]], [[-118.7931, 34.0709], [-118.798, 34.0709], [-118.7986, 34.0672], [-118.7932, 34.0672], [-118.7931, 34.0709]], [[-118.7956, 34.0968], [-118.7956, 34.0909], [-118.7935, 34.0909], [-118.7934, 34.0968], [-118.7956, 34.0968]], [[-118.802, 34.0811], [-118.8015, 34.0815], [-118.8004, 34.0818], [-118.8021, 34.0819], [-118.802, 34.0811]], [[-118.8114, 34.0974], [-118.8109, 34.1009], [-118.8129, 34.1038], [-118.8237, 34.1037], [-118.8237, 34.1001], [-118.8194, 34.1002], [-118.8194, 34.0951], [-118.8114, 34.0974]], [[-118.8852, 34.0892], [-118.894, 34.0888], [-118.8939, 34.082], [-118.8852, 34.082], [-118.8852, 34.0892]], [[-118.8983, 34.0746], [-118.8895, 34.0747], [-118.8895, 34.0783], [-118.8983, 34.0783], [-118.8983, 34.0746]], [[-118.9027, 34.0749], [-118.9002, 34.0746], [-118.9002, 34.0783], [-118.9027, 34.0783], [-118.9027, 34.0749]], [[-118.9334, 34.0783], [-118.9269, 34.0783], [-118.9269, 34.0801], [-118.9291, 34.0801], [-118.9293, 34.082], [-118.9334, 34.0795], [-118.9334, 34.0783]], [[-118.9292, 34.082], [-118.9204, 34.082], [-118.9202, 34.0876], [-118.9244, 34.085], [-118.9244, 34.0892], [-118.9287, 34.0892], [-118.9292, 34.082]], [[-118.9306, 34.0883], [-118.9303, 34.0887], [-118.9306, 34.0887], [-118.9306, 34.0883]], [[-118.941, 34.0745], [-118.9546, 34.0745], [-118.9547, 34.0598], [-118.9464, 34.0601], [-118.9462, 34.0672], [-118.9419, 34.0672], [-118.941, 34.0745]]], [[[-118.9707, 34.1035], [-118.975, 34.101], [-118.9751, 34.0998], [-118.9766, 34.0994], [-118.9759, 34.0984], [-118.9788, 34.0978], [-118.9774, 34.0977], [-118.9768, 34.0966], [-118.9786, 34.0935], [-118.9786, 34.0959], [-118.9799, 34.0939], [-118.9797, 34.096], [-118.9815, 34.0961], [-118.9846, 34.0947], [-118.985, 34.096], [-118.9842, 34.0967], [-118.9876, 34.0985], [-118.9852, 34.1017], [-118.9808, 34.1015], [-118.9775, 34.1038], [-118.9778, 34.1051], [-118.9771, 34.1047], [-118.9769, 34.1054], [-118.9766, 34.1036], [-118.9707, 34.1035]]], [[[-118.9766, 34.1061], [-118.977, 34.1069], [-118.9766, 34.1071], [-118.9766, 34.1061]]], [[[-118.9244, 34.1289], [-118.9187, 34.1266], [-118.9157, 34.126], [-118.9172, 34.1249], [-118.9158, 34.1241], [-118.9158, 34.1217], [-118.9132, 34.1217], [-118.912, 34.1208], [-118.9112, 34.1199], [-118.9116, 34.1184], [-118.9093, 34.1173], [-118.9096, 34.1163], [-118.9115, 34.1157], [-118.9115, 34.118], [-118.9159, 34.118], [-118.9158, 34.1198], [-118.9202, 34.1198], [-118.9202, 34.1179], [-118.9245, 34.118], [-118.9244, 34.1289]]], [[[-118.9114, 34.1153], [-118.9105, 34.1148], [-118.9106, 34.1144], [-118.9115, 34.1144], [-118.9114, 34.1153]]], [[[-118.9125, 34.1109], [-118.9139, 34.109], [-118.9158, 34.1109], [-118.9125, 34.1109]]], [[[-118.8751, 34.1037], [-118.8751, 34.1037], [-118.8751, 34.1037], [-118.8751, 34.1037]]], [[[-118.8746, 34.1037], [-118.8746, 34.1037], [-118.8747, 34.1037], [-118.8746, 34.1037]]], [[[-118.7679, 34.1289], [-118.7671, 34.1288], [-118.767, 34.1286], [-118.7679, 34.1289]]], [[[-118.7665, 34.1284], [-118.7575, 34.1266], [-118.7574, 34.1263], [-118.7579, 34.1258], [-118.7587, 34.1263], [-118.7593, 34.1255], [-118.7665, 34.1284]]], [[[-118.7563, 34.1246], [-118.7555, 34.1256], [-118.7537, 34.1261], [-118.7553, 34.1239], [-118.7563, 34.1246]]], [[[-118.7532, 34.1262], [-118.7532, 34.1262], [-118.7534, 34.1262], [-118.7532, 34.1262]]], [[[-118.6845, 34.1181], [-118.6846, 34.118], [-118.6848, 34.1181], [-118.6845, 34.1181]]], [[[-118.693, 34.1144], [-118.6928, 34.1129], [-118.694, 34.1115], [-118.6961, 34.1107], [-118.6965, 34.1111], [-118.6983, 34.1093], [-118.699, 34.1097], [-118.6999, 34.1085], [-118.7027, 34.1079], [-118.7026, 34.1067], [-118.7038, 34.1064], [-118.7042, 34.1053], [-118.7045, 34.1066], [-118.7048, 34.1061], [-118.7053, 34.1061], [-118.7056, 34.1067], [-118.7047, 34.1068], [-118.7056, 34.1075], [-118.7064, 34.1059], [-118.7073, 34.1072], [-118.7074, 34.1062], [-118.7094, 34.1061], [-118.7096, 34.1048], [-118.7108, 34.105], [-118.7111, 34.1042], [-118.7111, 34.1072], [-118.7067, 34.1072], [-118.7067, 34.1145], [-118.693, 34.1144]]], [[[-118.9865, 34.0879], [-118.985, 34.0875], [-118.9848, 34.0874], [-118.9865, 34.0879]]], [[[-118.9845, 34.0874], [-118.9821, 34.0882], [-118.9812, 34.0889], [-118.9821, 34.0882], [-118.9845, 34.0874]]], [[[-118.981, 34.0887], [-118.9789, 34.0887], [-118.9783, 34.0882], [-118.9802, 34.086], [-118.9801, 34.0854], [-118.981, 34.0854], [-118.981, 34.0887]]], [[[-118.9797, 34.0854], [-118.9796, 34.0855], [-118.9794, 34.0854], [-118.9797, 34.0854]]], [[[-118.9787, 34.0854], [-118.9775, 34.0862], [-118.9769, 34.0871], [-118.9766, 34.0855], [-118.9787, 34.0854]]], [[[-118.9669, 34.0888], [-118.9669, 34.0888], [-118.9669, 34.0888], [-118.9669, 34.0888]]], [[[-118.7625, 34.1307], [-118.7625, 34.1307], [-118.7625, 34.1307], [-118.7625, 34.1307]]], [[[-118.672, 34.1494], [-118.6744, 34.1497], [-118.6733, 34.1499], [-118.6691, 34.1514], [-118.6692, 34.1507], [-118.6723, 34.15], [-118.672, 34.1494]]], [[[-118.6938, 34.1521], [-118.6782, 34.1515], [-118.6757, 34.1503], [-118.6757, 34.1502], [-118.6799, 34.1513], [-118.6875, 34.1508], [-118.692, 34.1516], [-118.6938, 34.1513], [-118.6938, 34.1521]]], [[[-118.6886, 34.1626], [-118.6865, 34.1618], [-118.6875, 34.1616], [-118.6875, 34.1588], [-118.6868, 34.1588], [-118.6857, 34.1569], [-118.6835, 34.1567], [-118.683, 34.1556], [-118.6818, 34.1555], [-118.6807, 34.1526], [-118.6812, 34.1521], [-118.6937, 34.1525], [-118.6938, 34.1592], [-118.691, 34.1613], [-118.6899, 34.1611], [-118.6886, 34.1626]]], [[[-118.7538, 34.1832], [-118.7539, 34.1831], [-118.754, 34.1831], [-118.7538, 34.1832]]], [[[-118.7188, 34.2263], [-118.7176, 34.2279], [-118.7128, 34.2288], [-118.7126, 34.2297], [-118.7111, 34.2299], [-118.7075, 34.2328], [-118.7056, 34.2329], [-118.7039, 34.2351], [-118.7017, 34.2356], [-118.7017, 34.2284], [-118.708, 34.2284], [-118.708, 34.2241], [-118.6923, 34.2241], [-118.6923, 34.2333], [-118.6912, 34.2345], [-118.6903, 34.2334], [-118.6897, 34.2339], [-118.6906, 34.2347], [-118.688, 34.2335], [-118.6863, 34.2353], [-118.6853, 34.2354], [-118.6852, 34.2344], [-118.684, 34.2339], [-118.6825, 34.2341], [-118.6819, 34.2351], [-118.6812, 34.2343], [-118.6795, 34.2353], [-118.6792, 34.2335], [-118.6777, 34.2332], [-118.6781, 34.2342], [-118.6771, 34.2345], [-118.6744, 34.234], [-118.6738, 34.2344], [-118.6744, 34.2356], [-118.6737, 34.2373], [-118.6727, 34.238], [-118.6722, 34.2374], [-118.6696, 34.2372], [-118.6706, 34.2367], [-118.669, 34.2369], [-118.6694, 34.2362], [-118.6677, 34.2366], [-118.6668, 34.2352], [-118.6654, 34.2359], [-118.6655, 34.2352], [-118.667, 34.2345], [-118.6645, 34.2343], [-118.6645, 34.2324], [-118.6621, 34.2339], [-118.6599, 34.2344], [-118.6592, 34.2341], [-118.6595, 34.2326], [-118.6584, 34.2325], [-118.6576, 34.2316], [-118.6565, 34.2321], [-118.6563, 34.2333], [-118.6556, 34.2331], [-118.6568, 34.2299], [-118.6563, 34.2293], [-118.6568, 34.2277], [-118.6557, 34.227], [-118.6559, 34.2262], [-118.6541, 34.2257], [-118.6541, 34.2235], [-118.6584, 34.2235], [-118.6584, 34.22], [-118.659, 34.2195], [-118.6584, 34.2192], [-118.6584, 34.2166], [-118.6524, 34.2166], [-118.6532, 34.213], [-118.6628, 34.2129], [-118.6628, 34.2093], [-118.6678, 34.2093], [-118.6678, 34.2069], [-118.6691, 34.2061], [-118.6678, 34.2066], [-118.668, 34.195], [-118.6628, 34.195], [-118.6629, 34.192], [-118.6642, 34.1912], [-118.6641, 34.1903], [-118.6682, 34.1913], [-118.6683, 34.1859], [-118.6697, 34.1857], [-118.669, 34.1847], [-118.6703, 34.184], [-118.6696, 34.1807], [-118.6709, 34.1791], [-118.6692, 34.1767], [-118.6682, 34.1767], [-118.6682, 34.1704], [-118.6688, 34.1698], [-118.6682, 34.1684], [-118.6725, 34.1686], [-118.6746, 34.1678], [-118.6742, 34.1547], [-118.6717, 34.1542], [-118.671, 34.1547], [-118.6704, 34.1536], [-118.6697, 34.1538], [-118.6715, 34.1527], [-118.6729, 34.1501], [-118.6747, 34.15], [-118.6792, 34.152], [-118.68, 34.1542], [-118.6808, 34.1544], [-118.6801, 34.1547], [-118.6808, 34.1559], [-118.679, 34.1568], [-118.6778, 34.1608], [-118.6788, 34.1621], [-118.6783, 34.1626], [-118.6805, 34.1631], [-118.6812, 34.1641], [-118.6809, 34.1661], [-118.6801, 34.1656], [-118.6795, 34.166], [-118.6797, 34.165], [-118.6793, 34.1647], [-118.6795, 34.1662], [-118.679, 34.1665], [-118.6798, 34.1673], [-118.683, 34.1677], [-118.6841, 34.1665], [-118.6837, 34.1661], [-118.6852, 34.1659], [-118.6844, 34.1684], [-118.6859, 34.1676], [-118.6869, 34.1676], [-118.6874, 34.1684], [-118.6885, 34.1681], [-118.6883, 34.1671], [-118.6897, 34.1649], [-118.6911, 34.1649], [-118.6904, 34.1629], [-118.6912, 34.1633], [-118.6916, 34.1628], [-118.6911, 34.1626], [-118.6931, 34.1615], [-118.6939, 34.1617], [-118.6933, 34.164], [-118.6938, 34.1686], [-118.7164, 34.1683], [-118.7164, 34.1714], [-118.7147, 34.1748], [-118.7169, 34.1805], [-118.7194, 34.1821], [-118.7201, 34.1816], [-118.721, 34.1819], [-118.7204, 34.183], [-118.7192, 34.1828], [-118.7189, 34.1841], [-118.7198, 34.1931], [-118.7215, 34.1932], [-118.7233, 34.196], [-118.7244, 34.1962], [-118.732, 34.2086], [-118.7418, 34.2111], [-118.7502, 34.216], [-118.7167, 34.2241], [-118.7188, 34.2263]]], [[[-118.6922, 34.2365], [-118.6913, 34.236], [-118.6911, 34.236], [-118.6907, 34.2363], [-118.6903, 34.2365], [-118.6891, 34.2361], [-118.6923, 34.2352], [-118.6922, 34.2365]]], [[[-118.6922, 34.2345], [-118.6923, 34.2344], [-118.6923, 34.2346], [-118.6922, 34.2345]]], [[[-118.7454, 34.168], [-118.75, 34.168], [-118.7475, 34.1707], [-118.748, 34.1718], [-118.7523, 34.1741], [-118.7526, 34.1753], [-118.7556, 34.1753], [-118.7553, 34.1775], [-118.753, 34.1784], [-118.7524, 34.1785], [-118.7504, 34.1782], [-118.7497, 34.1791], [-118.7506, 34.1814], [-118.7536, 34.1832], [-118.7527, 34.1846], [-118.7536, 34.1855], [-118.7525, 34.1881], [-118.7508, 34.1887], [-118.7511, 34.19], [-118.7484, 34.1826], [-118.7483, 34.1781], [-118.7467, 34.1765], [-118.7469, 34.1735], [-118.7453, 34.1689], [-118.7454, 34.168]], [[-118.7527, 34.1784], [-118.7527, 34.1784], [-118.7527, 34.1784], [-118.7527, 34.1784]]], [[[-118.7516, 34.191], [-118.7528, 34.1926], [-118.7537, 34.1925], [-118.7543, 34.1916], [-118.7591, 34.1918], [-118.7624, 34.1908], [-118.7637, 34.1892], [-118.7642, 34.1865], [-118.7632, 34.1859], [-118.7633, 34.185], [-118.7669, 34.1872], [-118.7686, 34.1862], [-118.7683, 34.1851], [-118.767, 34.1847], [-118.7676, 34.1825], [-118.7699, 34.1821], [-118.7705, 34.1829], [-118.7708, 34.1816], [-118.774, 34.1819], [-118.7727, 34.1812], [-118.7726, 34.1803], [-118.7719, 34.1806], [-118.7721, 34.1795], [-118.7702, 34.1796], [-118.7709, 34.179], [-118.7707, 34.1777], [-118.7659, 34.1742], [-118.7662, 34.1733], [-118.7673, 34.1735], [-118.7691, 34.1726], [-118.7688, 34.1711], [-118.7673, 34.1707], [-118.7677, 34.1681], [-118.7889, 34.1682], [-118.7884, 34.1695], [-118.7884, 34.1689], [-118.7872, 34.1688], [-118.7879, 34.1699], [-118.7846, 34.1723], [-118.7818, 34.1722], [-118.783, 34.1732], [-118.7819, 34.1742], [-118.7831, 34.1749], [-118.7829, 34.1755], [-118.781, 34.1762], [-118.782, 34.1749], [-118.776, 34.174], [-118.7739, 34.1751], [-118.7755, 34.1756], [-118.7749, 34.1769], [-118.7731, 34.1766], [-118.7742, 34.1794], [-118.7727, 34.1802], [-118.773, 34.1806], [-118.7742, 34.1801], [-118.7759, 34.1806], [-118.7764, 34.1817], [-118.7791, 34.1829], [-118.7819, 34.1825], [-118.782, 34.1831], [-118.7796, 34.1842], [-118.779, 34.1852], [-118.781, 34.1855], [-118.78, 34.1871], [-118.784, 34.1899], [-118.7821, 34.1897], [-118.7798, 34.1907], [-118.7754, 34.1911], [-118.7748, 34.1897], [-118.7739, 34.1897], [-118.7716, 34.1917], [-118.7704, 34.1917], [-118.7713, 34.1957], [-118.7746, 34.1953], [-118.7752, 34.1937], [-118.7758, 34.1937], [-118.7759, 34.1952], [-118.7776, 34.1955], [-118.7781, 34.1963], [-118.7798, 34.1961], [-118.7815, 34.1972], [-118.7826, 34.197], [-118.7825, 34.1965], [-118.7838, 34.197], [-118.7834, 34.1992], [-118.7613, 34.1989], [-118.7547, 34.197], [-118.7516, 34.191]]], [[[-118.6903, 34.2365], [-118.6903, 34.2365], [-118.6903, 34.2365], [-118.6903, 34.2365]]], [[[-118.8315, 34.0493], [-118.8326, 34.0493], [-118.8326, 34.0528], [-118.8293, 34.0528], [-118.8293, 34.0493], [-118.8304, 34.0493], [-118.8304, 34.0475], [-118.8315, 34.0475], [-118.8315, 34.0493]]], [[[-118.8281, 34.0708], [-118.8346, 34.0709], [-118.8346, 34.0727], [-118.8368, 34.0727], [-118.8368, 34.0745], [-118.8281, 34.0745], [-118.8281, 34.0708]]], [[[-118.8238, 34.0754], [-118.8238, 34.0745], [-118.8281, 34.0745], [-118.8281, 34.0754], [-118.8238, 34.0754]]], [[[-118.8457, 34.0819], [-118.8457, 34.0747], [-118.8545, 34.0747], [-118.8545, 34.0856], [-118.8501, 34.0856], [-118.8501, 34.082], [-118.8457, 34.0819]]], [[[-118.9202, 34.1073], [-118.9245, 34.1073], [-118.9245, 34.1116], [-118.9202, 34.1118], [-118.9202, 34.1073]], [[-118.9224, 34.1113], [-118.9234, 34.1109], [-118.9224, 34.1109], [-118.9224, 34.1113]]], [[[-118.7936, 34.0384], [-118.7933, 34.0384], [-118.7936, 34.0384], [-118.7936, 34.0384]]], [[[-118.7938, 34.0396], [-118.7936, 34.0384], [-118.7948, 34.0382], [-118.7948, 34.0396], [-118.7938, 34.0396]]], [[[-118.7932, 34.0357], [-118.7997, 34.0371], [-118.7986, 34.0377], [-118.7972, 34.0402], [-118.7973, 34.0427], [-118.7963, 34.0424], [-118.7962, 34.0383], [-118.7945, 34.0379], [-118.7932, 34.0357]]], [[[-118.8196, 34.0501], [-118.8196, 34.0458], [-118.8282, 34.0458], [-118.8282, 34.0528], [-118.8228, 34.0528], [-118.8228, 34.0519], [-118.8239, 34.0519], [-118.8239, 34.0502], [-118.8196, 34.0501]]]]}, "properties": {"layer": "retained"}}]}
