{"type": "FeatureCollection", "features": [{"type": "Feature", "geometry": {"type": "MultiPolygon", "coordinates": [[[[-123.2856, 41.8093], [-123.2859, 41.8089], [-123.2858, 41.8093], [-123.2856, 41.8093]]], [[[-123.2661, 41.8214], [-123.2665, 41.821], [-123.2665, 41.8213], [-123.2661, 41.8214]]], [[[-123.2552, 41.8646], [-123.2542, 41.8657], [-123.2511, 41.866], [-123.2498, 41.8646], [-123.25, 41.8627], [-123.2472, 41.8567], [-123.2427, 41.8571], [-123.2424, 41.8576], [-123.2385, 41.8585], [-123.2344, 41.8576], [-123.23, 41.8505], [-123.2276, 41.849], [-123.225, 41.8457], [-123.2223, 41.8445], [-123.2191, 41.8417], [-123.2137, 41.8414], [-123.2148, 41.8403], [-123.2178, 41.8398], [-123.2179, 41.8369], [-123.2165, 41.8362], [-123.2131, 41.8373], [-123.2131, 41.8361], [-123.2181, 41.8315], [-123.2194, 41.8308], [-123.2204, 41.8313], [-123.2218, 41.8304], [-123.2238, 41.8306], [-123.2255, 41.8292], [-123.2286, 41.8282], [-123.2302, 41.8264], [-123.2345, 41.8251], [-123.2379, 41.8249], [-123.2381, 41.8265], [-123.2392, 41.8257], [-123.2411, 41.8264], [-123.2427, 41.8255], [-123.2472, 41.8254], [-123.249, 41.8264], [-123.248, 41.8271], [-123.2473, 41.8296], [-123.2489, 41.8294], [-123.2503, 41.8281], [-123.2525, 41.8279], [-123.2536, 41.827], [-123.2549, 41.828], [-123.257, 41.8279], [-123.2552, 41.8256], [-123.2555, 41.8228], [-123.2587, 41.8216], [-123.2586, 41.8228], [-123.2593, 41.8232], [-123.2601, 41.8227], [-123.2605, 41.8239], [-123.2618, 41.8245], [-123.2617, 41.8232], [-123.2625, 41.8228], [-123.2619, 41.8216], [-123.264, 41.8197], [-123.2652, 41.8236], [-123.2672, 41.8242], [-123.2676, 41.8252], [-123.2698, 41.8249], [-123.2703, 41.8213], [-123.2669, 41.8193], [-123.2659, 41.8177], [-123.2686, 41.8155], [-123.2715, 41.8149], [-123.2721, 41.8135], [-123.2734, 41.8135], [-123.2738, 41.8122], [-123.2764, 41.814], [-123.2777, 41.8138], [-123.2799, 41.8114], [-123.2807, 41.812], [-123.2846, 41.812], [-123.286, 41.8106], [-123.2869, 41.8075], [-123.2889, 41.8071], [-123.2899, 41.8082], [-123.2914, 41.8065], [-123.2929, 41.8069], [-123.2937, 41.8055], [-123.2973, 41.8047], [-123.299, 41.8055], [-123.3, 41.8049], [-123.3006, 41.8056], [-123.3016, 41.8056], [-123.3031, 41.8081], [-123.2979, 41.8116], [-123.2973, 41.8129], [-123.2986, 41.8128], [-123.2995, 41.8152], [-123.3014, 41.8154], [-123.3019, 41.8169], [-123.3039, 41.8185], [-123.3011, 41.8207], [-123.2981, 41.8264], [-123.2963, 41.8277], [-123.2953, 41.8317], [-123.296, 41.8339], [-123.3002, 41.8398], [-123.3013, 41.8444], [-123.3051, 41.8466], [-123.3073, 41.8495], [-123.3068, 41.8498], [-123.3092, 41.8518], [-123.3098, 41.8552], [-123.3077, 41.8574], [-123.3068, 41.8601], [-123.3081, 41.8648], [-123.3045, 41.8666], [-123.2984, 41.8681], [-123.2904, 41.8671], [-123.2895, 41.8679], [-123.2884, 41.8674], [-123.2863, 41.8681], [-123.2851, 41.8673], [-123.281, 41.8672], [-123.2772, 41.8657], [-123.2722, 41.867], [-123.2703, 41.8669], [-123.2683, 41.8652], [-123.2708, 41.863], [-123.2704, 41.8608], [-123.2711, 41.8598], [-123.2679, 41.8585], [-123.2632, 41.8597], [-123.257, 41.864], [-123.2549, 41.8629], [-123.2552, 41.8646]]]]}, "properties": {"layer": "perimeter"}}, {"type": "Feature", "geometry": {"type": "MultiPolygon", "coordinates": [[[[-123.2177, 41.8415], [-123.2139, 41.8416], [-123.2136, 41.8412], [-123.2148, 41.8403], [-123.2177, 41.8399], [-123.2177, 41.8415]]], [[[-123.2177, 41.8397], [-123.2177, 41.8366], [-123.2163, 41.8362], [-123.2131, 41.8373], [-123.2132, 41.8361], [-123.2194, 41.8359], [-123.2195, 41.8382], [-123.2177, 41.8382], [-123.2177, 41.8397]]], [[[-123.3042, 41.8462], [-123.305, 41.8465], [-123.3054, 41.8473], [-123.3042, 41.8473], [-123.3042, 41.8462]]], [[[-123.3088, 41.8512], [-123.3092, 41.8518], [-123.3099, 41.8541], [-123.3088, 41.8541], [-123.3088, 41.8512]]], [[[-123.3089, 41.8558], [-123.3091, 41.856], [-123.3089, 41.8563], [-123.3089, 41.8558]]], [[[-123.3082, 41.8644], [-123.3074, 41.8653], [-123.3061, 41.8657], [-123.3061, 41.8645], [-123.3082, 41.8644]]], [[[-123.2723, 41.8669], [-123.272, 41.867], [-123.2719, 41.8669], [-123.2723, 41.8669]]], [[[-123.2622, 41.8604], [-123.2622, 41.8605], [-123.2622, 41.8605], [-123.2622, 41.8604]]], [[[-123.261, 41.8612], [-123.2605, 41.8613], [-123.26, 41.8616], [-123.26, 41.8612], [-123.261, 41.8612]]], [[[-123.2589, 41.8621], [-123.2591, 41.8622], [-123.2589, 41.8626], [-123.2589, 41.8621]]], [[[-123.2585, 41.863], [-123.2581, 41.8633], [-123.2577, 41.8635], [-123.2577, 41.863], [-123.2585, 41.863]]]]}, "properties": {"layer": "retained"}}]}
