{"type": "FeatureCollection", "features": [{"type": "Feature", "geometry": {"type": "Polygon", "coordinates": [[[-115.1277, 35.4505], [-115.1267, 35.447], [-115.1258, 35.4482], [-115.1257, 35.4478], [-115.1268, 35.4446], [-115.1283, 35.4432], [-115.1285, 35.4407], [-115.1255, 35.4415], [-115.125, 35.4429], [-115.1218, 35.445], [-115.1203, 35.4471], [-115.1191, 35.4469], [-115.1165, 35.4446], [-115.1174, 35.4402], [-115.1153, 35.4341], [-115.1202, 35.432], [-115.1211, 35.4305], [-115.1202, 35.4298], [-115.1143, 35.4298], [-115.1129, 35.4281], [-115.1133, 35.427], [-115.1169, 35.4249], [-115.1193, 35.4253], [-115.1226, 35.4247], [-115.126, 35.4254], [-115.1279, 35.4212], [-115.1276, 35.4197], [-115.1251, 35.4194], [-115.1232, 35.4214], [-115.12, 35.4227], [-115.1149, 35.4234], [-115.113, 35.4229], [-115.1133, 35.42], [-115.1125, 35.4195], [-115.1118, 35.4184], [-115.1108, 35.4175], [-115.1107, 35.4172], [-115.1117, 35.4147], [-115.1082, 35.4123], [-115.1083, 35.4114], [-115.1097, 35.4103], [-115.1089, 35.4098], [-115.1092, 35.4091], [-115.1067, 35.4078], [-115.1042, 35.4075], [-115.1035, 35.4064], [-115.1013, 35.4057], [-115.101, 35.4071], [-115.0998, 35.4076], [-115.0966, 35.4074], [-115.0974, 35.4054], [-115.0974, 35.4043], [-115.0967, 35.404], [-115.0985, 35.4025], [-115.0974, 35.4016], [-115.0971, 35.4], [-115.0987, 35.3953], [-115.098, 35.3902], [-115.0997, 35.3897], [-115.0982, 35.3886], [-115.096, 35.3897], [-115.0927, 35.3875], [-115.0885, 35.3862], [-115.0905, 35.3839], [-115.0926, 35.3842], [-115.0936, 35.3833], [-115.0964, 35.3829], [-115.0923, 35.382], [-115.0932, 35.3807], [-115.0931, 35.3786], [-115.0908, 35.3774], [-115.0911, 35.3768], [-115.0917, 35.3764], [-115.0916, 35.3773], [-115.0957, 35.3783], [-115.0951, 35.3768], [-115.0969, 35.3776], [-115.0967, 35.3763], [-115.098, 35.3769], [-115.0997, 35.3757], [-115.1017, 35.3765], [-115.0999, 35.3744], [-115.0957, 35.3737], [-115.0936, 35.3702], [-115.0997, 35.3638], [-115.1037, 35.356], [-115.1078, 35.3504], [-115.105, 35.3407], [-115.1012, 35.3352], [-115.1017, 35.3277], [-115.1032, 35.3243], [-115.1051, 35.3225], [-115.1156, 35.3167], [-115.1226, 35.3091], [-115.1242, 35.306], [-115.1276, 35.303], [-115.127, 35.3011], [-115.1244, 35.3], [-115.1234, 35.2942], [-115.1226, 35.2945], [-115.1217, 35.2936], [-115.1207, 35.295], [-115.1212, 35.2937], [-115.1206, 35.2922], [-115.1222, 35.2922], [-115.1216, 35.2917], [-115.1221, 35.2913], [-115.1209, 35.2834], [-115.1224, 35.2844], [-115.1198, 35.2787], [-115.1196, 35.2746], [-115.1223, 35.2776], [-115.1252, 35.2794], [-115.1239, 35.2761], [-115.1242, 35.2731], [-115.1261, 35.2751], [-115.1285, 35.2759], [-115.1299, 35.2776], [-115.1311, 35.2745], [-115.1359, 35.2765], [-115.1351, 35.2738], [-115.1386, 35.2756], [-115.1387, 35.2736], [-115.1374, 35.2726], [-115.1386, 35.2725], [-115.1411, 35.2742], [-115.1453, 35.2803], [-115.1476, 35.2816], [-115.1472, 35.2788], [-115.1478, 35.2781], [-115.1503, 35.283], [-115.1512, 35.2827], [-115.1506, 35.2806], [-115.1489, 35.2782], [-115.1513, 35.2787], [-115.1541, 35.2816], [-115.1547, 35.2814], [-115.1543, 35.2804], [-115.1533, 35.2792], [-115.1558, 35.2796], [-115.1551, 35.2781], [-115.1521, 35.2757], [-115.1512, 35.2742], [-115.1515, 35.2731], [-115.1526, 35.2736], [-115.1546, 35.2727], [-115.1675, 35.274], [-115.1669, 35.273], [-115.166, 35.2734], [-115.1648, 35.2714], [-115.1657, 35.2702], [-115.1652, 35.2687], [-115.1661, 35.2685], [-115.1666, 35.2693], [-115.1664, 35.2686], [-115.1707, 35.2684], [-115.1722, 35.2676], [-115.1724, 35.2664], [-115.1672, 35.2599], [-115.1608, 35.2545], [-115.1604, 35.2527], [-115.1616, 35.2508], [-115.1633, 35.2509], [-115.1667, 35.2555], [-115.17, 35.2574], [-115.1716, 35.2597], [-115.1728, 35.2599], [-115.1726, 35.2607], [-115.1737, 35.2621], [-115.1756, 35.2629], [-115.1764, 35.2651], [-115.176, 35.2676], [-115.177, 35.2689], [-115.1802, 35.2713], [-115.1837, 35.2724], [-115.1843, 35.2721], [-115.1834, 35.2706], [-115.1841, 35.269], [-115.1827, 35.2678], [-115.1832, 35.2674], [-115.1886, 35.2703], [-115.192, 35.2709], [-115.1993, 35.2737], [-115.205, 35.2721], [-115.2078, 35.2721], [-115.2097, 35.2706], [-115.2028, 35.2695], [-115.1981, 35.2677], [-115.1955, 35.2656], [-115.1931, 35.2651], [-115.1925, 35.2609], [-115.1913, 35.2601], [-115.1917, 35.2589], [-115.1892, 35.258], [-115.1862, 35.2581], [-115.1884, 35.2569], [-115.1952, 35.2588], [-115.1977, 35.2562], [-115.1987, 35.2527], [-115.1997, 35.2525], [-115.204, 35.2549], [-115.2041, 35.2566], [-115.2135, 35.2584], [-115.2172, 35.2603], [-115.2186, 35.263], [-115.2213, 35.2634], [-115.2227, 35.2644], [-115.2235, 35.264], [-115.2203, 35.2616], [-115.2168, 35.257], [-115.2152, 35.2514], [-115.2128, 35.2477], [-115.2123, 35.2431], [-115.2144, 35.2404], [-115.2184, 35.2388], [-115.2235, 35.235], [-115.2246, 35.2349], [-115.2249, 35.2336], [-115.2263, 35.2327], [-115.2312, 35.2321], [-115.2378, 35.2325], [-115.2376, 35.2308], [-115.232, 35.2291], [-115.2279, 35.2267], [-115.2273, 35.2248], [-115.2202, 35.2245], [-115.2237, 35.2235], [-115.2323, 35.2229], [-115.2349, 35.2212], [-115.2323, 35.2197], [-115.2298, 35.2195], [-115.2295, 35.2181], [-115.2265, 35.2179], [-115.2259, 35.2173], [-115.2183, 35.2162], [-115.2159, 35.2167], [-115.2145, 35.2178], [-115.2145, 35.2167], [-115.2109, 35.2167], [-115.2096, 35.2155], [-115.2075, 35.2159], [-115.209, 35.2124], [-115.2077, 35.2113], [-115.2074, 35.2094], [-115.2083, 35.2082], [-115.2081, 35.2073], [-115.2103, 35.2064], [-115.2129, 35.2066], [-115.2142, 35.2047], [-115.2115, 35.2036], [-115.2073, 35.2034], [-115.2019, 35.1994], [-115.1969, 35.178], [-115.1948, 35.1785], [-115.192, 35.1774], [-115.1923, 35.1813], [-115.1912, 35.1848], [-115.1895, 35.1853], [-115.1888, 35.1826], [-115.1894, 35.1807], [-115.187, 35.1804], [-115.1851, 35.1793], [-115.1849, 35.1784], [-115.1831, 35.1782], [-115.1818, 35.1772], [-115.1858, 35.1776], [-115.1859, 35.1765], [-115.1895, 35.1759], [-115.1865, 35.1738], [-115.187, 35.1693], [-115.1852, 35.1682], [-115.1844, 35.1685], [-115.1776, 35.1662], [-115.1777, 35.1657], [-115.175, 35.1652], [-115.1759, 35.1647], [-115.18, 35.1653], [-115.1816, 35.1662], [-115.1832, 35.1655], [-115.1853, 35.1661], [-115.1859, 35.1653], [-115.1842, 35.1646], [-115.1852, 35.164], [-115.1899, 35.164], [-115.195, 35.1665], [-115.1944, 35.163], [-115.1933, 35.161], [-115.1788, 35.1555], [-115.1795, 35.1477], [-115.1657, 35.1399], [-115.1654, 35.1378], [-115.1687, 35.1374], [-115.1671, 35.1357], [-115.1681, 35.1329], [-115.1856, 35.139], [-115.1865, 35.1383], [-115.1855, 35.1366], [-115.1863, 35.1341], [-115.193, 35.1348], [-115.1958, 35.1367], [-115.1996, 35.1368], [-115.2068, 35.1389], [-115.2126, 35.1422], [-115.218, 35.1477], [-115.2225, 35.1486], [-115.2205, 35.1395], [-115.224, 35.1403], [-115.2297, 35.1405], [-115.2408, 35.1486], [-115.2468, 35.1507], [-115.2577, 35.1577], [-115.2625, 35.1622], [-115.276, 35.1662], [-115.2805, 35.1688], [-115.2854, 35.1731], [-115.2867, 35.1763], [-115.2948, 35.1824], [-115.2976, 35.1818], [-115.3009, 35.1843], [-115.305, 35.1851], [-115.3067, 35.1844], [-115.3075, 35.1859], [-115.3092, 35.186], [-115.313, 35.1887], [-115.315, 35.1892], [-115.3162, 35.1912], [-115.3171, 35.191], [-115.3185, 35.1923], [-115.3183, 35.1942], [-115.32, 35.1977], [-115.3207, 35.1972], [-115.3215, 35.1976], [-115.3216, 35.2005], [-115.321, 35.201], [-115.3226, 35.2047], [-115.3236, 35.2053], [-115.3232, 35.2077], [-115.3242, 35.2098], [-115.3241, 35.2106], [-115.323, 35.2111], [-115.3229, 35.2141], [-115.3187, 35.2159], [-115.3196, 35.218], [-115.3188, 35.2193], [-115.3162, 35.2209], [-115.3151, 35.2207], [-115.3137, 35.2218], [-115.3149, 35.2224], [-115.3144, 35.2229], [-115.3154, 35.2235], [-115.3162, 35.2268], [-115.314, 35.2248], [-115.3129, 35.2244], [-115.313, 35.2252], [-115.3122, 35.2249], [-115.3119, 35.2238], [-115.3116, 35.225], [-115.3128, 35.2261], [-115.3116, 35.2267], [-115.311, 35.2263], [-115.3105, 35.2272], [-115.312, 35.2288], [-115.3119, 35.2302], [-115.3096, 35.2285], [-115.309, 35.2289], [-115.3096, 35.2306], [-115.3111, 35.2312], [-115.3107, 35.232], [-115.309, 35.2321], [-115.312, 35.234], [-115.3126, 35.2355], [-115.3121, 35.2365], [-115.3128, 35.237], [-115.3122, 35.2372], [-115.3132, 35.2376], [-115.312, 35.2383], [-115.3092, 35.2381], [-115.3105, 35.2387], [-115.3097, 35.2396], [-115.3102, 35.2418], [-115.3124, 35.2426], [-115.3129, 35.2445], [-115.3151, 35.2459], [-115.3144, 35.2468], [-115.3149, 35.2483], [-115.3144, 35.25], [-115.3137, 35.2509], [-115.3124, 35.2507], [-115.3121, 35.2482], [-115.3112, 35.2481], [-115.3102, 35.2467], [-115.3046, 35.2449], [-115.3032, 35.2433], [-115.302, 35.2432], [-115.3007, 35.2441], [-115.3023, 35.2449], [-115.3, 35.2457], [-115.2993, 35.2485], [-115.298, 35.248], [-115.2991, 35.2472], [-115.2964, 35.2462], [-115.2961, 35.2473], [-115.2937, 35.2479], [-115.2944, 35.2482], [-115.2926, 35.2483], [-115.2961, 35.2468], [-115.2958, 35.2443], [-115.2946, 35.2439], [-115.2932, 35.2456], [-115.2917, 35.2457], [-115.2915, 35.2448], [-115.2929, 35.2435], [-115.2906, 35.2422], [-115.2912, 35.2413], [-115.2962, 35.2405], [-115.2959, 35.2398], [-115.2967, 35.2396], [-115.296, 35.2377], [-115.2929, 35.2381], [-115.2927, 35.2369], [-115.2944, 35.2354], [-115.2933, 35.2347], [-115.2934, 35.2329], [-115.2942, 35.2324], [-115.2934, 35.2315], [-115.2937, 35.2306], [-115.2978, 35.2264], [-115.2961, 35.2254], [-115.2946, 35.2222], [-115.2937, 35.2221], [-115.2917, 35.2272], [-115.292, 35.2245], [-115.2911, 35.2241], [-115.2904, 35.2247], [-115.2892, 35.2273], [-115.29, 35.2289], [-115.2884, 35.2291], [-115.2864, 35.2275], [-115.2826, 35.229], [-115.2848, 35.2329], [-115.2833, 35.2347], [-115.2868, 35.2352], [-115.2877, 35.2363], [-115.2875, 35.237], [-115.2852, 35.2378], [-115.2846, 35.2389], [-115.2873, 35.2403], [-115.287, 35.2432], [-115.2892, 35.2441], [-115.2879, 35.2452], [-115.284, 35.2461], [-115.2834, 35.2472], [-115.2914, 35.2553], [-115.2909, 35.2559], [-115.2887, 35.2561], [-115.2879, 35.2597], [-115.2845, 35.2561], [-115.2798, 35.2558], [-115.2794, 35.2583], [-115.281, 35.2591], [-115.2809, 35.2595], [-115.2868, 35.2622], [-115.2872, 35.2637], [-115.2844, 35.2662], [-115.284, 35.2678], [-115.285, 35.2714], [-115.2876, 35.2728], [-115.2866, 35.2747], [-115.2879, 35.2761], [-115.2882, 35.2781], [-115.2876, 35.2797], [-115.2862, 35.2802], [-115.2837, 35.2797], [-115.2831, 35.2848], [-115.2838, 35.2856], [-115.2845, 35.2853], [-115.2857, 35.2831], [-115.2894, 35.2814], [-115.2879, 35.2861], [-115.289, 35.286], [-115.2906, 35.2843], [-115.2915, 35.2843], [-115.2915, 35.287], [-115.2952, 35.2887], [-115.2954, 35.2925], [-115.2931, 35.2951], [-115.293, 35.2974], [-115.2948, 35.2972], [-115.2962, 35.2983], [-115.2969, 35.3005], [-115.2983, 35.3], [-115.2996, 35.3011], [-115.2994, 35.3049], [-115.3031, 35.3043], [-115.3035, 35.3051], [-115.3058, 35.3051], [-115.3074, 35.3014], [-115.3093, 35.3008], [-115.3133, 35.3006], [-115.3151, 35.3019], [-115.315, 35.3042], [-115.3123, 35.3048], [-115.3108, 35.306], [-115.3102, 35.3131], [-115.3128, 35.3192], [-115.3119, 35.3265], [-115.3142, 35.3372], [-115.3117, 35.3368], [-115.3118, 35.3378], [-115.3084, 35.3406], [-115.3006, 35.3392], [-115.2978, 35.3368], [-115.2951, 35.3357], [-115.2903, 35.3308], [-115.2887, 35.332], [-115.289, 35.335], [-115.2875, 35.3354], [-115.2763, 35.3276], [-115.271, 35.3255], [-115.2675, 35.3225], [-115.2641, 35.321], [-115.2613, 35.3178], [-115.2597, 35.3178], [-115.2592, 35.3193], [-115.2599, 35.3212], [-115.2638, 35.3235], [-115.265, 35.3257], [-115.2666, 35.3269], [-115.2708, 35.335], [-115.2765, 35.3382], [-115.2755, 35.3405], [-115.2741, 35.3414], [-115.2675, 35.3412], [-115.2637, 35.3395], [-115.2603, 35.3364], [-115.26, 35.3343], [-115.2611, 35.3317], [-115.2624, 35.3313], [-115.2637, 35.3358], [-115.2656, 35.3366], [-115.2672, 35.3361], [-115.2675, 35.3345], [-115.2655, 35.3315], [-115.2654, 35.3295], [-115.2603, 35.327], [-115.2563, 35.324], [-115.255, 35.3244], [-115.2552, 35.3284], [-115.2522, 35.3289], [-115.2509, 35.3298], [-115.2512, 35.3375], [-115.2505, 35.3404], [-115.2536, 35.342], [-115.25, 35.3464], [-115.2497, 35.3484], [-115.2533, 35.3526], [-115.2556, 35.3531], [-115.26, 35.3519], [-115.2611, 35.3546], [-115.2662, 35.3551], [-115.2673, 35.356], [-115.2667, 35.3572], [-115.2624, 35.3587], [-115.2623, 35.3619], [-115.2604, 35.3674], [-115.249, 35.3731], [-115.2417, 35.3722], [-115.24, 35.3734], [-115.2384, 35.377], [-115.2371, 35.3782], [-115.2315, 35.3785], [-115.2216, 35.3823], [-115.2216, 35.3936], [-115.2245, 35.397], [-115.2245, 35.3987], [-115.2231, 35.3991], [-115.2183, 35.3985], [-115.2161, 35.3995], [-115.2152, 35.4015], [-115.2144, 35.409], [-115.2125, 35.4113], [-115.2029, 35.4128], [-115.199, 35.4124], [-115.1969, 35.4131], [-115.195, 35.4165], [-115.1913, 35.4186], [-115.1895, 35.4205], [-115.1877, 35.4259], [-115.1876, 35.4291], [-115.186, 35.4299], [-115.1822, 35.4302], [-115.181, 35.4311], [-115.1818, 35.4369], [-115.1795, 35.4405], [-115.1741, 35.4459], [-115.1714, 35.4474], [-115.169, 35.4485], [-115.1654, 35.4476], [-115.163, 35.4485], [-115.1603, 35.4551], [-115.1538, 35.4591], [-115.1538, 35.4601], [-115.1554, 35.4623], [-115.155, 35.4635], [-115.1523, 35.4653], [-115.1476, 35.4665], [-115.1454, 35.4724], [-115.1408, 35.4761], [-115.1338, 35.4766], [-115.131, 35.4761], [-115.1287, 35.4717], [-115.1296, 35.4706], [-115.1332, 35.4691], [-115.1332, 35.4659], [-115.1293, 35.4645], [-115.1276, 35.4622], [-115.1245, 35.461], [-115.1265, 35.4605], [-115.125, 35.4599], [-115.1219, 35.4601], [-115.1217, 35.4597], [-115.1219, 35.459], [-115.1219, 35.4587], [-115.1218, 35.4587], [-115.121, 35.4594], [-115.1195, 35.4584], [-115.1187, 35.4588], [-115.1193, 35.458], [-115.1209, 35.4581], [-115.1209, 35.4565], [-115.1187, 35.4554], [-115.1195, 35.4547], [-115.1187, 35.4546], [-115.1184, 35.4538], [-115.1214, 35.4544], [-115.1217, 35.4558], [-115.1223, 35.455], [-115.1234, 35.4556], [-115.1245, 35.4547], [-115.125, 35.4547], [-115.1246, 35.4543], [-115.1252, 35.4544], [-115.1254, 35.4517], [-115.1277, 35.4505]], [[-115.1276, 35.4497], [-115.1276, 35.4497], [-115.1276, 35.4497], [-115.1276, 35.4497]], [[-115.1073, 35.408], [-115.1072, 35.4081], [-115.1072, 35.4081], [-115.1073, 35.408]], [[-115.124, 35.4552], [-115.1239, 35.4552], [-115.124, 35.4552], [-115.124, 35.4552]], [[-115.1109, 35.4174], [-115.1109, 35.4174], [-115.1109, 35.4174], [-115.1109, 35.4174]], [[-115.1109, 35.4174], [-115.1109, 35.4174], [-115.1109, 35.4174], [-115.1109, 35.4174]]]}, "properties": {"layer": "perimeter"}}]}
