{"type": "FeatureCollection", "features": [{"type": "Feature", "geometry": {"type": "Polygon", "coordinates": [[[-122.5932, 40.3713], [-122.5956, 40.371], [-122.5959, 40.3717], [-122.597, 40.3707], [-122.597, 40.368], [-122.5993, 40.3667], [-122.6012, 40.3668], [-122.6, 40.3655], [-122.5996, 40.3623], [-122.6004, 40.3619], [-122.6013, 40.3627], [-122.6028, 40.3618], [-122.6044, 40.3619], [-122.6054, 40.3626], [-122.6062, 40.3617], [-122.6086, 40.3621], [-122.6081, 40.3628], [-122.61, 40.3624], [-122.6081, 40.3566], [-122.6083, 40.354], [-122.6105, 40.3521], [-122.6086, 40.3511], [-122.6098, 40.3487], [-122.6155, 40.3472], [-122.6201, 40.3486], [-122.6257, 40.3477], [-122.6259, 40.3458], [-122.6222, 40.3427], [-122.6224, 40.3417], [-122.6274, 40.3401], [-122.6324, 40.3404], [-122.6338, 40.336], [-122.6349, 40.3348], [-122.6415, 40.3349], [-122.6459, 40.3336], [-122.6501, 40.3291], [-122.6523, 40.3287], [-122.6526, 40.3266], [-122.654, 40.3262], [-122.6504, 40.3233], [-122.6502, 40.3208], [-122.649, 40.3195], [-122.6438, 40.3203], [-122.6353, 40.3191], [-122.6313, 40.3168], [-122.6277, 40.3156], [-122.6255, 40.3127], [-122.6196, 40.3117], [-122.617, 40.3108], [-122.6164, 40.31], [-122.6145, 40.3103], [-122.6126, 40.3096], [-122.6104, 40.3071], [-122.6138, 40.3024], [-122.6182, 40.3001], [-122.6202, 40.2955], [-122.6195, 40.2933], [-122.6206, 40.2935], [-122.6223, 40.2952], [-122.6292, 40.2961], [-122.6307, 40.299], [-122.6333, 40.3], [-122.6381, 40.299], [-122.6442, 40.3], [-122.6527, 40.3004], [-122.6539, 40.3011], [-122.6558, 40.3006], [-122.6578, 40.3018], [-122.6594, 40.3019], [-122.6613, 40.2991], [-122.665, 40.3007], [-122.6691, 40.3009], [-122.6717, 40.3], [-122.6714, 40.3007], [-122.6745, 40.3045], [-122.6738, 40.3049], [-122.6761, 40.307], [-122.6803, 40.309], [-122.6803, 40.311], [-122.6821, 40.3115], [-122.6856, 40.3109], [-122.6891, 40.312], [-122.6925, 40.3117], [-122.6989, 40.3139], [-122.6982, 40.3175], [-122.6974, 40.3183], [-122.6967, 40.3177], [-122.6967, 40.3189], [-122.6953, 40.3196], [-122.6961, 40.3211], [-122.694, 40.3278], [-122.6954, 40.3284], [-122.6953, 40.3303], [-122.6933, 40.3347], [-122.6914, 40.3352], [-122.6913, 40.3374], [-122.6906, 40.3365], [-122.6873, 40.3354], [-122.6837, 40.3358], [-122.6801, 40.3345], [-122.6761, 40.3322], [-122.6748, 40.3296], [-122.6735, 40.3301], [-122.6724, 40.3336], [-122.6695, 40.3374], [-122.6685, 40.3408], [-122.6692, 40.3426], [-122.6745, 40.3475], [-122.675, 40.3495], [-122.6804, 40.3534], [-122.6822, 40.3566], [-122.684, 40.3575], [-122.6843, 40.3607], [-122.6887, 40.3657], [-122.6894, 40.3675], [-122.6886, 40.3685], [-122.6899, 40.3721], [-122.692, 40.3741], [-122.695, 40.375], [-122.6985, 40.3784], [-122.7006, 40.3791], [-122.6997, 40.3817], [-122.7009, 40.3844], [-122.6981, 40.3848], [-122.6958, 40.3863], [-122.6958, 40.387], [-122.6947, 40.3859], [-122.695, 40.3897], [-122.689, 40.392], [-122.6886, 40.3929], [-122.6862, 40.394], [-122.6853, 40.3969], [-122.6862, 40.3971], [-122.6865, 40.4], [-122.6808, 40.4007], [-122.6756, 40.4027], [-122.6753, 40.4036], [-122.6764, 40.4049], [-122.6743, 40.4066], [-122.6726, 40.4063], [-122.6735, 40.4081], [-122.6719, 40.411], [-122.6702, 40.4121], [-122.6696, 40.4153], [-122.6668, 40.4192], [-122.6672, 40.4209], [-122.6665, 40.4227], [-122.6647, 40.4236], [-122.664, 40.4251], [-122.6603, 40.4255], [-122.6613, 40.4245], [-122.6569, 40.4242], [-122.6561, 40.4231], [-122.6556, 40.4236], [-122.6559, 40.4257], [-122.6553, 40.4258], [-122.6597, 40.4273], [-122.66, 40.4347], [-122.6592, 40.435], [-122.66, 40.435], [-122.661, 40.4367], [-122.6609, 40.4394], [-122.6533, 40.4442], [-122.6537, 40.446], [-122.6543, 40.4466], [-122.6553, 40.4463], [-122.6557, 40.4476], [-122.6585, 40.4499], [-122.6581, 40.4513], [-122.6553, 40.4537], [-122.6561, 40.4551], [-122.6555, 40.4586], [-122.6528, 40.4613], [-122.6505, 40.4625], [-122.6513, 40.4645], [-122.6538, 40.4656], [-122.6548, 40.4672], [-122.6527, 40.4685], [-122.648, 40.4691], [-122.6511, 40.4737], [-122.652, 40.4744], [-122.6527, 40.474], [-122.6536, 40.4756], [-122.6527, 40.4758], [-122.6525, 40.4772], [-122.6518, 40.4784], [-122.6518, 40.4756], [-122.6501, 40.4757], [-122.6505, 40.4784], [-122.6494, 40.4785], [-122.656, 40.4824], [-122.6552, 40.4836], [-122.6574, 40.4843], [-122.6573, 40.486], [-122.6598, 40.486], [-122.6607, 40.4851], [-122.6596, 40.484], [-122.6611, 40.4837], [-122.661, 40.4825], [-122.6617, 40.4823], [-122.6701, 40.4826], [-122.6714, 40.4845], [-122.6711, 40.4837], [-122.6735, 40.4825], [-122.6718, 40.4815], [-122.6731, 40.4808], [-122.6718, 40.48], [-122.6707, 40.4808], [-122.6697, 40.4801], [-122.6683, 40.4804], [-122.6686, 40.4759], [-122.6714, 40.4747], [-122.6742, 40.4754], [-122.6793, 40.4745], [-122.6813, 40.4752], [-122.6828, 40.474], [-122.6822, 40.4727], [-122.6849, 40.4713], [-122.6844, 40.4671], [-122.688, 40.4677], [-122.6896, 40.4662], [-122.696, 40.4651], [-122.6976, 40.4636], [-122.6985, 40.4641], [-122.7001, 40.4688], [-122.7027, 40.4707], [-122.7039, 40.4744], [-122.7055, 40.4757], [-122.7073, 40.483], [-122.7061, 40.4841], [-122.7063, 40.4854], [-122.708, 40.4864], [-122.7067, 40.4872], [-122.7062, 40.4895], [-122.7038, 40.4915], [-122.7026, 40.4938], [-122.6994, 40.497], [-122.697, 40.4981], [-122.694, 40.4982], [-122.6902, 40.5015], [-122.6911, 40.5022], [-122.6895, 40.5031], [-122.6865, 40.5034], [-122.685, 40.5048], [-122.6827, 40.5091], [-122.6799, 40.5117], [-122.6791, 40.5142], [-122.6797, 40.5171], [-122.6807, 40.5175], [-122.6784, 40.5194], [-122.6781, 40.5207], [-122.6719, 40.5242], [-122.6708, 40.5284], [-122.6681, 40.5303], [-122.6591, 40.532], [-122.6563, 40.5283], [-122.6575, 40.5256], [-122.6528, 40.5208], [-122.6505, 40.5219], [-122.648, 40.5244], [-122.6449, 40.524], [-122.6435, 40.5247], [-122.6426, 40.5272], [-122.6396, 40.5287], [-122.6381, 40.5286], [-122.6381, 40.5276], [-122.6371, 40.5272], [-122.6354, 40.5287], [-122.6336, 40.5283], [-122.6293, 40.5309], [-122.6236, 40.529], [-122.6212, 40.5289], [-122.62, 40.528], [-122.6172, 40.5277], [-122.6157, 40.5282], [-122.613, 40.5317], [-122.6114, 40.536], [-122.6117, 40.537], [-122.6111, 40.5377], [-122.6101, 40.5372], [-122.6101, 40.5397], [-122.6093, 40.5398], [-122.6088, 40.5418], [-122.606, 40.5443], [-122.6036, 40.544], [-122.6034, 40.5446], [-122.6051, 40.5451], [-122.6062, 40.5465], [-122.604, 40.5457], [-122.6021, 40.5461], [-122.5991, 40.5455], [-122.5982, 40.5443], [-122.5991, 40.5433], [-122.5977, 40.5424], [-122.5953, 40.5422], [-122.5928, 40.5403], [-122.5868, 40.5409], [-122.5863, 40.5419], [-122.5829, 40.541], [-122.5803, 40.5416], [-122.5793, 40.5442], [-122.5782, 40.5444], [-122.5739, 40.5438], [-122.5715, 40.5444], [-122.571, 40.5419], [-122.5683, 40.5408], [-122.5708, 40.5424], [-122.57, 40.5437], [-122.5708, 40.5453], [-122.5693, 40.5472], [-122.5678, 40.5466], [-122.5671, 40.5498], [-122.5653, 40.5493], [-122.5654, 40.5473], [-122.5625, 40.5461], [-122.5636, 40.5457], [-122.5619, 40.5455], [-122.5605, 40.5443], [-122.5592, 40.5458], [-122.5607, 40.5455], [-122.5603, 40.5463], [-122.5612, 40.5463], [-122.56, 40.5473], [-122.5585, 40.5474], [-122.5591, 40.5485], [-122.5567, 40.5495], [-122.5547, 40.5482], [-122.5529, 40.5486], [-122.5528, 40.548], [-122.5499, 40.5473], [-122.551, 40.5482], [-122.5503, 40.5489], [-122.5459, 40.548], [-122.5458, 40.5488], [-122.5466, 40.5489], [-122.5438, 40.5507], [-122.5398, 40.5501], [-122.537, 40.5509], [-122.5347, 40.5504], [-122.5333, 40.5484], [-122.5311, 40.5477], [-122.5327, 40.54], [-122.5355, 40.5388], [-122.5351, 40.5319], [-122.5362, 40.5248], [-122.5353, 40.5239], [-122.5369, 40.5201], [-122.5395, 40.5166], [-122.5407, 40.5152], [-122.5424, 40.5147], [-122.5447, 40.5115], [-122.5442, 40.51], [-122.5454, 40.5036], [-122.5477, 40.4977], [-122.5534, 40.4951], [-122.5498, 40.4953], [-122.5519, 40.4938], [-122.5548, 40.4858], [-122.5557, 40.4852], [-122.557, 40.4797], [-122.5577, 40.4798], [-122.5571, 40.4784], [-122.558, 40.4747], [-122.5647, 40.4675], [-122.5633, 40.4633], [-122.5626, 40.4631], [-122.563, 40.4616], [-122.564, 40.461], [-122.5634, 40.4599], [-122.5644, 40.4599], [-122.5644, 40.4589], [-122.5628, 40.459], [-122.5609, 40.4563], [-122.5594, 40.4555], [-122.5556, 40.4566], [-122.5552, 40.4562], [-122.5554, 40.4543], [-122.5545, 40.4538], [-122.5551, 40.4522], [-122.5535, 40.4495], [-122.5553, 40.4502], [-122.5554, 40.4464], [-122.5514, 40.4433], [-122.5506, 40.44], [-122.5478, 40.4359], [-122.5489, 40.4287], [-122.5555, 40.4289], [-122.5613, 40.4313], [-122.5655, 40.4306], [-122.5662, 40.4297], [-122.5735, 40.4298], [-122.5743, 40.4287], [-122.5766, 40.4278], [-122.576, 40.4266], [-122.5708, 40.4281], [-122.5692, 40.4271], [-122.5702, 40.4261], [-122.5676, 40.4261], [-122.5713, 40.4218], [-122.5723, 40.4201], [-122.572, 40.419], [-122.5733, 40.4188], [-122.5742, 40.4164], [-122.576, 40.4158], [-122.5759, 40.4142], [-122.573, 40.4149], [-122.5715, 40.4142], [-122.5719, 40.4124], [-122.569, 40.4118], [-122.5664, 40.4103], [-122.571, 40.4091], [-122.57, 40.4067], [-122.5669, 40.4068], [-122.564, 40.406], [-122.5596, 40.403], [-122.5603, 40.4018], [-122.5596, 40.3986], [-122.564, 40.3964], [-122.564, 40.397], [-122.5655, 40.3976], [-122.5664, 40.391], [-122.5647, 40.3901], [-122.5661, 40.3872], [-122.5651, 40.3866], [-122.5654, 40.3825], [-122.5702, 40.3801], [-122.5717, 40.3775], [-122.5739, 40.3776], [-122.5778, 40.372], [-122.5814, 40.3702], [-122.5856, 40.3718], [-122.5892, 40.3717], [-122.5908, 40.3733], [-122.5932, 40.3713]], [[-122.5849, 40.389], [-122.5838, 40.3912], [-122.5856, 40.3909], [-122.5877, 40.3894], [-122.5882, 40.3906], [-122.5893, 40.3908], [-122.5887, 40.3899], [-122.5894, 40.3888], [-122.5871, 40.3865], [-122.5848, 40.3875], [-122.584, 40.387], [-122.5835, 40.3882], [-122.5849, 40.389]], [[-122.608, 40.3959], [-122.6086, 40.3994], [-122.6093, 40.3998], [-122.6148, 40.3997], [-122.6146, 40.3963], [-122.613, 40.3953], [-122.6145, 40.3939], [-122.6124, 40.3916], [-122.6119, 40.3879], [-122.6103, 40.3859], [-122.6104, 40.3846], [-122.6114, 40.3845], [-122.612, 40.3832], [-122.6109, 40.383], [-122.612, 40.3825], [-122.6094, 40.3804], [-122.6082, 40.3768], [-122.6064, 40.3792], [-122.6042, 40.3798], [-122.6052, 40.3801], [-122.6052, 40.3846], [-122.6024, 40.3845], [-122.5993, 40.3832], [-122.5986, 40.3854], [-122.5957, 40.3878], [-122.5956, 40.3901], [-122.5951, 40.3909], [-122.5934, 40.3909], [-122.5932, 40.3918], [-122.5934, 40.3928], [-122.5941, 40.3928], [-122.5945, 40.3918], [-122.5976, 40.3941], [-122.5993, 40.394], [-122.5999, 40.3957], [-122.6039, 40.3974], [-122.6067, 40.3959], [-122.608, 40.3959]], [[-122.6903, 40.4966], [-122.689, 40.4973], [-122.6884, 40.4997], [-122.6901, 40.5003], [-122.6897, 40.4995], [-122.6912, 40.4979], [-122.6903, 40.4966]]]}, "properties": {"layer": "perimeter"}}, {"type": "Feature", "geometry": {"type": "MultiPolygon", "coordinates": [[[[-122.5936, 40.3712], [-122.5956, 40.371], [-122.5959, 40.3717], [-122.597, 40.3707], [-122.597, 40.368], [-122.5993, 40.3667], [-122.6012, 40.3668], [-122.6, 40.3655], [-122.5996, 40.3623], [-122.6004, 40.3619], [-122.6013, 40.3627], [-122.6028, 40.3618], [-122.6044, 40.3619], [-122.6054, 40.3626], [-122.6062, 40.3617], [-122.6086, 40.3621], [-122.6081, 40.3628], [-122.61, 40.3624], [-122.6081, 40.3566], [-122.6083, 40.354], [-122.6105, 40.3521], [-122.6086, 40.3511], [-122.6098, 40.3487], [-122.6155, 40.3472], [-122.6201, 40.3486], [-122.6257, 40.3477], [-122.6259, 40.3458], [-122.6222, 40.3427], [-122.6224, 40.3417], [-122.6274, 40.3401], [-122.6324, 40.3404], [-122.6338, 40.336], [-122.6349, 40.3348], [-122.6415, 40.3349], [-122.6459, 40.3336], [-122.6501, 40.3291], [-122.6523, 40.3287], [-122.6526, 40.3266], [-122.654, 40.3262], [-122.6504, 40.3233], [-122.6502, 40.3208], [-122.649, 40.3195], [-122.6438, 40.3203], [-122.6353, 40.3191], [-122.6313, 40.3168], [-122.6277, 40.3156], [-122.6255, 40.3127], [-122.6196, 40.3117], [-122.617, 40.3108], [-122.6164, 40.31], [-122.6145, 40.3103], [-122.6126, 40.3096], [-122.6104, 40.3071], [-122.6138, 40.3024], [-122.6182, 40.3001], [-122.6202, 40.2955], [-122.6195, 40.2933], [-122.6206, 40.2935], [-122.6223, 40.2952], [-122.6292, 40.2961], [-122.6307, 40.299], [-122.6333, 40.3], [-122.6381, 40.299], [-122.6442, 40.3], [-122.6527, 40.3004], [-122.6539, 40.3011], [-122.6558, 40.3006], [-122.6578, 40.3018], [-122.6594, 40.3019], [-122.6613, 40.2991], [-122.665, 40.3007], [-122.6691, 40.3009], [-122.6717, 40.3], [-122.6714, 40.3007], [-122.6745, 40.3045], [-122.6738, 40.3049], [-122.6761, 40.307], [-122.6803, 40.309], [-122.6803, 40.311], [-122.6821, 40.3115], [-122.6856, 40.3109], [-122.6891, 40.312], [-122.6925, 40.3117], [-122.6989, 40.3139], [-122.6982, 40.3175], [-122.6974, 40.3183], [-122.6967, 40.3177], [-122.6967, 40.3189], [-122.6953, 40.3196], [-122.6961, 40.3211], [-122.694, 40.3278], [-122.6954, 40.3284], [-122.6953, 40.3303], [-122.6933, 40.3347], [-122.6914, 40.3352], [-122.6913, 40.3374], [-122.6906, 40.3365], [-122.6873, 40.3354], [-122.6837, 40.3358], [-122.6801, 40.3345], [-122.6761, 40.3322], [-122.6748, 40.3296], [-122.6735, 40.3301], [-122.6724, 40.3336], [-122.6695, 40.3374], [-122.6685, 40.3408], [-122.6692, 40.3426], [-122.6745, 40.3475], [-122.675, 40.3495], [-122.6804, 40.3534], [-122.6822, 40.3566], [-122.684, 40.3575], [-122.6843, 40.3607], [-122.6887, 40.3657], [-122.6894, 40.3675], [-122.6886, 40.3685], [-122.6899, 40.3721], [-122.692, 40.3741], [-122.695, 40.375], [-122.6985, 40.3784], [-122.7006, 40.3791], [-122.6997, 40.3817], [-122.7009, 40.3844], [-122.6981, 40.3848], [-122.6958, 40.3863], [-122.6958, 40.387], [-122.6947, 40.3859], [-122.695, 40.3897], [-122.689, 40.392], [-122.6886, 40.3929], [-122.6862, 40.394], [-122.6853, 40.3969], [-122.6862, 40.3971], [-122.6865, 40.4], [-122.6808, 40.4007], [-122.6756, 40.4027], [-122.6753, 40.4036], [-122.6764, 40.4049], [-122.6743, 40.4066], [-122.6726, 40.4063], [-122.6735, 40.4081], [-122.6719, 40.411], [-122.6702, 40.4121], [-122.6696, 40.4153], [-122.6668, 40.4192], [-122.6672, 40.4209], [-122.6665, 40.4227], [-122.6647, 40.4236], [-122.664, 40.4251], [-122.6603, 40.4255], [-122.6613, 40.4245], [-122.6569, 40.4242], [-122.6561, 40.4231], [-122.6556, 40.4236], [-122.6559, 40.4257], [-122.6553, 40.4258], [-122.6597, 40.4273], [-122.66, 40.4347], [-122.6592, 40.435], [-122.66, 40.435], [-122.661, 40.4367], [-122.6609, 40.4394], [-122.6533, 40.4442], [-122.6537, 40.446], [-122.6543, 40.4466], [-122.6553, 40.4463], [-122.6557, 40.4476], [-122.6585, 40.4499], [-122.6581, 40.4513], [-122.6553, 40.4537], [-122.6561, 40.4551], [-122.6555, 40.4586], [-122.6528, 40.4613], [-122.6505, 40.4625], [-122.6513, 40.4645], [-122.6538, 40.4656], [-122.6548, 40.4672], [-122.6527, 40.4685], [-122.648, 40.4691], [-122.6511, 40.4737], [-122.652, 40.4744], [-122.6527, 40.474], [-122.6536, 40.4756], [-122.6527, 40.4758], [-122.6525, 40.4772], [-122.6518, 40.4784], [-122.6518, 40.4756], [-122.6501, 40.4757], [-122.6505, 40.4784], [-122.6494, 40.4785], [-122.656, 40.4824], [-122.6552, 40.4836], [-122.6561, 40.4843], [-122.6572, 40.4841], [-122.6575, 40.485], [-122.6574, 40.4857], [-122.6521, 40.4857], [-122.652, 40.489], [-122.6713, 40.489], [-122.6712, 40.4858], [-122.6601, 40.4858], [-122.6607, 40.4851], [-122.6596, 40.484], [-122.6611, 40.4837], [-122.6612, 40.4824], [-122.6673, 40.4823], [-122.6707, 40.4828], [-122.6704, 40.4836], [-122.6714, 40.4845], [-122.6711, 40.4837], [-122.6735, 40.4825], [-122.6718, 40.4815], [-122.6731, 40.4808], [-122.6718, 40.48], [-122.6707, 40.4808], [-122.6697, 40.4801], [-122.6683, 40.4804], [-122.6686, 40.4759], [-122.6714, 40.4747], [-122.6742, 40.4754], [-122.6793, 40.4745], [-122.6813, 40.4752], [-122.6828, 40.474], [-122.6822, 40.4727], [-122.6849, 40.4713], [-122.6844, 40.4671], [-122.688, 40.4677], [-122.6896, 40.4662], [-122.696, 40.4651], [-122.6976, 40.4636], [-122.6985, 40.4641], [-122.7004, 40.469], [-122.7002, 40.4747], [-122.6906, 40.4751], [-122.6894, 40.4888], [-122.7038, 40.4888], [-122.7048, 40.4753], [-122.7055, 40.4757], [-122.7072, 40.482], [-122.7063, 40.4854], [-122.708, 40.4864], [-122.7067, 40.4872], [-122.7062, 40.4895], [-122.7038, 40.4915], [-122.7026, 40.4938], [-122.6994, 40.497], [-122.697, 40.4981], [-122.694, 40.4982], [-122.6902, 40.5015], [-122.6911, 40.5022], [-122.6895, 40.5031], [-122.6865, 40.5034], [-122.685, 40.5048], [-122.6827, 40.5091], [-122.6799, 40.5117], [-122.6791, 40.5142], [-122.6797, 40.5171], [-122.6807, 40.5175], [-122.6792, 40.5189], [-122.6792, 40.5181], [-122.6745, 40.5182], [-122.6746, 40.5217], [-122.6765, 40.5217], [-122.6719, 40.5242], [-122.6708, 40.5284], [-122.6681, 40.5303], [-122.6591, 40.532], [-122.6563, 40.5283], [-122.6575, 40.5256], [-122.6528, 40.5208], [-122.6505, 40.5219], [-122.648, 40.5244], [-122.6449, 40.524], [-122.6435, 40.5247], [-122.6426, 40.5272], [-122.6396, 40.5287], [-122.6381, 40.5286], [-122.6381, 40.5276], [-122.6371, 40.5272], [-122.6354, 40.5287], [-122.6336, 40.5283], [-122.6293, 40.5309], [-122.6236, 40.529], [-122.6212, 40.5289], [-122.62, 40.528], [-122.6172, 40.5277], [-122.6157, 40.5282], [-122.613, 40.5317], [-122.6114, 40.536], [-122.6117, 40.537], [-122.6111, 40.5377], [-122.6101, 40.5372], [-122.6101, 40.5397], [-122.6093, 40.5398], [-122.6088, 40.5418], [-122.606, 40.5443], [-122.6036, 40.544], [-122.6034, 40.5446], [-122.6051, 40.5451], [-122.6062, 40.5465], [-122.604, 40.5457], [-122.6021, 40.5461], [-122.5991, 40.5455], [-122.5982, 40.5443], [-122.5991, 40.5433], [-122.5977, 40.5424], [-122.5953, 40.5422], [-122.5928, 40.5403], [-122.5868, 40.5409], [-122.5863, 40.5419], [-122.5829, 40.541], [-122.5803, 40.5416], [-122.5793, 40.5442], [-122.5782, 40.5444], [-122.5739, 40.5438], [-122.5715, 40.5444], [-122.571, 40.5419], [-122.5683, 40.5408], [-122.5708, 40.5424], [-122.57, 40.5437], [-122.5708, 40.5453], [-122.5693, 40.5472], [-122.5678, 40.5466], [-122.5671, 40.5498], [-122.5653, 40.5493], [-122.5654, 40.5473], [-122.5625, 40.5461], [-122.5636, 40.5457], [-122.5619, 40.5455], [-122.5605, 40.5443], [-122.5592, 40.5458], [-122.5607, 40.5455], [-122.5603, 40.5463], [-122.5612, 40.5463], [-122.56, 40.5473], [-122.5585, 40.5474], [-122.5591, 40.5485], [-122.5567, 40.5495], [-122.5547, 40.5482], [-122.5529, 40.5486], [-122.5528, 40.548], [-122.5499, 40.5473], [-122.551, 40.5482], [-122.5503, 40.5489], [-122.5459, 40.548], [-122.5458, 40.5488], [-122.5466, 40.5489], [-122.5438, 40.5507], [-122.5398, 40.5501], [-122.537, 40.5509], [-122.5343, 40.5501], [-122.5336, 40.5467], [-122.5478, 40.5478], [-122.5477, 40.5447], [-122.5453, 40.5447], [-122.5429, 40.5473], [-122.5423, 40.5461], [-122.5434, 40.5448], [-122.5429, 40.5341], [-122.5354, 40.5331], [-122.5355, 40.5263], [-122.5362, 40.5248], [-122.5353, 40.5239], [-122.5369, 40.5201], [-122.5395, 40.5166], [-122.5407, 40.5152], [-122.5424, 40.5147], [-122.5447, 40.5115], [-122.5442, 40.51], [-122.5454, 40.5036], [-122.5477, 40.4977], [-122.5534, 40.4951], [-122.5498, 40.4953], [-122.5519, 40.4938], [-122.5548, 40.4858], [-122.5557, 40.4852], [-122.557, 40.4797], [-122.5577, 40.4798], [-122.5571, 40.4784], [-122.558, 40.4747], [-122.5647, 40.4675], [-122.5633, 40.4633], [-122.5626, 40.4631], [-122.563, 40.4616], [-122.564, 40.461], [-122.5634, 40.4599], [-122.5644, 40.4599], [-122.5644, 40.4589], [-122.5628, 40.459], [-122.5609, 40.4563], [-122.5594, 40.4555], [-122.5556, 40.4566], [-122.5552, 40.4562], [-122.5554, 40.4543], [-122.5545, 40.4538], [-122.5551, 40.4522], [-122.5535, 40.4495], [-122.5553, 40.4502], [-122.5554, 40.4464], [-122.5514, 40.4433], [-122.5506, 40.44], [-122.5478, 40.4359], [-122.5489, 40.4287], [-122.5555, 40.4289], [-122.5613, 40.4313], [-122.5655, 40.4306], [-122.5662, 40.4297], [-122.5735, 40.4298], [-122.5743, 40.4287], [-122.5766, 40.4278], [-122.576, 40.4266], [-122.5708, 40.4281], [-122.5692, 40.4271], [-122.5702, 40.4261], [-122.5676, 40.4261], [-122.5713, 40.4218], [-122.5723, 40.4201], [-122.572, 40.419], [-122.5733, 40.4188], [-122.5742, 40.4164], [-122.576, 40.4158], [-122.5759, 40.4142], [-122.573, 40.4149], [-122.5715, 40.4142], [-122.5719, 40.4124], [-122.569, 40.4118], [-122.5664, 40.4103], [-122.571, 40.4091], [-122.57, 40.4067], [-122.5669, 40.4068], [-122.564, 40.406], [-122.5596, 40.403], [-122.5603, 40.4018], [-122.5596, 40.3986], [-122.564, 40.3964], [-122.564, 40.397], [-122.5655, 40.3976], [-122.5664, 40.391], [-122.5647, 40.3901], [-122.5661, 40.3872], [-122.5651, 40.3866], [-122.5654, 40.3825], [-122.5702, 40.3801], [-122.5717, 40.3775], [-122.5739, 40.3776], [-122.5778, 40.372], [-122.5814, 40.3702], [-122.5856, 40.3718], [-122.5892, 40.3717], [-122.5908, 40.3733], [-122.5936, 40.3712]], [[-122.5848, 40.3885], [-122.5837, 40.3906], [-122.5842, 40.3913], [-122.5877, 40.3894], [-122.5882, 40.3906], [-122.5893, 40.3908], [-122.5887, 40.3899], [-122.5894, 40.3888], [-122.5871, 40.3865], [-122.5848, 40.3875], [-122.584, 40.387], [-122.5835, 40.3882], [-122.5848, 40.3885]], [[-122.608, 40.3959], [-122.6086, 40.3994], [-122.6093, 40.3998], [-122.6148, 40.3997], [-122.6146, 40.3963], [-122.613, 40.3953], [-122.6145, 40.3939], [-122.6124, 40.3916], [-122.6119, 40.3879], [-122.6103, 40.3859], [-122.6104, 40.3846], [-122.6114, 40.3845], [-122.612, 40.3832], [-122.6109, 40.383], [-122.612, 40.3825], [-122.6094, 40.3804], [-122.6082, 40.3768], [-122.6064, 40.3792], [-122.6042, 40.3798], [-122.6052, 40.3801], [-122.6052, 40.3846], [-122.6024, 40.3845], [-122.5993, 40.3832], [-122.5986, 40.3854], [-122.5957, 40.3878], [-122.5956, 40.3901], [-122.5951, 40.3909], [-122.5934, 40.3909], [-122.5932, 40.3918], [-122.5934, 40.3928], [-122.5941, 40.3928], [-122.5945, 40.3918], [-122.5976, 40.3941], [-122.5993, 40.394], [-122.5999, 40.3957], [-122.6039, 40.3974], [-122.6067, 40.3959], [-122.608, 40.3959]], [[-122.6906, 40.4964], [-122.689, 40.4973], [-122.6884, 40.4997], [-122.6901, 40.5003], [-122.6897, 40.4995], [-122.6912, 40.4979], [-122.6906, 40.4964]], [[-122.6474, 40.4677], [-122.6427, 40.4675], [-122.6426, 40.4639], [-122.633, 40.4639], [-122.633, 40.4675], [-122.6378, 40.4675], [-122.6379, 40.4711], [-122.6475, 40.4712], [-122.6474, 40.4677]]], [[[-122.5333, 40.5399], [-122.5345, 40.5396], [-122.5353, 40.5391], [-122.5346, 40.5396], [-122.5333, 40.5399]]], [[[-122.5354, 40.539], [-122.5354, 40.5391], [-122.5353, 40.5391], [-122.5354, 40.539]]], [[[-122.5354, 40.5363], [-122.5355, 40.5346], [-122.5356, 40.5342], [-122.5354, 40.5363]]], [[[-122.5356, 40.5336], [-122.5356, 40.5336], [-122.5356, 40.5337], [-122.5356, 40.5336]]]]}, "properties": {"layer": "retained"}}, {"type": "Feature", "geometry": {"type": "MultiPolygon", "coordinates": [[[[-122.6056, 40.543], [-122.6059, 40.5422], [-122.6041, 40.542], [-122.6041, 40.5422], [-122.6056, 40.543]]], [[[-122.6038, 40.5422], [-122.6034, 40.5414], [-122.6027, 40.5414], [-122.6027, 40.542], [-122.6038, 40.5422]]], [[[-122.5967, 40.5418], [-122.5974, 40.5413], [-122.5973, 40.5405], [-122.5963, 40.541], [-122.5967, 40.5418]]], [[[-122.6069, 40.5414], [-122.6069, 40.54], [-122.6062, 40.54], [-122.6055, 40.5408], [-122.6069, 40.5414]]], [[[-122.5956, 40.5405], [-122.5966, 40.5399], [-122.5962, 40.5394], [-122.5959, 40.54], [-122.5952, 40.5397], [-122.5956, 40.5405]]], [[[-122.6019, 40.539], [-122.6015, 40.5385], [-122.6022, 40.5382], [-122.6008, 40.5374], [-122.6012, 40.539], [-122.6019, 40.539]]], [[[-122.5969, 40.5386], [-122.5969, 40.5381], [-122.5958, 40.5378], [-122.5962, 40.5373], [-122.5948, 40.5376], [-122.5951, 40.5384], [-122.5969, 40.5386]]], [[[-122.593, 40.5379], [-122.5915, 40.5371], [-122.5905, 40.5374], [-122.5912, 40.5379], [-122.593, 40.5379]]], [[[-122.5959, 40.5394], [-122.594, 40.537], [-122.5929, 40.5365], [-122.5926, 40.5371], [-122.5941, 40.5378], [-122.5934, 40.5389], [-122.5944, 40.5386], [-122.5959, 40.5394]]], [[[-122.5859, 40.5385], [-122.5869, 40.5372], [-122.5852, 40.5367], [-122.5848, 40.5372], [-122.5859, 40.5385]]], [[[-122.6032, 40.5371], [-122.6025, 40.536], [-122.6015, 40.5366], [-122.6015, 40.5371], [-122.6032, 40.5371]]], [[[-122.5912, 40.5368], [-122.5929, 40.5362], [-122.5912, 40.5365], [-122.5912, 40.5368]]], [[[-122.5618, 40.5366], [-122.5629, 40.5369], [-122.5628, 40.5363], [-122.5618, 40.5366]]], [[[-122.5961, 40.5362], [-122.5961, 40.5356], [-122.5947, 40.5357], [-122.5947, 40.5359], [-122.5961, 40.5362]]], [[[-122.6036, 40.536], [-122.6035, 40.5355], [-122.6043, 40.5357], [-122.6039, 40.5349], [-122.6028, 40.5358], [-122.6036, 40.536]]], [[[-122.5851, 40.5361], [-122.5865, 40.5356], [-122.5855, 40.5353], [-122.5851, 40.5361]]], [[[-122.5908, 40.5363], [-122.5919, 40.5357], [-122.5918, 40.5349], [-122.5908, 40.5355], [-122.5908, 40.5363]]], [[[-122.5936, 40.5357], [-122.594, 40.5349], [-122.5932, 40.5346], [-122.5929, 40.5352], [-122.5936, 40.5357]]], [[[-122.6024, 40.5347], [-122.6024, 40.5342], [-122.601, 40.5342], [-122.601, 40.5347], [-122.6024, 40.5347]]], [[[-122.6053, 40.5352], [-122.6046, 40.5346], [-122.6042, 40.5336], [-122.6042, 40.5349], [-122.6053, 40.5352]]], [[[-122.6021, 40.5339], [-122.602, 40.5333], [-122.6006, 40.5336], [-122.6006, 40.5339], [-122.6021, 40.5339]]], [[[-122.5904, 40.5333], [-122.5911, 40.5344], [-122.5911, 40.5333], [-122.5904, 40.5333]]], [[[-122.6056, 40.5335], [-122.6056, 40.533], [-122.6045, 40.5328], [-122.6045, 40.5336], [-122.6056, 40.5335]]], [[[-122.5656, 40.5349], [-122.567, 40.5335], [-122.5666, 40.533], [-122.5655, 40.533], [-122.5659, 40.5336], [-122.5649, 40.5344], [-122.5656, 40.5349]]], [[[-122.5638, 40.5339], [-122.5641, 40.5333], [-122.5649, 40.5336], [-122.5652, 40.533], [-122.5631, 40.5328], [-122.5627, 40.5336], [-122.5638, 40.5339]]], [[[-122.5606, 40.5339], [-122.5624, 40.5336], [-122.562, 40.5326], [-122.5609, 40.5326], [-122.5613, 40.5334], [-122.5606, 40.5339]]], [[[-122.5811, 40.5324], [-122.5811, 40.5314], [-122.58, 40.5314], [-122.5804, 40.5324], [-122.5811, 40.5324]]], [[[-122.5669, 40.5316], [-122.5672, 40.5308], [-122.5665, 40.5303], [-122.5662, 40.5314], [-122.5669, 40.5316]]], [[[-122.6017, 40.5325], [-122.6031, 40.532], [-122.6045, 40.5322], [-122.6062, 40.5308], [-122.603, 40.5295], [-122.6009, 40.5299], [-122.6012, 40.5304], [-122.6002, 40.5304], [-122.6002, 40.531], [-122.6013, 40.532], [-122.6023, 40.5315], [-122.6017, 40.5325]], [[-122.6037, 40.5309], [-122.6034, 40.5312], [-122.6034, 40.5309], [-122.6037, 40.5309]], [[-122.6027, 40.5309], [-122.6023, 40.5312], [-122.6023, 40.5309], [-122.6027, 40.5309]], [[-122.603, 40.5306], [-122.6027, 40.5309], [-122.6027, 40.5306], [-122.603, 40.5306]], [[-122.6037, 40.5301], [-122.6034, 40.5303], [-122.6033, 40.5301], [-122.6037, 40.5301]]], [[[-122.5637, 40.5306], [-122.5637, 40.5298], [-122.5623, 40.5301], [-122.5619, 40.5296], [-122.5619, 40.5304], [-122.5637, 40.5306]]], [[[-122.5828, 40.5297], [-122.5831, 40.5289], [-122.5845, 40.5291], [-122.5856, 40.5283], [-122.5827, 40.5286], [-122.5821, 40.5292], [-122.5828, 40.5297]]], [[[-122.5679, 40.5297], [-122.5679, 40.5284], [-122.5675, 40.5289], [-122.5661, 40.5284], [-122.5679, 40.5297]]], [[[-122.592, 40.5295], [-122.5934, 40.5287], [-122.5933, 40.5279], [-122.5916, 40.529], [-122.592, 40.5295]]], [[[-122.6008, 40.5296], [-122.6008, 40.529], [-122.6022, 40.5287], [-122.6015, 40.5285], [-122.6022, 40.5277], [-122.6004, 40.5277], [-122.6001, 40.5293], [-122.6008, 40.5296]]], [[[-122.564, 40.5295], [-122.564, 40.529], [-122.5654, 40.529], [-122.5654, 40.5282], [-122.5633, 40.529], [-122.564, 40.5295]]], [[[-122.599, 40.528], [-122.5979, 40.5278], [-122.5986, 40.5272], [-122.5976, 40.5272], [-122.5976, 40.528], [-122.599, 40.528]]], [[[-122.5722, 40.5299], [-122.5707, 40.5275], [-122.5693, 40.5281], [-122.5685, 40.5273], [-122.5675, 40.5273], [-122.5675, 40.5279], [-122.5682, 40.5281], [-122.5682, 40.5286], [-122.5686, 40.5286], [-122.5686, 40.5289], [-122.5703, 40.5286], [-122.57, 40.5294], [-122.5711, 40.5291], [-122.5722, 40.5299]], [[-122.5689, 40.5284], [-122.5686, 40.5286], [-122.5686, 40.5284], [-122.5689, 40.5284]], [[-122.5707, 40.5281], [-122.5703, 40.5283], [-122.5703, 40.5281], [-122.5707, 40.5281]]], [[[-122.6036, 40.5279], [-122.6043, 40.5276], [-122.6039, 40.5266], [-122.6025, 40.5271], [-122.6036, 40.5279]]], [[[-122.6057, 40.5273], [-122.6068, 40.5268], [-122.6046, 40.5265], [-122.6046, 40.5268], [-122.6057, 40.5273]]], [[[-122.5799, 40.5276], [-122.5788, 40.5268], [-122.5781, 40.5268], [-122.5788, 40.5276], [-122.5799, 40.5276]]], [[[-122.5601, 40.528], [-122.56, 40.5275], [-122.5593, 40.5272], [-122.559, 40.528], [-122.5601, 40.528]]], [[[-122.5948, 40.5278], [-122.5947, 40.5273], [-122.5958, 40.5275], [-122.5961, 40.5267], [-122.5951, 40.5265], [-122.5937, 40.5273], [-122.5948, 40.5278]]], [[[-122.5647, 40.5282], [-122.5661, 40.5279], [-122.5653, 40.5268], [-122.5636, 40.5274], [-122.5647, 40.5282]], [[-122.565, 40.5274], [-122.5646, 40.5276], [-122.5646, 40.5274], [-122.565, 40.5274]]], [[[-122.5997, 40.5269], [-122.5993, 40.5261], [-122.5982, 40.5259], [-122.5983, 40.5264], [-122.5997, 40.5269]]], [[[-122.6135, 40.5266], [-122.6142, 40.5261], [-122.6141, 40.5253], [-122.6131, 40.5258], [-122.6135, 40.5266]]], [[[-122.611, 40.5261], [-122.611, 40.5253], [-122.6089, 40.5259], [-122.6089, 40.5262], [-122.611, 40.5261]]], [[[-122.5901, 40.5266], [-122.5911, 40.5257], [-122.5911, 40.5252], [-122.5901, 40.5252], [-122.5901, 40.526], [-122.5887, 40.5258], [-122.5887, 40.5266], [-122.5901, 40.5266]]], [[[-122.5855, 40.5267], [-122.5851, 40.5261], [-122.5862, 40.5253], [-122.5841, 40.5262], [-122.5841, 40.5267], [-122.5855, 40.5267]]], [[[-122.583, 40.5259], [-122.583, 40.5248], [-122.5823, 40.5248], [-122.5823, 40.5259], [-122.583, 40.5259]]], [[[-122.6071, 40.5257], [-122.6074, 40.5246], [-122.6067, 40.5243], [-122.6053, 40.5254], [-122.6046, 40.5252], [-122.6046, 40.5257], [-122.6071, 40.5257]]], [[[-122.5678, 40.5257], [-122.5674, 40.5249], [-122.5656, 40.5249], [-122.566, 40.5257], [-122.5678, 40.5257]]], [[[-122.6099, 40.524], [-122.6102, 40.5248], [-122.6116, 40.524], [-122.6099, 40.524]]], [[[-122.6046, 40.5252], [-122.6042, 40.5244], [-122.6049, 40.5238], [-122.6031, 40.5239], [-122.6028, 40.5247], [-122.6046, 40.5252]]], [[[-122.5699, 40.5248], [-122.5698, 40.524], [-122.5691, 40.524], [-122.5688, 40.5246], [-122.5699, 40.5248]]], [[[-122.5571, 40.5254], [-122.5571, 40.5246], [-122.556, 40.5243], [-122.5561, 40.5254], [-122.5571, 40.5254]]], [[[-122.561, 40.5242], [-122.562, 40.5234], [-122.5613, 40.5231], [-122.561, 40.5242]]], [[[-122.5865, 40.5242], [-122.5889, 40.5234], [-122.5896, 40.5225], [-122.5875, 40.5223], [-122.5871, 40.5228], [-122.5886, 40.5231], [-122.5868, 40.5231], [-122.5865, 40.5242]], [[-122.5875, 40.5234], [-122.5872, 40.5237], [-122.5872, 40.5234], [-122.5875, 40.5234]]], [[[-122.5677, 40.5227], [-122.568, 40.523], [-122.5691, 40.5227], [-122.568, 40.5224], [-122.5677, 40.5227]]], [[[-122.5758, 40.5217], [-122.5761, 40.5223], [-122.5768, 40.5217], [-122.5758, 40.5217]]], [[[-122.5878, 40.522], [-122.5878, 40.5215], [-122.5871, 40.5212], [-122.5868, 40.5218], [-122.5878, 40.522]]], [[[-122.5726, 40.5213], [-122.5737, 40.5223], [-122.5758, 40.5215], [-122.574, 40.5212], [-122.5733, 40.5218], [-122.5726, 40.5213]]], [[[-122.5896, 40.522], [-122.5903, 40.5212], [-122.5878, 40.5207], [-122.5878, 40.5212], [-122.5892, 40.5212], [-122.5896, 40.522]]], [[[-122.568, 40.5219], [-122.5683, 40.5213], [-122.5665, 40.5211], [-122.5669, 40.5216], [-122.568, 40.5219]]], [[[-122.5814, 40.5216], [-122.5825, 40.5208], [-122.5821, 40.5203], [-122.5818, 40.5208], [-122.5807, 40.5206], [-122.5814, 40.5216]]], [[[-122.5765, 40.5209], [-122.5761, 40.5204], [-122.575, 40.5204], [-122.575, 40.5209], [-122.5765, 40.5209]]], [[[-122.5577, 40.5213], [-122.5566, 40.5205], [-122.5552, 40.5205], [-122.5552, 40.5211], [-122.5577, 40.5213]]], [[[-122.5807, 40.5206], [-122.5807, 40.52], [-122.5793, 40.52], [-122.5793, 40.5206], [-122.5807, 40.5206]]], [[[-122.5864, 40.5215], [-122.5867, 40.5204], [-122.585, 40.521], [-122.5856, 40.5204], [-122.5849, 40.5197], [-122.5821, 40.52], [-122.5839, 40.5205], [-122.5843, 40.5213], [-122.5864, 40.5215]], [[-122.5839, 40.5199], [-122.5835, 40.5202], [-122.5835, 40.52], [-122.5839, 40.5199]]], [[[-122.5548, 40.5208], [-122.5548, 40.5203], [-122.5555, 40.52], [-122.5541, 40.52], [-122.5548, 40.5208]]], [[[-122.5633, 40.5198], [-122.564, 40.5187], [-122.5629, 40.5179], [-122.5619, 40.5193], [-122.5608, 40.5193], [-122.5604, 40.5185], [-122.5608, 40.5199], [-122.5633, 40.5198]], [[-122.5633, 40.519], [-122.5626, 40.519], [-122.5626, 40.5185], [-122.5629, 40.5185], [-122.5633, 40.519]]], [[[-122.6719, 40.5162], [-122.6715, 40.5151], [-122.6711, 40.5151], [-122.6708, 40.5159], [-122.6719, 40.5162]]], [[[-122.6082, 40.5165], [-122.6096, 40.5159], [-122.6074, 40.5157], [-122.6082, 40.5165]]], [[[-122.5625, 40.518], [-122.5621, 40.5166], [-122.5635, 40.5158], [-122.5614, 40.5155], [-122.5621, 40.5163], [-122.5614, 40.5164], [-122.5607, 40.5174], [-122.5618, 40.5177], [-122.5618, 40.518], [-122.5625, 40.518]], [[-122.5622, 40.5174], [-122.5618, 40.5177], [-122.5618, 40.5174], [-122.5622, 40.5174]], [[-122.5618, 40.5166], [-122.5614, 40.5169], [-122.5614, 40.5166], [-122.5618, 40.5166]]], [[[-122.5557, 40.5149], [-122.5564, 40.5151], [-122.5571, 40.5148], [-122.5557, 40.5149]]], [[[-122.6665, 40.5128], [-122.6664, 40.5123], [-122.6657, 40.512], [-122.6654, 40.5128], [-122.6665, 40.5128]]], [[[-122.555, 40.5146], [-122.555, 40.5138], [-122.5539, 40.5138], [-122.5539, 40.5143], [-122.555, 40.5146]]], [[[-122.6303, 40.513], [-122.6303, 40.5125], [-122.6314, 40.5125], [-122.631, 40.5119], [-122.63, 40.5119], [-122.6296, 40.5128], [-122.6303, 40.513]]], [[[-122.6292, 40.512], [-122.6303, 40.5114], [-122.6289, 40.5112], [-122.6292, 40.512]]], [[[-122.6655, 40.5052], [-122.6655, 40.5047], [-122.6644, 40.5047], [-122.6644, 40.5053], [-122.6655, 40.5052]]], [[[-122.641, 40.5041], [-122.641, 40.5033], [-122.6403, 40.5034], [-122.6399, 40.5039], [-122.641, 40.5041]]], [[[-122.6795, 40.4931], [-122.6803, 40.4941], [-122.6802, 40.493], [-122.6795, 40.4931]]], [[[-122.6827, 40.4916], [-122.6841, 40.4911], [-122.6827, 40.4911], [-122.6827, 40.4916]]], [[[-122.6933, 40.4909], [-122.6936, 40.49], [-122.6918, 40.4904], [-122.6922, 40.4909], [-122.6933, 40.4909]], [[-122.6932, 40.4903], [-122.6925, 40.4906], [-122.6925, 40.4903], [-122.6932, 40.4903]]], [[[-122.6908, 40.4901], [-122.6915, 40.4898], [-122.6911, 40.489], [-122.69, 40.4893], [-122.6908, 40.4901]]], [[[-122.6914, 40.4893], [-122.6928, 40.4892], [-122.6928, 40.4887], [-122.6914, 40.4893]]], [[[-122.5988, 40.4913], [-122.5991, 40.4904], [-122.5977, 40.4905], [-122.5977, 40.4907], [-122.5988, 40.4913]]], [[[-122.6724, 40.4913], [-122.6734, 40.4908], [-122.6734, 40.4899], [-122.6719, 40.4884], [-122.6727, 40.4905], [-122.6713, 40.49], [-122.671, 40.4908], [-122.6724, 40.4913]], [[-122.6724, 40.4905], [-122.672, 40.4908], [-122.672, 40.4905], [-122.6724, 40.4905]]], [[[-122.6871, 40.4883], [-122.6882, 40.4872], [-122.6857, 40.487], [-122.6864, 40.4875], [-122.6861, 40.4883], [-122.6871, 40.4883]], [[-122.6871, 40.4875], [-122.6868, 40.488], [-122.6868, 40.4875], [-122.6871, 40.4875]]], [[[-122.6729, 40.487], [-122.6729, 40.4862], [-122.6715, 40.4865], [-122.6715, 40.4867], [-122.6729, 40.487]]], [[[-122.6842, 40.4859], [-122.6856, 40.4856], [-122.6846, 40.4854], [-122.6842, 40.4859]]], [[[-122.6145, 40.4871], [-122.616, 40.4874], [-122.6159, 40.4866], [-122.6145, 40.4871]]]]}, "properties": {"layer": "high_severity"}}, {"type": "Feature", "geometry": {"type": "MultiPolygon", "coordinates": [[[[-122.5934, 40.5381], [-122.5937, 40.5384], [-122.5944, 40.5381], [-122.5934, 40.5381]]], [[[-122.5919, 40.5376], [-122.5915, 40.5371], [-122.5905, 40.5374], [-122.5905, 40.5376], [-122.5919, 40.5376]]], [[[-122.5863, 40.5377], [-122.5869, 40.5372], [-122.5859, 40.5369], [-122.5863, 40.5377]]], [[[-122.5922, 40.5368], [-122.5922, 40.5363], [-122.5912, 40.5365], [-122.5912, 40.5368], [-122.5922, 40.5368]]], [[[-122.5908, 40.5363], [-122.5915, 40.5357], [-122.5911, 40.5357], [-122.5908, 40.5363]]], [[[-122.5958, 40.5359], [-122.5954, 40.5354], [-122.5947, 40.5357], [-122.5947, 40.5359], [-122.5958, 40.5359]]], [[[-122.5943, 40.5354], [-122.595, 40.5348], [-122.5943, 40.5346], [-122.5943, 40.5354]]], [[[-122.601, 40.5342], [-122.6014, 40.5344], [-122.6017, 40.5342], [-122.601, 40.5342]]], [[[-122.5854, 40.5323], [-122.5864, 40.5326], [-122.5864, 40.5321], [-122.5854, 40.5323]]], [[[-122.6041, 40.5317], [-122.6048, 40.5306], [-122.6023, 40.5304], [-122.6023, 40.5309], [-122.603, 40.5306], [-122.603, 40.5314], [-122.6041, 40.5317]], [[-122.6037, 40.5309], [-122.6034, 40.5312], [-122.6034, 40.5309], [-122.6037, 40.5309]]], [[[-122.5881, 40.5304], [-122.5881, 40.5296], [-122.5877, 40.5296], [-122.5874, 40.5301], [-122.5881, 40.5304]]], [[[-122.5838, 40.5289], [-122.5845, 40.5288], [-122.5856, 40.5283], [-122.5842, 40.5283], [-122.5838, 40.5289]]], [[[-122.5788, 40.5276], [-122.5799, 40.5273], [-122.5788, 40.5273], [-122.5788, 40.5276]]], [[[-122.5951, 40.5273], [-122.5958, 40.527], [-122.5954, 40.5265], [-122.5947, 40.5267], [-122.5951, 40.5273]]], [[[-122.5664, 40.5257], [-122.5667, 40.5252], [-122.5656, 40.5252], [-122.5656, 40.5255], [-122.5664, 40.5257]]], [[[-122.5699, 40.5248], [-122.5698, 40.524], [-122.5691, 40.524], [-122.5688, 40.5246], [-122.5699, 40.5248]]], [[[-122.5879, 40.5231], [-122.5882, 40.5234], [-122.5896, 40.5225], [-122.5879, 40.5231]]], [[[-122.5907, 40.5225], [-122.5907, 40.522], [-122.5896, 40.522], [-122.5896, 40.5225], [-122.5907, 40.5225]]], [[[-122.574, 40.5223], [-122.5743, 40.5212], [-122.5736, 40.5218], [-122.5726, 40.5213], [-122.574, 40.5223]]], [[[-122.5903, 40.5217], [-122.5903, 40.5212], [-122.5878, 40.5207], [-122.5878, 40.5212], [-122.5885, 40.5209], [-122.5892, 40.5217], [-122.5903, 40.5217]]], [[[-122.5874, 40.5207], [-122.5881, 40.5201], [-122.5874, 40.5199], [-122.5874, 40.5207]]], [[[-122.5754, 40.5199], [-122.576, 40.5196], [-122.5753, 40.5193], [-122.5754, 40.5199]]], [[[-122.5607, 40.5172], [-122.5614, 40.5166], [-122.5611, 40.5166], [-122.5607, 40.5172]]], [[[-122.5622, 40.5172], [-122.5628, 40.5158], [-122.5614, 40.5155], [-122.5621, 40.5158], [-122.5614, 40.5164], [-122.5622, 40.5172]]], [[[-122.5589, 40.5159], [-122.5596, 40.5153], [-122.5593, 40.5153], [-122.5589, 40.5159]]], [[[-122.5557, 40.5149], [-122.5564, 40.5151], [-122.5571, 40.5148], [-122.5557, 40.5149]]], [[[-122.5546, 40.5146], [-122.555, 40.5138], [-122.5546, 40.5138], [-122.5546, 40.5146]]], [[[-122.5564, 40.5135], [-122.5563, 40.5127], [-122.556, 40.5127], [-122.5556, 40.5135], [-122.5564, 40.5135]]], [[[-122.6856, 40.4948], [-122.6859, 40.494], [-122.6852, 40.494], [-122.6856, 40.4948]]], [[[-122.6796, 40.4939], [-122.6799, 40.4941], [-122.6803, 40.4938], [-122.6796, 40.4939]]], [[[-122.671, 40.4908], [-122.6727, 40.491], [-122.6723, 40.49], [-122.6713, 40.49], [-122.671, 40.4908]], [[-122.6724, 40.4905], [-122.672, 40.4908], [-122.672, 40.4905], [-122.6724, 40.4905]]], [[[-122.6816, 40.49], [-122.6822, 40.4895], [-122.6819, 40.4895], [-122.6816, 40.49]]], [[[-122.6921, 40.4893], [-122.6928, 40.489], [-122.6921, 40.4887], [-122.6921, 40.4893]]], [[[-122.5959, 40.4913], [-122.5966, 40.491], [-122.5959, 40.4908], [-122.5959, 40.4913]]], [[[-122.672, 40.4894], [-122.6723, 40.4883], [-122.6719, 40.4884], [-122.672, 40.4894]]], [[[-122.6875, 40.488], [-122.6878, 40.4869], [-122.6857, 40.487], [-122.6861, 40.488], [-122.6868, 40.4875], [-122.6875, 40.488]]], [[[-122.6849, 40.4862], [-122.6853, 40.4856], [-122.6842, 40.4857], [-122.6842, 40.4859], [-122.6849, 40.4862]]]]}, "properties": {"layer": "interior"}}, {"type": "Feature", "geometry": {"type": "MultiPolygon", "coordinates": [[[[-122.5664, 40.5257], [-122.5667, 40.5252], [-122.5656, 40.5252], [-122.5656, 40.5255], [-122.5664, 40.5257]]], [[[-122.5699, 40.5248], [-122.5698, 40.524], [-122.5691, 40.524], [-122.5688, 40.5246], [-122.5699, 40.5248]]], [[[-122.574, 40.5223], [-122.5743, 40.5212], [-122.5736, 40.5218], [-122.5726, 40.5213], [-122.574, 40.5223]]], [[[-122.5607, 40.5172], [-122.5614, 40.5166], [-122.5611, 40.5166], [-122.5607, 40.5172]]], [[[-122.5622, 40.5172], [-122.5628, 40.5158], [-122.5614, 40.5155], [-122.5621, 40.5158], [-122.5614, 40.5164], [-122.5622, 40.5172]]], [[[-122.5589, 40.5159], [-122.5596, 40.5153], [-122.5593, 40.5153], [-122.5589, 40.5159]]], [[[-122.5557, 40.5149], [-122.5564, 40.5151], [-122.5571, 40.5148], [-122.5557, 40.5149]]], [[[-122.5546, 40.5146], [-122.555, 40.5138], [-122.5546, 40.5138], [-122.5546, 40.5146]]], [[[-122.5564, 40.5135], [-122.5563, 40.5127], [-122.556, 40.5127], [-122.5556, 40.5135], [-122.5564, 40.5135]]], [[[-122.5959, 40.4913], [-122.5966, 40.491], [-122.5959, 40.4908], [-122.5959, 40.4913]]]]}, "properties": {"layer": "cell", "cell_id": "332_1000", "seed_zone": "332", "elevation_band": "1000–1500 ft"}}, {"type": "Feature", "geometry": {"type": "MultiPolygon", "coordinates": [[[[-122.5881, 40.5304], [-122.5881, 40.5296], [-122.5877, 40.5296], [-122.5874, 40.5301], [-122.5881, 40.5304]]], [[[-122.5838, 40.5289], [-122.5845, 40.5288], [-122.5856, 40.5283], [-122.5842, 40.5283], [-122.5838, 40.5289]]], [[[-122.5788, 40.5276], [-122.5799, 40.5273], [-122.5788, 40.5273], [-122.5788, 40.5276]]], [[[-122.5879, 40.5231], [-122.5882, 40.5234], [-122.5896, 40.5225], [-122.5879, 40.5231]]], [[[-122.5907, 40.5225], [-122.5907, 40.522], [-122.5896, 40.522], [-122.5896, 40.5225], [-122.5907, 40.5225]]], [[[-122.5903, 40.5217], [-122.5903, 40.5212], [-122.5878, 40.5207], [-122.5878, 40.5212], [-122.5885, 40.5209], [-122.5892, 40.5217], [-122.5903, 40.5217]]], [[[-122.5874, 40.5207], [-122.5881, 40.5201], [-122.5874, 40.5199], [-122.5874, 40.5207]]], [[[-122.5754, 40.5199], [-122.576, 40.5196], [-122.5753, 40.5193], [-122.5754, 40.5199]]], [[[-122.671, 40.4908], [-122.672, 40.4902], [-122.6713, 40.49], [-122.671, 40.4908]]], [[[-122.6816, 40.49], [-122.6822, 40.4895], [-122.6819, 40.4895], [-122.6816, 40.49]]], [[[-122.672, 40.4894], [-122.6723, 40.4883], [-122.6719, 40.4884], [-122.672, 40.4894]]]]}, "properties": {"layer": "cell", "cell_id": "332_1500", "seed_zone": "332", "elevation_band": "1500–2000 ft"}}, {"type": "Feature", "geometry": {"type": "MultiPolygon", "coordinates": [[[[-122.5934, 40.5381], [-122.5937, 40.5384], [-122.5944, 40.5381], [-122.5934, 40.5381]]], [[[-122.5919, 40.5376], [-122.5915, 40.5371], [-122.5905, 40.5374], [-122.5905, 40.5376], [-122.5919, 40.5376]]], [[[-122.5863, 40.5377], [-122.5869, 40.5372], [-122.5859, 40.5369], [-122.5863, 40.5377]]], [[[-122.5922, 40.5368], [-122.5922, 40.5363], [-122.5912, 40.5365], [-122.5912, 40.5368], [-122.5922, 40.5368]]], [[[-122.5908, 40.5363], [-122.5915, 40.5357], [-122.5911, 40.5357], [-122.5908, 40.5363]]], [[[-122.5958, 40.5359], [-122.5954, 40.5354], [-122.5947, 40.5357], [-122.5947, 40.5359], [-122.5958, 40.5359]]], [[[-122.5943, 40.5354], [-122.595, 40.5348], [-122.5943, 40.5346], [-122.5943, 40.5354]]], [[[-122.601, 40.5342], [-122.6014, 40.5344], [-122.6017, 40.5342], [-122.601, 40.5342]]], [[[-122.5861, 40.5329], [-122.5861, 40.5323], [-122.5854, 40.5323], [-122.5854, 40.5326], [-122.5861, 40.5329]]], [[[-122.6034, 40.5317], [-122.6044, 40.5311], [-122.603, 40.5312], [-122.6034, 40.5317]]], [[[-122.5951, 40.5273], [-122.5958, 40.527], [-122.5954, 40.5265], [-122.5947, 40.5267], [-122.5951, 40.5273]]], [[[-122.6856, 40.4948], [-122.6859, 40.494], [-122.6852, 40.494], [-122.6856, 40.4948]]], [[[-122.672, 40.4913], [-122.6724, 40.4908], [-122.6717, 40.4905], [-122.6713, 40.4911], [-122.672, 40.4913]]], [[[-122.6875, 40.488], [-122.6878, 40.4869], [-122.6857, 40.487], [-122.6861, 40.488], [-122.6868, 40.4875], [-122.6875, 40.488]]], [[[-122.6849, 40.4862], [-122.6853, 40.4856], [-122.6842, 40.4857], [-122.6842, 40.4859], [-122.6849, 40.4862]]]]}, "properties": {"layer": "cell", "cell_id": "332_2000", "seed_zone": "332", "elevation_band": "2000–2500 ft"}}, {"type": "Feature", "geometry": {"type": "MultiPolygon", "coordinates": [[[[-122.603, 40.5312], [-122.6048, 40.5306], [-122.6023, 40.5304], [-122.603, 40.5312]]], [[[-122.6921, 40.4893], [-122.6928, 40.489], [-122.6921, 40.4887], [-122.6921, 40.4893]]]]}, "properties": {"layer": "cell", "cell_id": "332_2500", "seed_zone": "332", "elevation_band": "2500–3000 ft"}}]}
