{"type": "FeatureCollection", "features": [{"type": "Feature", "geometry": {"type": "MultiPolygon", "coordinates": [[[[-123.5966, 40.6292], [-123.5955, 40.6318], [-123.5963, 40.6322], [-123.5941, 40.6353], [-123.5976, 40.6358], [-123.5981, 40.6373], [-123.597, 40.6384], [-123.5986, 40.6393], [-123.5967, 40.6398], [-123.5978, 40.6412], [-123.5955, 40.6426], [-123.5965, 40.6436], [-123.5958, 40.6459], [-123.5969, 40.6464], [-123.5937, 40.6472], [-123.5955, 40.6476], [-123.5951, 40.6484], [-123.5969, 40.6486], [-123.5964, 40.6497], [-123.5951, 40.6503], [-123.5917, 40.6505], [-123.592, 40.6515], [-123.5912, 40.652], [-123.5921, 40.6523], [-123.591, 40.6529], [-123.5894, 40.6527], [-123.5888, 40.6542], [-123.5859, 40.654], [-123.5853, 40.6545], [-123.5845, 40.6539], [-123.5816, 40.6554], [-123.5799, 40.6554], [-123.5788, 40.6547], [-123.5774, 40.6553], [-123.5784, 40.6544], [-123.5781, 40.6531], [-123.5789, 40.6529], [-123.5766, 40.6524], [-123.5767, 40.6477], [-123.5739, 40.6477], [-123.5716, 40.6464], [-123.5723, 40.6458], [-123.572, 40.6445], [-123.5741, 40.6445], [-123.5738, 40.643], [-123.5751, 40.6429], [-123.5763, 40.6432], [-123.5758, 40.6444], [-123.5775, 40.6469], [-123.58, 40.6479], [-123.5802, 40.6473], [-123.5782, 40.646], [-123.5789, 40.6437], [-123.5802, 40.643], [-123.5793, 40.6415], [-123.5781, 40.6414], [-123.5781, 40.6401], [-123.5775, 40.6399], [-123.5781, 40.6387], [-123.5768, 40.6368], [-123.5781, 40.636], [-123.5772, 40.6359], [-123.5767, 40.634], [-123.5739, 40.6323], [-123.5732, 40.6332], [-123.5689, 40.6318], [-123.5692, 40.6267], [-123.5708, 40.6256], [-123.5728, 40.6253], [-123.5736, 40.624], [-123.5704, 40.6236], [-123.5707, 40.6218], [-123.5683, 40.6215], [-123.5667, 40.6194], [-123.567, 40.6178], [-123.5682, 40.6175], [-123.5673, 40.6172], [-123.5668, 40.6143], [-123.5652, 40.6124], [-123.5646, 40.6103], [-123.5652, 40.61], [-123.5617, 40.6068], [-123.5636, 40.6051], [-123.5621, 40.6035], [-123.5627, 40.602], [-123.5606, 40.6018], [-123.5603, 40.6], [-123.5574, 40.5974], [-123.5578, 40.5962], [-123.5569, 40.5952], [-123.5546, 40.5955], [-123.5533, 40.5946], [-123.5538, 40.5936], [-123.5532, 40.5912], [-123.5564, 40.589], [-123.5574, 40.5888], [-123.5612, 40.5908], [-123.5634, 40.5899], [-123.5645, 40.5876], [-123.5653, 40.5876], [-123.5666, 40.5883], [-123.5656, 40.5895], [-123.5656, 40.5909], [-123.5674, 40.5916], [-123.5678, 40.5926], [-123.5689, 40.5916], [-123.5723, 40.592], [-123.5725, 40.5928], [-123.5696, 40.5943], [-123.5731, 40.595], [-123.5755, 40.5974], [-123.5733, 40.6007], [-123.5752, 40.6023], [-123.5747, 40.6033], [-123.5784, 40.6066], [-123.5789, 40.6099], [-123.5802, 40.6104], [-123.5801, 40.6113], [-123.5812, 40.612], [-123.5794, 40.6143], [-123.5803, 40.617], [-123.5799, 40.618], [-123.5821, 40.6197], [-123.5826, 40.6185], [-123.5857, 40.619], [-123.5844, 40.6221], [-123.5855, 40.6234], [-123.5846, 40.6242], [-123.5879, 40.6256], [-123.5869, 40.628], [-123.5855, 40.6286], [-123.5835, 40.6283], [-123.5834, 40.6287], [-123.5843, 40.6287], [-123.5847, 40.6295], [-123.5863, 40.6286], [-123.589, 40.6292], [-123.5906, 40.6284], [-123.5928, 40.6287], [-123.5967, 40.6277], [-123.5983, 40.6288], [-123.5978, 40.6295], [-123.5966, 40.6292]]], [[[-123.586, 40.6232], [-123.5861, 40.6226], [-123.5874, 40.623], [-123.587, 40.6236], [-123.586, 40.6232]]], [[[-123.5764, 40.6344], [-123.5765, 40.6345], [-123.5764, 40.6345], [-123.5764, 40.6344]]], [[[-123.574, 40.635], [-123.5733, 40.6348], [-123.5738, 40.6344], [-123.574, 40.635]]], [[[-123.5749, 40.6364], [-123.5743, 40.6367], [-123.5738, 40.6363], [-123.5739, 40.6361], [-123.5749, 40.6364]]], [[[-123.576, 40.6514], [-123.5761, 40.6515], [-123.5759, 40.6515], [-123.576, 40.6514]]], [[[-123.5755, 40.6518], [-123.5756, 40.6519], [-123.5754, 40.6519], [-123.5755, 40.6518]]], [[[-123.5765, 40.6518], [-123.5764, 40.6519], [-123.5763, 40.6519], [-123.5765, 40.6518]]], [[[-123.576, 40.6521], [-123.5761, 40.6522], [-123.576, 40.6522], [-123.576, 40.6521]]], [[[-123.5764, 40.6526], [-123.5765, 40.6526], [-123.5765, 40.6526], [-123.5764, 40.6526]]], [[[-123.5771, 40.6533], [-123.5773, 40.6532], [-123.5772, 40.6534], [-123.5771, 40.6533]]], [[[-123.5752, 40.6539], [-123.5754, 40.6536], [-123.5755, 40.6538], [-123.5752, 40.6539]]], [[[-123.5772, 40.6538], [-123.5773, 40.6539], [-123.5772, 40.6539], [-123.5772, 40.6538]]], [[[-123.5751, 40.6542], [-123.5748, 40.6539], [-123.575, 40.654], [-123.5751, 40.6542]]], [[[-123.5749, 40.6546], [-123.5755, 40.6543], [-123.5756, 40.6545], [-123.5749, 40.6546]]], [[[-123.5757, 40.6536], [-123.5776, 40.6542], [-123.5764, 40.6556], [-123.5757, 40.6536]]], [[[-123.5759, 40.6548], [-123.5757, 40.6548], [-123.5758, 40.6547], [-123.5759, 40.6548]]], [[[-123.5754, 40.6549], [-123.575, 40.6549], [-123.5752, 40.6548], [-123.5754, 40.6549]]], [[[-123.5757, 40.6556], [-123.5762, 40.6555], [-123.5757, 40.6557], [-123.5757, 40.6556]]], [[[-123.5747, 40.6554], [-123.5752, 40.656], [-123.5743, 40.6562], [-123.5742, 40.656], [-123.5747, 40.6554]]], [[[-123.5774, 40.6561], [-123.578, 40.6553], [-123.578, 40.6563], [-123.5774, 40.6561]]], [[[-123.5761, 40.656], [-123.5757, 40.6559], [-123.5757, 40.6558], [-123.5761, 40.656]]], [[[-123.577, 40.6562], [-123.5763, 40.6562], [-123.577, 40.6561], [-123.577, 40.6562]]], [[[-123.5755, 40.6565], [-123.5757, 40.6564], [-123.5754, 40.6566], [-123.5755, 40.6565]]], [[[-123.5751, 40.6585], [-123.5757, 40.6583], [-123.5757, 40.6587], [-123.5751, 40.6585]]], [[[-123.5762, 40.6585], [-123.5763, 40.6587], [-123.5762, 40.6586], [-123.5762, 40.6585]]], [[[-123.575, 40.6587], [-123.5749, 40.6588], [-123.5748, 40.6588], [-123.575, 40.6587]]], [[[-123.5703, 40.6341], [-123.5699, 40.6338], [-123.5701, 40.6338], [-123.5703, 40.6341]]], [[[-123.5726, 40.6358], [-123.5729, 40.636], [-123.5726, 40.6361], [-123.5726, 40.6358]]], [[[-123.57, 40.6363], [-123.5702, 40.6363], [-123.5702, 40.6363], [-123.57, 40.6363]]], [[[-123.5712, 40.6368], [-123.5711, 40.6366], [-123.5712, 40.6366], [-123.5712, 40.6368]]], [[[-123.574, 40.6392], [-123.5717, 40.6376], [-123.5737, 40.637], [-123.575, 40.6376], [-123.574, 40.6392]]], [[[-123.5733, 40.652], [-123.574, 40.652], [-123.574, 40.6526], [-123.5735, 40.6526], [-123.5733, 40.652]]], [[[-123.5735, 40.6534], [-123.5734, 40.6535], [-123.5734, 40.6534], [-123.5735, 40.6534]]], [[[-123.5745, 40.6547], [-123.5746, 40.6546], [-123.5746, 40.6547], [-123.5745, 40.6547]]], [[[-123.5742, 40.6547], [-123.5738, 40.6548], [-123.5741, 40.6546], [-123.5742, 40.6547]]], [[[-123.5734, 40.6544], [-123.5735, 40.6556], [-123.5731, 40.6555], [-123.5734, 40.6544]]], [[[-123.5704, 40.655], [-123.5716, 40.6556], [-123.5708, 40.6558], [-123.5704, 40.655]]], [[[-123.5719, 40.6555], [-123.5718, 40.6555], [-123.5718, 40.6554], [-123.5719, 40.6555]]], [[[-123.5722, 40.6558], [-123.5723, 40.6558], [-123.5723, 40.6559], [-123.5722, 40.6558]]], [[[-123.5717, 40.6559], [-123.5719, 40.656], [-123.5716, 40.6561], [-123.5717, 40.6559]]], [[[-123.5708, 40.6562], [-123.5709, 40.6563], [-123.5707, 40.6563], [-123.5708, 40.6562]]], [[[-123.5719, 40.6571], [-123.5718, 40.6571], [-123.5718, 40.6571], [-123.5719, 40.6571]]], [[[-123.5736, 40.6572], [-123.5737, 40.6573], [-123.5735, 40.6573], [-123.5736, 40.6572]]], [[[-123.5723, 40.6572], [-123.5731, 40.6574], [-123.572, 40.6577], [-123.5723, 40.6572]]], [[[-123.5718, 40.658], [-123.5714, 40.6582], [-123.5715, 40.6578], [-123.5718, 40.658]]], [[[-123.5738, 40.6583], [-123.5737, 40.6581], [-123.574, 40.6582], [-123.5738, 40.6583]]], [[[-123.5703, 40.6587], [-123.5703, 40.6587], [-123.5703, 40.6587], [-123.5703, 40.6587]]], [[[-123.5734, 40.6587], [-123.5735, 40.6588], [-123.5734, 40.6588], [-123.5734, 40.6587]]], [[[-123.5703, 40.659], [-123.5704, 40.659], [-123.5705, 40.6591], [-123.5703, 40.659]]], [[[-123.5707, 40.6591], [-123.5709, 40.6591], [-123.5709, 40.6592], [-123.5707, 40.6591]]], [[[-123.5717, 40.6596], [-123.5717, 40.6598], [-123.5717, 40.6596], [-123.5717, 40.6596]]], [[[-123.5728, 40.6598], [-123.5727, 40.66], [-123.5726, 40.6599], [-123.5728, 40.6598]]], [[[-123.5726, 40.6602], [-123.5726, 40.6607], [-123.5721, 40.6606], [-123.5726, 40.6602]]], [[[-123.5606, 40.6216], [-123.5605, 40.6211], [-123.5613, 40.6209], [-123.5613, 40.6215], [-123.5606, 40.6216]]], [[[-123.5686, 40.6293], [-123.5684, 40.6287], [-123.5689, 40.6289], [-123.5686, 40.6293]]], [[[-123.5644, 40.6295], [-123.5641, 40.6299], [-123.564, 40.6297], [-123.5644, 40.6295]]], [[[-123.5673, 40.63], [-123.5678, 40.6306], [-123.5673, 40.6308], [-123.5668, 40.6304], [-123.5673, 40.63]]], [[[-123.5652, 40.6311], [-123.5648, 40.6311], [-123.5651, 40.6309], [-123.5652, 40.6311]]], [[[-123.567, 40.632], [-123.5675, 40.6315], [-123.5674, 40.6323], [-123.567, 40.632]]], [[[-123.5583, 40.6324], [-123.5589, 40.6323], [-123.5588, 40.6327], [-123.5583, 40.6324]]], [[[-123.561, 40.6325], [-123.5609, 40.6327], [-123.5608, 40.6327], [-123.561, 40.6325]]], [[[-123.5637, 40.6324], [-123.564, 40.6326], [-123.5637, 40.6328], [-123.5637, 40.6324]]], [[[-123.5656, 40.6334], [-123.5661, 40.6337], [-123.5657, 40.6338], [-123.5656, 40.6334]]], [[[-123.5643, 40.6335], [-123.5652, 40.6344], [-123.5636, 40.6342], [-123.5643, 40.6335]]], [[[-123.5625, 40.634], [-123.5623, 40.6345], [-123.562, 40.6342], [-123.5625, 40.634]]], [[[-123.5676, 40.6348], [-123.5671, 40.6353], [-123.567, 40.635], [-123.5676, 40.6348]]], [[[-123.5683, 40.6354], [-123.5687, 40.6356], [-123.5685, 40.6357], [-123.5683, 40.6354]]], [[[-123.5571, 40.6369], [-123.5567, 40.637], [-123.557, 40.6367], [-123.5571, 40.6369]]], [[[-123.5593, 40.6372], [-123.5598, 40.6369], [-123.5597, 40.6371], [-123.5593, 40.6372]]], [[[-123.5688, 40.657], [-123.5697, 40.6571], [-123.5692, 40.6573], [-123.5688, 40.657]]], [[[-123.569, 40.6611], [-123.569, 40.6612], [-123.5689, 40.6612], [-123.569, 40.6611]]], [[[-123.5654, 40.6624], [-123.5657, 40.6619], [-123.5661, 40.6619], [-123.5654, 40.6624]]], [[[-123.5691, 40.6623], [-123.5691, 40.6625], [-123.5689, 40.6624], [-123.5691, 40.6623]]], [[[-123.5664, 40.6624], [-123.5668, 40.6631], [-123.566, 40.6627], [-123.5664, 40.6624]]], [[[-123.5671, 40.6634], [-123.5673, 40.6628], [-123.5676, 40.6632], [-123.5671, 40.6634]]], [[[-123.5663, 40.6636], [-123.5661, 40.6633], [-123.5663, 40.6634], [-123.5663, 40.6636]]], [[[-123.5703, 40.6633], [-123.5706, 40.6634], [-123.5704, 40.6635], [-123.5703, 40.6633]]], [[[-123.5595, 40.6754], [-123.5592, 40.6662], [-123.5618, 40.6646], [-123.5594, 40.6642], [-123.559, 40.663], [-123.5603, 40.6619], [-123.5623, 40.6613], [-123.564, 40.6624], [-123.5641, 40.6646], [-123.5657, 40.6636], [-123.5665, 40.6645], [-123.5657, 40.6652], [-123.5678, 40.6655], [-123.5689, 40.6665], [-123.5655, 40.6673], [-123.5656, 40.6685], [-123.5693, 40.668], [-123.5699, 40.669], [-123.5686, 40.6694], [-123.5689, 40.6704], [-123.5673, 40.6709], [-123.5686, 40.671], [-123.569, 40.6717], [-123.5675, 40.672], [-123.5675, 40.6732], [-123.5662, 40.6724], [-123.5659, 40.6706], [-123.5649, 40.6718], [-123.5656, 40.6762], [-123.5648, 40.6768], [-123.5623, 40.6767], [-123.561, 40.6773], [-123.5595, 40.6754]]]]}, "properties": {"layer": "perimeter"}}, {"type": "Feature", "geometry": {"type": "MultiPolygon", "coordinates": [[[[-123.589, 40.6539], [-123.5877, 40.6543], [-123.5867, 40.6539], [-123.589, 40.6539]]], [[[-123.5858, 40.6542], [-123.5853, 40.6545], [-123.5848, 40.6542], [-123.5858, 40.6542]]], [[[-123.584, 40.6543], [-123.5816, 40.6554], [-123.5799, 40.6554], [-123.5788, 40.6547], [-123.5774, 40.6553], [-123.5782, 40.6542], [-123.584, 40.6543]]], [[[-123.577, 40.6525], [-123.5766, 40.6521], [-123.577, 40.6517], [-123.577, 40.6525]]], [[[-123.5769, 40.6511], [-123.5767, 40.6477], [-123.5734, 40.6473], [-123.577, 40.6473], [-123.5769, 40.6511]]], [[[-123.573, 40.6472], [-123.5716, 40.6464], [-123.5723, 40.6458], [-123.5718, 40.6448], [-123.5728, 40.6442], [-123.573, 40.6472]]], [[[-123.5729, 40.6331], [-123.5689, 40.6318], [-123.5692, 40.6267], [-123.5722, 40.6253], [-123.5729, 40.6331]]], [[[-123.5761, 40.6515], [-123.5759, 40.6515], [-123.576, 40.6514], [-123.5761, 40.6515]]], [[[-123.5756, 40.6519], [-123.5754, 40.6519], [-123.5755, 40.6518], [-123.5756, 40.6519]]], [[[-123.5765, 40.6519], [-123.5763, 40.6519], [-123.5765, 40.6518], [-123.5765, 40.6519]]], [[[-123.5761, 40.6522], [-123.576, 40.6522], [-123.576, 40.6521], [-123.5761, 40.6522]]], [[[-123.5765, 40.6526], [-123.5765, 40.6526], [-123.5764, 40.6526], [-123.5765, 40.6526]]], [[[-123.5752, 40.6539], [-123.5754, 40.6536], [-123.5755, 40.6538], [-123.5752, 40.6539]]], [[[-123.5747, 40.6541], [-123.575, 40.654], [-123.5751, 40.6542], [-123.5747, 40.6541]]], [[[-123.5749, 40.6546], [-123.5755, 40.6543], [-123.5756, 40.6545], [-123.5749, 40.6546]]], [[[-123.5757, 40.6536], [-123.5776, 40.6542], [-123.5764, 40.6556], [-123.5757, 40.6536]]], [[[-123.5759, 40.6549], [-123.5758, 40.6547], [-123.5759, 40.6548], [-123.5759, 40.6549]]], [[[-123.5754, 40.6549], [-123.575, 40.6549], [-123.5752, 40.6548], [-123.5754, 40.6549]]], [[[-123.576, 40.6556], [-123.576, 40.6557], [-123.5757, 40.6557], [-123.576, 40.6556]]], [[[-123.5748, 40.6554], [-123.5752, 40.656], [-123.5743, 40.6562], [-123.5742, 40.656], [-123.5748, 40.6554]]], [[[-123.5771, 40.6555], [-123.578, 40.6553], [-123.578, 40.6563], [-123.5774, 40.6561], [-123.5771, 40.6555]]], [[[-123.5761, 40.656], [-123.5757, 40.6559], [-123.5757, 40.6558], [-123.5761, 40.656]]], [[[-123.577, 40.6562], [-123.5763, 40.6562], [-123.577, 40.6561], [-123.577, 40.6562]]], [[[-123.5756, 40.6564], [-123.5755, 40.6566], [-123.5754, 40.6566], [-123.5756, 40.6564]]], [[[-123.5751, 40.6579], [-123.5758, 40.6585], [-123.5753, 40.6587], [-123.5751, 40.6579]]], [[[-123.5763, 40.6585], [-123.5762, 40.6586], [-123.5762, 40.6585], [-123.5763, 40.6585]]], [[[-123.5751, 40.6587], [-123.5748, 40.6588], [-123.575, 40.6587], [-123.5751, 40.6587]]], [[[-123.57, 40.6342], [-123.5701, 40.6338], [-123.5703, 40.6341], [-123.57, 40.6342]]], [[[-123.5726, 40.6358], [-123.5729, 40.636], [-123.5726, 40.6361], [-123.5726, 40.6358]]], [[[-123.57, 40.6363], [-123.5702, 40.6363], [-123.57, 40.6363], [-123.57, 40.6363]]], [[[-123.571, 40.6367], [-123.5712, 40.6366], [-123.5712, 40.6368], [-123.571, 40.6367]]], [[[-123.5719, 40.6378], [-123.5729, 40.6374], [-123.5729, 40.6385], [-123.5722, 40.6386], [-123.5719, 40.6378]]], [[[-123.5733, 40.6518], [-123.574, 40.652], [-123.574, 40.6526], [-123.5733, 40.6525], [-123.5733, 40.6518]]], [[[-123.5734, 40.6535], [-123.5734, 40.6534], [-123.5735, 40.6534], [-123.5734, 40.6535]]], [[[-123.5745, 40.6547], [-123.5746, 40.6547], [-123.5746, 40.6547], [-123.5745, 40.6547]]], [[[-123.5742, 40.6547], [-123.5738, 40.6547], [-123.5741, 40.6546], [-123.5742, 40.6547]]], [[[-123.5737, 40.6547], [-123.5735, 40.6556], [-123.5731, 40.6555], [-123.573, 40.6549], [-123.5737, 40.6547]]], [[[-123.5704, 40.655], [-123.5716, 40.6556], [-123.5708, 40.6558], [-123.5704, 40.655]]], [[[-123.5718, 40.6555], [-123.5718, 40.6554], [-123.5719, 40.6556], [-123.5718, 40.6555]]], [[[-123.5723, 40.6558], [-123.5723, 40.6559], [-123.5722, 40.6558], [-123.5723, 40.6558]]], [[[-123.5717, 40.6559], [-123.5716, 40.6561], [-123.5716, 40.656], [-123.5717, 40.6559]]], [[[-123.5709, 40.6562], [-123.5707, 40.6563], [-123.5708, 40.6562], [-123.5709, 40.6562]]], [[[-123.5719, 40.6571], [-123.5718, 40.6571], [-123.5718, 40.6571], [-123.5719, 40.6571]]], [[[-123.5737, 40.6573], [-123.5735, 40.6573], [-123.5736, 40.6572], [-123.5737, 40.6573]]], [[[-123.5723, 40.6572], [-123.573, 40.6575], [-123.572, 40.6577], [-123.5723, 40.6572]]], [[[-123.5718, 40.658], [-123.5714, 40.6582], [-123.5715, 40.6578], [-123.5718, 40.658]]], [[[-123.5738, 40.6583], [-123.5737, 40.6581], [-123.574, 40.6582], [-123.5738, 40.6583]]], [[[-123.5703, 40.6587], [-123.5703, 40.6587], [-123.5703, 40.6587], [-123.5703, 40.6587]]], [[[-123.5735, 40.6588], [-123.5734, 40.6588], [-123.5734, 40.6587], [-123.5735, 40.6588]]], [[[-123.5704, 40.659], [-123.5705, 40.6591], [-123.5703, 40.659], [-123.5704, 40.659]]], [[[-123.5709, 40.659], [-123.5709, 40.6592], [-123.5707, 40.6591], [-123.5709, 40.659]]], [[[-123.5717, 40.6596], [-123.5716, 40.6597], [-123.5717, 40.6596], [-123.5717, 40.6596]]], [[[-123.5728, 40.6599], [-123.5726, 40.6599], [-123.5728, 40.6598], [-123.5728, 40.6599]]], [[[-123.5729, 40.6607], [-123.5721, 40.6606], [-123.5726, 40.6602], [-123.5729, 40.6607]]], [[[-123.561, 40.6216], [-123.5608, 40.6216], [-123.561, 40.6216], [-123.561, 40.6216]]], [[[-123.5682, 40.6291], [-123.5689, 40.6289], [-123.5686, 40.6293], [-123.5682, 40.6291]]], [[[-123.5644, 40.6298], [-123.564, 40.6297], [-123.5644, 40.6295], [-123.5644, 40.6298]]], [[[-123.5669, 40.6301], [-123.5678, 40.6306], [-123.5673, 40.6308], [-123.5669, 40.6301]]], [[[-123.5648, 40.6311], [-123.5651, 40.6309], [-123.5651, 40.6314], [-123.5648, 40.6311]]], [[[-123.567, 40.6316], [-123.5677, 40.6321], [-123.5674, 40.6323], [-123.567, 40.6316]]], [[[-123.5586, 40.6321], [-123.5588, 40.6327], [-123.5584, 40.6326], [-123.5586, 40.6321]]], [[[-123.5612, 40.6326], [-123.5608, 40.6327], [-123.561, 40.6325], [-123.5612, 40.6326]]], [[[-123.564, 40.6326], [-123.5637, 40.6328], [-123.5637, 40.6324], [-123.564, 40.6326]]], [[[-123.5661, 40.6337], [-123.5657, 40.6338], [-123.5656, 40.6334], [-123.5661, 40.6337]]], [[[-123.5643, 40.6335], [-123.5652, 40.6344], [-123.5636, 40.6342], [-123.5643, 40.6335]]], [[[-123.5627, 40.6343], [-123.562, 40.6342], [-123.5625, 40.634], [-123.5627, 40.6343]]], [[[-123.5676, 40.6352], [-123.567, 40.635], [-123.5676, 40.6348], [-123.5676, 40.6352]]], [[[-123.5685, 40.6354], [-123.5685, 40.6357], [-123.5683, 40.6354], [-123.5685, 40.6354]]], [[[-123.5569, 40.6371], [-123.557, 40.6367], [-123.5571, 40.6369], [-123.5569, 40.6371]]], [[[-123.5594, 40.6367], [-123.5593, 40.6372], [-123.5591, 40.6368], [-123.5594, 40.6367]]], [[[-123.5688, 40.657], [-123.5697, 40.6571], [-123.5692, 40.6573], [-123.5688, 40.657]]], [[[-123.5691, 40.6612], [-123.5689, 40.6612], [-123.569, 40.6611], [-123.5691, 40.6612]]], [[[-123.5653, 40.662], [-123.5661, 40.6621], [-123.5654, 40.6624], [-123.5653, 40.662]]], [[[-123.5691, 40.6623], [-123.5691, 40.6625], [-123.5689, 40.6624], [-123.5691, 40.6623]]], [[[-123.5667, 40.6626], [-123.5662, 40.663], [-123.5662, 40.6624], [-123.5667, 40.6626]]], [[[-123.5671, 40.663], [-123.5676, 40.6632], [-123.5673, 40.6634], [-123.5671, 40.663]]], [[[-123.5663, 40.6636], [-123.5661, 40.6633], [-123.5664, 40.6636], [-123.5663, 40.6636]]], [[[-123.5703, 40.6633], [-123.5706, 40.6634], [-123.5704, 40.6635], [-123.5703, 40.6633]]], [[[-123.5597, 40.6658], [-123.5618, 40.6646], [-123.5594, 40.6642], [-123.559, 40.663], [-123.5603, 40.6619], [-123.5623, 40.6613], [-123.564, 40.6624], [-123.5641, 40.6646], [-123.5657, 40.6636], [-123.5665, 40.6645], [-123.5657, 40.6652], [-123.5678, 40.6655], [-123.5689, 40.6665], [-123.5655, 40.6673], [-123.5656, 40.6685], [-123.5698, 40.6682], [-123.5698, 40.6693], [-123.5685, 40.6694], [-123.5689, 40.6704], [-123.5678, 40.6705], [-123.5672, 40.6709], [-123.5686, 40.671], [-123.569, 40.6716], [-123.5675, 40.672], [-123.5675, 40.6732], [-123.5662, 40.6724], [-123.5659, 40.6706], [-123.5649, 40.6718], [-123.5656, 40.6762], [-123.5648, 40.6768], [-123.5623, 40.6767], [-123.561, 40.6773], [-123.5595, 40.6754], [-123.5599, 40.6736], [-123.5633, 40.6735], [-123.5631, 40.6659], [-123.5597, 40.6658]]]]}, "properties": {"layer": "retained"}}, {"type": "Feature", "geometry": {"type": "MultiPolygon", "coordinates": [[[[-123.5664, 40.6708], [-123.5667, 40.6705], [-123.5664, 40.6705], [-123.5664, 40.6708]]], [[[-123.5632, 40.6704], [-123.5635, 40.6706], [-123.5639, 40.6703], [-123.5632, 40.6704]]], [[[-123.5639, 40.6703], [-123.5642, 40.6701], [-123.5639, 40.6701], [-123.5639, 40.6703]]], [[[-123.5642, 40.6701], [-123.5649, 40.6695], [-123.5642, 40.6695], [-123.5642, 40.6701]]], [[[-123.5632, 40.6701], [-123.5639, 40.6698], [-123.5631, 40.6696], [-123.5632, 40.6701]]], [[[-123.567, 40.6697], [-123.5674, 40.6694], [-123.567, 40.6694], [-123.567, 40.6697]]], [[[-123.5635, 40.6695], [-123.5638, 40.6693], [-123.5635, 40.6693], [-123.5635, 40.6695]]], [[[-123.5645, 40.669], [-123.5649, 40.6687], [-123.5645, 40.6687], [-123.5645, 40.669]]], [[[-123.5641, 40.6682], [-123.5648, 40.6684], [-123.5648, 40.6679], [-123.5641, 40.6682]]], [[[-123.5644, 40.6663], [-123.5647, 40.6657], [-123.5644, 40.6657], [-123.5644, 40.6663]]], [[[-123.5637, 40.666], [-123.564, 40.6655], [-123.5636, 40.6655], [-123.5637, 40.666]]], [[[-123.5629, 40.6658], [-123.5633, 40.6655], [-123.5629, 40.6655], [-123.5629, 40.6658]]], [[[-123.5625, 40.665], [-123.5629, 40.6647], [-123.5625, 40.6647], [-123.5625, 40.665]]], [[[-123.5629, 40.6647], [-123.5632, 40.6644], [-123.5629, 40.6644], [-123.5629, 40.6647]]]]}, "properties": {"layer": "high_severity"}}]}
