{"type": "FeatureCollection", "features": [{"type": "Feature", "geometry": {"type": "MultiPolygon", "coordinates": [[[[-118.3324, 37.3575], [-118.3298, 37.3565], [-118.3283, 37.3539], [-118.3278, 37.3542], [-118.328, 37.3537], [-118.3268, 37.3534], [-118.3263, 37.3497], [-118.3247, 37.3494], [-118.325, 37.3473], [-118.323, 37.3465], [-118.3226, 37.343], [-118.3199, 37.3394], [-118.32, 37.3376], [-118.3188, 37.3369], [-118.3183, 37.3338], [-118.3166, 37.3314], [-118.3165, 37.33], [-118.3138, 37.329], [-118.3125, 37.3301], [-118.3123, 37.328], [-118.3111, 37.3274], [-118.3115, 37.3258], [-118.3092, 37.3235], [-118.3096, 37.3212], [-118.3085, 37.3189], [-118.3103, 37.3165], [-118.3095, 37.3155], [-118.3099, 37.3146], [-118.3116, 37.3141], [-118.3111, 37.3117], [-118.3064, 37.3094], [-118.3055, 37.3096], [-118.3055, 37.3057], [-118.3076, 37.3052], [-118.3058, 37.3016], [-118.3075, 37.3006], [-118.3066, 37.2974], [-118.3073, 37.2959], [-118.3098, 37.2949], [-118.3089, 37.2929], [-118.3109, 37.2916], [-118.3106, 37.2905], [-118.3093, 37.2905], [-118.3086, 37.2895], [-118.3106, 37.2883], [-118.3096, 37.2877], [-118.3082, 37.2883], [-118.3087, 37.2872], [-118.3076, 37.2863], [-118.3108, 37.288], [-118.3129, 37.2874], [-118.3132, 37.2856], [-118.3126, 37.2842], [-118.3099, 37.2825], [-118.3103, 37.2816], [-118.3084, 37.2803], [-118.3097, 37.2793], [-118.3075, 37.2753], [-118.3087, 37.2717], [-118.3059, 37.2666], [-118.3068, 37.2633], [-118.3079, 37.2631], [-118.3087, 37.2643], [-118.307, 37.265], [-118.3076, 37.2674], [-118.31, 37.2705], [-118.312, 37.2694], [-118.3135, 37.2676], [-118.3111, 37.2641], [-118.3116, 37.2615], [-118.3088, 37.2573], [-118.3097, 37.2547], [-118.3065, 37.2519], [-118.3016, 37.2514], [-118.2995, 37.2491], [-118.299, 37.2467], [-118.2977, 37.2462], [-118.2978, 37.2449], [-118.2965, 37.2432], [-118.2978, 37.2437], [-118.296, 37.241], [-118.2963, 37.2394], [-118.2946, 37.2366], [-118.2963, 37.2363], [-118.2958, 37.2353], [-118.298, 37.234], [-118.2971, 37.2331], [-118.2973, 37.2311], [-118.294, 37.2299], [-118.2892, 37.2253], [-118.2887, 37.2245], [-118.2901, 37.2252], [-118.2883, 37.2229], [-118.2852, 37.2225], [-118.2829, 37.2185], [-118.2836, 37.2175], [-118.2819, 37.2166], [-118.2814, 37.2154], [-118.2804, 37.2154], [-118.2804, 37.2134], [-118.2775, 37.2111], [-118.2768, 37.2071], [-118.2776, 37.2069], [-118.2767, 37.2053], [-118.2737, 37.2029], [-118.2737, 37.2018], [-118.2716, 37.2008], [-118.2723, 37.2006], [-118.2721, 37.1996], [-118.2745, 37.2021], [-118.2754, 37.2019], [-118.2746, 37.1993], [-118.2723, 37.1979], [-118.2717, 37.1944], [-118.2693, 37.1914], [-118.2682, 37.1913], [-118.2671, 37.1902], [-118.2672, 37.1882], [-118.2654, 37.1868], [-118.2644, 37.1837], [-118.2653, 37.1828], [-118.2639, 37.1824], [-118.2632, 37.1806], [-118.2654, 37.1804], [-118.265, 37.1788], [-118.2667, 37.178], [-118.268, 37.1784], [-118.2691, 37.1778], [-118.2699, 37.1786], [-118.2707, 37.1776], [-118.2715, 37.1779], [-118.2725, 37.1815], [-118.2714, 37.1818], [-118.272, 37.1821], [-118.2715, 37.1837], [-118.2704, 37.1829], [-118.2697, 37.1837], [-118.2708, 37.1853], [-118.2726, 37.1862], [-118.2717, 37.1868], [-118.2724, 37.1871], [-118.2721, 37.1886], [-118.2734, 37.1908], [-118.273, 37.1915], [-118.2735, 37.1923], [-118.274, 37.1916], [-118.274, 37.1932], [-118.2753, 37.194], [-118.2747, 37.1968], [-118.2769, 37.1985], [-118.2773, 37.198], [-118.2792, 37.1994], [-118.2796, 37.1988], [-118.28, 37.1996], [-118.279, 37.2009], [-118.2811, 37.2012], [-118.2809, 37.2026], [-118.282, 37.2029], [-118.2821, 37.2049], [-118.2833, 37.206], [-118.2841, 37.2056], [-118.2849, 37.2061], [-118.2856, 37.2073], [-118.2852, 37.2086], [-118.2866, 37.2086], [-118.2866, 37.2098], [-118.2884, 37.2103], [-118.2884, 37.2111], [-118.2909, 37.2127], [-118.2905, 37.214], [-118.2916, 37.2155], [-118.2936, 37.2168], [-118.2969, 37.2164], [-118.2969, 37.2199], [-118.2984, 37.222], [-118.2973, 37.2234], [-118.2983, 37.2242], [-118.2977, 37.2244], [-118.2981, 37.2249], [-118.3012, 37.2262], [-118.2999, 37.2275], [-118.3007, 37.2292], [-118.2983, 37.2305], [-118.2989, 37.2324], [-118.2999, 37.2331], [-118.3001, 37.2347], [-118.3015, 37.2347], [-118.3037, 37.2362], [-118.3031, 37.237], [-118.3046, 37.2387], [-118.3031, 37.243], [-118.3033, 37.2456], [-118.3043, 37.2465], [-118.3052, 37.246], [-118.3069, 37.2426], [-118.3073, 37.2452], [-118.3067, 37.2472], [-118.3074, 37.2491], [-118.3083, 37.2488], [-118.3098, 37.2502], [-118.3107, 37.2488], [-118.3118, 37.2488], [-118.3114, 37.2509], [-118.312, 37.2517], [-118.3141, 37.2511], [-118.3138, 37.2526], [-118.3153, 37.2529], [-118.3172, 37.2555], [-118.3178, 37.2584], [-118.3176, 37.2662], [-118.3194, 37.2669], [-118.3206, 37.2698], [-118.3204, 37.272], [-118.3249, 37.2732], [-118.3269, 37.2745], [-118.3267, 37.2765], [-118.3211, 37.2774], [-118.3208, 37.2785], [-118.3224, 37.2787], [-118.3223, 37.2796], [-118.3211, 37.2815], [-118.3218, 37.282], [-118.3204, 37.2824], [-118.3233, 37.2857], [-118.324, 37.2889], [-118.3222, 37.2923], [-118.3262, 37.2943], [-118.3213, 37.2975], [-118.3184, 37.3016], [-118.3182, 37.3055], [-118.317, 37.3077], [-118.3179, 37.3132], [-118.319, 37.3134], [-118.3216, 37.316], [-118.3212, 37.3168], [-118.3224, 37.3188], [-118.3214, 37.3192], [-118.3227, 37.3198], [-118.3245, 37.3252], [-118.3259, 37.3261], [-118.3267, 37.3248], [-118.3264, 37.3235], [-118.3306, 37.3267], [-118.3308, 37.3328], [-118.332, 37.3339], [-118.3313, 37.3356], [-118.3301, 37.3356], [-118.3304, 37.3364], [-118.3285, 37.3397], [-118.3272, 37.3404], [-118.3283, 37.3414], [-118.3308, 37.3422], [-118.3312, 37.3441], [-118.3338, 37.3452], [-118.3334, 37.3482], [-118.332, 37.3482], [-118.3325, 37.3509], [-118.3362, 37.3534], [-118.3347, 37.3543], [-118.3347, 37.356], [-118.3322, 37.3566], [-118.3324, 37.3575]], [[-118.3112, 37.2928], [-118.3097, 37.2991], [-118.3127, 37.3034], [-118.3144, 37.3006], [-118.3138, 37.2986], [-118.315, 37.2966], [-118.3138, 37.2957], [-118.3137, 37.293], [-118.3112, 37.2928]]], [[[-118.3326, 37.335], [-118.3332, 37.3384], [-118.3327, 37.3393], [-118.3326, 37.335]]]]}, "properties": {"layer": "perimeter"}}, {"type": "Feature", "geometry": {"type": "MultiPolygon", "coordinates": [[[[-118.3305, 37.357], [-118.3283, 37.3539], [-118.3278, 37.3542], [-118.328, 37.3537], [-118.3268, 37.3534], [-118.3263, 37.3497], [-118.3247, 37.3494], [-118.325, 37.3473], [-118.323, 37.3465], [-118.3226, 37.343], [-118.3199, 37.3394], [-118.32, 37.3376], [-118.3188, 37.3369], [-118.3183, 37.3338], [-118.3166, 37.3314], [-118.3165, 37.33], [-118.3138, 37.329], [-118.3125, 37.3301], [-118.3123, 37.328], [-118.3111, 37.3274], [-118.3115, 37.3258], [-118.3092, 37.3235], [-118.3096, 37.3212], [-118.3085, 37.3189], [-118.3103, 37.3165], [-118.3095, 37.3155], [-118.3099, 37.3146], [-118.3116, 37.3141], [-118.3111, 37.3117], [-118.3064, 37.3094], [-118.3055, 37.3096], [-118.3055, 37.3057], [-118.3076, 37.3052], [-118.3058, 37.3016], [-118.3075, 37.3006], [-118.3066, 37.2974], [-118.3073, 37.2959], [-118.3098, 37.2949], [-118.3089, 37.2929], [-118.3109, 37.2916], [-118.3106, 37.2905], [-118.3093, 37.2905], [-118.3086, 37.2895], [-118.3106, 37.2883], [-118.3096, 37.2877], [-118.3082, 37.2883], [-118.3087, 37.2872], [-118.3076, 37.2863], [-118.3108, 37.288], [-118.3129, 37.2874], [-118.3132, 37.2856], [-118.3126, 37.2842], [-118.3099, 37.2825], [-118.3103, 37.2816], [-118.3084, 37.2803], [-118.3097, 37.2793], [-118.3075, 37.2753], [-118.3087, 37.2717], [-118.3059, 37.2666], [-118.3068, 37.2633], [-118.3079, 37.2631], [-118.3087, 37.2643], [-118.307, 37.265], [-118.3076, 37.2674], [-118.31, 37.2705], [-118.312, 37.2694], [-118.3135, 37.2676], [-118.3111, 37.2641], [-118.3116, 37.2615], [-118.3088, 37.2573], [-118.3097, 37.2547], [-118.3065, 37.2519], [-118.3016, 37.2514], [-118.2995, 37.2491], [-118.299, 37.2467], [-118.2977, 37.2462], [-118.2978, 37.2449], [-118.2965, 37.2432], [-118.2978, 37.2437], [-118.296, 37.241], [-118.2963, 37.2394], [-118.2946, 37.2366], [-118.2963, 37.2363], [-118.2958, 37.2353], [-118.298, 37.234], [-118.2971, 37.2331], [-118.2973, 37.2311], [-118.294, 37.2299], [-118.2892, 37.2253], [-118.2887, 37.2245], [-118.2901, 37.2252], [-118.2883, 37.2229], [-118.2852, 37.2225], [-118.2829, 37.2185], [-118.2836, 37.2175], [-118.2819, 37.2166], [-118.2814, 37.2154], [-118.2804, 37.2154], [-118.2804, 37.2134], [-118.2775, 37.2111], [-118.2768, 37.2071], [-118.2776, 37.2069], [-118.2767, 37.2053], [-118.2737, 37.2029], [-118.2737, 37.2018], [-118.2716, 37.2008], [-118.2723, 37.2006], [-118.2721, 37.1996], [-118.2745, 37.2021], [-118.2754, 37.2019], [-118.2746, 37.1993], [-118.2723, 37.1979], [-118.2717, 37.1944], [-118.2693, 37.1914], [-118.2682, 37.1913], [-118.2671, 37.1902], [-118.2672, 37.1882], [-118.2654, 37.1868], [-118.2644, 37.1837], [-118.2653, 37.1828], [-118.2639, 37.1824], [-118.2632, 37.1806], [-118.2654, 37.1804], [-118.265, 37.1788], [-118.2667, 37.178], [-118.268, 37.1784], [-118.2691, 37.1778], [-118.2699, 37.1786], [-118.2707, 37.1776], [-118.2715, 37.1779], [-118.2725, 37.1815], [-118.2714, 37.1818], [-118.272, 37.1821], [-118.2715, 37.1837], [-118.2704, 37.1829], [-118.2697, 37.1837], [-118.2708, 37.1853], [-118.2726, 37.1862], [-118.2717, 37.1868], [-118.2724, 37.1871], [-118.2721, 37.1886], [-118.2734, 37.1908], [-118.273, 37.1915], [-118.2735, 37.1923], [-118.274, 37.1916], [-118.274, 37.1932], [-118.2753, 37.194], [-118.2747, 37.1968], [-118.2769, 37.1985], [-118.2773, 37.198], [-118.2792, 37.1994], [-118.2796, 37.1988], [-118.28, 37.1996], [-118.279, 37.2009], [-118.2811, 37.2012], [-118.2809, 37.2026], [-118.282, 37.2029], [-118.2821, 37.2049], [-118.2833, 37.206], [-118.2841, 37.2056], [-118.2849, 37.2061], [-118.2856, 37.2073], [-118.2852, 37.2086], [-118.2866, 37.2086], [-118.2866, 37.2098], [-118.2884, 37.2103], [-118.2884, 37.2111], [-118.2909, 37.2127], [-118.2905, 37.214], [-118.2916, 37.2155], [-118.2936, 37.2168], [-118.2969, 37.2164], [-118.2969, 37.2199], [-118.2984, 37.222], [-118.2973, 37.2234], [-118.2983, 37.2242], [-118.2977, 37.2244], [-118.2981, 37.2249], [-118.3012, 37.2262], [-118.2999, 37.2275], [-118.3007, 37.2292], [-118.2983, 37.2305], [-118.2989, 37.2324], [-118.2999, 37.2331], [-118.3001, 37.2347], [-118.3015, 37.2347], [-118.3037, 37.2362], [-118.3031, 37.237], [-118.3046, 37.2387], [-118.3031, 37.243], [-118.3033, 37.2456], [-118.3043, 37.2465], [-118.3052, 37.246], [-118.3069, 37.2426], [-118.3073, 37.2452], [-118.3067, 37.2472], [-118.3074, 37.2491], [-118.3083, 37.2488], [-118.3098, 37.2502], [-118.3107, 37.2488], [-118.3118, 37.2488], [-118.3114, 37.2509], [-118.312, 37.2517], [-118.3141, 37.2511], [-118.3138, 37.2526], [-118.3153, 37.2529], [-118.3172, 37.2555], [-118.3178, 37.2584], [-118.3176, 37.2662], [-118.3194, 37.2669], [-118.3206, 37.2698], [-118.3204, 37.272], [-118.3249, 37.2732], [-118.3269, 37.2745], [-118.3267, 37.2765], [-118.3211, 37.2774], [-118.3208, 37.2785], [-118.3224, 37.2787], [-118.3223, 37.2796], [-118.3211, 37.2815], [-118.3218, 37.282], [-118.3204, 37.2824], [-118.3233, 37.2857], [-118.324, 37.2889], [-118.3222, 37.2923], [-118.3262, 37.2943], [-118.3213, 37.2975], [-118.3184, 37.3016], [-118.3182, 37.3055], [-118.317, 37.3077], [-118.3179, 37.3132], [-118.319, 37.3134], [-118.3216, 37.316], [-118.3212, 37.3168], [-118.3224, 37.3188], [-118.3214, 37.3192], [-118.3227, 37.3198], [-118.3245, 37.3252], [-118.3259, 37.3261], [-118.3267, 37.3248], [-118.3264, 37.3235], [-118.3306, 37.3267], [-118.3308, 37.3328], [-118.332, 37.3339], [-118.3313, 37.3356], [-118.3301, 37.3356], [-118.3304, 37.3364], [-118.3285, 37.3397], [-118.3272, 37.3404], [-118.3283, 37.3414], [-118.3308, 37.3422], [-118.3312, 37.3441], [-118.3338, 37.3452], [-118.3334, 37.3482], [-118.332, 37.3482], [-118.3325, 37.3509], [-118.3362, 37.3534], [-118.3347, 37.3543], [-118.3347, 37.356], [-118.3322, 37.3566], [-118.3324, 37.3575], [-118.3305, 37.357]], [[-118.3112, 37.2928], [-118.3097, 37.2991], [-118.3127, 37.3034], [-118.3144, 37.3006], [-118.3138, 37.2986], [-118.315, 37.2966], [-118.3138, 37.2957], [-118.3137, 37.293], [-118.3112, 37.2928]]], [[[-118.3329, 37.3349], [-118.3332, 37.3384], [-118.3327, 37.3393], [-118.3331, 37.3382], [-118.3323, 37.3369], [-118.3329, 37.3349]]]]}, "properties": {"layer": "retained"}}]}
