{"type": "FeatureCollection", "features": [{"type": "Feature", "geometry": {"type": "Polygon", "coordinates": [[[-118.6492, 36.2591], [-118.6439, 36.2563], [-118.6433, 36.255], [-118.6441, 36.2538], [-118.6421, 36.2528], [-118.6278, 36.2518], [-118.6255, 36.2499], [-118.6263, 36.2474], [-118.6201, 36.2511], [-118.619, 36.2455], [-118.618, 36.2455], [-118.6167, 36.2441], [-118.617, 36.2421], [-118.6161, 36.2419], [-118.6176, 36.2368], [-118.6172, 36.2363], [-118.6143, 36.236], [-118.6116, 36.2378], [-118.6054, 36.2377], [-118.6025, 36.2361], [-118.6019, 36.2331], [-118.5996, 36.2335], [-118.5963, 36.2321], [-118.5963, 36.2312], [-118.5964, 36.2306], [-118.6002, 36.2306], [-118.6014, 36.2291], [-118.6014, 36.2261], [-118.5995, 36.2228], [-118.5995, 36.2214], [-118.6003, 36.2207], [-118.6008, 36.2211], [-118.6046, 36.2206], [-118.6051, 36.217], [-118.6098, 36.2138], [-118.6117, 36.211], [-118.6139, 36.2107], [-118.616, 36.2112], [-118.6183, 36.2105], [-118.619, 36.2097], [-118.6216, 36.2094], [-118.6288, 36.21], [-118.6307, 36.2095], [-118.6339, 36.2071], [-118.6367, 36.2062], [-118.6384, 36.2066], [-118.6404, 36.2051], [-118.6439, 36.2043], [-118.6439, 36.2029], [-118.6469, 36.203], [-118.6478, 36.2019], [-118.6507, 36.2034], [-118.6485, 36.2048], [-118.6489, 36.2086], [-118.6505, 36.2098], [-118.6492, 36.211], [-118.6501, 36.2162], [-118.649, 36.2177], [-118.6504, 36.2215], [-118.6489, 36.2243], [-118.6474, 36.2249], [-118.6479, 36.2335], [-118.6502, 36.2358], [-118.652, 36.2361], [-118.6536, 36.2396], [-118.6557, 36.2411], [-118.6542, 36.2423], [-118.6516, 36.2463], [-118.6525, 36.2465], [-118.6521, 36.2473], [-118.6526, 36.2472], [-118.6528, 36.2575], [-118.6514, 36.2572], [-118.6492, 36.2591]]]}, "properties": {"layer": "perimeter"}}, {"type": "Feature", "geometry": {"type": "Polygon", "coordinates": [[[-118.6494, 36.259], [-118.6462, 36.258], [-118.6463, 36.255], [-118.6434, 36.2549], [-118.6441, 36.2538], [-118.642, 36.2528], [-118.6418, 36.2477], [-118.6373, 36.2475], [-118.6372, 36.251], [-118.6329, 36.2509], [-118.6328, 36.2474], [-118.6283, 36.2473], [-118.6283, 36.2437], [-118.6238, 36.2436], [-118.6238, 36.24], [-118.6419, 36.2403], [-118.6419, 36.2439], [-118.6521, 36.244], [-118.6523, 36.2374], [-118.6537, 36.2398], [-118.6557, 36.2411], [-118.6542, 36.2423], [-118.6516, 36.2463], [-118.6525, 36.2465], [-118.6521, 36.2473], [-118.6526, 36.2472], [-118.6528, 36.2575], [-118.6514, 36.2572], [-118.6494, 36.259]]]}, "properties": {"layer": "retained"}}, {"type": "Feature", "geometry": {"type": "MultiPolygon", "coordinates": [[[[-118.6422, 36.2493], [-118.6425, 36.2496], [-118.6429, 36.2493], [-118.6422, 36.2493]]], [[[-118.6476, 36.248], [-118.6479, 36.2478], [-118.6476, 36.2478], [-118.6476, 36.248]]], [[[-118.6355, 36.2468], [-118.6359, 36.2463], [-118.6356, 36.2463], [-118.6355, 36.2468]]], [[[-118.6332, 36.2465], [-118.6336, 36.2463], [-118.6332, 36.2462], [-118.6332, 36.2465]]], [[[-118.6489, 36.248], [-118.6482, 36.2472], [-118.6486, 36.2467], [-118.6492, 36.2472], [-118.6493, 36.2464], [-118.6486, 36.2462], [-118.6479, 36.2478], [-118.6489, 36.248]]], [[[-118.6489, 36.2462], [-118.6496, 36.2459], [-118.6489, 36.2456], [-118.6489, 36.2462]]], [[[-118.6336, 36.246], [-118.6339, 36.2454], [-118.6336, 36.2454], [-118.6336, 36.246]]], [[[-118.6453, 36.2456], [-118.6459, 36.2453], [-118.6453, 36.2453], [-118.6453, 36.2456]]], [[[-118.6346, 36.2455], [-118.6359, 36.2452], [-118.6349, 36.2446], [-118.6346, 36.2455]]], [[[-118.6366, 36.2457], [-118.6376, 36.2452], [-118.6373, 36.2439], [-118.6356, 36.2447], [-118.6366, 36.2457]]], [[[-118.6483, 36.2443], [-118.6486, 36.244], [-118.6483, 36.244], [-118.6483, 36.2443]]], [[[-118.6376, 36.2441], [-118.6383, 36.2436], [-118.6376, 36.2433], [-118.6376, 36.2441]]], [[[-118.6246, 36.2434], [-118.6252, 36.2435], [-118.6256, 36.2432], [-118.6246, 36.2434]]], [[[-118.6312, 36.2449], [-118.6323, 36.2433], [-118.6299, 36.243], [-118.6309, 36.2443], [-118.6306, 36.2449], [-118.6312, 36.2449]]], [[[-118.6323, 36.2433], [-118.6326, 36.243], [-118.6323, 36.243], [-118.6323, 36.2433]]], [[[-118.6253, 36.2429], [-118.6253, 36.2418], [-118.6246, 36.2418], [-118.6243, 36.2426], [-118.6253, 36.2429]]], [[[-118.6293, 36.2427], [-118.6306, 36.2416], [-118.631, 36.2403], [-118.6293, 36.2408], [-118.6296, 36.2416], [-118.6286, 36.2421], [-118.6293, 36.2427]]], [[[-118.6319, 36.243], [-118.633, 36.2422], [-118.6323, 36.24], [-118.6313, 36.2403], [-118.6319, 36.243]]], [[[-118.6283, 36.2413], [-118.6286, 36.2405], [-118.6266, 36.24], [-118.6266, 36.2405], [-118.6283, 36.2413]]], [[[-118.6357, 36.2409], [-118.636, 36.2401], [-118.634, 36.24], [-118.634, 36.2409], [-118.6357, 36.2409]]], [[[-118.6327, 36.2403], [-118.633, 36.24], [-118.6327, 36.24], [-118.6327, 36.2403]]]]}, "properties": {"layer": "high_severity"}}]}
