{"type": "FeatureCollection", "features": [{"type": "Feature", "geometry": {"type": "MultiPolygon", "coordinates": [[[[-121.069, 41.3468], [-121.0696, 41.346], [-121.0698, 41.3468], [-121.069, 41.3468]]], [[[-121.0742, 41.3467], [-121.0738, 41.3473], [-121.0736, 41.3473], [-121.0735, 41.3467], [-121.0742, 41.3467]]], [[[-121.0688, 41.3633], [-121.0653, 41.3646], [-121.0625, 41.3645], [-121.0603, 41.3622], [-121.0617, 41.3603], [-121.0565, 41.3586], [-121.051, 41.3582], [-121.0506, 41.3561], [-121.0581, 41.3547], [-121.0602, 41.3569], [-121.0607, 41.3549], [-121.0624, 41.3543], [-121.0624, 41.3513], [-121.0689, 41.3523], [-121.0694, 41.3531], [-121.0705, 41.353], [-121.0714, 41.352], [-121.0727, 41.3525], [-121.0746, 41.3506], [-121.0748, 41.3485], [-121.0757, 41.348], [-121.0796, 41.3495], [-121.0817, 41.3488], [-121.0825, 41.3497], [-121.084, 41.3488], [-121.0859, 41.3495], [-121.0888, 41.3489], [-121.0921, 41.3506], [-121.0929, 41.3534], [-121.0911, 41.3532], [-121.0906, 41.3519], [-121.0894, 41.3522], [-121.0897, 41.354], [-121.0886, 41.3549], [-121.0895, 41.3554], [-121.0883, 41.3572], [-121.0906, 41.3585], [-121.0898, 41.36], [-121.0911, 41.3618], [-121.0958, 41.3624], [-121.0972, 41.3635], [-121.0936, 41.3633], [-121.0936, 41.3644], [-121.087, 41.3673], [-121.0847, 41.3696], [-121.0828, 41.3677], [-121.0837, 41.3642], [-121.0831, 41.3632], [-121.0813, 41.3633], [-121.0767, 41.3613], [-121.0766, 41.3619], [-121.0688, 41.3633]]]]}, "properties": {"layer": "perimeter"}}, {"type": "Feature", "geometry": {"type": "MultiPolygon", "coordinates": [[[[-121.0766, 41.3619], [-121.0661, 41.3642], [-121.0622, 41.3642], [-121.0603, 41.3622], [-121.0617, 41.3603], [-121.0565, 41.3586], [-121.051, 41.3582], [-121.0508, 41.3569], [-121.0718, 41.3569], [-121.0718, 41.3606], [-121.0814, 41.3606], [-121.0814, 41.3633], [-121.0767, 41.3613], [-121.0766, 41.3619]]], [[[-121.0911, 41.3618], [-121.0958, 41.3624], [-121.0972, 41.3635], [-121.0936, 41.3633], [-121.0936, 41.3644], [-121.087, 41.3673], [-121.0855, 41.3692], [-121.0843, 41.3696], [-121.0828, 41.3677], [-121.0837, 41.3643], [-121.091, 41.3643], [-121.0911, 41.3618]]]]}, "properties": {"layer": "retained"}}, {"type": "Feature", "geometry": {"type": "MultiPolygon", "coordinates": [[[[-121.062, 41.3624], [-121.0624, 41.3621], [-121.062, 41.3621], [-121.062, 41.3624]]], [[[-121.0709, 41.359], [-121.0713, 41.3588], [-121.0709, 41.3588], [-121.0709, 41.359]]]]}, "properties": {"layer": "high_severity"}}]}
