{"type": "FeatureCollection", "features": [{"type": "Feature", "geometry": {"type": "Polygon", "coordinates": [[[-119.8291, 35.555], [-119.8307, 35.5557], [-119.8296, 35.5531], [-119.83, 35.5511], [-119.829, 35.5457], [-119.8331, 35.5371], [-119.8323, 35.5288], [-119.833, 35.5279], [-119.8346, 35.5276], [-119.8343, 35.5266], [-119.8353, 35.5241], [-119.8395, 35.5284], [-119.8389, 35.5258], [-119.8405, 35.5154], [-119.8416, 35.5106], [-119.8433, 35.5083], [-119.8453, 35.5116], [-119.8443, 35.5149], [-119.8457, 35.5185], [-119.846, 35.5171], [-119.848, 35.5152], [-119.8501, 35.5153], [-119.8501, 35.5216], [-119.8518, 35.5206], [-119.8501, 35.5223], [-119.85, 35.5268], [-119.8523, 35.5255], [-119.85, 35.5278], [-119.8553, 35.524], [-119.8555, 35.5257], [-119.8538, 35.5276], [-119.8564, 35.5276], [-119.8564, 35.5257], [-119.8582, 35.5248], [-119.8571, 35.5276], [-119.858, 35.5279], [-119.8562, 35.5311], [-119.8582, 35.5308], [-119.8589, 35.5301], [-119.8615, 35.53], [-119.8645, 35.5336], [-119.8611, 35.5395], [-119.8586, 35.542], [-119.8592, 35.542], [-119.856, 35.5434], [-119.858, 35.5446], [-119.8636, 35.5461], [-119.8623, 35.5521], [-119.863, 35.5523], [-119.8611, 35.5577], [-119.8597, 35.5606], [-119.8513, 35.5701], [-119.8511, 35.5705], [-119.8526, 35.5703], [-119.8517, 35.5712], [-119.8528, 35.5711], [-119.8527, 35.5736], [-119.8518, 35.5748], [-119.8534, 35.5734], [-119.8512, 35.5773], [-119.8468, 35.5816], [-119.8459, 35.5855], [-119.8413, 35.5935], [-119.8486, 35.5993], [-119.8482, 35.6017], [-119.8471, 35.6041], [-119.8432, 35.6062], [-119.8428, 35.6074], [-119.8412, 35.6077], [-119.8412, 35.6097], [-119.8436, 35.6097], [-119.8424, 35.6116], [-119.8407, 35.6135], [-119.8369, 35.6152], [-119.8342, 35.6151], [-119.833, 35.6062], [-119.8307, 35.6026], [-119.8311, 35.5982], [-119.8289, 35.5913], [-119.829, 35.5863], [-119.8299, 35.5842], [-119.8326, 35.5863], [-119.8318, 35.5837], [-119.8302, 35.5816], [-119.8318, 35.5811], [-119.8325, 35.5794], [-119.8335, 35.5799], [-119.8344, 35.5793], [-119.8309, 35.5772], [-119.8294, 35.5726], [-119.8292, 35.5714], [-119.8304, 35.5712], [-119.8293, 35.5687], [-119.83, 35.5676], [-119.8291, 35.5641], [-119.8297, 35.5599], [-119.8291, 35.555]]]}, "properties": {"layer": "perimeter"}}, {"type": "Feature", "geometry": {"type": "Polygon", "coordinates": [[[-119.8291, 35.555], [-119.8307, 35.5557], [-119.8296, 35.5531], [-119.83, 35.5511], [-119.829, 35.5457], [-119.8331, 35.5371], [-119.8323, 35.5288], [-119.833, 35.5279], [-119.8346, 35.5276], [-119.8343, 35.5266], [-119.8353, 35.5241], [-119.8395, 35.5284], [-119.8389, 35.5258], [-119.8405, 35.5154], [-119.8416, 35.5106], [-119.8433, 35.5083], [-119.8453, 35.5116], [-119.8443, 35.5149], [-119.8457, 35.5185], [-119.846, 35.5171], [-119.848, 35.5152], [-119.8501, 35.5153], [-119.8501, 35.5216], [-119.8518, 35.5206], [-119.8501, 35.5223], [-119.85, 35.5268], [-119.8523, 35.5255], [-119.85, 35.5278], [-119.8553, 35.524], [-119.8555, 35.5257], [-119.8538, 35.5276], [-119.8564, 35.5276], [-119.8564, 35.5257], [-119.8582, 35.5248], [-119.8571, 35.5276], [-119.858, 35.5279], [-119.8562, 35.5311], [-119.8582, 35.5308], [-119.8589, 35.5301], [-119.8615, 35.53], [-119.8645, 35.5336], [-119.8611, 35.5395], [-119.8586, 35.542], [-119.8592, 35.542], [-119.856, 35.5434], [-119.858, 35.5446], [-119.8636, 35.5461], [-119.8623, 35.5521], [-119.863, 35.5523], [-119.8611, 35.5577], [-119.8597, 35.5606], [-119.8513, 35.5701], [-119.8511, 35.5705], [-119.8526, 35.5703], [-119.8517, 35.5712], [-119.8528, 35.5711], [-119.8527, 35.5736], [-119.8518, 35.5748], [-119.8534, 35.5734], [-119.8512, 35.5773], [-119.8468, 35.5816], [-119.8459, 35.5855], [-119.8414, 35.5934], [-119.8323, 35.586], [-119.8318, 35.5837], [-119.8301, 35.582], [-119.8318, 35.5811], [-119.8321, 35.5797], [-119.8344, 35.5793], [-119.8309, 35.5772], [-119.8294, 35.5726], [-119.8292, 35.5714], [-119.8304, 35.5712], [-119.8293, 35.5687], [-119.83, 35.5676], [-119.8291, 35.5641], [-119.8297, 35.5599], [-119.8291, 35.555]]]}, "properties": {"layer": "retained"}}]}
