{"type": "FeatureCollection", "features": [{"type": "Feature", "geometry": {"type": "MultiPolygon", "coordinates": [[[[-116.9633, 33.992], [-116.9607, 33.9909], [-116.9595, 33.991], [-116.9595, 33.9896], [-116.9611, 33.9904], [-116.9627, 33.9901], [-116.9634, 33.991], [-116.9645, 33.9907], [-116.9633, 33.992]]], [[[-116.8151, 34.027], [-116.8123, 34.031], [-116.8119, 34.0298], [-116.8107, 34.0306], [-116.8079, 34.0305], [-116.8073, 34.0326], [-116.8063, 34.0329], [-116.8054, 34.0329], [-116.8051, 34.0319], [-116.8015, 34.0324], [-116.7992, 34.0317], [-116.8, 34.0339], [-116.799, 34.0342], [-116.799, 34.0355], [-116.7982, 34.0339], [-116.7965, 34.0357], [-116.7951, 34.035], [-116.7951, 34.0343], [-116.7946, 34.0354], [-116.7935, 34.0346], [-116.7937, 34.0357], [-116.7929, 34.0358], [-116.7928, 34.0325], [-116.791, 34.0327], [-116.7894, 34.0321], [-116.7893, 34.033], [-116.7888, 34.0321], [-116.7824, 34.0311], [-116.7865, 34.028], [-116.7873, 34.0249], [-116.7841, 34.0248], [-116.7821, 34.0266], [-116.7797, 34.0276], [-116.7773, 34.0253], [-116.7752, 34.0252], [-116.7743, 34.0235], [-116.7742, 34.0248], [-116.7728, 34.0246], [-116.7719, 34.0251], [-116.7705, 34.0246], [-116.7705, 34.0162], [-116.7723, 34.0129], [-116.7756, 34.0108], [-116.7761, 34.0115], [-116.7772, 34.0112], [-116.7778, 34.0087], [-116.7793, 34.007], [-116.7809, 34.0064], [-116.7822, 34.0044], [-116.7862, 34.006], [-116.7855, 34.0051], [-116.7867, 34.0008], [-116.7861, 33.9963], [-116.7868, 33.9953], [-116.7876, 33.9903], [-116.7885, 33.99], [-116.7871, 33.9885], [-116.787, 33.9865], [-116.7874, 33.9848], [-116.7887, 33.9835], [-116.7889, 33.9816], [-116.7958, 33.9777], [-116.7983, 33.9774], [-116.803, 33.9739], [-116.8078, 33.9763], [-116.814, 33.9783], [-116.8158, 33.9768], [-116.8212, 33.9763], [-116.8229, 33.9774], [-116.8287, 33.9779], [-116.8315, 33.979], [-116.8321, 33.9839], [-116.8336, 33.9834], [-116.8341, 33.9839], [-116.8347, 33.983], [-116.8357, 33.9842], [-116.834, 33.9866], [-116.8356, 33.9863], [-116.8355, 33.9878], [-116.8375, 33.9874], [-116.8382, 33.9877], [-116.8373, 33.99], [-116.8388, 33.9901], [-116.8404, 33.989], [-116.8414, 33.9902], [-116.8407, 33.9919], [-116.8414, 33.9922], [-116.8414, 33.9944], [-116.8388, 33.9933], [-116.8344, 33.9938], [-116.8276, 33.9968], [-116.8238, 34.0017], [-116.8234, 34.0042], [-116.8238, 34.003], [-116.8264, 34.0008], [-116.8339, 33.9964], [-116.8408, 33.9948], [-116.8405, 33.9992], [-116.8414, 34.0002], [-116.8423, 33.9991], [-116.844, 34.0003], [-116.8466, 34.0], [-116.8525, 34.0009], [-116.8541, 34.0], [-116.8558, 34.0], [-116.8562, 33.9993], [-116.8606, 34.0012], [-116.8618, 34.0007], [-116.8598, 33.9997], [-116.8586, 33.9999], [-116.8583, 33.9988], [-116.8562, 33.9978], [-116.855, 33.9963], [-116.8537, 33.9963], [-116.8534, 33.9956], [-116.8526, 33.9964], [-116.8508, 33.9957], [-116.8504, 33.9934], [-116.8494, 33.993], [-116.8511, 33.9929], [-116.8521, 33.9916], [-116.8536, 33.9854], [-116.8589, 33.9828], [-116.8626, 33.9848], [-116.8623, 33.9841], [-116.8633, 33.9837], [-116.8626, 33.9823], [-116.8633, 33.9807], [-116.8628, 33.9776], [-116.8655, 33.9767], [-116.8675, 33.9787], [-116.87, 33.9793], [-116.8709, 33.9803], [-116.8736, 33.9778], [-116.8766, 33.9779], [-116.8762, 33.9755], [-116.8773, 33.9749], [-116.8802, 33.9764], [-116.8795, 33.9788], [-116.8819, 33.9776], [-116.8829, 33.9786], [-116.8851, 33.9788], [-116.8881, 33.9808], [-116.887, 33.9773], [-116.8877, 33.9762], [-116.89, 33.9757], [-116.8927, 33.9779], [-116.8952, 33.9787], [-116.8985, 33.9821], [-116.8991, 33.9822], [-116.8988, 33.9809], [-116.9003, 33.9808], [-116.9042, 33.9839], [-116.9071, 33.988], [-116.9084, 33.991], [-116.9084, 33.9946], [-116.9118, 33.9936], [-116.9131, 33.9905], [-116.9137, 33.9807], [-116.9168, 33.981], [-116.9191, 33.9793], [-116.921, 33.9793], [-116.9236, 33.9776], [-116.9258, 33.9771], [-116.929, 33.9748], [-116.9305, 33.9749], [-116.9326, 33.9771], [-116.9358, 33.9784], [-116.9401, 33.9772], [-116.9416, 33.9787], [-116.944, 33.9796], [-116.9498, 33.9792], [-116.9528, 33.9882], [-116.9549, 33.9899], [-116.9589, 33.9963], [-116.9616, 33.9982], [-116.9627, 34.0018], [-116.9618, 34.0038], [-116.9563, 34.0024], [-116.9534, 34.0025], [-116.9417, 34.0119], [-116.9403, 34.0121], [-116.9356, 34.0164], [-116.9332, 34.0199], [-116.9308, 34.0277], [-116.9261, 34.0289], [-116.9265, 34.0294], [-116.9259, 34.0306], [-116.9224, 34.0326], [-116.9211, 34.0344], [-116.916, 34.0346], [-116.9102, 34.0363], [-116.9094, 34.035], [-116.9078, 34.0346], [-116.9067, 34.032], [-116.9047, 34.0334], [-116.9082, 34.0359], [-116.9082, 34.0384], [-116.9104, 34.0385], [-116.911, 34.04], [-116.9159, 34.0418], [-116.9182, 34.0443], [-116.915, 34.0471], [-116.915, 34.0491], [-116.9123, 34.0494], [-116.9155, 34.0518], [-116.9171, 34.0522], [-116.9182, 34.0536], [-116.9202, 34.0542], [-116.9203, 34.0565], [-116.9189, 34.0563], [-116.9189, 34.0576], [-116.9174, 34.0573], [-116.917, 34.0593], [-116.9168, 34.0588], [-116.9148, 34.0593], [-116.9139, 34.0622], [-116.9121, 34.0625], [-116.9117, 34.066], [-116.9109, 34.0662], [-116.9111, 34.0649], [-116.9072, 34.0659], [-116.9064, 34.065], [-116.9083, 34.0647], [-116.9083, 34.0631], [-116.9072, 34.0644], [-116.9061, 34.0628], [-116.9054, 34.0629], [-116.9056, 34.0639], [-116.905, 34.0629], [-116.9034, 34.063], [-116.901, 34.0633], [-116.8992, 34.0645], [-116.8983, 34.0634], [-116.8945, 34.0634], [-116.8941, 34.0639], [-116.8925, 34.0627], [-116.8906, 34.0631], [-116.889, 34.0624], [-116.8887, 34.0615], [-116.8839, 34.061], [-116.8803, 34.0619], [-116.8784, 34.0657], [-116.8747, 34.0652], [-116.8721, 34.0659], [-116.8704, 34.0671], [-116.8658, 34.068], [-116.8646, 34.0701], [-116.8575, 34.0687], [-116.8541, 34.0693], [-116.8503, 34.0713], [-116.8473, 34.0713], [-116.8462, 34.0722], [-116.8444, 34.0717], [-116.8459, 34.0737], [-116.843, 34.0766], [-116.846, 34.0766], [-116.8452, 34.0791], [-116.8463, 34.0805], [-116.8453, 34.0811], [-116.8452, 34.0823], [-116.8444, 34.0823], [-116.8437, 34.084], [-116.8432, 34.0837], [-116.8412, 34.0845], [-116.8416, 34.0862], [-116.8401, 34.0874], [-116.8371, 34.0849], [-116.8375, 34.0863], [-116.8368, 34.0877], [-116.8352, 34.0867], [-116.8345, 34.087], [-116.8343, 34.0861], [-116.835, 34.0856], [-116.8341, 34.0849], [-116.8333, 34.086], [-116.8327, 34.0856], [-116.833, 34.0839], [-116.8314, 34.0854], [-116.8308, 34.0844], [-116.83, 34.0854], [-116.8293, 34.0841], [-116.8281, 34.0851], [-116.8268, 34.0852], [-116.8269, 34.084], [-116.8254, 34.0837], [-116.8255, 34.0827], [-116.8239, 34.082], [-116.8232, 34.0824], [-116.8235, 34.0818], [-116.8216, 34.0815], [-116.8213, 34.0801], [-116.8201, 34.0794], [-116.8207, 34.082], [-116.8201, 34.0823], [-116.8186, 34.0806], [-116.8175, 34.0824], [-116.8164, 34.0871], [-116.8146, 34.0882], [-116.8141, 34.0871], [-116.8138, 34.0899], [-116.8111, 34.0893], [-116.8106, 34.0898], [-116.8099, 34.0885], [-116.8066, 34.0881], [-116.8016, 34.0839], [-116.7984, 34.0864], [-116.7966, 34.0868], [-116.7966, 34.0858], [-116.7954, 34.0859], [-116.7943, 34.0845], [-116.7934, 34.085], [-116.7931, 34.0841], [-116.7907, 34.0847], [-116.7895, 34.0837], [-116.7864, 34.0831], [-116.7857, 34.0839], [-116.7854, 34.0832], [-116.7867, 34.0824], [-116.7867, 34.0811], [-116.7853, 34.08], [-116.7822, 34.0807], [-116.7818, 34.0799], [-116.781, 34.08], [-116.7779, 34.0819], [-116.7765, 34.084], [-116.7762, 34.0833], [-116.7755, 34.0835], [-116.7749, 34.0841], [-116.7758, 34.0845], [-116.7741, 34.0847], [-116.7736, 34.086], [-116.7668, 34.0848], [-116.7681, 34.0844], [-116.7682, 34.0838], [-116.7692, 34.0841], [-116.7702, 34.0812], [-116.7694, 34.0818], [-116.7697, 34.0803], [-116.7683, 34.0808], [-116.7687, 34.0826], [-116.7671, 34.0826], [-116.7675, 34.0809], [-116.7664, 34.0788], [-116.7691, 34.0781], [-116.7682, 34.0779], [-116.769, 34.0772], [-116.7683, 34.0765], [-116.7701, 34.0763], [-116.7713, 34.0777], [-116.7763, 34.0765], [-116.7777, 34.079], [-116.7803, 34.0786], [-116.7822, 34.0792], [-116.7846, 34.0775], [-116.7859, 34.0745], [-116.7895, 34.0729], [-116.7903, 34.0736], [-116.7901, 34.0723], [-116.7912, 34.0711], [-116.794, 34.0725], [-116.7958, 34.0725], [-116.7985, 34.069], [-116.798, 34.067], [-116.7947, 34.0668], [-116.7954, 34.0658], [-116.7968, 34.0662], [-116.7972, 34.0653], [-116.7928, 34.0628], [-116.7906, 34.0648], [-116.7912, 34.0624], [-116.7896, 34.062], [-116.7817, 34.0656], [-116.7804, 34.0659], [-116.7791, 34.0648], [-116.7791, 34.0661], [-116.7785, 34.0659], [-116.7793, 34.0637], [-116.7785, 34.063], [-116.7784, 34.0605], [-116.7831, 34.0535], [-116.7837, 34.0522], [-116.783, 34.0503], [-116.785, 34.0497], [-116.7849, 34.0481], [-116.7861, 34.0484], [-116.7854, 34.0491], [-116.7873, 34.0504], [-116.7887, 34.0488], [-116.7904, 34.049], [-116.7904, 34.0472], [-116.7925, 34.0465], [-116.7938, 34.0478], [-116.7936, 34.047], [-116.7942, 34.0464], [-116.7946, 34.0468], [-116.7944, 34.0456], [-116.7962, 34.0428], [-116.7954, 34.042], [-116.7957, 34.0413], [-116.7988, 34.043], [-116.7985, 34.0433], [-116.8007, 34.0432], [-116.8041, 34.0448], [-116.8061, 34.0487], [-116.8036, 34.0486], [-116.8042, 34.0494], [-116.8036, 34.05], [-116.8055, 34.0514], [-116.807, 34.0504], [-116.8079, 34.0479], [-116.8071, 34.0468], [-116.8086, 34.0446], [-116.8098, 34.0455], [-116.8108, 34.0451], [-116.8122, 34.046], [-116.8143, 34.0457], [-116.8161, 34.0465], [-116.8173, 34.0451], [-116.8184, 34.0452], [-116.8187, 34.0441], [-116.8178, 34.0437], [-116.8178, 34.0422], [-116.8215, 34.0435], [-116.8217, 34.042], [-116.8279, 34.0394], [-116.828, 34.0383], [-116.8297, 34.0375], [-116.828, 34.035], [-116.8291, 34.0342], [-116.8291, 34.0321], [-116.8317, 34.0319], [-116.8329, 34.0309], [-116.8347, 34.0311], [-116.837, 34.0296], [-116.838, 34.028], [-116.8378, 34.0258], [-116.836, 34.0228], [-116.8329, 34.0199], [-116.8306, 34.0198], [-116.8267, 34.0208], [-116.8255, 34.0248], [-116.8203, 34.0247], [-116.8202, 34.0253], [-116.8194, 34.0242], [-116.8188, 34.0248], [-116.8182, 34.0246], [-116.8184, 34.0257], [-116.8178, 34.0252], [-116.817, 34.0254], [-116.8175, 34.0269], [-116.8165, 34.0275], [-116.8159, 34.0268], [-116.8151, 34.027]], [[-116.8153, 34.0265], [-116.816, 34.0261], [-116.8153, 34.026], [-116.8153, 34.0265]], [[-116.816, 34.0258], [-116.8188, 34.0241], [-116.817, 34.0233], [-116.8166, 34.0189], [-116.8161, 34.0216], [-116.8171, 34.0239], [-116.8163, 34.0244], [-116.8161, 34.0237], [-116.8154, 34.0255], [-116.816, 34.0258]]], [[[-116.7624, 34.0776], [-116.7632, 34.0778], [-116.7628, 34.0783], [-116.7624, 34.0776]]]]}, "properties": {"layer": "perimeter"}}, {"type": "Feature", "geometry": {"type": "MultiPolygon", "coordinates": [[[[-116.9633, 33.992], [-116.9607, 33.9909], [-116.9595, 33.991], [-116.9595, 33.9896], [-116.9611, 33.9904], [-116.9627, 33.9901], [-116.9634, 33.991], [-116.9645, 33.9907], [-116.9633, 33.992]]], [[[-116.7822, 34.0044], [-116.783, 34.0047], [-116.7835, 34.005], [-116.7818, 34.005], [-116.7822, 34.0044]]], [[[-116.7856, 34.005], [-116.7867, 34.0008], [-116.7859, 33.9978], [-116.7898, 33.9978], [-116.7898, 34.005], [-116.7856, 34.005]]], [[[-116.7868, 33.9941], [-116.7876, 33.9906], [-116.7898, 33.9906], [-116.7898, 33.9942], [-116.7868, 33.9941]]], [[[-116.88, 33.9762], [-116.8795, 33.9788], [-116.8811, 33.9776], [-116.8822, 33.9777], [-116.8811, 33.978], [-116.8812, 33.9798], [-116.8834, 33.9798], [-116.8835, 33.9816], [-116.8857, 33.9816], [-116.8858, 33.9834], [-116.8879, 33.9834], [-116.8882, 33.9871], [-116.8815, 33.9871], [-116.8814, 33.9834], [-116.8792, 33.9834], [-116.8791, 33.9816], [-116.877, 33.9816], [-116.8771, 33.9797], [-116.879, 33.9797], [-116.8789, 33.9762], [-116.88, 33.9762]]], [[[-116.8855, 33.979], [-116.8864, 33.9794], [-116.8869, 33.9798], [-116.8855, 33.9798], [-116.8855, 33.979]]], [[[-116.8878, 33.9816], [-116.8882, 33.9799], [-116.887, 33.9773], [-116.8885, 33.9758], [-116.8902, 33.9758], [-116.8945, 33.9786], [-116.8945, 33.9816], [-116.8878, 33.9816]]], [[[-116.9115, 33.9937], [-116.9131, 33.9905], [-116.9132, 33.9873], [-116.9155, 33.9872], [-116.9162, 33.9875], [-116.9164, 33.9895], [-116.9154, 33.9905], [-116.9151, 33.9946], [-116.9144, 33.9951], [-116.9156, 33.998], [-116.9143, 33.9997], [-116.915, 34.0028], [-116.9143, 34.0044], [-116.9155, 34.0044], [-116.916, 34.0052], [-116.9107, 34.0052], [-116.9112, 34.0038], [-116.9101, 33.9984], [-116.9104, 33.9943], [-116.9115, 33.9937]]], [[[-116.9136, 33.9811], [-116.9139, 33.9817], [-116.9139, 33.9817], [-116.9134, 33.9817], [-116.9136, 33.9811]]], [[[-116.919, 33.9795], [-116.92, 33.9792], [-116.9209, 33.9793], [-116.919, 33.9795]]], [[[-116.9215, 33.9791], [-116.9223, 33.9786], [-116.9236, 33.9776], [-116.9229, 33.9787], [-116.9215, 33.9791]]], [[[-116.9271, 33.9761], [-116.93, 33.9747], [-116.9326, 33.9771], [-116.9358, 33.9784], [-116.9401, 33.9772], [-116.9416, 33.9787], [-116.944, 33.9796], [-116.9498, 33.9792], [-116.9528, 33.9882], [-116.9549, 33.9899], [-116.9589, 33.9963], [-116.9616, 33.9982], [-116.9627, 34.0018], [-116.9618, 34.0038], [-116.9563, 34.0024], [-116.9534, 34.0025], [-116.9417, 34.0119], [-116.9403, 34.0121], [-116.9356, 34.0164], [-116.9332, 34.0199], [-116.9308, 34.0277], [-116.9261, 34.0289], [-116.9265, 34.0294], [-116.9259, 34.0306], [-116.9229, 34.0324], [-116.9229, 34.0306], [-116.9251, 34.0306], [-116.9251, 34.0215], [-116.9273, 34.0215], [-116.9273, 34.0234], [-116.9295, 34.0234], [-116.9295, 34.0161], [-116.9337, 34.0161], [-116.9337, 34.0124], [-116.9378, 34.0124], [-116.9377, 34.005], [-116.9337, 34.0051], [-116.9337, 33.9979], [-116.9317, 33.9979], [-116.9316, 33.9907], [-116.9306, 33.9907], [-116.9305, 33.9799], [-116.9295, 33.9799], [-116.9295, 33.9762], [-116.9271, 33.9761]], [[-116.942, 33.9869], [-116.942, 33.9905], [-116.9442, 33.9905], [-116.9441, 33.9941], [-116.9462, 33.994], [-116.9461, 33.9976], [-116.9503, 33.9976], [-116.9505, 33.9904], [-116.9463, 33.9904], [-116.9463, 33.9868], [-116.942, 33.9869]]], [[[-116.9215, 34.0341], [-116.9167, 34.0344], [-116.9122, 34.0356], [-116.9122, 34.034], [-116.9215, 34.0341]]], [[[-116.9122, 34.0405], [-116.9159, 34.0418], [-116.9182, 34.0443], [-116.915, 34.0471], [-116.915, 34.0486], [-116.9122, 34.0485], [-116.9122, 34.0405]]], [[[-116.9121, 34.0625], [-116.8948, 34.0628], [-116.8947, 34.0484], [-116.9122, 34.0485], [-116.9121, 34.0625]]], [[[-116.9121, 34.0628], [-116.9125, 34.063], [-116.9121, 34.0635], [-116.9121, 34.0628]]], [[[-116.9121, 34.0648], [-116.9122, 34.0654], [-116.9121, 34.0656], [-116.9121, 34.0648]]], [[[-116.8948, 34.0628], [-116.8941, 34.0639], [-116.8926, 34.0628], [-116.8948, 34.0628]]], [[[-116.8913, 34.0628], [-116.8906, 34.0631], [-116.89, 34.0628], [-116.8913, 34.0628]]], [[[-116.86, 34.069], [-116.8575, 34.0687], [-116.8545, 34.0692], [-116.8503, 34.0713], [-116.8473, 34.0713], [-116.8462, 34.0722], [-116.8444, 34.0717], [-116.8459, 34.0737], [-116.843, 34.0766], [-116.8446, 34.0762], [-116.846, 34.0766], [-116.846, 34.0773], [-116.8427, 34.0773], [-116.8426, 34.0629], [-116.86, 34.0629], [-116.86, 34.069]]], [[[-116.7849, 34.0485], [-116.7854, 34.0479], [-116.7861, 34.0484], [-116.7849, 34.0485]]], [[[-116.8077, 34.0486], [-116.8078, 34.0474], [-116.8071, 34.0468], [-116.8086, 34.0446], [-116.8098, 34.0455], [-116.8108, 34.0451], [-116.8122, 34.046], [-116.8143, 34.0457], [-116.8161, 34.0465], [-116.8173, 34.0451], [-116.8184, 34.0452], [-116.8187, 34.0441], [-116.8178, 34.0437], [-116.8178, 34.0422], [-116.8215, 34.0435], [-116.8217, 34.042], [-116.8251, 34.0405], [-116.8252, 34.0484], [-116.8077, 34.0486]]], [[[-116.8924, 33.9834], [-116.8966, 33.9834], [-116.8966, 33.9961], [-116.9009, 33.9961], [-116.901, 33.9979], [-116.8901, 33.9979], [-116.8901, 33.9961], [-116.8923, 33.9961], [-116.8924, 33.9834]]], [[[-116.9097, 34.0124], [-116.9097, 34.0143], [-116.9075, 34.0142], [-116.9075, 34.0124], [-116.9097, 34.0124]]], [[[-116.8966, 34.0144], [-116.8966, 34.0157], [-116.8949, 34.0157], [-116.895, 34.0143], [-116.8966, 34.0144]]], [[[-116.9072, 34.0284], [-116.8985, 34.0287], [-116.8985, 34.0251], [-116.9029, 34.0251], [-116.903, 34.0197], [-116.9094, 34.0197], [-116.9094, 34.0233], [-116.9072, 34.0233], [-116.9072, 34.0284]]], [[[-116.8576, 34.0298], [-116.8576, 34.0309], [-116.8566, 34.0309], [-116.8563, 34.0298], [-116.8576, 34.0298]]], [[[-116.8773, 34.0484], [-116.8773, 34.0341], [-116.8947, 34.0342], [-116.8947, 34.0484], [-116.8773, 34.0484]]], [[[-116.8426, 34.0484], [-116.8424, 34.034], [-116.8599, 34.034], [-116.8599, 34.0484], [-116.8426, 34.0484]]], [[[-116.8773, 34.0484], [-116.8774, 34.0628], [-116.86, 34.0629], [-116.8599, 34.0484], [-116.8773, 34.0484]]], [[[-116.8425, 34.0484], [-116.8426, 34.0629], [-116.8252, 34.0629], [-116.8252, 34.0484], [-116.8425, 34.0484]]]]}, "properties": {"layer": "retained"}}, {"type": "Feature", "geometry": {"type": "MultiPolygon", "coordinates": [[[[-116.8434, 34.0734], [-116.844, 34.0737], [-116.8447, 34.0732], [-116.8434, 34.0734]]], [[[-116.8437, 34.0732], [-116.8437, 34.0726], [-116.8428, 34.0723], [-116.8427, 34.0732], [-116.8437, 34.0732]]], [[[-116.8428, 34.0718], [-116.8434, 34.0716], [-116.8428, 34.0713], [-116.8428, 34.0718]]], [[[-116.851, 34.0701], [-116.8513, 34.0699], [-116.851, 34.0699], [-116.851, 34.0701]]], [[[-116.8517, 34.0693], [-116.8526, 34.0691], [-116.8517, 34.0691], [-116.8517, 34.0693]]], [[[-116.8559, 34.0687], [-116.8563, 34.0681], [-116.8559, 34.0681], [-116.8559, 34.0687]]], [[[-116.8546, 34.0686], [-116.8553, 34.0684], [-116.8546, 34.0681], [-116.8546, 34.0686]]], [[[-116.8582, 34.0682], [-116.8589, 34.0679], [-116.8582, 34.0679], [-116.8582, 34.0682]]], [[[-116.855, 34.0681], [-116.8553, 34.0678], [-116.855, 34.0678], [-116.855, 34.0681]]], [[[-116.8595, 34.0679], [-116.8599, 34.0677], [-116.8595, 34.0677], [-116.8595, 34.0679]]], [[[-116.8569, 34.0679], [-116.8573, 34.0676], [-116.8569, 34.0676], [-116.8569, 34.0679]]], [[[-116.8599, 34.0677], [-116.8602, 34.0674], [-116.8599, 34.0674], [-116.8599, 34.0677]]], [[[-116.8566, 34.0676], [-116.8569, 34.0673], [-116.8566, 34.0673], [-116.8566, 34.0676]]], [[[-116.8488, 34.0674], [-116.8491, 34.0671], [-116.8488, 34.0671], [-116.8488, 34.0674]]], [[[-116.8595, 34.0674], [-116.8599, 34.0671], [-116.8596, 34.0671], [-116.8595, 34.0674]]], [[[-116.8569, 34.0673], [-116.8573, 34.0671], [-116.857, 34.0671], [-116.8569, 34.0673]]], [[[-116.8482, 34.0671], [-116.8488, 34.0668], [-116.8482, 34.0668], [-116.8482, 34.0671]]], [[[-116.843, 34.0672], [-116.8433, 34.0664], [-116.843, 34.0664], [-116.843, 34.0672]]], [[[-116.8579, 34.0671], [-116.8583, 34.0668], [-116.8579, 34.0668], [-116.8579, 34.0671]]], [[[-116.8553, 34.067], [-116.8557, 34.0668], [-116.8553, 34.0667], [-116.8553, 34.067]]], [[[-116.8547, 34.067], [-116.855, 34.0667], [-116.8547, 34.0667], [-116.8547, 34.067]]], [[[-116.8596, 34.0669], [-116.8599, 34.0666], [-116.8596, 34.0666], [-116.8596, 34.0669]]], [[[-116.8534, 34.0667], [-116.8537, 34.0664], [-116.8534, 34.0664], [-116.8534, 34.0667]]], [[[-116.8573, 34.0665], [-116.8576, 34.0663], [-116.8573, 34.0663], [-116.8573, 34.0665]]], [[[-116.8537, 34.0664], [-116.8541, 34.0662], [-116.8537, 34.0662], [-116.8537, 34.0664]]], [[[-116.8427, 34.0661], [-116.843, 34.0659], [-116.8427, 34.0659], [-116.8427, 34.0661]]], [[[-116.8492, 34.066], [-116.8495, 34.0658], [-116.8492, 34.0658], [-116.8492, 34.066]]], [[[-116.8485, 34.066], [-116.8489, 34.0655], [-116.8486, 34.0655], [-116.8485, 34.066]]], [[[-116.8586, 34.0663], [-116.8586, 34.0658], [-116.858, 34.0655], [-116.858, 34.066], [-116.8586, 34.0663]]], [[[-116.857, 34.0662], [-116.8573, 34.0654], [-116.857, 34.0654], [-116.857, 34.0662]]], [[[-116.8586, 34.0658], [-116.8593, 34.0655], [-116.8586, 34.0655], [-116.8586, 34.0658]]], [[[-116.8489, 34.0655], [-116.8492, 34.0652], [-116.8489, 34.0652], [-116.8489, 34.0655]]], [[[-116.8577, 34.0655], [-116.858, 34.0652], [-116.8577, 34.0652], [-116.8577, 34.0655]]], [[[-116.858, 34.0652], [-116.8583, 34.0649], [-116.858, 34.0649], [-116.858, 34.0652]]], [[[-116.8434, 34.0648], [-116.8437, 34.0645], [-116.8434, 34.0645], [-116.8434, 34.0648]]], [[[-116.8564, 34.0654], [-116.8564, 34.0646], [-116.8551, 34.0648], [-116.8551, 34.0654], [-116.8564, 34.0654]]], [[[-116.859, 34.0649], [-116.8593, 34.0647], [-116.859, 34.0647], [-116.859, 34.0649]]], [[[-116.8522, 34.0648], [-116.8525, 34.0645], [-116.8522, 34.0645], [-116.8522, 34.0648]]], [[[-116.8521, 34.0653], [-116.8522, 34.0648], [-116.8515, 34.0647], [-116.8515, 34.0639], [-116.8499, 34.0647], [-116.8521, 34.0653]]], [[[-116.8457, 34.0638], [-116.846, 34.0635], [-116.8457, 34.0635], [-116.8457, 34.0638]]], [[[-116.8438, 34.0637], [-116.8444, 34.0635], [-116.8438, 34.0634], [-116.8438, 34.0637]]], [[[-116.8561, 34.0646], [-116.8561, 34.0638], [-116.8548, 34.0635], [-116.8551, 34.0646], [-116.8561, 34.0646]]], [[[-116.8564, 34.0638], [-116.8568, 34.0635], [-116.8564, 34.0635], [-116.8564, 34.0638]]], [[[-116.8448, 34.0632], [-116.8451, 34.0629], [-116.8448, 34.0629], [-116.8448, 34.0632]]], [[[-116.8292, 34.0628], [-116.8298, 34.0625], [-116.8292, 34.0625], [-116.8292, 34.0628]]], [[[-116.8288, 34.063], [-116.8289, 34.0622], [-116.8266, 34.0622], [-116.8275, 34.0625], [-116.8272, 34.063], [-116.8288, 34.063]]], [[[-116.8529, 34.0634], [-116.8532, 34.0629], [-116.8529, 34.0629], [-116.8529, 34.0634]]], [[[-116.8324, 34.0629], [-116.8324, 34.0623], [-116.8318, 34.0623], [-116.8318, 34.0626], [-116.8324, 34.0629]]], [[[-116.8308, 34.0628], [-116.8315, 34.0623], [-116.8311, 34.0623], [-116.8308, 34.0628]]], [[[-116.8558, 34.0632], [-116.8561, 34.063], [-116.8558, 34.063], [-116.8558, 34.0632]]], [[[-116.8298, 34.0622], [-116.8302, 34.0617], [-116.8299, 34.0617], [-116.8298, 34.0622]]], [[[-116.862, 34.0629], [-116.8623, 34.0626], [-116.862, 34.0626], [-116.862, 34.0629]]], [[[-116.8282, 34.0619], [-116.8289, 34.0617], [-116.8282, 34.0617], [-116.8282, 34.0619]]], [[[-116.8419, 34.062], [-116.8422, 34.0618], [-116.8419, 34.0618], [-116.8419, 34.062]]], [[[-116.8945, 34.0632], [-116.8948, 34.063], [-116.8945, 34.0629], [-116.8945, 34.0632]]], [[[-116.8948, 34.063], [-116.8952, 34.0627], [-116.8948, 34.0627], [-116.8948, 34.063]]], [[[-116.8607, 34.062], [-116.8611, 34.0618], [-116.8607, 34.0617], [-116.8607, 34.062]]], [[[-116.8994, 34.0628], [-116.9004, 34.0626], [-116.8994, 34.0625], [-116.8994, 34.0628]]], [[[-116.8952, 34.0627], [-116.8958, 34.0624], [-116.8952, 34.0624], [-116.8952, 34.0627]]], [[[-116.8611, 34.0618], [-116.8621, 34.0615], [-116.8611, 34.0615], [-116.8611, 34.0618]]], [[[-116.8652, 34.063], [-116.8656, 34.0613], [-116.8643, 34.0616], [-116.8643, 34.0621], [-116.864, 34.0616], [-116.8624, 34.0618], [-116.8623, 34.0626], [-116.8652, 34.063]]], [[[-116.903, 34.0624], [-116.9033, 34.0621], [-116.903, 34.0621], [-116.903, 34.0624]]], [[[-116.8988, 34.0623], [-116.8991, 34.062], [-116.8988, 34.062], [-116.8988, 34.0623]]], [[[-116.8949, 34.0621], [-116.8952, 34.0619], [-116.8949, 34.0619], [-116.8949, 34.0621]]], [[[-116.8738, 34.0616], [-116.8741, 34.0613], [-116.8738, 34.0613], [-116.8738, 34.0616]]], [[[-116.8679, 34.0614], [-116.8682, 34.0611], [-116.8679, 34.0611], [-116.8679, 34.0614]]], [[[-116.8611, 34.0612], [-116.8614, 34.061], [-116.8611, 34.0609], [-116.8611, 34.0612]]], [[[-116.9043, 34.0621], [-116.9046, 34.0619], [-116.9043, 34.0619], [-116.9043, 34.0621]]], [[[-116.902, 34.0623], [-116.9017, 34.0615], [-116.9014, 34.0615], [-116.901, 34.0623], [-116.902, 34.0623]]], [[[-116.9092, 34.0617], [-116.9095, 34.062], [-116.9098, 34.0617], [-116.9092, 34.0617]]], [[[-116.8672, 34.0619], [-116.8676, 34.0606], [-116.8667, 34.0603], [-116.866, 34.0614], [-116.8672, 34.0619]]], [[[-116.8991, 34.0617], [-116.8995, 34.0612], [-116.8991, 34.0612], [-116.8991, 34.0617]]], [[[-116.8747, 34.0613], [-116.8754, 34.0608], [-116.8748, 34.0605], [-116.8747, 34.0613]]], [[[-116.8754, 34.0608], [-116.8757, 34.0605], [-116.8754, 34.0605], [-116.8754, 34.0608]]], [[[-116.9092, 34.0615], [-116.9099, 34.0612], [-116.9092, 34.0612], [-116.9092, 34.0615]]], [[[-116.9024, 34.0613], [-116.9027, 34.061], [-116.9024, 34.061], [-116.9024, 34.0613]]], [[[-116.8741, 34.0605], [-116.8745, 34.0602], [-116.8741, 34.0602], [-116.8741, 34.0605]]], [[[-116.8351, 34.0594], [-116.8355, 34.0592], [-116.8352, 34.0591], [-116.8351, 34.0594]]], [[[-116.8637, 34.0616], [-116.864, 34.0605], [-116.8631, 34.0597], [-116.8624, 34.0604], [-116.8611, 34.0601], [-116.8605, 34.0607], [-116.8637, 34.0616]]], [[[-116.8335, 34.0591], [-116.8339, 34.0588], [-116.8335, 34.0588], [-116.8335, 34.0591]]], [[[-116.8693, 34.0604], [-116.8693, 34.0598], [-116.8683, 34.0595], [-116.8683, 34.0601], [-116.8693, 34.0604]]], [[[-116.868, 34.0603], [-116.868, 34.0595], [-116.8673, 34.0595], [-116.8673, 34.06], [-116.868, 34.0603]]], [[[-116.8416, 34.0596], [-116.8423, 34.0591], [-116.8417, 34.0588], [-116.8416, 34.0596]]], [[[-116.8956, 34.0605], [-116.8959, 34.0603], [-116.8956, 34.0603], [-116.8956, 34.0605]]], [[[-116.8748, 34.06], [-116.8755, 34.0597], [-116.8748, 34.0597], [-116.8748, 34.06]]], [[[-116.8625, 34.0596], [-116.8628, 34.0594], [-116.8625, 34.0594], [-116.8625, 34.0596]]], [[[-116.8319, 34.0588], [-116.8323, 34.0585], [-116.8319, 34.0585], [-116.8319, 34.0588]]], [[[-116.8725, 34.0596], [-116.8729, 34.0594], [-116.8725, 34.0594], [-116.8725, 34.0596]]], [[[-116.8693, 34.0595], [-116.8699, 34.0593], [-116.8693, 34.0593], [-116.8693, 34.0595]]], [[[-116.867, 34.0595], [-116.8673, 34.0592], [-116.867, 34.0592], [-116.867, 34.0595]]], [[[-116.8602, 34.0593], [-116.8608, 34.059], [-116.8602, 34.059], [-116.8602, 34.0593]]], [[[-116.8323, 34.0585], [-116.8326, 34.0583], [-116.8323, 34.0583], [-116.8323, 34.0585]]], [[[-116.8757, 34.063], [-116.876, 34.0622], [-116.8747, 34.0616], [-116.875, 34.0624], [-116.8744, 34.0624], [-116.8744, 34.0621], [-116.8741, 34.0621], [-116.8741, 34.0618], [-116.8737, 34.0618], [-116.8738, 34.0616], [-116.8731, 34.0613], [-116.8731, 34.0607], [-116.8722, 34.0607], [-116.8725, 34.0596], [-116.8722, 34.0596], [-116.8719, 34.0599], [-116.8716, 34.0591], [-116.8703, 34.0596], [-116.8709, 34.0601], [-116.8708, 34.0615], [-116.8695, 34.0612], [-116.8702, 34.0617], [-116.8689, 34.0614], [-116.8679, 34.0622], [-116.8679, 34.0628], [-116.8708, 34.0628], [-116.8714, 34.0623], [-116.8718, 34.0623], [-116.8718, 34.0629], [-116.8757, 34.063]], [[-116.8695, 34.0623], [-116.8692, 34.0625], [-116.8692, 34.0623], [-116.8695, 34.0623]], [[-116.8721, 34.0623], [-116.8718, 34.0618], [-116.8728, 34.0618], [-116.8728, 34.0621], [-116.8721, 34.0623]], [[-116.8698, 34.062], [-116.8695, 34.0623], [-116.8695, 34.062], [-116.8698, 34.062]], [[-116.8689, 34.062], [-116.8685, 34.0622], [-116.8685, 34.062], [-116.8689, 34.062]], [[-116.8715, 34.0618], [-116.8711, 34.062], [-116.8711, 34.0618], [-116.8715, 34.0618]], [[-116.8718, 34.0615], [-116.8715, 34.0618], [-116.8715, 34.0615], [-116.8718, 34.0615]], [[-116.8719, 34.0599], [-116.8715, 34.0602], [-116.8715, 34.0599], [-116.8719, 34.0599]], [[-116.8712, 34.0599], [-116.8709, 34.0601], [-116.8709, 34.0599], [-116.8712, 34.0599]]], [[[-116.8729, 34.0594], [-116.8732, 34.0591], [-116.8729, 34.0591], [-116.8729, 34.0594]]], [[[-116.8621, 34.0591], [-116.8625, 34.0588], [-116.8622, 34.0588], [-116.8621, 34.0591]]], [[[-116.8608, 34.059], [-116.8615, 34.0588], [-116.8609, 34.0588], [-116.8608, 34.059]]], [[[-116.8417, 34.0585], [-116.842, 34.0583], [-116.8417, 34.0582], [-116.8417, 34.0585]]], [[[-116.8719, 34.0594], [-116.8726, 34.0588], [-116.8716, 34.0588], [-116.8719, 34.0594]]], [[[-116.907, 34.06], [-116.9073, 34.0598], [-116.907, 34.0598], [-116.907, 34.06]]], [[[-116.8423, 34.0583], [-116.8427, 34.058], [-116.8424, 34.058], [-116.8423, 34.0583]]], [[[-116.9083, 34.0601], [-116.909, 34.0596], [-116.9086, 34.0595], [-116.9083, 34.0601]]], [[[-116.8323, 34.058], [-116.8326, 34.0575], [-116.8323, 34.0574], [-116.8323, 34.058]]], [[[-116.9063, 34.0598], [-116.9067, 34.0595], [-116.9064, 34.0595], [-116.9063, 34.0598]]], [[[-116.8963, 34.0595], [-116.8969, 34.0592], [-116.8963, 34.0592], [-116.8963, 34.0595]]], [[[-116.8407, 34.0579], [-116.8414, 34.0577], [-116.8407, 34.0577], [-116.8407, 34.0579]]], [[[-116.8417, 34.058], [-116.8421, 34.0574], [-116.8417, 34.0574], [-116.8417, 34.058]]], [[[-116.9083, 34.0595], [-116.9086, 34.0593], [-116.9083, 34.0593], [-116.9083, 34.0595]]], [[[-116.906, 34.0595], [-116.9064, 34.0592], [-116.906, 34.0592], [-116.906, 34.0595]]], [[[-116.8329, 34.0575], [-116.8333, 34.0572], [-116.833, 34.0572], [-116.8329, 34.0575]]], [[[-116.909, 34.0596], [-116.9096, 34.059], [-116.9093, 34.059], [-116.909, 34.0596]]], [[[-116.907, 34.0592], [-116.9073, 34.059], [-116.907, 34.059], [-116.907, 34.0592]]], [[[-116.8723, 34.0583], [-116.8726, 34.058], [-116.8723, 34.058], [-116.8723, 34.0583]]], [[[-116.8606, 34.058], [-116.8609, 34.0577], [-116.8606, 34.0577], [-116.8606, 34.058]]], [[[-116.9057, 34.0592], [-116.9061, 34.0587], [-116.9057, 34.0587], [-116.9057, 34.0592]]], [[[-116.8411, 34.0574], [-116.8417, 34.0572], [-116.8411, 34.0569], [-116.8411, 34.0574]]], [[[-116.8752, 34.0581], [-116.8759, 34.0578], [-116.8752, 34.0578], [-116.8752, 34.0581]]], [[[-116.8401, 34.0571], [-116.8405, 34.0569], [-116.8401, 34.0569], [-116.8401, 34.0571]]], [[[-116.8378, 34.0571], [-116.8382, 34.0568], [-116.8379, 34.0568], [-116.8378, 34.0571]]], [[[-116.9087, 34.0587], [-116.909, 34.0585], [-116.9087, 34.0585], [-116.9087, 34.0587]]], [[[-116.8723, 34.058], [-116.8726, 34.0575], [-116.8713, 34.0574], [-116.8713, 34.0577], [-116.8723, 34.058]]], [[[-116.8275, 34.0565], [-116.8281, 34.0562], [-116.8275, 34.0562], [-116.8275, 34.0565]]], [[[-116.8742, 34.0578], [-116.8746, 34.0573], [-116.8743, 34.0573], [-116.8742, 34.0578]]], [[[-116.837, 34.063], [-116.8396, 34.0625], [-116.8396, 34.0617], [-116.8409, 34.0609], [-116.8406, 34.0601], [-116.8413, 34.0601], [-116.8407, 34.0596], [-116.8414, 34.0585], [-116.8398, 34.0577], [-116.8401, 34.0566], [-116.8392, 34.0563], [-116.8387, 34.059], [-116.8365, 34.0592], [-116.8364, 34.0605], [-116.8348, 34.061], [-116.837, 34.063]], [[-116.8393, 34.0622], [-116.8389, 34.0625], [-116.8389, 34.0622], [-116.8393, 34.0622]], [[-116.8396, 34.0609], [-116.8393, 34.0612], [-116.8393, 34.0609], [-116.8396, 34.0609]], [[-116.84, 34.0606], [-116.8396, 34.0609], [-116.8397, 34.0606], [-116.84, 34.0606]], [[-116.8407, 34.0598], [-116.8397, 34.0598], [-116.84, 34.059], [-116.8404, 34.059], [-116.8407, 34.0598]]], [[[-116.8379, 34.0565], [-116.8382, 34.0563], [-116.8379, 34.0562], [-116.8379, 34.0565]]], [[[-116.8674, 34.0568], [-116.8681, 34.0571], [-116.8691, 34.0568], [-116.8674, 34.0568]]], [[[-116.8372, 34.0562], [-116.8376, 34.056], [-116.8372, 34.056], [-116.8372, 34.0562]]], [[[-116.8346, 34.0567], [-116.8346, 34.0562], [-116.8334, 34.0556], [-116.8333, 34.0561], [-116.8346, 34.0567]]], [[[-116.909, 34.0579], [-116.9097, 34.0577], [-116.909, 34.0577], [-116.909, 34.0579]]], [[[-116.8746, 34.057], [-116.8749, 34.0567], [-116.8746, 34.0567], [-116.8746, 34.057]]], [[[-116.832, 34.0558], [-116.8324, 34.0556], [-116.8321, 34.0555], [-116.832, 34.0558]]], [[[-116.8372, 34.057], [-116.8379, 34.0565], [-116.8372, 34.0565], [-116.8372, 34.0562], [-116.8369, 34.0562], [-116.8369, 34.0554], [-116.8363, 34.0554], [-116.8372, 34.057]]], [[[-116.8402, 34.0558], [-116.8412, 34.0555], [-116.8402, 34.0555], [-116.8402, 34.0558]]], [[[-116.8382, 34.0557], [-116.8386, 34.0555], [-116.8382, 34.0554], [-116.8382, 34.0557]]], [[[-116.8346, 34.0556], [-116.835, 34.0554], [-116.8347, 34.0553], [-116.8346, 34.0556]]], [[[-116.8324, 34.0556], [-116.8327, 34.0553], [-116.8324, 34.0553], [-116.8324, 34.0556]]], [[[-116.8694, 34.0563], [-116.8697, 34.056], [-116.8694, 34.056], [-116.8694, 34.0563]]], [[[-116.8412, 34.0555], [-116.8418, 34.0553], [-116.8412, 34.0553], [-116.8412, 34.0555]]], [[[-116.8386, 34.0555], [-116.8389, 34.0552], [-116.8386, 34.0552], [-116.8386, 34.0555]]], [[[-116.833, 34.0556], [-116.8334, 34.0548], [-116.8331, 34.0548], [-116.833, 34.0556]]], [[[-116.8421, 34.0556], [-116.8425, 34.055], [-116.8422, 34.055], [-116.8421, 34.0556]]], [[[-116.8369, 34.0551], [-116.8373, 34.0549], [-116.837, 34.0549], [-116.8369, 34.0551]]], [[[-116.8691, 34.0558], [-116.8694, 34.0555], [-116.8691, 34.0555], [-116.8691, 34.0558]]], [[[-116.8266, 34.0546], [-116.8272, 34.0543], [-116.8266, 34.054], [-116.8266, 34.0546]]], [[[-116.8759, 34.0557], [-116.8763, 34.0554], [-116.8759, 34.0554], [-116.8759, 34.0557]]], [[[-116.8694, 34.0555], [-116.8701, 34.0552], [-116.8695, 34.0552], [-116.8694, 34.0555]]], [[[-116.8275, 34.0546], [-116.8279, 34.0538], [-116.8276, 34.0538], [-116.8275, 34.0546]]], [[[-116.8743, 34.0556], [-116.8747, 34.0551], [-116.8743, 34.0551], [-116.8743, 34.0556]]], [[[-116.8379, 34.0546], [-116.8386, 34.0541], [-116.8383, 34.0541], [-116.8379, 34.0546]]], [[[-116.8735, 34.0591], [-116.8743, 34.0564], [-116.8752, 34.0567], [-116.8753, 34.0562], [-116.874, 34.0562], [-116.874, 34.0553], [-116.8724, 34.055], [-116.8717, 34.0564], [-116.8723, 34.0564], [-116.8723, 34.0572], [-116.873, 34.0567], [-116.8732, 34.0583], [-116.8726, 34.0588], [-116.8735, 34.0591]], [[-116.8736, 34.0572], [-116.8733, 34.0575], [-116.8733, 34.0572], [-116.8736, 34.0572]], [[-116.8737, 34.0559], [-116.8736, 34.057], [-116.8727, 34.0559], [-116.8737, 34.0559]], [[-116.8734, 34.0553], [-116.873, 34.0556], [-116.873, 34.0553], [-116.8734, 34.0553]]], [[[-116.8669, 34.0552], [-116.8672, 34.0549], [-116.8669, 34.0549], [-116.8669, 34.0552]]], [[[-116.837, 34.0546], [-116.8367, 34.0538], [-116.8363, 34.0538], [-116.836, 34.0543], [-116.837, 34.0546]]], [[[-116.8636, 34.0551], [-116.8643, 34.0551], [-116.8653, 34.0546], [-116.864, 34.0545], [-116.8636, 34.0551]]], [[[-116.8613, 34.0547], [-116.862, 34.0545], [-116.8614, 34.0545], [-116.8613, 34.0547]]], [[[-116.8607, 34.0547], [-116.861, 34.0545], [-116.8607, 34.0544], [-116.8607, 34.0547]]], [[[-116.8386, 34.0541], [-116.8389, 34.0538], [-116.8386, 34.0538], [-116.8386, 34.0541]]], [[[-116.8373, 34.0541], [-116.8376, 34.0538], [-116.8373, 34.0538], [-116.8373, 34.0541]]], [[[-116.8422, 34.0547], [-116.8422, 34.0539], [-116.8416, 34.0536], [-116.8412, 34.0542], [-116.8422, 34.0547]]], [[[-116.899, 34.0558], [-116.8997, 34.0555], [-116.899, 34.0552], [-116.899, 34.0558]]], [[[-116.8756, 34.0549], [-116.876, 34.0546], [-116.8757, 34.0546], [-116.8756, 34.0549]]], [[[-116.8737, 34.0548], [-116.874, 34.0545], [-116.8737, 34.0545], [-116.8737, 34.0548]]], [[[-116.8698, 34.0547], [-116.8701, 34.0544], [-116.8698, 34.0544], [-116.8698, 34.0547]]], [[[-116.837, 34.0538], [-116.8373, 34.0535], [-116.837, 34.0535], [-116.837, 34.0538]]], [[[-116.8328, 34.0537], [-116.8331, 34.0534], [-116.8328, 34.0534], [-116.8328, 34.0537]]], [[[-116.8279, 34.0533], [-116.8282, 34.0535], [-116.8286, 34.0533], [-116.8279, 34.0533]]], [[[-116.838, 34.0538], [-116.8383, 34.0533], [-116.838, 34.0533], [-116.838, 34.0538]]], [[[-116.875, 34.0546], [-116.8753, 34.0543], [-116.875, 34.0543], [-116.875, 34.0546]]], [[[-116.8422, 34.0537], [-116.8425, 34.0534], [-116.8422, 34.0534], [-116.8422, 34.0537]]], [[[-116.8665, 34.0549], [-116.8672, 34.0546], [-116.8669, 34.0538], [-116.8662, 34.0541], [-116.8665, 34.0549]]], [[[-116.8312, 34.0536], [-116.8312, 34.0528], [-116.8309, 34.0528], [-116.8305, 34.0533], [-116.8312, 34.0536]]], [[[-116.8997, 34.0552], [-116.9, 34.0547], [-116.8997, 34.0547], [-116.8997, 34.0552]]], [[[-116.837, 34.0535], [-116.8367, 34.053], [-116.8361, 34.0529], [-116.8364, 34.0535], [-116.837, 34.0535]]], [[[-116.8318, 34.0531], [-116.8322, 34.0526], [-116.8318, 34.0526], [-116.8318, 34.0531]]], [[[-116.8262, 34.0624], [-116.8269, 34.0616], [-116.8276, 34.0619], [-116.8279, 34.0611], [-116.8289, 34.0611], [-116.8293, 34.0603], [-116.8318, 34.062], [-116.8324, 34.062], [-116.8325, 34.0612], [-116.8347, 34.0616], [-116.8344, 34.061], [-116.8351, 34.0608], [-116.8342, 34.0594], [-116.8332, 34.0596], [-116.8329, 34.0588], [-116.8316, 34.0593], [-116.8303, 34.0582], [-116.8313, 34.058], [-116.8313, 34.0569], [-116.831, 34.0574], [-116.8297, 34.0571], [-116.8304, 34.0563], [-116.8294, 34.0557], [-116.8295, 34.0549], [-116.8308, 34.0542], [-116.8308, 34.0536], [-116.8299, 34.0536], [-116.8305, 34.0525], [-116.8279, 34.0546], [-116.8278, 34.0552], [-116.8291, 34.0549], [-116.8291, 34.0555], [-116.8282, 34.0554], [-116.8284, 34.0563], [-116.8281, 34.0571], [-116.8275, 34.0565], [-116.8262, 34.0562], [-116.8252, 34.0564], [-116.8251, 34.0597], [-116.8254, 34.0597], [-116.8253, 34.0605], [-116.8267, 34.06], [-116.8286, 34.0603], [-116.8269, 34.0614], [-116.826, 34.0611], [-116.8253, 34.0624], [-116.8262, 34.0624]], [[-116.8266, 34.0613], [-116.8263, 34.0616], [-116.8263, 34.0613], [-116.8266, 34.0613]], [[-116.8325, 34.0607], [-116.8322, 34.061], [-116.8322, 34.0607], [-116.8325, 34.0607]], [[-116.8338, 34.0607], [-116.8331, 34.0607], [-116.8325, 34.0602], [-116.8338, 34.0597], [-116.8338, 34.0607]], [[-116.8322, 34.0601], [-116.8315, 34.0607], [-116.8315, 34.0601], [-116.8322, 34.0601]], [[-116.8289, 34.0601], [-116.8286, 34.0603], [-116.8286, 34.06], [-116.8289, 34.0601]], [[-116.8261, 34.0592], [-116.8254, 34.0597], [-116.8254, 34.0594], [-116.8261, 34.0592]], [[-116.8309, 34.059], [-116.8306, 34.0593], [-116.8306, 34.059], [-116.8309, 34.059]], [[-116.827, 34.0587], [-116.8267, 34.0589], [-116.8267, 34.0586], [-116.827, 34.0587]], [[-116.8284, 34.0584], [-116.828, 34.0587], [-116.828, 34.0584], [-116.8284, 34.0584]], [[-116.8284, 34.0579], [-116.827, 34.0587], [-116.8271, 34.0578], [-116.8281, 34.0573], [-116.8281, 34.0576], [-116.8284, 34.0576], [-116.8284, 34.0579]], [[-116.8267, 34.0584], [-116.8264, 34.0586], [-116.8264, 34.0584], [-116.8267, 34.0584]], [[-116.8303, 34.0577], [-116.83, 34.0579], [-116.83, 34.0577], [-116.8303, 34.0577]], [[-116.8258, 34.0573], [-116.8255, 34.0578], [-116.8255, 34.0573], [-116.8258, 34.0573]], [[-116.8291, 34.0574], [-116.8284, 34.0576], [-116.8284, 34.0573], [-116.8291, 34.0574]], [[-116.8291, 34.0565], [-116.8287, 34.0568], [-116.8288, 34.0565], [-116.8291, 34.0565]], [[-116.8297, 34.0563], [-116.8294, 34.0566], [-116.8294, 34.0563], [-116.8297, 34.0563]], [[-116.8288, 34.0557], [-116.8284, 34.0563], [-116.8285, 34.0557], [-116.8288, 34.0557]], [[-116.8305, 34.0539], [-116.8302, 34.0541], [-116.8302, 34.0539], [-116.8305, 34.0539]]], [[[-116.8688, 34.0549], [-116.8682, 34.0536], [-116.8673, 34.0533], [-116.8669, 34.0538], [-116.8679, 34.0541], [-116.8672, 34.0549], [-116.8688, 34.0549]]], [[[-116.839, 34.0528], [-116.8393, 34.0525], [-116.839, 34.0525], [-116.839, 34.0528]]], [[[-116.8322, 34.0526], [-116.8325, 34.0523], [-116.8322, 34.0523], [-116.8322, 34.0526]]], [[[-116.8315, 34.0526], [-116.8319, 34.0523], [-116.8315, 34.0523], [-116.8315, 34.0526]]], [[[-116.8757, 34.0535], [-116.876, 34.0532], [-116.8757, 34.0532], [-116.8757, 34.0535]]], [[[-116.8708, 34.0534], [-116.8712, 34.0531], [-116.8708, 34.0531], [-116.8708, 34.0534]]], [[[-116.8598, 34.0531], [-116.8601, 34.0528], [-116.8598, 34.0528], [-116.8598, 34.0531]]], [[[-116.8254, 34.0521], [-116.8257, 34.0518], [-116.8254, 34.0518], [-116.8254, 34.0521]]], [[[-116.8751, 34.0532], [-116.8757, 34.053], [-116.8751, 34.0529], [-116.8751, 34.0532]]], [[[-116.8663, 34.053], [-116.8666, 34.0527], [-116.8663, 34.0527], [-116.8663, 34.053]]], [[[-116.8322, 34.052], [-116.8329, 34.0518], [-116.8322, 34.0518], [-116.8322, 34.052]]], [[[-116.9043, 34.0537], [-116.9046, 34.0535], [-116.9043, 34.0535], [-116.9043, 34.0537]]], [[[-116.8669, 34.053], [-116.8683, 34.0525], [-116.867, 34.0525], [-116.8669, 34.053]]], [[[-116.866, 34.0527], [-116.8663, 34.0524], [-116.866, 34.0524], [-116.866, 34.0527]]], [[[-116.9079, 34.0544], [-116.9088, 34.0539], [-116.9076, 34.0533], [-116.9079, 34.0544]]], [[[-116.8717, 34.0556], [-116.8718, 34.0542], [-116.8744, 34.0537], [-116.8744, 34.0529], [-116.8731, 34.0532], [-116.8735, 34.0526], [-116.8725, 34.0523], [-116.8715, 34.0528], [-116.8718, 34.0534], [-116.8705, 34.0542], [-116.8711, 34.0553], [-116.8704, 34.0555], [-116.8717, 34.0556]], [[-116.8721, 34.0534], [-116.8718, 34.0537], [-116.8718, 34.0534], [-116.8721, 34.0534]]], [[[-116.9092, 34.0536], [-116.9095, 34.0533], [-116.9092, 34.0533], [-116.9092, 34.0536]]], [[[-116.8751, 34.0527], [-116.8754, 34.0524], [-116.8751, 34.0524], [-116.8751, 34.0527]]], [[[-116.904, 34.0532], [-116.9043, 34.0529], [-116.904, 34.0529], [-116.904, 34.0532]]], [[[-116.877, 34.0525], [-116.8774, 34.0522], [-116.8771, 34.0522], [-116.877, 34.0525]]], [[[-116.8712, 34.0523], [-116.8715, 34.052], [-116.8712, 34.052], [-116.8712, 34.0523]]], [[[-116.8615, 34.052], [-116.8618, 34.0518], [-116.8615, 34.0518], [-116.8615, 34.052]]], [[[-116.9102, 34.0534], [-116.9108, 34.0528], [-116.9105, 34.0528], [-116.9102, 34.0534]]], [[[-116.8751, 34.0524], [-116.8751, 34.0519], [-116.8741, 34.0521], [-116.8741, 34.0524], [-116.8751, 34.0524]]], [[[-116.8251, 34.0507], [-116.8258, 34.0505], [-116.8251, 34.0505], [-116.8251, 34.0507]]], [[[-116.8618, 34.0518], [-116.8624, 34.0515], [-116.8618, 34.0512], [-116.8618, 34.0518]]], [[[-116.8722, 34.0518], [-116.8732, 34.0515], [-116.8722, 34.0515], [-116.8722, 34.0518]]], [[[-116.8644, 34.0516], [-116.8647, 34.0513], [-116.8644, 34.0513], [-116.8644, 34.0516]]], [[[-116.8378, 34.0506], [-116.8381, 34.0503], [-116.8378, 34.0503], [-116.8378, 34.0506]]], [[[-116.8258, 34.0502], [-116.8261, 34.05], [-116.8258, 34.05], [-116.8258, 34.0502]]], [[[-116.8329, 34.0504], [-116.8323, 34.0499], [-116.83, 34.0501], [-116.83, 34.0503], [-116.8329, 34.0504]]], [[[-116.8339, 34.0502], [-116.8342, 34.0499], [-116.8339, 34.0499], [-116.8339, 34.0502]]], [[[-116.8329, 34.0502], [-116.8333, 34.0499], [-116.8329, 34.0499], [-116.8329, 34.0502]]], [[[-116.8716, 34.051], [-116.8719, 34.0507], [-116.8716, 34.0507], [-116.8716, 34.051]]], [[[-116.831, 34.0498], [-116.8313, 34.0493], [-116.831, 34.0493], [-116.831, 34.0498]]], [[[-116.8729, 34.0507], [-116.8732, 34.0505], [-116.8729, 34.0504], [-116.8729, 34.0507]]], [[[-116.8722, 34.0507], [-116.8726, 34.0504], [-116.8722, 34.0504], [-116.8722, 34.0507]]], [[[-116.8719, 34.0504], [-116.8723, 34.0502], [-116.8719, 34.0502], [-116.8719, 34.0504]]], [[[-116.8304, 34.0493], [-116.8307, 34.049], [-116.8304, 34.049], [-116.8304, 34.0493]]], [[[-116.8638, 34.0507], [-116.8645, 34.0499], [-116.8632, 34.0496], [-116.8631, 34.0505], [-116.8638, 34.0507]]], [[[-116.8414, 34.0493], [-116.8417, 34.049], [-116.8414, 34.049], [-116.8414, 34.0493]]], [[[-116.8258, 34.0494], [-116.8258, 34.0483], [-116.8252, 34.0483], [-116.8252, 34.0491], [-116.8258, 34.0494]]], [[[-116.8745, 34.0505], [-116.8745, 34.05], [-116.8733, 34.0496], [-116.8735, 34.0505], [-116.8745, 34.0505]]], [[[-116.8274, 34.0492], [-116.8275, 34.0484], [-116.8271, 34.0484], [-116.8268, 34.0492], [-116.8274, 34.0492]]], [[[-116.8622, 34.0499], [-116.8625, 34.0494], [-116.8622, 34.0493], [-116.8622, 34.0499]]], [[[-116.9067, 34.0508], [-116.907, 34.0506], [-116.9067, 34.0506], [-116.9067, 34.0508]]], [[[-116.8197, 34.0484], [-116.8203, 34.0482], [-116.8197, 34.0482], [-116.8197, 34.0484]]], [[[-116.8406, 34.0523], [-116.8426, 34.0512], [-116.8427, 34.0502], [-116.8424, 34.0493], [-116.8414, 34.0496], [-116.8414, 34.0493], [-116.8408, 34.049], [-116.8408, 34.0485], [-116.8405, 34.0485], [-116.8381, 34.0503], [-116.8397, 34.0503], [-116.839, 34.0522], [-116.8397, 34.0517], [-116.8406, 34.0523]], [[-116.8413, 34.0509], [-116.8407, 34.0517], [-116.8407, 34.0509], [-116.8413, 34.0509]], [[-116.8404, 34.0504], [-116.84, 34.0509], [-116.8401, 34.0504], [-116.8404, 34.0504]], [[-116.8417, 34.0501], [-116.8414, 34.0507], [-116.841, 34.0501], [-116.8417, 34.0501]]], [[[-116.8619, 34.0493], [-116.8622, 34.0491], [-116.8619, 34.0491], [-116.8619, 34.0493]]], [[[-116.8249, 34.0483], [-116.8252, 34.048], [-116.8249, 34.048], [-116.8249, 34.0483]]], [[[-116.8193, 34.0482], [-116.8197, 34.0479], [-116.8194, 34.0479], [-116.8193, 34.0482]]], [[[-116.8184, 34.0481], [-116.8187, 34.0479], [-116.8184, 34.0479], [-116.8184, 34.0481]]], [[[-116.8755, 34.0502], [-116.8755, 34.0497], [-116.8742, 34.0491], [-116.8742, 34.0497], [-116.8755, 34.0502]]], [[[-116.8232, 34.0485], [-116.8233, 34.0477], [-116.8213, 34.0477], [-116.8213, 34.0482], [-116.8232, 34.0485]]], [[[-116.9054, 34.0503], [-116.9057, 34.05], [-116.9054, 34.05], [-116.9054, 34.0503]]], [[[-116.8177, 34.0478], [-116.8184, 34.0476], [-116.8177, 34.0476], [-116.8177, 34.0478]]], [[[-116.8755, 34.0494], [-116.8759, 34.0489], [-116.8756, 34.0489], [-116.8755, 34.0494]]], [[[-116.8726, 34.0491], [-116.8736, 34.0494], [-116.8736, 34.0488], [-116.8726, 34.0491]]], [[[-116.8626, 34.0488], [-116.8629, 34.0486], [-116.8626, 34.0485], [-116.8626, 34.0488]]], [[[-116.8184, 34.0476], [-116.8187, 34.0473], [-116.8184, 34.0473], [-116.8184, 34.0476]]], [[[-116.9051, 34.05], [-116.9054, 34.0494], [-116.9051, 34.0494], [-116.9051, 34.05]]], [[[-116.8739, 34.0491], [-116.8743, 34.0486], [-116.8739, 34.0486], [-116.8739, 34.0491]]], [[[-116.8629, 34.0486], [-116.8632, 34.0483], [-116.8629, 34.0483], [-116.8629, 34.0486]]], [[[-116.9041, 34.0497], [-116.9045, 34.0491], [-116.9042, 34.0491], [-116.9041, 34.0497]]], [[[-116.857, 34.0484], [-116.8574, 34.0479], [-116.8571, 34.0478], [-116.857, 34.0484]]], [[[-116.9048, 34.0494], [-116.9051, 34.0492], [-116.9048, 34.0492], [-116.9048, 34.0494]]], [[[-116.8759, 34.0486], [-116.8769, 34.0484], [-116.8759, 34.0484], [-116.8759, 34.0486]]], [[[-116.8577, 34.0481], [-116.858, 34.0479], [-116.8577, 34.0479], [-116.8577, 34.0481]]], [[[-116.9038, 34.0491], [-116.9042, 34.0489], [-116.9038, 34.0489], [-116.9038, 34.0491]]], [[[-116.887, 34.0484], [-116.8873, 34.0481], [-116.887, 34.0481], [-116.887, 34.0484]]], [[[-116.8496, 34.0474], [-116.8499, 34.0471], [-116.8496, 34.0471], [-116.8496, 34.0474]]], [[[-116.846, 34.0473], [-116.8467, 34.047], [-116.846, 34.047], [-116.846, 34.0473]]], [[[-116.8226, 34.0474], [-116.8236, 34.0466], [-116.8227, 34.0461], [-116.822, 34.0466], [-116.821, 34.0463], [-116.8213, 34.0471], [-116.8226, 34.0474]]], [[[-116.911, 34.0491], [-116.9113, 34.0485], [-116.911, 34.0485], [-116.911, 34.0491]]], [[[-116.9052, 34.0486], [-116.9055, 34.0484], [-116.9052, 34.0484], [-116.9052, 34.0486]]], [[[-116.8243, 34.0464], [-116.8246, 34.0461], [-116.8243, 34.0461], [-116.8243, 34.0464]]], [[[-116.8451, 34.047], [-116.8454, 34.0464], [-116.8451, 34.0464], [-116.8451, 34.047]]], [[[-116.8844, 34.0478], [-116.8847, 34.0475], [-116.8844, 34.0475], [-116.8844, 34.0478]]], [[[-116.8542, 34.047], [-116.8545, 34.0467], [-116.8542, 34.0467], [-116.8542, 34.047]]], [[[-116.8773, 34.0471], [-116.8779, 34.0476], [-116.8779, 34.0471], [-116.8773, 34.0471]]], [[[-116.8841, 34.0475], [-116.8844, 34.0472], [-116.8841, 34.0472], [-116.8841, 34.0475]]], [[[-116.8591, 34.0468], [-116.8594, 34.0466], [-116.8591, 34.0466], [-116.8591, 34.0468]]], [[[-116.8548, 34.0467], [-116.8552, 34.0464], [-116.8548, 34.0464], [-116.8548, 34.0467]]], [[[-116.8789, 34.0471], [-116.8792, 34.0468], [-116.8789, 34.0468], [-116.8789, 34.0471]]], [[[-116.8444, 34.0467], [-116.8451, 34.0464], [-116.8448, 34.0456], [-116.8438, 34.0459], [-116.8444, 34.0467]]], [[[-116.8513, 34.0461], [-116.8516, 34.0458], [-116.8513, 34.0458], [-116.8513, 34.0461]]], [[[-116.8432, 34.0458], [-116.8438, 34.0456], [-116.8432, 34.0456], [-116.8432, 34.0458]]], [[[-116.886, 34.0468], [-116.8864, 34.0465], [-116.8861, 34.0465], [-116.886, 34.0468]]], [[[-116.8773, 34.0462], [-116.8776, 34.046], [-116.8773, 34.046], [-116.8773, 34.0462]]], [[[-116.8461, 34.0459], [-116.8474, 34.0451], [-116.8455, 34.0451], [-116.8461, 34.0459]]], [[[-116.885, 34.0475], [-116.886, 34.0468], [-116.8848, 34.0459], [-116.8844, 34.0472], [-116.885, 34.0475]]], [[[-116.825, 34.0459], [-116.825, 34.0448], [-116.824, 34.045], [-116.8244, 34.0442], [-116.8234, 34.0442], [-116.8237, 34.0458], [-116.825, 34.0459]]], [[[-116.852, 34.0453], [-116.8523, 34.045], [-116.852, 34.045], [-116.852, 34.0453]]], [[[-116.8474, 34.0451], [-116.8481, 34.0449], [-116.8474, 34.0449], [-116.8474, 34.0451]]], [[[-116.8506, 34.0458], [-116.8517, 34.045], [-116.851, 34.0447], [-116.8506, 34.0458]]], [[[-116.8845, 34.0459], [-116.8848, 34.0456], [-116.8845, 34.0456], [-116.8845, 34.0459]]], [[[-116.8796, 34.0458], [-116.8799, 34.0455], [-116.8796, 34.0455], [-116.8796, 34.0458]]], [[[-116.9121, 34.0466], [-116.9124, 34.0461], [-116.9121, 34.0461], [-116.9121, 34.0466]]], [[[-116.8799, 34.0455], [-116.8803, 34.0452], [-116.8799, 34.0452], [-116.8799, 34.0455]]], [[[-116.8786, 34.0452], [-116.8793, 34.0449], [-116.8786, 34.0449], [-116.8786, 34.0452]]], [[[-116.8523, 34.0445], [-116.8527, 34.0442], [-116.8523, 34.0442], [-116.8523, 34.0445]]], [[[-116.8942, 34.0448], [-116.8946, 34.0445], [-116.8943, 34.0445], [-116.8942, 34.0448]]], [[[-116.8494, 34.0441], [-116.8498, 34.0433], [-116.8485, 34.0436], [-116.8485, 34.0438], [-116.8494, 34.0441]]], [[[-116.8936, 34.0445], [-116.8939, 34.0443], [-116.8936, 34.0443], [-116.8936, 34.0445]]], [[[-116.8813, 34.0442], [-116.8816, 34.0439], [-116.8813, 34.0439], [-116.8813, 34.0442]]], [[[-116.8469, 34.043], [-116.8472, 34.0427], [-116.8469, 34.0427], [-116.8469, 34.043]]], [[[-116.8521, 34.0431], [-116.8527, 34.0429], [-116.8521, 34.0426], [-116.8521, 34.0431]]], [[[-116.8534, 34.0429], [-116.8537, 34.0426], [-116.8534, 34.0426], [-116.8534, 34.0429]]], [[[-116.8505, 34.042], [-116.8508, 34.0423], [-116.8511, 34.042], [-116.8505, 34.042]]], [[[-116.8936, 34.0443], [-116.894, 34.0424], [-116.8927, 34.0423], [-116.8933, 34.0429], [-116.8923, 34.0437], [-116.8936, 34.0443]]], [[[-116.8531, 34.0423], [-116.8537, 34.0418], [-116.8544, 34.0407], [-116.8531, 34.041], [-116.8531, 34.0423]]], [[[-116.8544, 34.0402], [-116.8551, 34.0405], [-116.8551, 34.0399], [-116.8544, 34.0402]]], [[[-116.8902, 34.0412], [-116.8905, 34.0409], [-116.8902, 34.0409], [-116.8902, 34.0412]]], [[[-116.8538, 34.0402], [-116.8541, 34.0399], [-116.8538, 34.0399], [-116.8538, 34.0402]]], [[[-116.8924, 34.041], [-116.8931, 34.0407], [-116.8925, 34.0407], [-116.8924, 34.041]]], [[[-116.8918, 34.041], [-116.8921, 34.0407], [-116.8918, 34.0407], [-116.8918, 34.041]]], [[[-116.8561, 34.04], [-116.8567, 34.0397], [-116.8561, 34.0397], [-116.8561, 34.04]]], [[[-116.8506, 34.0398], [-116.8506, 34.0393], [-116.8499, 34.0393], [-116.8499, 34.0395], [-116.8506, 34.0398]]], [[[-116.8921, 34.0407], [-116.8925, 34.0404], [-116.8921, 34.0404], [-116.8921, 34.0407]]], [[[-116.847, 34.0395], [-116.8473, 34.0392], [-116.847, 34.0392], [-116.847, 34.0395]]], [[[-116.8895, 34.0406], [-116.8899, 34.0401], [-116.8896, 34.0401], [-116.8895, 34.0406]]], [[[-116.8568, 34.0395], [-116.8574, 34.0395], [-116.8577, 34.0392], [-116.8568, 34.0395]]], [[[-116.8454, 34.0391], [-116.8457, 34.0389], [-116.8454, 34.0389], [-116.8454, 34.0391]]], [[[-116.8467, 34.0389], [-116.847, 34.0386], [-116.8467, 34.0386], [-116.8467, 34.0389]]], [[[-116.8889, 34.0398], [-116.8893, 34.0395], [-116.8889, 34.0395], [-116.8889, 34.0398]]], [[[-116.8431, 34.0385], [-116.8435, 34.0383], [-116.8431, 34.0383], [-116.8431, 34.0385]]], [[[-116.8558, 34.0386], [-116.8561, 34.0384], [-116.8558, 34.0383], [-116.8558, 34.0386]]], [[[-116.8532, 34.0385], [-116.8535, 34.0383], [-116.8532, 34.0383], [-116.8532, 34.0385]]], [[[-116.8457, 34.0383], [-116.8461, 34.0381], [-116.8458, 34.0381], [-116.8457, 34.0383]]], [[[-116.8487, 34.0387], [-116.8484, 34.0379], [-116.8477, 34.0378], [-116.848, 34.0387], [-116.8487, 34.0387]]], [[[-116.8587, 34.0395], [-116.8594, 34.0384], [-116.8584, 34.0381], [-116.8577, 34.0392], [-116.8587, 34.0395]]], [[[-116.8565, 34.0384], [-116.8568, 34.0381], [-116.8565, 34.0381], [-116.8565, 34.0384]]], [[[-116.8451, 34.038], [-116.8458, 34.0378], [-116.8451, 34.0378], [-116.8451, 34.038]]], [[[-116.8428, 34.0377], [-116.8432, 34.0375], [-116.8429, 34.0374], [-116.8428, 34.0377]]], [[[-116.8844, 34.0386], [-116.8851, 34.0383], [-116.8844, 34.0383], [-116.8844, 34.0386]]], [[[-116.8529, 34.0391], [-116.8533, 34.0372], [-116.851, 34.0371], [-116.8513, 34.0382], [-116.8526, 34.0383], [-116.8529, 34.0391]], [[-116.8526, 34.0374], [-116.8519, 34.0377], [-116.852, 34.0374], [-116.8526, 34.0374]]], [[[-116.8815, 34.0382], [-116.8818, 34.038], [-116.8815, 34.038], [-116.8815, 34.0382]]], [[[-116.8546, 34.0375], [-116.8549, 34.0372], [-116.8546, 34.0372], [-116.8546, 34.0375]]], [[[-116.8877, 34.0381], [-116.888, 34.0379], [-116.8877, 34.0379], [-116.8877, 34.0381]]], [[[-116.887, 34.0381], [-116.8874, 34.0379], [-116.887, 34.0378], [-116.887, 34.0381]]], [[[-116.8864, 34.0381], [-116.8867, 34.0378], [-116.8864, 34.0378], [-116.8864, 34.0381]]], [[[-116.8805, 34.0379], [-116.8809, 34.0377], [-116.8806, 34.0377], [-116.8805, 34.0379]]], [[[-116.85, 34.0379], [-116.85, 34.0371], [-116.8504, 34.0368], [-116.8494, 34.0371], [-116.85, 34.0379]]], [[[-116.8455, 34.0367], [-116.8458, 34.0364], [-116.8455, 34.0364], [-116.8455, 34.0367]]], [[[-116.8499, 34.0393], [-116.8503, 34.0379], [-116.8497, 34.0382], [-116.849, 34.0371], [-116.8484, 34.0373], [-116.8484, 34.0368], [-116.8474, 34.037], [-116.8471, 34.0362], [-116.8462, 34.0362], [-116.8464, 34.0378], [-116.8461, 34.0386], [-116.847, 34.0384], [-116.8471, 34.0373], [-116.8481, 34.0373], [-116.8499, 34.0393]]], [[[-116.8815, 34.0374], [-116.8828, 34.0372], [-116.8815, 34.0372], [-116.8815, 34.0374]]], [[[-116.8475, 34.0362], [-116.8487, 34.0365], [-116.8488, 34.036], [-116.8475, 34.0362]]], [[[-116.8471, 34.0359], [-116.8475, 34.0357], [-116.8472, 34.0357], [-116.8471, 34.0359]]], [[[-116.8562, 34.0359], [-116.8566, 34.0357], [-116.8563, 34.0356], [-116.8562, 34.0359]]], [[[-116.851, 34.0358], [-116.8514, 34.0355], [-116.8511, 34.0355], [-116.851, 34.0358]]], [[[-116.8485, 34.0357], [-116.8488, 34.0354], [-116.8485, 34.0354], [-116.8485, 34.0357]]], [[[-116.8774, 34.0362], [-116.8777, 34.036], [-116.8774, 34.036], [-116.8774, 34.0362]]], [[[-116.8572, 34.0357], [-116.8576, 34.0354], [-116.8572, 34.0354], [-116.8572, 34.0357]]], [[[-116.853, 34.0353], [-116.8534, 34.035], [-116.853, 34.035], [-116.853, 34.0353]]], [[[-116.8878, 34.0357], [-116.8884, 34.0355], [-116.8878, 34.0354], [-116.8878, 34.0357]]], [[[-116.8544, 34.0342], [-116.8547, 34.034], [-116.8544, 34.034], [-116.8544, 34.0342]]], [[[-116.8571, 34.0303], [-116.8578, 34.03], [-116.8571, 34.03], [-116.8571, 34.0303]]]]}, "properties": {"layer": "high_severity"}}, {"type": "Feature", "geometry": {"type": "MultiPolygon", "coordinates": [[[[-116.8639, 34.0629], [-116.8643, 34.0624], [-116.8633, 34.0621], [-116.8633, 34.0626], [-116.8639, 34.0629]]], [[[-116.8698, 34.0628], [-116.8702, 34.062], [-116.8695, 34.0625], [-116.8685, 34.0622], [-116.8685, 34.0628], [-116.8698, 34.0628]]], [[[-116.8692, 34.0617], [-116.8695, 34.062], [-116.8698, 34.0617], [-116.8692, 34.0617]]], [[[-116.8315, 34.0609], [-116.8318, 34.0607], [-116.8315, 34.0607], [-116.8315, 34.0609]]], [[[-116.8338, 34.0607], [-116.8341, 34.0605], [-116.8338, 34.0605], [-116.8338, 34.0607]]], [[[-116.8663, 34.0614], [-116.8669, 34.0611], [-116.8663, 34.0611], [-116.8663, 34.0614]]], [[[-116.8627, 34.0613], [-116.863, 34.061], [-116.8627, 34.061], [-116.8627, 34.0613]]], [[[-116.8335, 34.0605], [-116.8338, 34.0602], [-116.8335, 34.0602], [-116.8335, 34.0605]]], [[[-116.8669, 34.0611], [-116.8673, 34.0608], [-116.867, 34.0608], [-116.8669, 34.0611]]], [[[-116.8302, 34.0601], [-116.8306, 34.0598], [-116.8303, 34.0598], [-116.8302, 34.0601]]], [[[-116.838, 34.0625], [-116.8386, 34.0622], [-116.8383, 34.0609], [-116.839, 34.0598], [-116.8374, 34.06], [-116.837, 34.0611], [-116.8364, 34.0611], [-116.838, 34.0625]]], [[[-116.8608, 34.0607], [-116.8611, 34.0604], [-116.8608, 34.0604], [-116.8608, 34.0607]]], [[[-116.8371, 34.06], [-116.8374, 34.0598], [-116.8371, 34.0597], [-116.8371, 34.06]]], [[[-116.8627, 34.061], [-116.8624, 34.0604], [-116.8611, 34.0601], [-116.8614, 34.0607], [-116.8627, 34.061]]], [[[-116.8325, 34.0607], [-116.8329, 34.0599], [-116.8316, 34.0593], [-116.8309, 34.0604], [-116.8322, 34.0601], [-116.8325, 34.0607]]], [[[-116.8286, 34.0603], [-116.8299, 34.0598], [-116.8296, 34.059], [-116.8306, 34.0585], [-116.8297, 34.0574], [-116.8291, 34.0574], [-116.829, 34.0592], [-116.8267, 34.0597], [-116.8286, 34.0603]]], [[[-116.8265, 34.0573], [-116.8271, 34.057], [-116.8265, 34.057], [-116.8265, 34.0573]]], [[[-116.8756, 34.0549], [-116.876, 34.0546], [-116.8757, 34.0546], [-116.8756, 34.0549]]], [[[-116.8728, 34.054], [-116.8731, 34.0537], [-116.8728, 34.0537], [-116.8728, 34.054]]], [[[-116.8254, 34.0521], [-116.8257, 34.0518], [-116.8254, 34.0518], [-116.8254, 34.0521]]], [[[-116.8406, 34.0523], [-116.841, 34.0517], [-116.8403, 34.0514], [-116.84, 34.052], [-116.8406, 34.0523]]], [[[-116.841, 34.0517], [-116.8413, 34.0512], [-116.841, 34.0512], [-116.841, 34.0517]]], [[[-116.877, 34.0525], [-116.8774, 34.0522], [-116.8771, 34.0522], [-116.877, 34.0525]]], [[[-116.8416, 34.0515], [-116.842, 34.0512], [-116.8417, 34.0512], [-116.8416, 34.0515]]], [[[-116.8423, 34.0512], [-116.8426, 34.051], [-116.8423, 34.051], [-116.8423, 34.0512]]], [[[-116.8251, 34.0507], [-116.8254, 34.0505], [-116.8251, 34.0505], [-116.8251, 34.0507]]], [[[-116.8388, 34.0498], [-116.8394, 34.0501], [-116.8401, 34.0498], [-116.8388, 34.0498]]], [[[-116.82, 34.0484], [-116.8203, 34.0482], [-116.82, 34.0482], [-116.82, 34.0484]]], [[[-116.8232, 34.0485], [-116.8233, 34.0477], [-116.8213, 34.0477], [-116.8213, 34.0482], [-116.8232, 34.0485]]], [[[-116.8226, 34.0474], [-116.8223, 34.0466], [-116.8213, 34.0469], [-116.8213, 34.0471], [-116.8226, 34.0474]]], [[[-116.821, 34.0468], [-116.8214, 34.0466], [-116.821, 34.0466], [-116.821, 34.0468]]], [[[-116.8789, 34.0471], [-116.8792, 34.0468], [-116.8789, 34.0468], [-116.8789, 34.0471]]], [[[-116.8796, 34.0458], [-116.8799, 34.0455], [-116.8796, 34.0455], [-116.8796, 34.0458]]], [[[-116.8461, 34.0367], [-116.8468, 34.0362], [-116.8462, 34.0362], [-116.8461, 34.0367]]]]}, "properties": {"layer": "interior"}}, {"type": "Feature", "geometry": {"type": "Polygon", "coordinates": [[[-116.8796, 34.0458], [-116.8799, 34.0455], [-116.8796, 34.0455], [-116.8796, 34.0458]]]}, "properties": {"layer": "cell", "cell_id": "994_6000", "seed_zone": "994", "elevation_band": "6000–6500 ft"}}, {"type": "Feature", "geometry": {"type": "MultiPolygon", "coordinates": [[[[-116.877, 34.0525], [-116.8774, 34.0522], [-116.8771, 34.0522], [-116.877, 34.0525]]], [[[-116.82, 34.0484], [-116.8203, 34.0482], [-116.82, 34.0482], [-116.82, 34.0484]]], [[[-116.8789, 34.0471], [-116.8792, 34.0468], [-116.8789, 34.0468], [-116.8789, 34.0471]]], [[[-116.8461, 34.0367], [-116.8468, 34.0362], [-116.8462, 34.0362], [-116.8461, 34.0367]]]]}, "properties": {"layer": "cell", "cell_id": "994_6500", "seed_zone": "994", "elevation_band": "6500–7000 ft"}}, {"type": "Feature", "geometry": {"type": "MultiPolygon", "coordinates": [[[[-116.8756, 34.0549], [-116.876, 34.0546], [-116.8757, 34.0546], [-116.8756, 34.0549]]], [[[-116.8254, 34.0521], [-116.8257, 34.0518], [-116.8254, 34.0518], [-116.8254, 34.0521]]], [[[-116.8406, 34.0523], [-116.841, 34.0517], [-116.8403, 34.0514], [-116.84, 34.052], [-116.8406, 34.0523]]], [[[-116.841, 34.0517], [-116.8413, 34.0512], [-116.841, 34.0512], [-116.841, 34.0517]]], [[[-116.8416, 34.0515], [-116.842, 34.0512], [-116.8417, 34.0512], [-116.8416, 34.0515]]], [[[-116.8423, 34.0512], [-116.8426, 34.051], [-116.8423, 34.051], [-116.8423, 34.0512]]], [[[-116.8251, 34.0507], [-116.8254, 34.0505], [-116.8251, 34.0505], [-116.8251, 34.0507]]], [[[-116.8388, 34.0498], [-116.8394, 34.0501], [-116.8401, 34.0498], [-116.8388, 34.0498]]], [[[-116.8232, 34.0485], [-116.8233, 34.0477], [-116.8213, 34.0477], [-116.8213, 34.0482], [-116.8232, 34.0485]]], [[[-116.8226, 34.0474], [-116.8223, 34.0466], [-116.8213, 34.0469], [-116.8213, 34.0471], [-116.8226, 34.0474]]], [[[-116.821, 34.0468], [-116.8214, 34.0466], [-116.821, 34.0466], [-116.821, 34.0468]]]]}, "properties": {"layer": "cell", "cell_id": "994_7000", "seed_zone": "994", "elevation_band": "7000–7500 ft"}}, {"type": "Feature", "geometry": {"type": "MultiPolygon", "coordinates": [[[[-116.8695, 34.0628], [-116.8692, 34.0623], [-116.8685, 34.0622], [-116.8685, 34.0628], [-116.8695, 34.0628]]], [[[-116.8633, 34.0626], [-116.8637, 34.0621], [-116.8633, 34.0621], [-116.8633, 34.0626]]], [[[-116.8692, 34.0623], [-116.8695, 34.0617], [-116.8692, 34.0617], [-116.8692, 34.0623]]], [[[-116.8663, 34.0614], [-116.8669, 34.0611], [-116.8663, 34.0611], [-116.8663, 34.0614]]], [[[-116.8627, 34.0613], [-116.863, 34.061], [-116.8627, 34.061], [-116.8627, 34.0613]]], [[[-116.8669, 34.0611], [-116.8673, 34.0608], [-116.867, 34.0608], [-116.8669, 34.0611]]], [[[-116.8608, 34.0607], [-116.8611, 34.0604], [-116.8608, 34.0604], [-116.8608, 34.0607]]], [[[-116.8627, 34.061], [-116.8624, 34.0604], [-116.8611, 34.0601], [-116.8614, 34.0607], [-116.8627, 34.061]]], [[[-116.8286, 34.0603], [-116.829, 34.0592], [-116.8267, 34.0597], [-116.8267, 34.06], [-116.8286, 34.0603]]], [[[-116.8728, 34.054], [-116.8731, 34.0537], [-116.8728, 34.0537], [-116.8728, 34.054]]]]}, "properties": {"layer": "cell", "cell_id": "994_7500", "seed_zone": "994", "elevation_band": "7500–8000 ft"}}, {"type": "Feature", "geometry": {"type": "MultiPolygon", "coordinates": [[[[-116.8636, 34.0629], [-116.8643, 34.0624], [-116.8637, 34.0621], [-116.8636, 34.0629]]], [[[-116.8695, 34.0623], [-116.8701, 34.0625], [-116.8702, 34.062], [-116.8695, 34.0623]]], [[[-116.8695, 34.062], [-116.8698, 34.0617], [-116.8695, 34.0617], [-116.8695, 34.062]]], [[[-116.8315, 34.0609], [-116.8318, 34.0607], [-116.8315, 34.0607], [-116.8315, 34.0609]]], [[[-116.8302, 34.0601], [-116.8306, 34.0598], [-116.8303, 34.0598], [-116.8302, 34.0601]]], [[[-116.8289, 34.0601], [-116.8293, 34.0598], [-116.829, 34.0598], [-116.8289, 34.0601]]], [[[-116.8376, 34.0619], [-116.8377, 34.0614], [-116.839, 34.0598], [-116.8374, 34.06], [-116.8367, 34.0616], [-116.8376, 34.0619]]], [[[-116.8371, 34.06], [-116.8374, 34.0598], [-116.8371, 34.0597], [-116.8371, 34.06]]], [[[-116.8325, 34.0607], [-116.8329, 34.0599], [-116.8316, 34.0593], [-116.8309, 34.0604], [-116.8322, 34.0601], [-116.8325, 34.0607]]], [[[-116.8299, 34.0598], [-116.8296, 34.059], [-116.8306, 34.0582], [-116.8291, 34.0574], [-116.829, 34.0595], [-116.8299, 34.0598]]], [[[-116.8265, 34.0573], [-116.8271, 34.057], [-116.8265, 34.057], [-116.8265, 34.0573]]]]}, "properties": {"layer": "cell", "cell_id": "994_8000", "seed_zone": "994", "elevation_band": "8000–8500 ft"}}, {"type": "Feature", "geometry": {"type": "MultiPolygon", "coordinates": [[[[-116.838, 34.0625], [-116.8386, 34.0622], [-116.8387, 34.0611], [-116.8377, 34.0614], [-116.838, 34.0625]]], [[[-116.8364, 34.0613], [-116.8367, 34.0611], [-116.8364, 34.0611], [-116.8364, 34.0613]]], [[[-116.8383, 34.0609], [-116.8387, 34.0606], [-116.8384, 34.0606], [-116.8383, 34.0609]]], [[[-116.8338, 34.0607], [-116.8341, 34.0605], [-116.8338, 34.0605], [-116.8338, 34.0607]]], [[[-116.8335, 34.0605], [-116.8338, 34.0602], [-116.8335, 34.0602], [-116.8335, 34.0605]]]]}, "properties": {"layer": "cell", "cell_id": "994_8500", "seed_zone": "994", "elevation_band": "8500–9000 ft"}}]}
