{"type": "FeatureCollection", "features": [{"type": "Feature", "geometry": {"type": "MultiPolygon", "coordinates": [[[[-118.0773, 34.2361], [-118.0749, 34.2366], [-118.0754, 34.2361], [-118.0773, 34.2361]]], [[[-118.0636, 34.2362], [-118.0621, 34.2369], [-118.0615, 34.2368], [-118.0628, 34.2357], [-118.0639, 34.2358], [-118.0641, 34.237], [-118.0636, 34.2362]]], [[[-118.1038, 34.2582], [-118.1045, 34.258], [-118.1038, 34.2586], [-118.1038, 34.2582]]], [[[-117.959, 34.343], [-117.9559, 34.3417], [-117.9545, 34.3429], [-117.9528, 34.3433], [-117.9515, 34.3427], [-117.9496, 34.3439], [-117.9457, 34.3423], [-117.944, 34.3433], [-117.9413, 34.343], [-117.941, 34.3444], [-117.9398, 34.345], [-117.9401, 34.3456], [-117.9367, 34.3454], [-117.9381, 34.3476], [-117.9411, 34.3485], [-117.9436, 34.3473], [-117.946, 34.3477], [-117.9488, 34.3468], [-117.9507, 34.3454], [-117.9547, 34.3452], [-117.9582, 34.3493], [-117.957, 34.3509], [-117.9592, 34.3538], [-117.9599, 34.3558], [-117.959, 34.3561], [-117.9599, 34.3569], [-117.9577, 34.3583], [-117.9585, 34.3591], [-117.9581, 34.36], [-117.9557, 34.3609], [-117.9569, 34.3614], [-117.9567, 34.3625], [-117.9538, 34.3622], [-117.9543, 34.3643], [-117.9512, 34.3658], [-117.9505, 34.3682], [-117.947, 34.3702], [-117.9452, 34.3725], [-117.9456, 34.3734], [-117.95, 34.3754], [-117.9489, 34.3776], [-117.9548, 34.3784], [-117.9552, 34.3794], [-117.9598, 34.3818], [-117.9603, 34.3829], [-117.9621, 34.3839], [-117.9634, 34.3873], [-117.9655, 34.3883], [-117.9663, 34.3895], [-117.9711, 34.3887], [-117.9741, 34.3911], [-117.976, 34.3885], [-117.976, 34.3893], [-117.9776, 34.3878], [-117.9782, 34.3846], [-117.9762, 34.3839], [-117.9781, 34.3828], [-117.9778, 34.3823], [-117.981, 34.3825], [-117.981, 34.3815], [-117.9846, 34.38], [-117.9857, 34.3809], [-117.9865, 34.3807], [-117.9868, 34.3818], [-117.9892, 34.3811], [-117.99, 34.382], [-117.9916, 34.382], [-117.9909, 34.3832], [-117.9968, 34.3871], [-117.9977, 34.389], [-117.9981, 34.3933], [-117.9964, 34.3934], [-117.997, 34.3944], [-117.9966, 34.3965], [-117.9985, 34.4002], [-117.9983, 34.4026], [-118.0024, 34.407], [-118.0036, 34.4062], [-118.004, 34.4071], [-118.0057, 34.4073], [-118.009, 34.4119], [-118.0105, 34.4125], [-118.0115, 34.4116], [-118.0131, 34.4118], [-118.0135, 34.4143], [-118.0129, 34.4171], [-118.0143, 34.4177], [-118.0149, 34.4193], [-118.0175, 34.4187], [-118.0205, 34.4167], [-118.0217, 34.4147], [-118.0272, 34.4122], [-118.0284, 34.4129], [-118.0299, 34.417], [-118.0306, 34.4172], [-118.0277, 34.4188], [-118.0267, 34.4207], [-118.0294, 34.4216], [-118.0309, 34.4236], [-118.0364, 34.4229], [-118.0377, 34.4245], [-118.039, 34.4233], [-118.0409, 34.4231], [-118.0427, 34.4242], [-118.0427, 34.4271], [-118.0442, 34.4298], [-118.0439, 34.4316], [-118.0453, 34.4342], [-118.0401, 34.4351], [-118.04, 34.4369], [-118.0413, 34.4375], [-118.0402, 34.4387], [-118.0406, 34.4394], [-118.0353, 34.4405], [-118.0343, 34.4411], [-118.0341, 34.4421], [-118.0347, 34.4427], [-118.0369, 34.442], [-118.0377, 34.4433], [-118.0374, 34.4447], [-118.0361, 34.444], [-118.0349, 34.445], [-118.0357, 34.446], [-118.0353, 34.4483], [-118.036, 34.449], [-118.0353, 34.45], [-118.0354, 34.4519], [-118.0371, 34.4529], [-118.0343, 34.4568], [-118.0347, 34.4591], [-118.0354, 34.4599], [-118.0373, 34.4604], [-118.0378, 34.4614], [-118.0394, 34.4616], [-118.0414, 34.4635], [-118.0422, 34.4653], [-118.0447, 34.4667], [-118.0437, 34.4693], [-118.0398, 34.4703], [-118.0416, 34.4711], [-118.0414, 34.472], [-118.0406, 34.4722], [-118.0404, 34.4743], [-118.0342, 34.4748], [-118.0338, 34.4736], [-118.0354, 34.4724], [-118.0345, 34.4709], [-118.0359, 34.4703], [-118.0327, 34.4696], [-118.0292, 34.4707], [-118.0285, 34.4698], [-118.029, 34.4686], [-118.0284, 34.4659], [-118.027, 34.4651], [-118.0255, 34.4653], [-118.0251, 34.4667], [-118.0263, 34.4673], [-118.024, 34.4676], [-118.0236, 34.4669], [-118.021, 34.4681], [-118.0211, 34.4655], [-118.019, 34.4612], [-118.0202, 34.4598], [-118.0207, 34.4573], [-118.0194, 34.4559], [-118.0162, 34.4555], [-118.0186, 34.4595], [-118.0053, 34.4584], [-118.0047, 34.4587], [-118.0052, 34.4596], [-118.0036, 34.4599], [-118.0026, 34.461], [-118.0009, 34.4601], [-118.0, 34.4607], [-118.0, 34.4594], [-118.0018, 34.4586], [-117.9991, 34.4573], [-117.9991, 34.4583], [-117.9983, 34.4584], [-117.9982, 34.4606], [-117.996, 34.4615], [-117.9973, 34.4622], [-117.999, 34.462], [-117.999, 34.4637], [-117.998, 34.4642], [-117.9983, 34.4652], [-117.9972, 34.4665], [-117.9955, 34.4674], [-117.9956, 34.4683], [-117.9984, 34.4682], [-117.9991, 34.4694], [-117.9968, 34.4708], [-117.9958, 34.4704], [-117.996, 34.4714], [-117.995, 34.4719], [-117.9948, 34.4729], [-117.9929, 34.4744], [-117.9916, 34.4778], [-117.9927, 34.4781], [-117.9928, 34.4791], [-117.9907, 34.4802], [-117.9894, 34.4788], [-117.9886, 34.479], [-117.9853, 34.4772], [-117.9851, 34.4783], [-117.9841, 34.4783], [-117.9839, 34.48], [-117.9827, 34.4801], [-117.9822, 34.4819], [-117.9803, 34.4839], [-117.9804, 34.4829], [-117.9791, 34.4828], [-117.9802, 34.4821], [-117.9796, 34.4817], [-117.9805, 34.4814], [-117.98, 34.4804], [-117.9767, 34.4818], [-117.9769, 34.4787], [-117.9759, 34.4784], [-117.9742, 34.4792], [-117.9739, 34.4807], [-117.9728, 34.4811], [-117.9707, 34.4793], [-117.9716, 34.4774], [-117.9713, 34.4761], [-117.9698, 34.4755], [-117.9698, 34.4744], [-117.9665, 34.4756], [-117.9675, 34.4741], [-117.9668, 34.4733], [-117.9672, 34.4707], [-117.9667, 34.4712], [-117.9655, 34.4703], [-117.9641, 34.4705], [-117.9613, 34.4759], [-117.959, 34.4776], [-117.9579, 34.4774], [-117.9594, 34.4756], [-117.9587, 34.475], [-117.9599, 34.4742], [-117.9594, 34.4734], [-117.9616, 34.4726], [-117.9618, 34.4711], [-117.9635, 34.4702], [-117.9643, 34.4666], [-117.9637, 34.4655], [-117.9647, 34.4641], [-117.9642, 34.4611], [-117.9623, 34.4616], [-117.9618, 34.4641], [-117.9628, 34.4657], [-117.9619, 34.4662], [-117.9611, 34.4679], [-117.9601, 34.4674], [-117.9598, 34.4649], [-117.9607, 34.4619], [-117.96, 34.4608], [-117.9605, 34.4592], [-117.9594, 34.4589], [-117.9607, 34.4556], [-117.9617, 34.4554], [-117.9613, 34.4543], [-117.959, 34.4553], [-117.9523, 34.4616], [-117.9517, 34.4644], [-117.951, 34.4645], [-117.9506, 34.466], [-117.9478, 34.4691], [-117.9429, 34.4722], [-117.9422, 34.4724], [-117.9419, 34.471], [-117.941, 34.4711], [-117.941, 34.4702], [-117.94, 34.47], [-117.9392, 34.47], [-117.9377, 34.4722], [-117.9361, 34.4721], [-117.9355, 34.4685], [-117.9367, 34.4684], [-117.9372, 34.4671], [-117.9355, 34.4681], [-117.9329, 34.4678], [-117.9314, 34.4694], [-117.9293, 34.4699], [-117.9289, 34.4676], [-117.9296, 34.4677], [-117.9318, 34.4637], [-117.9332, 34.4625], [-117.9334, 34.4638], [-117.9345, 34.463], [-117.9338, 34.459], [-117.9318, 34.4592], [-117.9315, 34.4586], [-117.9324, 34.4575], [-117.9347, 34.4571], [-117.9336, 34.4569], [-117.933, 34.4554], [-117.9337, 34.4544], [-117.9353, 34.4542], [-117.9361, 34.4521], [-117.9371, 34.4518], [-117.9358, 34.4506], [-117.9381, 34.449], [-117.938, 34.4481], [-117.9371, 34.4481], [-117.9369, 34.4464], [-117.9389, 34.446], [-117.9404, 34.4448], [-117.9381, 34.4434], [-117.9378, 34.4425], [-117.9358, 34.4427], [-117.9356, 34.4392], [-117.9348, 34.4393], [-117.9347, 34.4399], [-117.9339, 34.4396], [-117.9371, 34.4377], [-117.936, 34.4364], [-117.9372, 34.4358], [-117.9377, 34.4344], [-117.9369, 34.4335], [-117.9328, 34.4344], [-117.9315, 34.4355], [-117.931, 34.4371], [-117.9299, 34.4364], [-117.9288, 34.4375], [-117.9268, 34.4356], [-117.9242, 34.4358], [-117.9234, 34.4346], [-117.9226, 34.4356], [-117.9203, 34.4351], [-117.9192, 34.4358], [-117.9203, 34.4379], [-117.9196, 34.4386], [-117.9207, 34.4401], [-117.9203, 34.4403], [-117.9198, 34.4393], [-117.9186, 34.4395], [-117.9164, 34.4423], [-117.9168, 34.4426], [-117.9183, 34.4423], [-117.919, 34.441], [-117.9241, 34.4403], [-117.9234, 34.4391], [-117.9251, 34.4385], [-117.926, 34.4389], [-117.926, 34.4444], [-117.9287, 34.4435], [-117.9288, 34.4427], [-117.9315, 34.4428], [-117.931, 34.4442], [-117.9303, 34.444], [-117.9307, 34.4453], [-117.9296, 34.4463], [-117.9292, 34.4487], [-117.9275, 34.4496], [-117.9267, 34.4551], [-117.9229, 34.4576], [-117.9235, 34.4587], [-117.9229, 34.4623], [-117.9201, 34.4662], [-117.9182, 34.4678], [-117.9186, 34.4671], [-117.918, 34.4669], [-117.9155, 34.4693], [-117.9145, 34.4691], [-117.9137, 34.4699], [-117.9125, 34.47], [-117.9114, 34.469], [-117.9108, 34.4694], [-117.9106, 34.4687], [-117.9074, 34.4697], [-117.9072, 34.4689], [-117.909, 34.4676], [-117.908, 34.4671], [-117.9041, 34.4707], [-117.8984, 34.4733], [-117.8978, 34.4728], [-117.8958, 34.4731], [-117.8947, 34.4749], [-117.8946, 34.4735], [-117.8929, 34.4738], [-117.8924, 34.4732], [-117.8957, 34.4718], [-117.8959, 34.4705], [-117.895, 34.4701], [-117.8965, 34.4689], [-117.8962, 34.4685], [-117.8983, 34.4668], [-117.8999, 34.4664], [-117.9, 34.4655], [-117.8994, 34.4655], [-117.9001, 34.4642], [-117.9018, 34.4632], [-117.8998, 34.4625], [-117.9013, 34.4616], [-117.9027, 34.4621], [-117.9035, 34.4613], [-117.9064, 34.4608], [-117.9086, 34.4594], [-117.9109, 34.4564], [-117.9098, 34.4565], [-117.9112, 34.4549], [-117.9094, 34.4543], [-117.9101, 34.4534], [-117.9069, 34.455], [-117.9087, 34.4538], [-117.9086, 34.4532], [-117.905, 34.4538], [-117.9046, 34.4533], [-117.9051, 34.4523], [-117.9069, 34.4516], [-117.9123, 34.4507], [-117.9118, 34.4498], [-117.913, 34.4493], [-117.9117, 34.4468], [-117.9085, 34.4479], [-117.9074, 34.4472], [-117.9088, 34.4453], [-117.9113, 34.446], [-117.9129, 34.4448], [-117.9119, 34.444], [-117.9121, 34.4434], [-117.9134, 34.4425], [-117.9141, 34.441], [-117.9134, 34.4399], [-117.9154, 34.437], [-117.9127, 34.4336], [-117.9103, 34.4342], [-117.9093, 34.4358], [-117.907, 34.4331], [-117.9065, 34.4338], [-117.9009, 34.4334], [-117.8999, 34.4378], [-117.8988, 34.4375], [-117.8987, 34.439], [-117.8959, 34.4395], [-117.8954, 34.4403], [-117.896, 34.4412], [-117.8936, 34.4448], [-117.8928, 34.4455], [-117.8907, 34.4453], [-117.8899, 34.4459], [-117.8878, 34.4482], [-117.8882, 34.4491], [-117.8848, 34.4503], [-117.8837, 34.4524], [-117.8801, 34.4532], [-117.8774, 34.4524], [-117.8753, 34.4529], [-117.8718, 34.4514], [-117.8696, 34.454], [-117.8683, 34.4541], [-117.8665, 34.4561], [-117.8646, 34.4595], [-117.8651, 34.4609], [-117.8644, 34.462], [-117.8614, 34.4634], [-117.8591, 34.4625], [-117.8567, 34.4628], [-117.8548, 34.4616], [-117.8536, 34.4621], [-117.8516, 34.4617], [-117.8517, 34.4607], [-117.8533, 34.4604], [-117.8532, 34.4589], [-117.8494, 34.4607], [-117.8464, 34.4596], [-117.849, 34.4558], [-117.8483, 34.4546], [-117.8448, 34.454], [-117.8436, 34.4514], [-117.8495, 34.4494], [-117.8487, 34.4478], [-117.8493, 34.4466], [-117.8481, 34.446], [-117.8477, 34.4469], [-117.8446, 34.4471], [-117.8401, 34.4409], [-117.8384, 34.4398], [-117.8373, 34.4373], [-117.8358, 34.4363], [-117.8351, 34.4337], [-117.8356, 34.4326], [-117.8381, 34.4334], [-117.8384, 34.4307], [-117.8424, 34.4305], [-117.8424, 34.4298], [-117.8442, 34.4292], [-117.8435, 34.4286], [-117.8438, 34.4279], [-117.8405, 34.4288], [-117.8392, 34.4229], [-117.8385, 34.4251], [-117.8368, 34.4241], [-117.8366, 34.4247], [-117.8355, 34.4248], [-117.8357, 34.4257], [-117.8342, 34.4243], [-117.8327, 34.4251], [-117.8333, 34.4271], [-117.8318, 34.4286], [-117.8316, 34.4309], [-117.8303, 34.432], [-117.828, 34.4326], [-117.8292, 34.4337], [-117.8271, 34.4345], [-117.8267, 34.4354], [-117.8227, 34.4363], [-117.8233, 34.4388], [-117.8176, 34.443], [-117.8155, 34.4473], [-117.812, 34.4513], [-117.8104, 34.452], [-117.8105, 34.4533], [-117.8079, 34.4546], [-117.8071, 34.4561], [-117.8063, 34.4562], [-117.8051, 34.4583], [-117.8038, 34.4586], [-117.8036, 34.4594], [-117.8009, 34.4611], [-117.7985, 34.4617], [-117.7955, 34.4634], [-117.7929, 34.4633], [-117.7873, 34.4611], [-117.7855, 34.4591], [-117.7883, 34.4601], [-117.7876, 34.4585], [-117.7884, 34.4573], [-117.7894, 34.4571], [-117.7896, 34.4563], [-117.7853, 34.4554], [-117.7849, 34.4546], [-117.7854, 34.4537], [-117.7899, 34.4539], [-117.7907, 34.4519], [-117.79, 34.4507], [-117.7924, 34.45], [-117.7927, 34.4482], [-117.797, 34.4466], [-117.7956, 34.4454], [-117.797, 34.4452], [-117.7958, 34.444], [-117.7913, 34.4438], [-117.7909, 34.4427], [-117.7884, 34.4427], [-117.7883, 34.4416], [-117.787, 34.4419], [-117.7865, 34.443], [-117.7858, 34.4426], [-117.7771, 34.4448], [-117.7754, 34.4443], [-117.7724, 34.4456], [-117.7684, 34.4448], [-117.7668, 34.4438], [-117.769, 34.4391], [-117.7699, 34.4345], [-117.7713, 34.4333], [-117.7703, 34.433], [-117.769, 34.4312], [-117.7676, 34.4314], [-117.7698, 34.4306], [-117.7692, 34.429], [-117.7686, 34.4295], [-117.7665, 34.4286], [-117.769, 34.4275], [-117.7672, 34.4266], [-117.7673, 34.4239], [-117.7682, 34.4244], [-117.771, 34.4231], [-117.7731, 34.4193], [-117.7776, 34.4164], [-117.7829, 34.4165], [-117.7841, 34.4152], [-117.7827, 34.4142], [-117.7823, 34.4153], [-117.7822, 34.4147], [-117.7787, 34.4133], [-117.7767, 34.4141], [-117.7751, 34.4133], [-117.7746, 34.4142], [-117.7759, 34.4162], [-117.7733, 34.4155], [-117.7737, 34.4123], [-117.7676, 34.4099], [-117.7682, 34.409], [-117.7672, 34.4059], [-117.7687, 34.4043], [-117.7687, 34.4013], [-117.7705, 34.4027], [-117.7698, 34.4046], [-117.7701, 34.4065], [-117.7719, 34.4056], [-117.773, 34.4031], [-117.7748, 34.4015], [-117.775, 34.4], [-117.7788, 34.4007], [-117.7799, 34.4022], [-117.7844, 34.4029], [-117.7942, 34.4063], [-117.7975, 34.4056], [-117.8019, 34.4076], [-117.8033, 34.4096], [-117.8051, 34.4102], [-117.8071, 34.4093], [-117.8084, 34.4075], [-117.815, 34.405], [-117.8178, 34.4062], [-117.8194, 34.4054], [-117.8178, 34.4047], [-117.8174, 34.4036], [-117.8183, 34.4037], [-117.8186, 34.4026], [-117.8172, 34.4015], [-117.8195, 34.4003], [-117.819, 34.3991], [-117.8207, 34.3974], [-117.8228, 34.3967], [-117.8219, 34.3941], [-117.8191, 34.3914], [-117.8206, 34.3898], [-117.8258, 34.3881], [-117.825, 34.3874], [-117.8252, 34.386], [-117.8236, 34.3853], [-117.8225, 34.3831], [-117.821, 34.3828], [-117.822, 34.3849], [-117.8193, 34.3841], [-117.8191, 34.3878], [-117.8164, 34.3859], [-117.8176, 34.3836], [-117.8153, 34.3841], [-117.8145, 34.3823], [-117.8133, 34.3817], [-117.8118, 34.383], [-117.8124, 34.3842], [-117.8114, 34.3856], [-117.811, 34.3887], [-117.8092, 34.3889], [-117.8067, 34.3873], [-117.8059, 34.3878], [-117.8065, 34.387], [-117.8062, 34.3848], [-117.8037, 34.3862], [-117.8034, 34.3858], [-117.8041, 34.3796], [-117.8022, 34.3799], [-117.8018, 34.3815], [-117.8012, 34.38], [-117.7997, 34.3798], [-117.8006, 34.3811], [-117.7994, 34.3811], [-117.7996, 34.3824], [-117.8007, 34.383], [-117.7985, 34.3839], [-117.7987, 34.3849], [-117.7965, 34.3845], [-117.7964, 34.3837], [-117.7953, 34.3834], [-117.7952, 34.3828], [-117.7947, 34.384], [-117.7922, 34.3843], [-117.7938, 34.3835], [-117.7939, 34.3827], [-117.7922, 34.383], [-117.7942, 34.3823], [-117.7931, 34.382], [-117.7945, 34.3817], [-117.7948, 34.3801], [-117.7933, 34.3791], [-117.7922, 34.3795], [-117.7927, 34.3784], [-117.7916, 34.3778], [-117.7914, 34.3766], [-117.7922, 34.3755], [-117.7904, 34.3753], [-117.7918, 34.3729], [-117.7932, 34.3725], [-117.7966, 34.3723], [-117.7978, 34.3734], [-117.798, 34.3717], [-117.8035, 34.3685], [-117.8044, 34.3677], [-117.804, 34.3671], [-117.8049, 34.3672], [-117.8081, 34.3647], [-117.8078, 34.3638], [-117.8095, 34.3638], [-117.8102, 34.3619], [-117.8112, 34.3618], [-117.8115, 34.3628], [-117.8113, 34.3613], [-117.8119, 34.3613], [-117.8123, 34.3591], [-117.8109, 34.357], [-117.8128, 34.3557], [-117.8112, 34.3535], [-117.8091, 34.3531], [-117.8092, 34.3509], [-117.8115, 34.3501], [-117.8194, 34.3502], [-117.8207, 34.3452], [-117.8223, 34.3458], [-117.823, 34.3451], [-117.8252, 34.3458], [-117.8268, 34.3454], [-117.8283, 34.3465], [-117.829, 34.3456], [-117.8307, 34.3451], [-117.8313, 34.3457], [-117.8304, 34.3469], [-117.8319, 34.3463], [-117.833, 34.3473], [-117.8343, 34.346], [-117.8387, 34.344], [-117.8387, 34.3452], [-117.8423, 34.3468], [-117.8432, 34.3461], [-117.8453, 34.3475], [-117.8474, 34.3473], [-117.8479, 34.3467], [-117.85, 34.3471], [-117.8519, 34.3456], [-117.8546, 34.3451], [-117.8535, 34.3436], [-117.8539, 34.3428], [-117.8564, 34.3428], [-117.8585, 34.342], [-117.8579, 34.3399], [-117.8539, 34.339], [-117.855, 34.3387], [-117.8553, 34.3378], [-117.8537, 34.3376], [-117.855, 34.335], [-117.8543, 34.3328], [-117.856, 34.3326], [-117.8551, 34.3321], [-117.8552, 34.3306], [-117.8537, 34.3304], [-117.8583, 34.3285], [-117.8588, 34.3279], [-117.8583, 34.3259], [-117.859, 34.3261], [-117.8606, 34.3241], [-117.8587, 34.3255], [-117.8576, 34.3256], [-117.8589, 34.3222], [-117.8561, 34.3225], [-117.8549, 34.322], [-117.854, 34.3232], [-117.8529, 34.3233], [-117.8534, 34.3258], [-117.8518, 34.3272], [-117.853, 34.3273], [-117.8535, 34.328], [-117.8518, 34.3275], [-117.8507, 34.3286], [-117.8499, 34.3282], [-117.8505, 34.3291], [-117.8496, 34.33], [-117.8455, 34.3262], [-117.845, 34.3234], [-117.8469, 34.3204], [-117.8482, 34.3206], [-117.8475, 34.3201], [-117.8481, 34.3187], [-117.8495, 34.3183], [-117.85, 34.3192], [-117.8513, 34.3192], [-117.8508, 34.3184], [-117.8518, 34.3184], [-117.852, 34.317], [-117.8543, 34.3154], [-117.8552, 34.3136], [-117.8577, 34.314], [-117.862, 34.3117], [-117.8618, 34.3108], [-117.8609, 34.3115], [-117.8602, 34.3109], [-117.8597, 34.3112], [-117.8604, 34.312], [-117.8578, 34.3113], [-117.8574, 34.3119], [-117.8554, 34.3091], [-117.8582, 34.3025], [-117.858, 34.3004], [-117.8597, 34.2987], [-117.8599, 34.2974], [-117.8624, 34.296], [-117.8613, 34.2934], [-117.8631, 34.29], [-117.8613, 34.2841], [-117.8637, 34.2811], [-117.8636, 34.2789], [-117.8607, 34.2758], [-117.8591, 34.2781], [-117.8601, 34.2757], [-117.8592, 34.2747], [-117.8596, 34.2718], [-117.8622, 34.2712], [-117.8601, 34.2687], [-117.861, 34.2674], [-117.8629, 34.2666], [-117.8619, 34.2631], [-117.8635, 34.2621], [-117.8648, 34.2623], [-117.8658, 34.2613], [-117.8658, 34.2602], [-117.8672, 34.2605], [-117.8675, 34.2585], [-117.8694, 34.257], [-117.8703, 34.2543], [-117.873, 34.2532], [-117.8723, 34.2522], [-117.8729, 34.2508], [-117.8708, 34.2503], [-117.8679, 34.2477], [-117.8669, 34.2475], [-117.8668, 34.2466], [-117.8691, 34.245], [-117.8701, 34.2431], [-117.87, 34.2403], [-117.8693, 34.2404], [-117.8693, 34.2411], [-117.8676, 34.241], [-117.866, 34.2387], [-117.8635, 34.2384], [-117.8614, 34.2365], [-117.8568, 34.2394], [-117.8545, 34.2389], [-117.8517, 34.24], [-117.8509, 34.236], [-117.8467, 34.2334], [-117.8457, 34.2315], [-117.8458, 34.2296], [-117.8483, 34.2262], [-117.8509, 34.2243], [-117.8517, 34.2221], [-117.8551, 34.2215], [-117.8554, 34.2172], [-117.8595, 34.2168], [-117.8618, 34.2146], [-117.8635, 34.2155], [-117.8644, 34.2151], [-117.8634, 34.2117], [-117.8656, 34.2095], [-117.8654, 34.2072], [-117.8668, 34.2047], [-117.8636, 34.203], [-117.8592, 34.2022], [-117.8587, 34.201], [-117.8651, 34.2021], [-117.8717, 34.2019], [-117.8761, 34.2055], [-117.8803, 34.2075], [-117.882, 34.2069], [-117.8881, 34.2077], [-117.8897, 34.2096], [-117.8905, 34.2126], [-117.8969, 34.2164], [-117.8981, 34.22], [-117.9009, 34.2235], [-117.9081, 34.2253], [-117.9088, 34.2262], [-117.9113, 34.2271], [-117.9162, 34.2273], [-117.9207, 34.2249], [-117.925, 34.2239], [-117.9275, 34.2242], [-117.9283, 34.2221], [-117.9306, 34.2207], [-117.9293, 34.2172], [-117.9302, 34.2152], [-117.9296, 34.2116], [-117.9288, 34.2112], [-117.9278, 34.2082], [-117.9254, 34.2074], [-117.9273, 34.206], [-117.9289, 34.2071], [-117.932, 34.2067], [-117.9312, 34.2046], [-117.9315, 34.203], [-117.9335, 34.2008], [-117.9335, 34.1966], [-117.9358, 34.1967], [-117.9379, 34.1951], [-117.9366, 34.195], [-117.9356, 34.1937], [-117.9371, 34.1943], [-117.9403, 34.1943], [-117.9418, 34.1938], [-117.941, 34.1926], [-117.9415, 34.1915], [-117.945, 34.1906], [-117.9445, 34.1918], [-117.9453, 34.191], [-117.9463, 34.1911], [-117.9465, 34.19], [-117.9475, 34.1905], [-117.9484, 34.1901], [-117.9481, 34.1891], [-117.9458, 34.1886], [-117.9454, 34.1869], [-117.9476, 34.1862], [-117.9469, 34.1877], [-117.9495, 34.1867], [-117.9497, 34.1875], [-117.9503, 34.1868], [-117.9506, 34.184], [-117.9514, 34.1841], [-117.9516, 34.1828], [-117.9524, 34.1827], [-117.9503, 34.1821], [-117.9504, 34.1812], [-117.9537, 34.1795], [-117.957, 34.1725], [-117.9568, 34.1716], [-117.9578, 34.1724], [-117.9594, 34.1719], [-117.9626, 34.1679], [-117.9643, 34.1684], [-117.9677, 34.1675], [-117.9726, 34.1676], [-117.9744, 34.1666], [-117.9782, 34.1676], [-117.9809, 34.1663], [-117.9902, 34.1671], [-117.9918, 34.1656], [-117.9923, 34.1687], [-117.9916, 34.1694], [-117.9914, 34.1724], [-117.9923, 34.1723], [-117.9932, 34.1738], [-117.9944, 34.1727], [-117.9949, 34.174], [-117.9955, 34.1726], [-117.9992, 34.1736], [-118.0, 34.1753], [-117.9987, 34.178], [-117.9993, 34.1788], [-118.0009, 34.1766], [-118.0064, 34.1726], [-118.0078, 34.1726], [-118.0089, 34.1736], [-118.0122, 34.1728], [-118.0174, 34.1736], [-118.0187, 34.1753], [-118.0162, 34.1768], [-118.0178, 34.1776], [-118.0175, 34.1787], [-118.0206, 34.1812], [-118.0212, 34.1824], [-118.02, 34.1827], [-118.0209, 34.184], [-118.023, 34.1843], [-118.0229, 34.185], [-118.024, 34.1854], [-118.0248, 34.1868], [-118.027, 34.1868], [-118.0285, 34.1879], [-118.0299, 34.1876], [-118.0329, 34.1892], [-118.0347, 34.1891], [-118.0349, 34.1909], [-118.0364, 34.1908], [-118.035, 34.1925], [-118.0375, 34.1953], [-118.0396, 34.1966], [-118.0399, 34.1985], [-118.0389, 34.2013], [-118.0475, 34.2042], [-118.0554, 34.2106], [-118.0582, 34.2117], [-118.0588, 34.2124], [-118.0583, 34.2132], [-118.057, 34.2136], [-118.0562, 34.2157], [-118.058, 34.215], [-118.0588, 34.2153], [-118.0597, 34.2143], [-118.0607, 34.2143], [-118.0608, 34.2151], [-118.0593, 34.2164], [-118.0595, 34.2173], [-118.0601, 34.2171], [-118.0595, 34.2181], [-118.0598, 34.2187], [-118.062, 34.219], [-118.0604, 34.2205], [-118.0604, 34.2215], [-118.0618, 34.2232], [-118.0625, 34.2232], [-118.0619, 34.2244], [-118.0586, 34.2239], [-118.0564, 34.2251], [-118.0551, 34.2286], [-118.0557, 34.2298], [-118.0535, 34.2318], [-118.0563, 34.2348], [-118.0589, 34.2362], [-118.0583, 34.2374], [-118.0613, 34.2393], [-118.0636, 34.2395], [-118.0645, 34.2375], [-118.0654, 34.2382], [-118.0662, 34.2366], [-118.0678, 34.2356], [-118.0683, 34.2366], [-118.0701, 34.2369], [-118.0714, 34.2393], [-118.0733, 34.2377], [-118.075, 34.2376], [-118.0751, 34.237], [-118.0753, 34.2377], [-118.0738, 34.2382], [-118.0765, 34.2381], [-118.0782, 34.2389], [-118.0784, 34.2381], [-118.0796, 34.2379], [-118.0814, 34.2385], [-118.0788, 34.2397], [-118.0792, 34.2404], [-118.0779, 34.2412], [-118.077, 34.2391], [-118.0733, 34.2389], [-118.072, 34.2394], [-118.0725, 34.2399], [-118.07, 34.241], [-118.0683, 34.2428], [-118.0722, 34.2442], [-118.0756, 34.2421], [-118.0766, 34.2439], [-118.0793, 34.2417], [-118.0808, 34.2416], [-118.0818, 34.2431], [-118.0795, 34.2447], [-118.0807, 34.2452], [-118.0804, 34.2444], [-118.0835, 34.2438], [-118.0827, 34.2425], [-118.0854, 34.2421], [-118.0857, 34.2406], [-118.0846, 34.2398], [-118.0855, 34.2386], [-118.0804, 34.2365], [-118.0784, 34.2366], [-118.0778, 34.2356], [-118.0759, 34.2354], [-118.0747, 34.2344], [-118.0736, 34.2343], [-118.0732, 34.2352], [-118.0721, 34.2353], [-118.072, 34.2345], [-118.0733, 34.2342], [-118.0727, 34.2336], [-118.0708, 34.2336], [-118.0705, 34.2341], [-118.0675, 34.2328], [-118.0668, 34.2351], [-118.0648, 34.2351], [-118.0648, 34.2345], [-118.0632, 34.2337], [-118.0632, 34.2324], [-118.0616, 34.2339], [-118.0619, 34.2316], [-118.0596, 34.2304], [-118.0604, 34.2293], [-118.0586, 34.2286], [-118.0567, 34.2294], [-118.0561, 34.2278], [-118.0591, 34.227], [-118.0605, 34.2253], [-118.0637, 34.2249], [-118.0675, 34.2276], [-118.0692, 34.2299], [-118.0706, 34.2301], [-118.0716, 34.2328], [-118.0743, 34.2332], [-118.0765, 34.2349], [-118.0778, 34.2349], [-118.0792, 34.2359], [-118.0837, 34.2366], [-118.0842, 34.2376], [-118.0866, 34.2384], [-118.093, 34.2393], [-118.0933, 34.2417], [-118.0914, 34.2429], [-118.0925, 34.2459], [-118.0915, 34.2475], [-118.0925, 34.2483], [-118.0923, 34.249], [-118.0939, 34.2497], [-118.0949, 34.2511], [-118.0975, 34.2493], [-118.0986, 34.2503], [-118.1004, 34.2501], [-118.0998, 34.2523], [-118.1008, 34.2531], [-118.0999, 34.2546], [-118.1015, 34.2545], [-118.102, 34.2561], [-118.1044, 34.2573], [-118.1037, 34.2577], [-118.1022, 34.2567], [-118.1036, 34.2597], [-118.1012, 34.2606], [-118.1019, 34.2585], [-118.0986, 34.2594], [-118.0967, 34.2579], [-118.0973, 34.2597], [-118.0988, 34.2609], [-118.1006, 34.2612], [-118.0982, 34.2611], [-118.0983, 34.2623], [-118.0997, 34.2627], [-118.0998, 34.2634], [-118.0978, 34.2633], [-118.0991, 34.2641], [-118.0978, 34.2655], [-118.0955, 34.2641], [-118.0939, 34.2642], [-118.0936, 34.2652], [-118.0948, 34.2645], [-118.0962, 34.2652], [-118.0931, 34.2658], [-118.0899, 34.2642], [-118.0881, 34.2656], [-118.0862, 34.2657], [-118.0849, 34.2665], [-118.0831, 34.2661], [-118.0821, 34.2671], [-118.0806, 34.267], [-118.0792, 34.2686], [-118.0778, 34.2683], [-118.0779, 34.2671], [-118.0788, 34.2665], [-118.0751, 34.2668], [-118.075, 34.268], [-118.0771, 34.2678], [-118.076, 34.2695], [-118.0748, 34.2698], [-118.0733, 34.269], [-118.0734, 34.2699], [-118.0719, 34.2706], [-118.0718, 34.2681], [-118.0693, 34.2677], [-118.0684, 34.2667], [-118.0671, 34.267], [-118.0663, 34.266], [-118.0636, 34.266], [-118.0635, 34.2668], [-118.0664, 34.2678], [-118.0649, 34.2685], [-118.0676, 34.2716], [-118.0674, 34.2726], [-118.0709, 34.2751], [-118.0743, 34.2752], [-118.0752, 34.2758], [-118.0749, 34.2772], [-118.0766, 34.2782], [-118.0745, 34.2782], [-118.0742, 34.279], [-118.0735, 34.2782], [-118.0706, 34.2772], [-118.0706, 34.2785], [-118.0686, 34.2777], [-118.0669, 34.2794], [-118.0658, 34.2796], [-118.0606, 34.2776], [-118.0611, 34.2761], [-118.0591, 34.277], [-118.0589, 34.278], [-118.0567, 34.277], [-118.0555, 34.2741], [-118.0544, 34.2737], [-118.0531, 34.2718], [-118.0511, 34.2719], [-118.0526, 34.2738], [-118.0505, 34.2733], [-118.0502, 34.2713], [-118.0489, 34.2718], [-118.0494, 34.2731], [-118.0485, 34.274], [-118.0416, 34.274], [-118.0402, 34.275], [-118.037, 34.2735], [-118.0348, 34.2738], [-118.0312, 34.2726], [-118.0272, 34.2729], [-118.0266, 34.2744], [-118.025, 34.2754], [-118.0211, 34.275], [-118.025, 34.2736], [-118.0252, 34.2729], [-118.0203, 34.2733], [-118.0187, 34.2741], [-118.0151, 34.2739], [-118.0113, 34.276], [-118.0116, 34.2789], [-118.0103, 34.2789], [-118.0104, 34.2806], [-118.0091, 34.2813], [-118.0103, 34.284], [-118.0097, 34.2849], [-118.0103, 34.2874], [-118.0114, 34.2883], [-118.0123, 34.2913], [-118.0146, 34.2948], [-118.016, 34.294], [-118.0178, 34.2955], [-118.0167, 34.2974], [-118.0176, 34.2981], [-118.017, 34.2989], [-118.0186, 34.2999], [-118.0185, 34.3016], [-118.0166, 34.302], [-118.0124, 34.3005], [-118.0085, 34.3023], [-118.0075, 34.3004], [-118.0058, 34.3007], [-118.0027, 34.3031], [-118.0022, 34.3024], [-118.0039, 34.2996], [-117.9991, 34.2968], [-117.9982, 34.2958], [-117.9976, 34.2927], [-117.9961, 34.2918], [-117.9973, 34.2875], [-117.9967, 34.2851], [-117.9984, 34.2826], [-117.9982, 34.2818], [-117.9958, 34.2787], [-117.9928, 34.2774], [-117.9923, 34.2785], [-117.9905, 34.2752], [-117.9897, 34.2753], [-117.9883, 34.273], [-117.9873, 34.2729], [-117.9869, 34.2709], [-117.9875, 34.2699], [-117.9866, 34.2694], [-117.9883, 34.2686], [-117.9877, 34.2676], [-117.988, 34.2668], [-117.9873, 34.2662], [-117.9861, 34.2667], [-117.9847, 34.2659], [-117.985, 34.2641], [-117.9836, 34.2638], [-117.983, 34.2626], [-117.9845, 34.2618], [-117.9848, 34.2601], [-117.9867, 34.259], [-117.9869, 34.2599], [-117.9904, 34.2602], [-117.9923, 34.2615], [-117.9926, 34.26], [-117.9915, 34.2596], [-117.9918, 34.2583], [-117.9929, 34.2575], [-117.9923, 34.2554], [-117.9933, 34.2549], [-117.9928, 34.2532], [-117.9961, 34.2537], [-117.9967, 34.2521], [-117.9956, 34.2512], [-117.9962, 34.2507], [-117.9957, 34.249], [-117.9971, 34.2465], [-117.9948, 34.2452], [-117.9939, 34.2457], [-117.9931, 34.2449], [-117.9898, 34.244], [-117.989, 34.2396], [-117.9876, 34.2389], [-117.9876, 34.2382], [-117.9857, 34.2386], [-117.9856, 34.2393], [-117.987, 34.2405], [-117.9858, 34.2413], [-117.9846, 34.24], [-117.9797, 34.2397], [-117.9787, 34.2395], [-117.9784, 34.2386], [-117.9776, 34.2389], [-117.976, 34.2384], [-117.9747, 34.2392], [-117.9704, 34.2402], [-117.9709, 34.2411], [-117.969, 34.2415], [-117.9683, 34.2427], [-117.9649, 34.2431], [-117.9659, 34.2452], [-117.9677, 34.244], [-117.9716, 34.2428], [-117.9728, 34.2448], [-117.9718, 34.246], [-117.9721, 34.2472], [-117.9736, 34.2482], [-117.9721, 34.2493], [-117.9735, 34.251], [-117.9704, 34.2516], [-117.9708, 34.255], [-117.9696, 34.2558], [-117.9699, 34.257], [-117.9712, 34.2566], [-117.9718, 34.2576], [-117.9726, 34.2575], [-117.9736, 34.2593], [-117.9734, 34.2616], [-117.972, 34.2622], [-117.9723, 34.2631], [-117.9714, 34.264], [-117.9665, 34.265], [-117.9652, 34.2661], [-117.9658, 34.2688], [-117.9674, 34.2695], [-117.9691, 34.2715], [-117.9698, 34.2713], [-117.9704, 34.2737], [-117.9695, 34.2741], [-117.9691, 34.2735], [-117.9681, 34.2749], [-117.9656, 34.2754], [-117.9647, 34.2745], [-117.9637, 34.2745], [-117.9636, 34.2732], [-117.9623, 34.2724], [-117.9597, 34.2728], [-117.9592, 34.2737], [-117.9575, 34.2736], [-117.9564, 34.2743], [-117.9572, 34.276], [-117.9568, 34.2763], [-117.955, 34.2754], [-117.9546, 34.2761], [-117.9536, 34.2754], [-117.9521, 34.2757], [-117.9511, 34.2772], [-117.9458, 34.2794], [-117.9458, 34.2813], [-117.9429, 34.2848], [-117.9434, 34.2871], [-117.9405, 34.2877], [-117.9372, 34.2912], [-117.9384, 34.2916], [-117.9379, 34.2911], [-117.9407, 34.2896], [-117.9412, 34.2909], [-117.9436, 34.291], [-117.9449, 34.2919], [-117.9446, 34.2927], [-117.9456, 34.2926], [-117.9466, 34.2936], [-117.9475, 34.2954], [-117.9465, 34.2957], [-117.9467, 34.2968], [-117.9463, 34.296], [-117.9459, 34.2967], [-117.9468, 34.2974], [-117.9465, 34.2993], [-117.9475, 34.3009], [-117.9468, 34.3012], [-117.9476, 34.3016], [-117.9482, 34.3036], [-117.9444, 34.3028], [-117.9444, 34.3033], [-117.9432, 34.3033], [-117.9422, 34.3051], [-117.9414, 34.3051], [-117.9383, 34.3043], [-117.9372, 34.3032], [-117.9358, 34.3034], [-117.9358, 34.3039], [-117.9338, 34.3044], [-117.9342, 34.3071], [-117.9316, 34.3081], [-117.9273, 34.3055], [-117.9251, 34.3057], [-117.9206, 34.3093], [-117.9203, 34.3115], [-117.9215, 34.3118], [-117.9218, 34.3126], [-117.9245, 34.3132], [-117.9252, 34.313], [-117.9245, 34.3118], [-117.926, 34.3124], [-117.9267, 34.3119], [-117.9268, 34.3134], [-117.929, 34.3144], [-117.9284, 34.3157], [-117.9303, 34.3144], [-117.9309, 34.3151], [-117.9317, 34.3141], [-117.9337, 34.3139], [-117.9335, 34.3144], [-117.9364, 34.3128], [-117.9376, 34.3128], [-117.9404, 34.3103], [-117.9403, 34.309], [-117.9421, 34.3074], [-117.9443, 34.3092], [-117.9456, 34.3113], [-117.9449, 34.3116], [-117.9458, 34.3121], [-117.944, 34.3123], [-117.9437, 34.3129], [-117.9469, 34.3156], [-117.9456, 34.3169], [-117.9434, 34.3143], [-117.9417, 34.3146], [-117.9394, 34.3169], [-117.9408, 34.3177], [-117.939, 34.3195], [-117.9403, 34.3204], [-117.9407, 34.3217], [-117.943, 34.3225], [-117.9439, 34.3238], [-117.9413, 34.3257], [-117.9457, 34.327], [-117.9487, 34.3268], [-117.9505, 34.3287], [-117.9558, 34.3293], [-117.9579, 34.331], [-117.9583, 34.3339], [-117.96, 34.3342], [-117.962, 34.3334], [-117.9632, 34.335], [-117.9612, 34.3403], [-117.9626, 34.3404], [-117.9637, 34.3414], [-117.9609, 34.3426], [-117.959, 34.343]], [[-118.0903, 34.2452], [-118.087, 34.2446], [-118.0879, 34.2452], [-118.0866, 34.2462], [-118.0876, 34.2466], [-118.0873, 34.2474], [-118.0849, 34.2458], [-118.0818, 34.2456], [-118.081, 34.2461], [-118.081, 34.2467], [-118.0817, 34.2468], [-118.0847, 34.2462], [-118.0853, 34.247], [-118.0847, 34.2484], [-118.0863, 34.2493], [-118.0854, 34.2496], [-118.085, 34.2489], [-118.0839, 34.2496], [-118.0846, 34.2504], [-118.0834, 34.2506], [-118.0832, 34.2518], [-118.0828, 34.2506], [-118.0824, 34.252], [-118.0843, 34.2529], [-118.0847, 34.2538], [-118.0858, 34.2531], [-118.0867, 34.2489], [-118.09, 34.2481], [-118.0889, 34.2462], [-118.0903, 34.2452]]], [[[-117.8561, 34.3246], [-117.8558, 34.324], [-117.8561, 34.3237], [-117.8569, 34.3245], [-117.8561, 34.3246]]], [[[-117.7718, 34.4127], [-117.771, 34.4127], [-117.771, 34.4124], [-117.7714, 34.4121], [-117.7718, 34.4127]]], [[[-117.7764, 34.4147], [-117.7756, 34.4148], [-117.7756, 34.4145], [-117.7759, 34.4143], [-117.7764, 34.4147]]], [[[-117.9295, 34.4627], [-117.9292, 34.4618], [-117.9302, 34.4608], [-117.9304, 34.4615], [-117.9295, 34.4627]]], [[[-118.025, 34.4696], [-118.0236, 34.4684], [-118.0254, 34.4682], [-118.025, 34.4696]]], [[[-117.9288, 34.4703], [-117.9293, 34.4705], [-117.9288, 34.4705], [-117.9288, 34.4703]]]]}, "properties": {"layer": "perimeter"}}, {"type": "Feature", "geometry": {"type": "MultiPolygon", "coordinates": [[[[-117.9924, 34.4755], [-117.9916, 34.4778], [-117.9925, 34.4781], [-117.9925, 34.4794], [-117.9916, 34.4794], [-117.9915, 34.4801], [-117.9905, 34.4801], [-117.9894, 34.4788], [-117.9886, 34.479], [-117.9855, 34.4772], [-117.9851, 34.4783], [-117.9841, 34.4783], [-117.9837, 34.4801], [-117.9837, 34.4702], [-117.9925, 34.4702], [-117.9924, 34.4755]]], [[[-117.9747, 34.4788], [-117.9739, 34.4807], [-117.9728, 34.4811], [-117.9707, 34.4793], [-117.9716, 34.4774], [-117.9713, 34.4761], [-117.9698, 34.4755], [-117.9698, 34.4744], [-117.9665, 34.4756], [-117.9675, 34.4741], [-117.9668, 34.4733], [-117.9676, 34.4709], [-117.966, 34.4711], [-117.9655, 34.4703], [-117.9641, 34.4705], [-117.9626, 34.4744], [-117.9603, 34.4769], [-117.959, 34.4776], [-117.9579, 34.4774], [-117.9594, 34.4756], [-117.9587, 34.475], [-117.9599, 34.4742], [-117.9594, 34.4734], [-117.9616, 34.4726], [-117.9618, 34.4711], [-117.9635, 34.4702], [-117.9643, 34.4666], [-117.9637, 34.4655], [-117.9647, 34.4641], [-117.9642, 34.4611], [-117.9623, 34.4616], [-117.9618, 34.4641], [-117.9628, 34.4657], [-117.9619, 34.4662], [-117.9611, 34.4679], [-117.9601, 34.4674], [-117.9598, 34.4649], [-117.9607, 34.4619], [-117.96, 34.4608], [-117.9605, 34.4592], [-117.9594, 34.4589], [-117.9607, 34.4556], [-117.9617, 34.4554], [-117.9613, 34.4543], [-117.959, 34.4553], [-117.9523, 34.4616], [-117.9517, 34.4644], [-117.951, 34.4645], [-117.9506, 34.466], [-117.9478, 34.4691], [-117.9429, 34.4722], [-117.9422, 34.4724], [-117.9419, 34.471], [-117.941, 34.4711], [-117.941, 34.4702], [-117.94, 34.47], [-117.9392, 34.47], [-117.9377, 34.4722], [-117.9361, 34.4721], [-117.9355, 34.4685], [-117.9367, 34.4684], [-117.9372, 34.4671], [-117.9355, 34.4681], [-117.9329, 34.4678], [-117.9314, 34.4694], [-117.9293, 34.4699], [-117.9289, 34.4676], [-117.9296, 34.4677], [-117.9318, 34.4637], [-117.9332, 34.4625], [-117.9334, 34.4638], [-117.9345, 34.463], [-117.9338, 34.459], [-117.9318, 34.4592], [-117.9315, 34.4586], [-117.9324, 34.4575], [-117.9347, 34.4571], [-117.9336, 34.4569], [-117.933, 34.4554], [-117.9337, 34.4544], [-117.9353, 34.4542], [-117.9361, 34.4521], [-117.9371, 34.4518], [-117.9358, 34.4506], [-117.9381, 34.449], [-117.938, 34.4481], [-117.9371, 34.4481], [-117.9369, 34.4464], [-117.9389, 34.446], [-117.9404, 34.4448], [-117.9381, 34.4434], [-117.9378, 34.4425], [-117.9358, 34.4427], [-117.9356, 34.4392], [-117.9348, 34.4393], [-117.9347, 34.4399], [-117.9339, 34.4396], [-117.9371, 34.4377], [-117.936, 34.4364], [-117.9372, 34.4358], [-117.9377, 34.4344], [-117.9369, 34.4335], [-117.9328, 34.4344], [-117.9315, 34.4355], [-117.931, 34.4371], [-117.9299, 34.4364], [-117.9288, 34.4375], [-117.9268, 34.4356], [-117.9242, 34.4358], [-117.9234, 34.4346], [-117.9226, 34.4356], [-117.9203, 34.4351], [-117.9192, 34.4358], [-117.9203, 34.4379], [-117.9196, 34.4386], [-117.9207, 34.4401], [-117.9203, 34.4403], [-117.9198, 34.4393], [-117.9186, 34.4395], [-117.9164, 34.4423], [-117.9168, 34.4426], [-117.9183, 34.4423], [-117.919, 34.441], [-117.9241, 34.4403], [-117.9234, 34.4391], [-117.9251, 34.4385], [-117.926, 34.4389], [-117.926, 34.4444], [-117.9287, 34.4435], [-117.9288, 34.4427], [-117.9309, 34.4424], [-117.9314, 34.4435], [-117.931, 34.4442], [-117.9303, 34.444], [-117.9307, 34.4453], [-117.9296, 34.4463], [-117.9292, 34.4487], [-117.9275, 34.4496], [-117.9267, 34.4551], [-117.9229, 34.4576], [-117.9235, 34.4587], [-117.9229, 34.4624], [-117.9193, 34.4669], [-117.9182, 34.4678], [-117.9186, 34.4671], [-117.918, 34.4669], [-117.9155, 34.4693], [-117.9145, 34.4691], [-117.9137, 34.4699], [-117.9125, 34.47], [-117.9114, 34.469], [-117.9108, 34.4694], [-117.9106, 34.4687], [-117.9074, 34.4697], [-117.9072, 34.4689], [-117.909, 34.4676], [-117.908, 34.4671], [-117.9041, 34.4707], [-117.8984, 34.4733], [-117.8978, 34.4728], [-117.8958, 34.4731], [-117.8947, 34.4749], [-117.8946, 34.4735], [-117.8929, 34.4738], [-117.8924, 34.4732], [-117.8957, 34.4718], [-117.8959, 34.4705], [-117.895, 34.4701], [-117.8965, 34.4689], [-117.8962, 34.4685], [-117.8983, 34.4668], [-117.8999, 34.4664], [-117.9, 34.4655], [-117.8994, 34.4655], [-117.9001, 34.4642], [-117.9018, 34.4632], [-117.8998, 34.4625], [-117.9013, 34.4616], [-117.9027, 34.4621], [-117.9035, 34.4613], [-117.9064, 34.4608], [-117.9086, 34.4594], [-117.9108, 34.4566], [-117.9098, 34.4565], [-117.9112, 34.4549], [-117.9094, 34.4543], [-117.9101, 34.4534], [-117.9069, 34.455], [-117.9087, 34.4538], [-117.9086, 34.4532], [-117.905, 34.4538], [-117.9046, 34.4533], [-117.9051, 34.4523], [-117.9069, 34.4516], [-117.9123, 34.4507], [-117.9118, 34.4498], [-117.913, 34.4493], [-117.9117, 34.4468], [-117.9085, 34.4479], [-117.9074, 34.4472], [-117.9088, 34.4453], [-117.9113, 34.446], [-117.9129, 34.4448], [-117.9119, 34.444], [-117.9121, 34.4434], [-117.9134, 34.4425], [-117.9141, 34.441], [-117.9134, 34.4399], [-117.9154, 34.437], [-117.9127, 34.4336], [-117.9103, 34.4342], [-117.9093, 34.4358], [-117.907, 34.4331], [-117.9065, 34.4338], [-117.9009, 34.4334], [-117.8999, 34.4378], [-117.8988, 34.4375], [-117.8987, 34.439], [-117.8959, 34.4395], [-117.8954, 34.4403], [-117.896, 34.4412], [-117.8936, 34.4448], [-117.8928, 34.4455], [-117.8907, 34.4453], [-117.8899, 34.4459], [-117.8878, 34.4482], [-117.8882, 34.4491], [-117.8848, 34.4503], [-117.8837, 34.4524], [-117.8801, 34.4532], [-117.8774, 34.4524], [-117.8753, 34.4529], [-117.8718, 34.4514], [-117.8696, 34.454], [-117.8683, 34.4541], [-117.8666, 34.456], [-117.8646, 34.4595], [-117.8645, 34.462], [-117.8625, 34.463], [-117.8614, 34.4634], [-117.8591, 34.4625], [-117.8567, 34.4628], [-117.8548, 34.4616], [-117.8536, 34.4621], [-117.8516, 34.4617], [-117.8517, 34.4607], [-117.8533, 34.4604], [-117.8532, 34.4589], [-117.8494, 34.4607], [-117.8472, 34.4603], [-117.8464, 34.459], [-117.849, 34.4558], [-117.8483, 34.4546], [-117.8448, 34.454], [-117.8436, 34.4514], [-117.8495, 34.4494], [-117.8487, 34.4478], [-117.849, 34.4461], [-117.8525, 34.4461], [-117.8525, 34.4433], [-117.844, 34.4434], [-117.844, 34.4443], [-117.8484, 34.4443], [-117.8477, 34.4469], [-117.8446, 34.4471], [-117.8401, 34.4409], [-117.8384, 34.4398], [-117.8373, 34.4373], [-117.8358, 34.4363], [-117.8353, 34.4328], [-117.8381, 34.4334], [-117.8382, 34.4307], [-117.8424, 34.4305], [-117.8424, 34.4298], [-117.8442, 34.4292], [-117.8435, 34.4286], [-117.8438, 34.4279], [-117.8406, 34.4289], [-117.8395, 34.4246], [-117.8703, 34.4246], [-117.8704, 34.4266], [-117.877, 34.4266], [-117.877, 34.4246], [-117.8792, 34.4246], [-117.8792, 34.4227], [-117.8835, 34.4227], [-117.8835, 34.4221], [-117.8824, 34.4221], [-117.8824, 34.4202], [-117.8835, 34.4202], [-117.8835, 34.4193], [-117.8857, 34.4193], [-117.8857, 34.4166], [-117.8838, 34.4166], [-117.8838, 34.4158], [-117.8903, 34.4157], [-117.8903, 34.4163], [-117.8889, 34.4164], [-117.8885, 34.4173], [-117.889, 34.4195], [-117.8879, 34.4196], [-117.8878, 34.4266], [-117.89, 34.4266], [-117.89, 34.4211], [-117.8954, 34.4211], [-117.8954, 34.4265], [-117.8965, 34.4265], [-117.8965, 34.4156], [-117.9008, 34.4156], [-117.9009, 34.4229], [-117.9183, 34.4227], [-117.9184, 34.4245], [-117.9227, 34.4245], [-117.9227, 34.43], [-117.9271, 34.43], [-117.9271, 34.4318], [-117.9403, 34.4318], [-117.9403, 34.439], [-117.9708, 34.4388], [-117.9709, 34.4536], [-117.9767, 34.4536], [-117.9767, 34.4644], [-117.9709, 34.4644], [-117.9708, 34.4739], [-117.9749, 34.4739], [-117.9747, 34.4788]]], [[[-117.8389, 34.4246], [-117.8385, 34.4251], [-117.8375, 34.4249], [-117.8376, 34.4246], [-117.8389, 34.4246]]], [[[-117.8366, 34.4247], [-117.8355, 34.4248], [-117.8357, 34.4257], [-117.8341, 34.4248], [-117.8366, 34.4247]]], [[[-117.8336, 34.4246], [-117.8327, 34.4251], [-117.8333, 34.4271], [-117.8318, 34.4286], [-117.8316, 34.4309], [-117.8303, 34.432], [-117.828, 34.4326], [-117.8292, 34.4337], [-117.8271, 34.4345], [-117.8267, 34.4354], [-117.8227, 34.4363], [-117.8233, 34.4388], [-117.8176, 34.443], [-117.8155, 34.4473], [-117.812, 34.4513], [-117.8104, 34.452], [-117.8105, 34.4533], [-117.8079, 34.4546], [-117.8036, 34.4594], [-117.7955, 34.4634], [-117.7929, 34.4633], [-117.7873, 34.4611], [-117.7855, 34.4591], [-117.7883, 34.4601], [-117.7876, 34.4585], [-117.7884, 34.4573], [-117.7894, 34.4571], [-117.7896, 34.4563], [-117.7853, 34.4554], [-117.7849, 34.4546], [-117.7854, 34.4537], [-117.7899, 34.4539], [-117.7907, 34.4519], [-117.79, 34.4507], [-117.7924, 34.45], [-117.7927, 34.4482], [-117.797, 34.4466], [-117.7956, 34.4454], [-117.797, 34.4452], [-117.7958, 34.444], [-117.7913, 34.4438], [-117.7909, 34.4427], [-117.7884, 34.4427], [-117.7883, 34.4416], [-117.787, 34.4419], [-117.7865, 34.443], [-117.7858, 34.4426], [-117.7771, 34.4448], [-117.7754, 34.4443], [-117.7724, 34.4456], [-117.7684, 34.4448], [-117.7668, 34.4438], [-117.769, 34.4391], [-117.7699, 34.4345], [-117.7713, 34.4333], [-117.7703, 34.433], [-117.769, 34.4312], [-117.7676, 34.4314], [-117.7698, 34.4306], [-117.7692, 34.429], [-117.7686, 34.4295], [-117.7665, 34.4286], [-117.769, 34.4275], [-117.7672, 34.4266], [-117.7672, 34.4246], [-117.7827, 34.4246], [-117.7826, 34.4319], [-117.8001, 34.4319], [-117.8001, 34.4246], [-117.8336, 34.4246]], [[-117.8001, 34.4536], [-117.8, 34.4501], [-117.7957, 34.4501], [-117.7957, 34.4537], [-117.8001, 34.4536]], [[-117.7957, 34.4537], [-117.7913, 34.4537], [-117.7913, 34.4573], [-117.7957, 34.4573], [-117.7957, 34.4537]], [[-117.8176, 34.4319], [-117.8089, 34.4319], [-117.8089, 34.4355], [-117.8176, 34.4355], [-117.8176, 34.4319]]], [[[-117.7803, 34.4165], [-117.7832, 34.4164], [-117.7841, 34.4152], [-117.7827, 34.4142], [-117.7823, 34.4153], [-117.7822, 34.4147], [-117.7787, 34.4133], [-117.7767, 34.4141], [-117.7751, 34.4133], [-117.7737, 34.4137], [-117.7733, 34.412], [-117.7703, 34.4109], [-117.7781, 34.411], [-117.7781, 34.4119], [-117.7814, 34.4119], [-117.7814, 34.4128], [-117.787, 34.4129], [-117.787, 34.4165], [-117.7803, 34.4165]]], [[[-117.7749, 34.4146], [-117.7748, 34.4146], [-117.7748, 34.4145], [-117.7749, 34.4146]]], [[[-117.7759, 34.4155], [-117.7759, 34.4155], [-117.7759, 34.4155], [-117.7759, 34.4155]]], [[[-117.7737, 34.4157], [-117.7734, 34.4153], [-117.7736, 34.415], [-117.7737, 34.4157]]], [[[-117.7736, 34.4148], [-117.7733, 34.4143], [-117.7736, 34.4139], [-117.7736, 34.4148]]], [[[-117.7693, 34.4105], [-117.7676, 34.4099], [-117.7682, 34.409], [-117.7672, 34.4064], [-117.7693, 34.4064], [-117.7693, 34.4105]]], [[[-117.8603, 34.2372], [-117.8583, 34.2383], [-117.8559, 34.2384], [-117.8559, 34.2391], [-117.8539, 34.239], [-117.8518, 34.24], [-117.8509, 34.236], [-117.8478, 34.2343], [-117.8604, 34.2343], [-117.8603, 34.2372]]], [[[-117.8588, 34.2011], [-117.8589, 34.2009], [-117.8595, 34.201], [-117.8588, 34.2011]]], [[[-118.0215, 34.1843], [-118.023, 34.1843], [-118.0229, 34.185], [-118.0248, 34.1867], [-118.0214, 34.1867], [-118.0215, 34.1843]]], [[[-118.0476, 34.2044], [-118.0499, 34.2056], [-118.0531, 34.2087], [-118.0475, 34.2089], [-118.0476, 34.2044]]], [[[-118.0606, 34.2143], [-118.0608, 34.2145], [-118.0606, 34.2145], [-118.0606, 34.2143]]], [[[-118.0606, 34.2148], [-118.0608, 34.2151], [-118.0606, 34.2152], [-118.0606, 34.2148]]], [[[-118.0596, 34.2165], [-118.0597, 34.2186], [-118.0618, 34.2189], [-118.0616, 34.2197], [-118.0565, 34.2198], [-118.0564, 34.2165], [-118.0596, 34.2165]]], [[[-118.0753, 34.2338], [-118.0701, 34.2335], [-118.0702, 34.2301], [-118.0711, 34.2325], [-118.0753, 34.2338]]], [[[-117.772, 34.4127], [-117.771, 34.4126], [-117.7714, 34.4121], [-117.772, 34.4127]]], [[[-117.7763, 34.4144], [-117.7759, 34.4148], [-117.7756, 34.4145], [-117.7763, 34.4144]]], [[[-117.9292, 34.4626], [-117.9296, 34.4613], [-117.9306, 34.461], [-117.93, 34.4624], [-117.9292, 34.4626]]], [[[-117.9292, 34.4701], [-117.929, 34.4705], [-117.9288, 34.4703], [-117.9292, 34.4701]]], [[[-117.8725, 34.4101], [-117.8769, 34.41], [-117.8769, 34.4136], [-117.8725, 34.4136], [-117.8725, 34.4101]]], [[[-117.8592, 34.4138], [-117.8592, 34.412], [-117.8636, 34.4119], [-117.8636, 34.4101], [-117.8647, 34.4101], [-117.8657, 34.4119], [-117.8682, 34.4119], [-117.8682, 34.4136], [-117.8703, 34.4136], [-117.8704, 34.4171], [-117.8592, 34.4173], [-117.8592, 34.4155], [-117.857, 34.4156], [-117.857, 34.4138], [-117.8592, 34.4138]]], [[[-117.833, 34.4136], [-117.8329, 34.4173], [-117.8285, 34.4173], [-117.8286, 34.4136], [-117.833, 34.4136]]]]}, "properties": {"layer": "retained"}}, {"type": "Feature", "geometry": {"type": "MultiPolygon", "coordinates": [[[[-117.8964, 34.4212], [-117.8967, 34.4209], [-117.8964, 34.4209], [-117.8964, 34.4212]]], [[[-117.8303, 34.4148], [-117.83, 34.4143], [-117.8293, 34.4146], [-117.8293, 34.4148], [-117.8303, 34.4148]]], [[[-117.83, 34.414], [-117.8306, 34.4138], [-117.83, 34.4138], [-117.83, 34.414]]], [[[-117.8293, 34.414], [-117.8296, 34.4137], [-117.8293, 34.4137], [-117.8293, 34.414]]], [[[-117.7685, 34.4066], [-117.7688, 34.4064], [-117.7685, 34.4064], [-117.7685, 34.4066]]]]}, "properties": {"layer": "high_severity"}}]}
