{"type": "FeatureCollection", "features": [{"type": "Feature", "geometry": {"type": "Polygon", "coordinates": [[[-119.9392, 38.0347], [-119.9409, 38.0335], [-119.9414, 38.0339], [-119.9411, 38.0366], [-119.9439, 38.0387], [-119.9485, 38.0382], [-119.9491, 38.0385], [-119.9443, 38.0412], [-119.9416, 38.0402], [-119.9405, 38.0405], [-119.9394, 38.0418], [-119.9402, 38.0436], [-119.9392, 38.0461], [-119.9371, 38.0488], [-119.9358, 38.0497], [-119.9351, 38.0494], [-119.9355, 38.0501], [-119.9336, 38.0525], [-119.9332, 38.0549], [-119.9279, 38.0622], [-119.9275, 38.0657], [-119.9269, 38.0655], [-119.9273, 38.0649], [-119.9263, 38.0656], [-119.9236, 38.0638], [-119.9206, 38.0662], [-119.9193, 38.0634], [-119.9186, 38.0635], [-119.9184, 38.0615], [-119.9195, 38.0599], [-119.9196, 38.0567], [-119.9215, 38.0537], [-119.9218, 38.0519], [-119.9202, 38.0433], [-119.9222, 38.039], [-119.9213, 38.0349], [-119.9224, 38.0328], [-119.9229, 38.0329], [-119.9225, 38.0336], [-119.9232, 38.0331], [-119.9232, 38.0339], [-119.924, 38.0341], [-119.9232, 38.036], [-119.9258, 38.0355], [-119.9282, 38.033], [-119.9296, 38.0337], [-119.9288, 38.0347], [-119.9298, 38.0345], [-119.9307, 38.0362], [-119.9383, 38.0293], [-119.9395, 38.0289], [-119.94, 38.0296], [-119.9392, 38.0347]]]}, "properties": {"layer": "perimeter"}}]}
