{"type": "FeatureCollection", "features": [{"type": "Feature", "geometry": {"type": "Polygon", "coordinates": [[[-116.6778, 32.6271], [-116.6756, 32.6256], [-116.6744, 32.6207], [-116.6735, 32.6227], [-116.6715, 32.6244], [-116.6709, 32.627], [-116.6696, 32.6262], [-116.6675, 32.6263], [-116.6677, 32.625], [-116.6663, 32.6245], [-116.6656, 32.6249], [-116.6656, 32.626], [-116.6647, 32.6259], [-116.665, 32.6269], [-116.6639, 32.6269], [-116.6637, 32.6261], [-116.6614, 32.6263], [-116.66, 32.6224], [-116.6589, 32.6226], [-116.6586, 32.6263], [-116.6582, 32.6256], [-116.6555, 32.6249], [-116.6552, 32.6242], [-116.6537, 32.6246], [-116.6523, 32.6242], [-116.6518, 32.6252], [-116.65, 32.6251], [-116.6504, 32.6243], [-116.6498, 32.6241], [-116.6469, 32.6247], [-116.6446, 32.6233], [-116.6416, 32.6249], [-116.6395, 32.6243], [-116.6361, 32.6206], [-116.6393, 32.6204], [-116.6381, 32.6177], [-116.6367, 32.6167], [-116.6369, 32.6162], [-116.6386, 32.6164], [-116.643, 32.6203], [-116.6456, 32.6203], [-116.6455, 32.6217], [-116.6445, 32.6222], [-116.6449, 32.6226], [-116.6461, 32.6223], [-116.6483, 32.6233], [-116.6487, 32.6227], [-116.647, 32.6218], [-116.6477, 32.6212], [-116.6483, 32.621], [-116.6498, 32.6221], [-116.6508, 32.6218], [-116.65, 32.6203], [-116.652, 32.6214], [-116.6555, 32.6208], [-116.6561, 32.6199], [-116.6572, 32.6199], [-116.6578, 32.6186], [-116.6566, 32.6162], [-116.6554, 32.616], [-116.6542, 32.6167], [-116.6538, 32.6161], [-116.6528, 32.6162], [-116.6525, 32.6158], [-116.654, 32.6151], [-116.6471, 32.615], [-116.646, 32.6138], [-116.6502, 32.6136], [-116.6477, 32.6132], [-116.6462, 32.6119], [-116.6438, 32.612], [-116.6436, 32.6142], [-116.6421, 32.6149], [-116.6413, 32.6149], [-116.6407, 32.6133], [-116.6384, 32.6154], [-116.6384, 32.6142], [-116.6406, 32.6111], [-116.6367, 32.6103], [-116.6386, 32.61], [-116.639, 32.6094], [-116.6382, 32.6087], [-116.6339, 32.6091], [-116.6248, 32.6079], [-116.6255, 32.6054], [-116.6227, 32.6053], [-116.62, 32.6043], [-116.6205, 32.6037], [-116.6217, 32.6041], [-116.6223, 32.6031], [-116.6247, 32.6029], [-116.625, 32.6023], [-116.6227, 32.6014], [-116.6218, 32.6018], [-116.6204, 32.6014], [-116.6201, 32.5994], [-116.6216, 32.5996], [-116.6215, 32.5989], [-116.6204, 32.5987], [-116.6215, 32.5981], [-116.6223, 32.5989], [-116.6227, 32.5977], [-116.6234, 32.5976], [-116.6236, 32.5988], [-116.6267, 32.5991], [-116.6273, 32.6], [-116.6291, 32.5997], [-116.63, 32.5985], [-116.6336, 32.5997], [-116.6372, 32.5992], [-116.6384, 32.6003], [-116.6371, 32.6008], [-116.6373, 32.6012], [-116.6388, 32.6016], [-116.6426, 32.6002], [-116.6422, 32.599], [-116.6442, 32.5977], [-116.6434, 32.5965], [-116.644, 32.5963], [-116.6452, 32.5973], [-116.6494, 32.5975], [-116.6496, 32.5963], [-116.6474, 32.5935], [-116.6492, 32.5943], [-116.6491, 32.5927], [-116.65, 32.5919], [-116.6531, 32.5911], [-116.6545, 32.5915], [-116.6554, 32.5931], [-116.6568, 32.5922], [-116.6562, 32.5914], [-116.6587, 32.5914], [-116.6597, 32.5928], [-116.6603, 32.5927], [-116.6597, 32.5911], [-116.6633, 32.5881], [-116.6635, 32.5907], [-116.6646, 32.5918], [-116.6692, 32.5914], [-116.6696, 32.5901], [-116.6688, 32.5891], [-116.669, 32.5886], [-116.67, 32.5889], [-116.6721, 32.5909], [-116.6721, 32.5938], [-116.6757, 32.5936], [-116.6801, 32.5947], [-116.6813, 32.5971], [-116.6826, 32.5976], [-116.6823, 32.5987], [-116.6809, 32.5993], [-116.681, 32.6004], [-116.6856, 32.6008], [-116.6845, 32.6028], [-116.6882, 32.6042], [-116.6914, 32.6037], [-116.6927, 32.6042], [-116.6925, 32.6054], [-116.6953, 32.6058], [-116.6958, 32.6066], [-116.697, 32.6068], [-116.6967, 32.6058], [-116.6976, 32.6056], [-116.6992, 32.6076], [-116.7007, 32.6066], [-116.7026, 32.6075], [-116.7037, 32.6089], [-116.7029, 32.6105], [-116.7041, 32.6134], [-116.6994, 32.6156], [-116.6948, 32.6196], [-116.6946, 32.619], [-116.6907, 32.6212], [-116.6894, 32.6224], [-116.6897, 32.6232], [-116.6879, 32.6234], [-116.6836, 32.6272], [-116.6814, 32.6263], [-116.6801, 32.6271], [-116.6778, 32.6271]]]}, "properties": {"layer": "perimeter"}}, {"type": "Feature", "geometry": {"type": "MultiPolygon", "coordinates": [[[[-116.6787, 32.6272], [-116.6756, 32.6256], [-116.6778, 32.6259], [-116.6778, 32.6224], [-116.6865, 32.6229], [-116.6865, 32.6193], [-116.6905, 32.6194], [-116.6906, 32.6158], [-116.6779, 32.6154], [-116.6778, 32.6118], [-116.6963, 32.6124], [-116.6979, 32.6103], [-116.6931, 32.6055], [-116.6969, 32.6068], [-116.6967, 32.6058], [-116.6976, 32.6056], [-116.6992, 32.6076], [-116.7007, 32.6066], [-116.7026, 32.6075], [-116.7037, 32.6089], [-116.7029, 32.6105], [-116.7041, 32.6134], [-116.6994, 32.6156], [-116.6948, 32.6196], [-116.6946, 32.619], [-116.6907, 32.6212], [-116.6894, 32.6224], [-116.6897, 32.6232], [-116.6879, 32.6234], [-116.6836, 32.6272], [-116.6823, 32.6263], [-116.6787, 32.6272]]], [[[-116.6614, 32.6263], [-116.66, 32.6224], [-116.6589, 32.6226], [-116.6586, 32.6263], [-116.6582, 32.6256], [-116.6555, 32.6249], [-116.6552, 32.6242], [-116.6537, 32.6246], [-116.6523, 32.6242], [-116.6518, 32.6252], [-116.65, 32.6251], [-116.6504, 32.6243], [-116.6498, 32.6241], [-116.6469, 32.6247], [-116.6446, 32.6233], [-116.6416, 32.6249], [-116.6395, 32.6243], [-116.6361, 32.6206], [-116.6393, 32.6204], [-116.6384, 32.6184], [-116.6409, 32.6184], [-116.6434, 32.6204], [-116.6451, 32.6199], [-116.6457, 32.6213], [-116.6445, 32.6222], [-116.6449, 32.6226], [-116.6461, 32.6223], [-116.6483, 32.6233], [-116.6487, 32.6227], [-116.647, 32.6218], [-116.6477, 32.6212], [-116.6483, 32.621], [-116.6498, 32.6221], [-116.6508, 32.6218], [-116.65, 32.6203], [-116.652, 32.6214], [-116.6555, 32.6208], [-116.6561, 32.6199], [-116.6572, 32.6199], [-116.6578, 32.6186], [-116.6566, 32.6162], [-116.6554, 32.616], [-116.6542, 32.6167], [-116.6538, 32.6161], [-116.6528, 32.6162], [-116.6525, 32.6158], [-116.654, 32.6151], [-116.6471, 32.615], [-116.646, 32.6138], [-116.6502, 32.6136], [-116.6477, 32.6132], [-116.6462, 32.6119], [-116.6438, 32.612], [-116.6436, 32.6142], [-116.6425, 32.6147], [-116.6413, 32.6147], [-116.6407, 32.6133], [-116.6382, 32.6147], [-116.6407, 32.6117], [-116.6399, 32.6108], [-116.6367, 32.6103], [-116.6391, 32.6097], [-116.6382, 32.6087], [-116.6339, 32.6091], [-116.6248, 32.6079], [-116.6255, 32.6054], [-116.6227, 32.6053], [-116.62, 32.6043], [-116.6205, 32.6037], [-116.6217, 32.6041], [-116.6223, 32.6031], [-116.6247, 32.6029], [-116.625, 32.6023], [-116.6227, 32.6014], [-116.6218, 32.6018], [-116.6204, 32.6014], [-116.6201, 32.5994], [-116.6216, 32.5996], [-116.6215, 32.5989], [-116.6204, 32.5987], [-116.6215, 32.5981], [-116.6223, 32.5989], [-116.6227, 32.5977], [-116.6234, 32.5976], [-116.6236, 32.5988], [-116.6267, 32.5991], [-116.6273, 32.6], [-116.6291, 32.5997], [-116.63, 32.5985], [-116.6336, 32.5997], [-116.6372, 32.5992], [-116.6384, 32.6003], [-116.6371, 32.6008], [-116.6373, 32.6012], [-116.6388, 32.6016], [-116.6426, 32.6002], [-116.6422, 32.599], [-116.6442, 32.5977], [-116.6434, 32.5965], [-116.644, 32.5963], [-116.6452, 32.5973], [-116.6487, 32.5977], [-116.6494, 32.5975], [-116.6496, 32.5962], [-116.6515, 32.5955], [-116.6554, 32.5965], [-116.6599, 32.5959], [-116.661, 32.5952], [-116.661, 32.5936], [-116.6566, 32.5935], [-116.6566, 32.5914], [-116.6587, 32.5914], [-116.6597, 32.5928], [-116.6603, 32.5927], [-116.6597, 32.5911], [-116.6633, 32.5881], [-116.6635, 32.5907], [-116.6646, 32.5918], [-116.6692, 32.5914], [-116.6696, 32.5901], [-116.6688, 32.5891], [-116.6694, 32.5886], [-116.6721, 32.5909], [-116.6721, 32.5938], [-116.6757, 32.5936], [-116.6801, 32.5947], [-116.6813, 32.5971], [-116.6826, 32.5976], [-116.6823, 32.5987], [-116.6809, 32.5993], [-116.68, 32.5976], [-116.6653, 32.5973], [-116.6654, 32.608], [-116.6612, 32.6079], [-116.6614, 32.6263]], [[-116.652, 32.5966], [-116.6506, 32.5971], [-116.6533, 32.5971], [-116.652, 32.5966]], [[-116.6567, 32.5972], [-116.6567, 32.597], [-116.6561, 32.5972], [-116.6567, 32.5972]], [[-116.6609, 32.5967], [-116.6604, 32.597], [-116.6598, 32.5972], [-116.661, 32.5973], [-116.6609, 32.5967]]], [[[-116.6476, 32.5939], [-116.6474, 32.5935], [-116.6478, 32.5936], [-116.6476, 32.5939]]], [[[-116.681, 32.6004], [-116.6856, 32.6008], [-116.6845, 32.6028], [-116.6882, 32.6042], [-116.6914, 32.6037], [-116.6927, 32.6042], [-116.6926, 32.6053], [-116.6909, 32.6042], [-116.6909, 32.6051], [-116.6866, 32.605], [-116.6866, 32.6043], [-116.6839, 32.6031], [-116.6837, 32.6016], [-116.6813, 32.6023], [-116.6815, 32.6009], [-116.68, 32.6006], [-116.6809, 32.5995], [-116.681, 32.6004]]]]}, "properties": {"layer": "retained"}}]}
