{"type": "FeatureCollection", "features": [{"type": "Feature", "geometry": {"type": "Polygon", "coordinates": [[[-120.0053, 35.3368], [-120.004, 35.3345], [-120.0044, 35.3319], [-120.0037, 35.3261], [-120.0037, 35.3255], [-120.0051, 35.3252], [-120.0053, 35.3219], [-120.0064, 35.32], [-120.0055, 35.3186], [-120.0059, 35.3158], [-120.005, 35.3132], [-120.0059, 35.3111], [-120.0059, 35.3078], [-120.0069, 35.3078], [-120.0078, 35.3053], [-120.008, 35.3061], [-120.0091, 35.3061], [-120.0092, 35.3005], [-120.0113, 35.3005], [-120.0136, 35.2985], [-120.0128, 35.3034], [-120.0136, 35.3034], [-120.0137, 35.3052], [-120.0158, 35.3056], [-120.0159, 35.3015], [-120.0173, 35.3001], [-120.016, 35.296], [-120.0185, 35.2967], [-120.0204, 35.2934], [-120.0199, 35.2904], [-120.0188, 35.2922], [-120.0174, 35.2925], [-120.0209, 35.2852], [-120.0227, 35.2841], [-120.0239, 35.2801], [-120.0244, 35.2806], [-120.0244, 35.2774], [-120.0257, 35.2731], [-120.0239, 35.2704], [-120.0244, 35.2685], [-120.0283, 35.2678], [-120.0311, 35.2661], [-120.0311, 35.2647], [-120.0296, 35.2635], [-120.0292, 35.2614], [-120.0261, 35.2638], [-120.0233, 35.2636], [-120.0247, 35.2634], [-120.0247, 35.2624], [-120.0269, 35.2615], [-120.0274, 35.2604], [-120.0267, 35.2577], [-120.0277, 35.2559], [-120.0289, 35.2557], [-120.0314, 35.2581], [-120.0325, 35.2574], [-120.0338, 35.2578], [-120.0335, 35.2605], [-120.0356, 35.2619], [-120.0383, 35.2622], [-120.0448, 35.2608], [-120.0474, 35.2618], [-120.0481, 35.2638], [-120.0451, 35.2675], [-120.0446, 35.2691], [-120.0419, 35.2709], [-120.0423, 35.2734], [-120.0404, 35.2763], [-120.0394, 35.2809], [-120.0371, 35.2846], [-120.0371, 35.2855], [-120.0387, 35.2865], [-120.0383, 35.2876], [-120.0342, 35.2903], [-120.0334, 35.2919], [-120.0317, 35.2915], [-120.0312, 35.2923], [-120.032, 35.2941], [-120.0304, 35.2952], [-120.0322, 35.296], [-120.0331, 35.2943], [-120.0344, 35.2963], [-120.0339, 35.2969], [-120.035, 35.2978], [-120.0343, 35.2983], [-120.0341, 35.3007], [-120.0328, 35.3004], [-120.0313, 35.3009], [-120.0307, 35.303], [-120.029, 35.3039], [-120.0237, 35.3045], [-120.0232, 35.3053], [-120.0226, 35.319], [-120.0196, 35.323], [-120.0135, 35.3279], [-120.0118, 35.3323], [-120.0118, 35.3341], [-120.0053, 35.3368]], [[-120.022, 35.3011], [-120.0212, 35.3029], [-120.0226, 35.3044], [-120.0231, 35.3021], [-120.022, 35.3011]]]}, "properties": {"layer": "perimeter"}}, {"type": "Feature", "geometry": {"type": "Polygon", "coordinates": [[[-120.0053, 35.3368], [-120.004, 35.3345], [-120.0044, 35.3319], [-120.0037, 35.3257], [-120.0051, 35.3252], [-120.0053, 35.3219], [-120.0064, 35.32], [-120.0055, 35.3186], [-120.0059, 35.3158], [-120.005, 35.3132], [-120.0059, 35.3111], [-120.0059, 35.3078], [-120.0069, 35.3078], [-120.0078, 35.3053], [-120.008, 35.3061], [-120.0091, 35.3061], [-120.0092, 35.3005], [-120.0113, 35.3005], [-120.0136, 35.2985], [-120.0128, 35.3034], [-120.0136, 35.3034], [-120.0137, 35.3052], [-120.0158, 35.3056], [-120.0159, 35.3015], [-120.0173, 35.3001], [-120.016, 35.296], [-120.0185, 35.2967], [-120.0204, 35.2934], [-120.0199, 35.2904], [-120.0188, 35.2922], [-120.0174, 35.2925], [-120.0209, 35.2852], [-120.0227, 35.2841], [-120.0239, 35.2801], [-120.0244, 35.2806], [-120.0244, 35.2774], [-120.0257, 35.2731], [-120.0239, 35.2704], [-120.0244, 35.2685], [-120.0283, 35.2678], [-120.0311, 35.2661], [-120.0311, 35.2647], [-120.0296, 35.2635], [-120.0292, 35.2614], [-120.0261, 35.2638], [-120.0233, 35.2636], [-120.0247, 35.2634], [-120.0247, 35.2624], [-120.0269, 35.2615], [-120.0274, 35.2604], [-120.0267, 35.2577], [-120.0277, 35.2559], [-120.0289, 35.2557], [-120.0314, 35.2581], [-120.0325, 35.2574], [-120.0338, 35.2578], [-120.0335, 35.2605], [-120.0356, 35.2619], [-120.0383, 35.2622], [-120.0448, 35.2608], [-120.0474, 35.2618], [-120.0481, 35.2638], [-120.0451, 35.2675], [-120.0446, 35.2691], [-120.0419, 35.2709], [-120.0423, 35.2734], [-120.0404, 35.2763], [-120.0394, 35.2809], [-120.0371, 35.2846], [-120.0371, 35.2855], [-120.0387, 35.2865], [-120.0383, 35.2876], [-120.0342, 35.2903], [-120.0334, 35.2919], [-120.0317, 35.2915], [-120.0312, 35.2923], [-120.032, 35.2941], [-120.0304, 35.2952], [-120.0322, 35.296], [-120.0331, 35.2943], [-120.0344, 35.2963], [-120.0339, 35.2969], [-120.035, 35.2978], [-120.0343, 35.2983], [-120.0341, 35.3007], [-120.0328, 35.3004], [-120.0313, 35.3009], [-120.0307, 35.303], [-120.029, 35.3039], [-120.0237, 35.3045], [-120.0224, 35.3193], [-120.0192, 35.3234], [-120.0135, 35.3279], [-120.0118, 35.3323], [-120.0118, 35.3341], [-120.0053, 35.3368]], [[-120.0219, 35.3012], [-120.0212, 35.3029], [-120.0226, 35.3044], [-120.0231, 35.3021], [-120.0219, 35.3012]]]}, "properties": {"layer": "retained"}}]}
