{"type": "FeatureCollection", "features": [{"type": "Feature", "geometry": {"type": "Polygon", "coordinates": [[[-119.9218, 37.6287], [-119.9201, 37.6283], [-119.921, 37.6297], [-119.9192, 37.629], [-119.9166, 37.6244], [-119.9117, 37.6196], [-119.9113, 37.6177], [-119.9088, 37.6162], [-119.9063, 37.6134], [-119.9054, 37.6135], [-119.9038, 37.6103], [-119.9018, 37.6101], [-119.9023, 37.6085], [-119.8999, 37.6058], [-119.8999, 37.6043], [-119.8985, 37.6039], [-119.8976, 37.6013], [-119.8989, 37.5995], [-119.8981, 37.5974], [-119.8995, 37.5956], [-119.9003, 37.5922], [-119.9, 37.5887], [-119.8983, 37.5879], [-119.8989, 37.5869], [-119.902, 37.5865], [-119.905, 37.5897], [-119.9059, 37.5896], [-119.9071, 37.5906], [-119.9088, 37.5904], [-119.9089, 37.5911], [-119.91, 37.5912], [-119.9116, 37.5928], [-119.9193, 37.5941], [-119.9208, 37.5916], [-119.9227, 37.5908], [-119.9238, 37.5893], [-119.929, 37.5906], [-119.9321, 37.5902], [-119.9335, 37.5911], [-119.9356, 37.5898], [-119.939, 37.5891], [-119.9397, 37.5864], [-119.9384, 37.5843], [-119.9426, 37.5817], [-119.9465, 37.5809], [-119.9524, 37.5825], [-119.9552, 37.5842], [-119.957, 37.5843], [-119.9585, 37.5818], [-119.9597, 37.5813], [-119.9623, 37.5854], [-119.9645, 37.5862], [-119.9654, 37.5912], [-119.9628, 37.5918], [-119.9616, 37.5914], [-119.9621, 37.5921], [-119.9599, 37.5941], [-119.9577, 37.5939], [-119.9565, 37.5959], [-119.9571, 37.5968], [-119.9592, 37.5976], [-119.959, 37.5994], [-119.9628, 37.6013], [-119.9638, 37.6037], [-119.9657, 37.6041], [-119.966, 37.6051], [-119.9634, 37.6082], [-119.9575, 37.6125], [-119.9569, 37.6184], [-119.9544, 37.6225], [-119.9487, 37.6269], [-119.9455, 37.6308], [-119.9437, 37.6316], [-119.9399, 37.6309], [-119.9378, 37.6314], [-119.934, 37.6347], [-119.9321, 37.634], [-119.9306, 37.6314], [-119.9276, 37.6308], [-119.9272, 37.6295], [-119.9254, 37.6293], [-119.924, 37.6274], [-119.9225, 37.6274], [-119.9218, 37.6287]]]}, "properties": {"layer": "perimeter"}}, {"type": "Feature", "geometry": {"type": "MultiPolygon", "coordinates": [[[[-119.9086, 37.6159], [-119.9042, 37.6122], [-119.9038, 37.6103], [-119.9018, 37.6101], [-119.9021, 37.6083], [-119.906, 37.6083], [-119.9062, 37.6122], [-119.9109, 37.6123], [-119.9111, 37.616], [-119.9086, 37.6159]]], [[[-119.9223, 37.5908], [-119.9235, 37.5899], [-119.9244, 37.5916], [-119.9258, 37.5912], [-119.9262, 37.5921], [-119.9248, 37.5926], [-119.9255, 37.5942], [-119.9241, 37.5947], [-119.9223, 37.5908]]], [[[-119.9374, 37.5894], [-119.9394, 37.5888], [-119.9396, 37.5905], [-119.9374, 37.5906], [-119.9374, 37.5894]]], [[[-119.9393, 37.5878], [-119.9393, 37.5876], [-119.9393, 37.5874], [-119.9393, 37.5878]]], [[[-119.9394, 37.5858], [-119.9384, 37.5843], [-119.9393, 37.5836], [-119.9394, 37.5858]]], [[[-119.9446, 37.5811], [-119.9465, 37.5809], [-119.9527, 37.5827], [-119.9446, 37.5827], [-119.9446, 37.5811]]], [[[-119.9539, 37.5832], [-119.9552, 37.5842], [-119.9557, 37.584], [-119.9548, 37.5844], [-119.9539, 37.5832]]], [[[-119.9572, 37.5838], [-119.9572, 37.5856], [-119.9582, 37.5859], [-119.9585, 37.5818], [-119.9597, 37.5813], [-119.9623, 37.5854], [-119.9645, 37.5862], [-119.9654, 37.5912], [-119.9628, 37.5918], [-119.9616, 37.5914], [-119.9621, 37.5921], [-119.9604, 37.5936], [-119.9582, 37.5935], [-119.9582, 37.5862], [-119.9571, 37.5859], [-119.9566, 37.5865], [-119.9568, 37.5858], [-119.9491, 37.5835], [-119.9568, 37.5855], [-119.9572, 37.5838]]], [[[-119.9575, 37.5835], [-119.9574, 37.5834], [-119.9576, 37.5832], [-119.9575, 37.5835]]], [[[-119.9541, 37.6229], [-119.9441, 37.6227], [-119.9443, 37.604], [-119.9488, 37.6039], [-119.9484, 37.5966], [-119.9571, 37.597], [-119.9581, 37.5977], [-119.9582, 37.6004], [-119.9627, 37.6015], [-119.9631, 37.6071], [-119.9584, 37.6073], [-119.9583, 37.6109], [-119.9536, 37.611], [-119.9535, 37.6146], [-119.9566, 37.6146], [-119.9573, 37.6162], [-119.9568, 37.6184], [-119.9541, 37.6229]]], [[[-119.9351, 37.6335], [-119.9351, 37.6332], [-119.9353, 37.6332], [-119.9351, 37.6335]]], [[[-119.9303, 37.6039], [-119.9303, 37.6076], [-119.9349, 37.6076], [-119.935, 37.6111], [-119.9397, 37.6111], [-119.9397, 37.6147], [-119.9351, 37.6147], [-119.9352, 37.6181], [-119.9263, 37.6181], [-119.9262, 37.6038], [-119.9303, 37.6039]]]]}, "properties": {"layer": "retained"}}, {"type": "Feature", "geometry": {"type": "MultiPolygon", "coordinates": [[[[-119.9272, 37.618], [-119.9275, 37.6178], [-119.9272, 37.6178], [-119.9272, 37.618]]], [[[-119.9268, 37.6175], [-119.9272, 37.6172], [-119.9268, 37.6172], [-119.9268, 37.6175]]], [[[-119.9275, 37.6175], [-119.9278, 37.6169], [-119.9275, 37.6169], [-119.9275, 37.6175]]], [[[-119.9319, 37.618], [-119.9319, 37.6172], [-119.9302, 37.6167], [-119.9299, 37.6175], [-119.9319, 37.618]]], [[[-119.9261, 37.6169], [-119.9265, 37.6167], [-119.9261, 37.6167], [-119.9261, 37.6169]]], [[[-119.9323, 37.6167], [-119.9326, 37.6164], [-119.9323, 37.6164], [-119.9323, 37.6167]]], [[[-119.9316, 37.6164], [-119.9323, 37.6161], [-119.9316, 37.6161], [-119.9316, 37.6164]]], [[[-119.9265, 37.6164], [-119.9268, 37.6161], [-119.9265, 37.6161], [-119.9265, 37.6164]]], [[[-119.9302, 37.6161], [-119.9306, 37.6159], [-119.9302, 37.6159], [-119.9302, 37.6161]]], [[[-119.9333, 37.6159], [-119.9336, 37.6156], [-119.9333, 37.6156], [-119.9333, 37.6159]]], [[[-119.9313, 37.6156], [-119.9316, 37.6153], [-119.9313, 37.6153], [-119.9313, 37.6156]]], [[[-119.9336, 37.6151], [-119.934, 37.6145], [-119.9336, 37.6145], [-119.9336, 37.6151]]], [[[-119.9364, 37.6148], [-119.9367, 37.6145], [-119.9364, 37.6145], [-119.9364, 37.6148]]], [[[-119.9085, 37.6148], [-119.9088, 37.6145], [-119.9085, 37.6145], [-119.9085, 37.6148]]], [[[-119.9347, 37.6148], [-119.9353, 37.6142], [-119.9347, 37.6142], [-119.9347, 37.6148]]], [[[-119.9394, 37.6143], [-119.9398, 37.614], [-119.9394, 37.614], [-119.9394, 37.6143]]], [[[-119.9336, 37.6142], [-119.934, 37.614], [-119.9336, 37.614], [-119.9336, 37.6142]]], [[[-119.9088, 37.6142], [-119.9091, 37.614], [-119.9088, 37.614], [-119.9088, 37.6142]]], [[[-119.936, 37.6142], [-119.9367, 37.6137], [-119.9364, 37.6137], [-119.936, 37.6142]]], [[[-119.9353, 37.614], [-119.9357, 37.6137], [-119.9353, 37.6137], [-119.9353, 37.614]]], [[[-119.9085, 37.614], [-119.9088, 37.6137], [-119.9085, 37.6137], [-119.9085, 37.614]]], [[[-119.9452, 37.6137], [-119.9455, 37.6134], [-119.9452, 37.6134], [-119.9452, 37.6137]]], [[[-119.9088, 37.6137], [-119.9091, 37.6134], [-119.9088, 37.6134], [-119.9088, 37.6137]]], [[[-119.9326, 37.6134], [-119.933, 37.6132], [-119.9326, 37.6132], [-119.9326, 37.6134]]], [[[-119.9102, 37.6159], [-119.9112, 37.6156], [-119.9108, 37.6132], [-119.9091, 37.6137], [-119.9095, 37.6142], [-119.9105, 37.614], [-119.9095, 37.6153], [-119.9102, 37.6159]], [[-119.9105, 37.6148], [-119.9102, 37.615], [-119.9102, 37.6148], [-119.9105, 37.6148]]], [[[-119.9091, 37.6134], [-119.9095, 37.6132], [-119.9091, 37.6132], [-119.9091, 37.6134]]], [[[-119.9391, 37.6143], [-119.9398, 37.6132], [-119.9387, 37.6129], [-119.9381, 37.6143], [-119.9391, 37.6143]]], [[[-119.9364, 37.6134], [-119.9367, 37.6129], [-119.9364, 37.6129], [-119.9364, 37.6134]]], [[[-119.9085, 37.6129], [-119.9091, 37.6126], [-119.9085, 37.6126], [-119.9085, 37.6129]]], [[[-119.9102, 37.6129], [-119.9102, 37.6123], [-119.9091, 37.6123], [-119.9091, 37.6126], [-119.9102, 37.6129]]], [[[-119.9466, 37.6126], [-119.9469, 37.6124], [-119.9466, 37.6124], [-119.9466, 37.6126]]], [[[-119.9336, 37.6132], [-119.9336, 37.6121], [-119.9323, 37.6126], [-119.9323, 37.6129], [-119.9336, 37.6132]]], [[[-119.9367, 37.6124], [-119.9377, 37.6129], [-119.9377, 37.6121], [-119.9367, 37.6124]]], [[[-119.9074, 37.6129], [-119.9068, 37.6121], [-119.9061, 37.6123], [-119.9061, 37.6129], [-119.9074, 37.6129]]], [[[-119.9462, 37.6124], [-119.9466, 37.6121], [-119.9462, 37.6121], [-119.9462, 37.6124]]], [[[-119.9367, 37.6121], [-119.937, 37.6118], [-119.9367, 37.6118], [-119.9367, 37.6121]]], [[[-119.9353, 37.6129], [-119.9353, 37.6121], [-119.9357, 37.6118], [-119.9343, 37.6124], [-119.9353, 37.6129]]], [[[-119.9398, 37.6129], [-119.9394, 37.6121], [-119.9377, 37.6116], [-119.9377, 37.6121], [-119.9398, 37.6129]]], [[[-119.9387, 37.6118], [-119.9391, 37.6116], [-119.9387, 37.6116], [-119.9387, 37.6118]]], [[[-119.9336, 37.6121], [-119.9343, 37.6115], [-119.9336, 37.6113], [-119.9336, 37.6121]]], [[[-119.9391, 37.6116], [-119.9394, 37.6113], [-119.9391, 37.6113], [-119.9391, 37.6116]]], [[[-119.9326, 37.6115], [-119.933, 37.6113], [-119.9326, 37.6113], [-119.9326, 37.6115]]], [[[-119.9299, 37.618], [-119.9289, 37.6161], [-119.9302, 37.6151], [-119.9326, 37.6153], [-119.933, 37.6148], [-119.9302, 37.6145], [-119.9292, 37.6151], [-119.9289, 37.6142], [-119.9313, 37.6142], [-119.9316, 37.6137], [-119.9299, 37.6118], [-119.9285, 37.6121], [-119.9275, 37.611], [-119.9272, 37.6115], [-119.9262, 37.6115], [-119.9261, 37.6156], [-119.9275, 37.6159], [-119.9272, 37.6161], [-119.9275, 37.6169], [-119.9282, 37.6156], [-119.9292, 37.6153], [-119.9282, 37.6172], [-119.9299, 37.618]], [[-119.9275, 37.6142], [-119.9272, 37.6145], [-119.9272, 37.6142], [-119.9275, 37.6142]], [[-119.9289, 37.6137], [-119.9285, 37.6142], [-119.9285, 37.6137], [-119.9289, 37.6137]], [[-119.9275, 37.614], [-119.9268, 37.6137], [-119.9272, 37.6129], [-119.9282, 37.6129], [-119.9282, 37.6126], [-119.9289, 37.6126], [-119.9282, 37.6134], [-119.9275, 37.6132], [-119.9275, 37.614]], [[-119.9309, 37.6137], [-119.9292, 37.6132], [-119.9292, 37.6126], [-119.9302, 37.6124], [-119.9299, 37.6129], [-119.9309, 37.6137]], [[-119.9292, 37.6124], [-119.9289, 37.6126], [-119.9289, 37.6124], [-119.9292, 37.6124]], [[-119.9275, 37.6124], [-119.9272, 37.6126], [-119.9272, 37.6124], [-119.9275, 37.6124]], [[-119.9279, 37.6121], [-119.9275, 37.6124], [-119.9275, 37.6121], [-119.9279, 37.6121]], [[-119.9282, 37.6118], [-119.9279, 37.6121], [-119.9279, 37.6118], [-119.9282, 37.6118]], [[-119.9279, 37.6115], [-119.9272, 37.6118], [-119.9272, 37.6115], [-119.9279, 37.6115]]], [[[-119.9282, 37.6113], [-119.9285, 37.611], [-119.9282, 37.611], [-119.9282, 37.6113]]], [[[-119.9265, 37.6113], [-119.9268, 37.611], [-119.9265, 37.611], [-119.9265, 37.6113]]], [[[-119.933, 37.611], [-119.9333, 37.6107], [-119.933, 37.6107], [-119.933, 37.611]]], [[[-119.9319, 37.6126], [-119.9319, 37.6118], [-119.9313, 37.6121], [-119.9316, 37.6105], [-119.9309, 37.6105], [-119.9313, 37.611], [-119.9302, 37.6113], [-119.9302, 37.6121], [-119.9319, 37.6126]]], [[[-119.9279, 37.6107], [-119.9285, 37.6102], [-119.9282, 37.6102], [-119.9279, 37.6107]]], [[[-119.9343, 37.6105], [-119.9347, 37.6102], [-119.9343, 37.6102], [-119.9343, 37.6105]]], [[[-119.9316, 37.6102], [-119.9319, 37.6099], [-119.9316, 37.6099], [-119.9316, 37.6102]]], [[[-119.9313, 37.6099], [-119.9316, 37.6097], [-119.9313, 37.6097], [-119.9313, 37.6099]]], [[[-119.9466, 37.6091], [-119.9469, 37.6089], [-119.9466, 37.6089], [-119.9466, 37.6091]]], [[[-119.9302, 37.6091], [-119.9309, 37.6088], [-119.9302, 37.6088], [-119.9302, 37.6091]]], [[[-119.9296, 37.6088], [-119.9302, 37.6083], [-119.9299, 37.6083], [-119.9296, 37.6088]]], [[[-119.9302, 37.6083], [-119.9306, 37.6078], [-119.9302, 37.6078], [-119.9302, 37.6083]]], [[[-119.933, 37.608], [-119.9333, 37.6078], [-119.933, 37.6078], [-119.933, 37.608]]], [[[-119.9462, 37.6078], [-119.9466, 37.6075], [-119.9462, 37.6075], [-119.9462, 37.6078]]], [[[-119.9265, 37.6078], [-119.9268, 37.6075], [-119.9265, 37.6075], [-119.9265, 37.6078]]], [[[-119.9272, 37.6067], [-119.9275, 37.6064], [-119.9272, 37.6064], [-119.9272, 37.6067]]]]}, "properties": {"layer": "high_severity"}}, {"type": "Feature", "geometry": {"type": "MultiPolygon", "coordinates": [[[[-119.9299, 37.6151], [-119.9302, 37.6148], [-119.9299, 37.6148], [-119.9299, 37.6151]]], [[[-119.9105, 37.615], [-119.9108, 37.6148], [-119.9105, 37.6148], [-119.9105, 37.615]]], [[[-119.9302, 37.6148], [-119.9306, 37.6145], [-119.9302, 37.6145], [-119.9302, 37.6148]]], [[[-119.9105, 37.6145], [-119.9108, 37.614], [-119.9105, 37.614], [-119.9105, 37.6145]]], [[[-119.9278, 37.6151], [-119.9289, 37.6145], [-119.9285, 37.6137], [-119.9272, 37.6145], [-119.9278, 37.6151]]], [[[-119.9306, 37.6142], [-119.9306, 37.6137], [-119.9289, 37.6137], [-119.9289, 37.6142], [-119.9306, 37.6142]]], [[[-119.9088, 37.6137], [-119.9091, 37.6134], [-119.9088, 37.6134], [-119.9088, 37.6137]]], [[[-119.9282, 37.6134], [-119.9285, 37.6132], [-119.9282, 37.6132], [-119.9282, 37.6134]]], [[[-119.9265, 37.6129], [-119.9268, 37.6126], [-119.9265, 37.6126], [-119.9265, 37.6129]]], [[[-119.9275, 37.6129], [-119.9282, 37.6126], [-119.9275, 37.6124], [-119.9275, 37.6129]]], [[[-119.9268, 37.6121], [-119.9272, 37.6124], [-119.9275, 37.6121], [-119.9268, 37.6121]]]]}, "properties": {"layer": "interior"}}, {"type": "Feature", "geometry": {"type": "MultiPolygon", "coordinates": [[[[-119.9299, 37.6151], [-119.9302, 37.6148], [-119.9299, 37.6148], [-119.9299, 37.6151]]], [[[-119.9105, 37.615], [-119.9108, 37.6148], [-119.9105, 37.6148], [-119.9105, 37.615]]], [[[-119.9302, 37.6148], [-119.9306, 37.6145], [-119.9302, 37.6145], [-119.9302, 37.6148]]], [[[-119.9105, 37.6145], [-119.9108, 37.614], [-119.9105, 37.614], [-119.9105, 37.6145]]], [[[-119.9278, 37.6151], [-119.9289, 37.6145], [-119.9285, 37.6137], [-119.9272, 37.6145], [-119.9278, 37.6151]]], [[[-119.9306, 37.6142], [-119.9306, 37.6137], [-119.9289, 37.6137], [-119.9289, 37.6142], [-119.9306, 37.6142]]], [[[-119.9088, 37.6137], [-119.9091, 37.6134], [-119.9088, 37.6134], [-119.9088, 37.6137]]], [[[-119.9282, 37.6134], [-119.9285, 37.6132], [-119.9282, 37.6132], [-119.9282, 37.6134]]], [[[-119.9265, 37.6129], [-119.9268, 37.6126], [-119.9265, 37.6126], [-119.9265, 37.6129]]], [[[-119.9275, 37.6129], [-119.9282, 37.6126], [-119.9275, 37.6124], [-119.9275, 37.6129]]], [[[-119.9268, 37.6121], [-119.9272, 37.6124], [-119.9275, 37.6121], [-119.9268, 37.6121]]]]}, "properties": {"layer": "cell", "cell_id": "532_3000", "seed_zone": "532", "elevation_band": "3000–3500 ft"}}]}
