{"type": "FeatureCollection", "features": [{"type": "Feature", "geometry": {"type": "Polygon", "coordinates": [[[-121.6029, 41.8285], [-121.6051, 41.8383], [-121.6024, 41.8414], [-121.6009, 41.8413], [-121.597, 41.8435], [-121.5918, 41.8417], [-121.5921, 41.8365], [-121.5903, 41.8356], [-121.5897, 41.8298], [-121.5882, 41.8265], [-121.5887, 41.8256], [-121.5873, 41.8196], [-121.5875, 41.8171], [-121.5826, 41.8087], [-121.5813, 41.808], [-121.5812, 41.8093], [-121.5826, 41.8111], [-121.5788, 41.8107], [-121.5775, 41.8109], [-121.5789, 41.8114], [-121.5788, 41.8119], [-121.5771, 41.8114], [-121.574, 41.8118], [-121.5751, 41.8129], [-121.5741, 41.8124], [-121.571, 41.8123], [-121.571, 41.8133], [-121.5693, 41.8143], [-121.5678, 41.8166], [-121.5619, 41.8186], [-121.5586, 41.8173], [-121.5564, 41.8231], [-121.5555, 41.8238], [-121.5515, 41.824], [-121.5493, 41.8235], [-121.5461, 41.8215], [-121.5449, 41.8174], [-121.5376, 41.8159], [-121.5381, 41.8152], [-121.5372, 41.8146], [-121.5362, 41.8154], [-121.536, 41.8147], [-121.5329, 41.814], [-121.5341, 41.8128], [-121.5322, 41.8123], [-121.5284, 41.814], [-121.5262, 41.8142], [-121.525, 41.8152], [-121.5248, 41.817], [-121.5226, 41.8192], [-121.5196, 41.8198], [-121.5149, 41.8245], [-121.5112, 41.8248], [-121.5094, 41.8257], [-121.5069, 41.8248], [-121.5035, 41.8253], [-121.5009, 41.8243], [-121.4993, 41.8249], [-121.4971, 41.8286], [-121.4966, 41.828], [-121.4951, 41.8296], [-121.4923, 41.8306], [-121.4897, 41.8327], [-121.4865, 41.8331], [-121.4776, 41.8301], [-121.47, 41.8328], [-121.4657, 41.8335], [-121.463, 41.8349], [-121.4517, 41.8326], [-121.4492, 41.8328], [-121.45, 41.8341], [-121.4473, 41.8344], [-121.4488, 41.8363], [-121.4602, 41.8384], [-121.4626, 41.8425], [-121.4667, 41.8441], [-121.4687, 41.8435], [-121.4718, 41.8387], [-121.4743, 41.838], [-121.4753, 41.8358], [-121.4768, 41.8349], [-121.4793, 41.8348], [-121.4835, 41.8375], [-121.4837, 41.8379], [-121.4825, 41.8377], [-121.479, 41.8363], [-121.4788, 41.8372], [-121.4761, 41.8372], [-121.4747, 41.8396], [-121.4734, 41.8403], [-121.4723, 41.8401], [-121.4688, 41.8443], [-121.4669, 41.8447], [-121.4631, 41.8439], [-121.4613, 41.8424], [-121.4603, 41.8403], [-121.4568, 41.8386], [-121.4522, 41.838], [-121.4506, 41.8389], [-121.4481, 41.8383], [-121.4459, 41.8388], [-121.4421, 41.8364], [-121.4392, 41.8362], [-121.4364, 41.8351], [-121.4345, 41.8314], [-121.4357, 41.8306], [-121.4353, 41.8278], [-121.4371, 41.8264], [-121.4364, 41.8218], [-121.4311, 41.817], [-121.4325, 41.817], [-121.4322, 41.8163], [-121.4285, 41.8152], [-121.4265, 41.8137], [-121.4252, 41.8116], [-121.4256, 41.8107], [-121.4248, 41.808], [-121.4224, 41.806], [-121.4217, 41.8023], [-121.4194, 41.8016], [-121.4182, 41.7996], [-121.4154, 41.7988], [-121.4132, 41.7969], [-121.4089, 41.796], [-121.4076, 41.7966], [-121.4071, 41.7979], [-121.4081, 41.7989], [-121.4071, 41.7997], [-121.4038, 41.7984], [-121.4014, 41.799], [-121.399, 41.7986], [-121.3977, 41.7998], [-121.3932, 41.7994], [-121.3908, 41.8012], [-121.391, 41.8019], [-121.3896, 41.8033], [-121.3875, 41.8027], [-121.3708, 41.7675], [-121.3651, 41.7694], [-121.3698, 41.7708], [-121.3706, 41.7718], [-121.3704, 41.7725], [-121.3673, 41.774], [-121.3651, 41.776], [-121.362, 41.7747], [-121.3616, 41.7732], [-121.3632, 41.771], [-121.3628, 41.7699], [-121.3616, 41.7701], [-121.3607, 41.7691], [-121.3604, 41.77], [-121.359, 41.7693], [-121.3557, 41.7714], [-121.3572, 41.7754], [-121.3562, 41.7768], [-121.3506, 41.7762], [-121.3485, 41.7779], [-121.3484, 41.7788], [-121.3464, 41.7788], [-121.3439, 41.775], [-121.3427, 41.7744], [-121.3416, 41.772], [-121.3402, 41.7712], [-121.3387, 41.768], [-121.3374, 41.7674], [-121.3336, 41.7598], [-121.3357, 41.7586], [-121.3393, 41.7538], [-121.3391, 41.7528], [-121.3402, 41.7522], [-121.3405, 41.7506], [-121.3428, 41.7497], [-121.3432, 41.7471], [-121.3421, 41.7454], [-121.3392, 41.7453], [-121.338, 41.7442], [-121.3389, 41.7415], [-121.3437, 41.7374], [-121.3443, 41.735], [-121.3418, 41.7319], [-121.3396, 41.7317], [-121.3378, 41.7338], [-121.3354, 41.7342], [-121.3351, 41.7349], [-121.3325, 41.7349], [-121.3321, 41.7334], [-121.3334, 41.7317], [-121.3334, 41.73], [-121.3311, 41.7277], [-121.3277, 41.7272], [-121.328, 41.7266], [-121.3258, 41.7253], [-121.3238, 41.723], [-121.322, 41.7194], [-121.3175, 41.7168], [-121.3149, 41.7162], [-121.3112, 41.7208], [-121.3096, 41.7202], [-121.3086, 41.7184], [-121.309, 41.717], [-121.3126, 41.7152], [-121.3195, 41.7133], [-121.3173, 41.7018], [-121.3124, 41.6984], [-121.3118, 41.6969], [-121.3137, 41.6955], [-121.3153, 41.6953], [-121.3173, 41.6965], [-121.3201, 41.6943], [-121.3236, 41.6988], [-121.3274, 41.701], [-121.3317, 41.7018], [-121.3347, 41.7036], [-121.3411, 41.7093], [-121.3453, 41.7164], [-121.3466, 41.7152], [-121.347, 41.7138], [-121.3444, 41.7087], [-121.3445, 41.7069], [-121.3473, 41.7049], [-121.3471, 41.7039], [-121.3478, 41.7036], [-121.3441, 41.7032], [-121.3422, 41.7012], [-121.3398, 41.693], [-121.3405, 41.6922], [-121.3381, 41.6864], [-121.3409, 41.6862], [-121.3391, 41.6847], [-121.3382, 41.685], [-121.3352, 41.6769], [-121.3374, 41.6783], [-121.3398, 41.6813], [-121.3397, 41.6835], [-121.3412, 41.6843], [-121.3411, 41.6854], [-121.3419, 41.6868], [-121.3432, 41.6872], [-121.3436, 41.6888], [-121.3451, 41.6883], [-121.3463, 41.6888], [-121.3464, 41.6878], [-121.3506, 41.6885], [-121.3517, 41.6866], [-121.3516, 41.685], [-121.3523, 41.6858], [-121.3551, 41.6858], [-121.3545, 41.6838], [-121.3531, 41.6829], [-121.3544, 41.6825], [-121.3521, 41.6798], [-121.3535, 41.6795], [-121.3563, 41.6826], [-121.3573, 41.6808], [-121.3588, 41.6821], [-121.3606, 41.6812], [-121.3607, 41.6789], [-121.3598, 41.6774], [-121.3623, 41.6798], [-121.3631, 41.6782], [-121.3603, 41.677], [-121.3609, 41.6768], [-121.3575, 41.6739], [-121.3555, 41.6731], [-121.3525, 41.6689], [-121.351, 41.6652], [-121.3491, 41.6636], [-121.3476, 41.6606], [-121.3481, 41.6607], [-121.348, 41.6597], [-121.3454, 41.6579], [-121.3437, 41.6554], [-121.3465, 41.6532], [-121.3464, 41.6544], [-121.3479, 41.6545], [-121.3475, 41.6552], [-121.3481, 41.6552], [-121.3505, 41.6611], [-121.3548, 41.6667], [-121.3551, 41.6661], [-121.3561, 41.6666], [-121.3565, 41.6686], [-121.3586, 41.671], [-121.3583, 41.6685], [-121.3595, 41.6688], [-121.3576, 41.6671], [-121.3597, 41.6661], [-121.3612, 41.6671], [-121.3613, 41.666], [-121.3541, 41.6577], [-121.3552, 41.6574], [-121.3539, 41.6555], [-121.3555, 41.6508], [-121.3548, 41.6485], [-121.3528, 41.6478], [-121.352, 41.6453], [-121.3485, 41.6423], [-121.3494, 41.6408], [-121.3507, 41.6409], [-121.3509, 41.6402], [-121.3474, 41.6368], [-121.3479, 41.6355], [-121.3509, 41.6357], [-121.352, 41.6367], [-121.3527, 41.6356], [-121.3558, 41.6377], [-121.3592, 41.6388], [-121.3656, 41.6449], [-121.368, 41.6485], [-121.3703, 41.6476], [-121.3705, 41.6481], [-121.3732, 41.6475], [-121.3738, 41.6466], [-121.3754, 41.6467], [-121.3787, 41.6492], [-121.385, 41.6504], [-121.389, 41.652], [-121.394, 41.6552], [-121.3991, 41.6563], [-121.3997, 41.6563], [-121.398, 41.6553], [-121.3983, 41.6542], [-121.3997, 41.6536], [-121.3998, 41.6513], [-121.4009, 41.6495], [-121.399, 41.6474], [-121.3988, 41.645], [-121.3976, 41.6437], [-121.3985, 41.6408], [-121.3961, 41.6348], [-121.395, 41.634], [-121.3951, 41.6302], [-121.3958, 41.6292], [-121.399, 41.6291], [-121.4021, 41.633], [-121.4026, 41.6312], [-121.4052, 41.6303], [-121.405, 41.6326], [-121.4081, 41.6331], [-121.4121, 41.6357], [-121.4138, 41.6347], [-121.4132, 41.6364], [-121.4142, 41.6372], [-121.416, 41.637], [-121.4175, 41.638], [-121.4181, 41.6398], [-121.4161, 41.6403], [-121.4166, 41.6408], [-121.4152, 41.6402], [-121.4155, 41.6427], [-121.4192, 41.6437], [-121.4255, 41.6436], [-121.4268, 41.6451], [-121.4251, 41.6467], [-121.4254, 41.6479], [-121.4276, 41.6475], [-121.4315, 41.6501], [-121.4347, 41.65], [-121.4334, 41.6515], [-121.435, 41.6537], [-121.4359, 41.6535], [-121.4369, 41.6507], [-121.4385, 41.6502], [-121.4396, 41.6519], [-121.4411, 41.6522], [-121.4401, 41.6533], [-121.4413, 41.654], [-121.4417, 41.6566], [-121.4437, 41.6577], [-121.4455, 41.6574], [-121.4471, 41.6585], [-121.4494, 41.6566], [-121.4534, 41.6595], [-121.4542, 41.658], [-121.4561, 41.6572], [-121.4557, 41.6564], [-121.4569, 41.6553], [-121.4557, 41.65], [-121.4542, 41.6486], [-121.4566, 41.6446], [-121.4551, 41.6431], [-121.4492, 41.6406], [-121.4456, 41.6345], [-121.4494, 41.6318], [-121.4543, 41.6336], [-121.4548, 41.6329], [-121.46, 41.632], [-121.4643, 41.6333], [-121.4643, 41.6326], [-121.4669, 41.6303], [-121.4684, 41.6299], [-121.4691, 41.6307], [-121.4708, 41.6305], [-121.4715, 41.6311], [-121.473, 41.6305], [-121.4747, 41.6313], [-121.4741, 41.6329], [-121.4749, 41.6332], [-121.474, 41.6348], [-121.4744, 41.6353], [-121.4757, 41.6346], [-121.4768, 41.6355], [-121.477, 41.6372], [-121.4784, 41.6384], [-121.4781, 41.6392], [-121.4796, 41.6415], [-121.4791, 41.6424], [-121.4798, 41.6418], [-121.4811, 41.6419], [-121.4805, 41.6427], [-121.4813, 41.6426], [-121.4812, 41.6435], [-121.4792, 41.6439], [-121.4797, 41.6445], [-121.4818, 41.6445], [-121.4819, 41.6459], [-121.4784, 41.6462], [-121.4784, 41.6489], [-121.4761, 41.6501], [-121.4781, 41.651], [-121.4775, 41.6515], [-121.4782, 41.6537], [-121.4793, 41.6536], [-121.48, 41.6546], [-121.4817, 41.6542], [-121.4818, 41.6532], [-121.4822, 41.654], [-121.4857, 41.6541], [-121.4862, 41.6562], [-121.4878, 41.6538], [-121.4891, 41.654], [-121.4896, 41.653], [-121.4906, 41.6533], [-121.4924, 41.6516], [-121.4938, 41.6533], [-121.4967, 41.6545], [-121.4966, 41.6551], [-121.4991, 41.6553], [-121.4988, 41.6563], [-121.5017, 41.6558], [-121.5027, 41.6549], [-121.5053, 41.6553], [-121.5035, 41.6533], [-121.5088, 41.6544], [-121.511, 41.6524], [-121.5104, 41.6519], [-121.5113, 41.6521], [-121.5119, 41.6514], [-121.5124, 41.6499], [-121.5144, 41.6491], [-121.5146, 41.6502], [-121.5168, 41.6497], [-121.5195, 41.6509], [-121.5199, 41.6514], [-121.5191, 41.6517], [-121.5199, 41.6534], [-121.5211, 41.6536], [-121.5225, 41.6551], [-121.5228, 41.656], [-121.5216, 41.6574], [-121.5233, 41.6582], [-121.5239, 41.6608], [-121.5253, 41.6599], [-121.528, 41.66], [-121.5312, 41.6589], [-121.5349, 41.6602], [-121.5444, 41.6572], [-121.5457, 41.6575], [-121.5457, 41.6595], [-121.5469, 41.6592], [-121.548, 41.6598], [-121.5505, 41.6583], [-121.5532, 41.6586], [-121.5558, 41.6567], [-121.5562, 41.6576], [-121.5581, 41.6574], [-121.5581, 41.6579], [-121.5629, 41.6593], [-121.5633, 41.6609], [-121.5648, 41.6614], [-121.5653, 41.6606], [-121.5669, 41.6614], [-121.5686, 41.6598], [-121.5705, 41.6599], [-121.5716, 41.6609], [-121.5736, 41.6602], [-121.5718, 41.6612], [-121.5727, 41.6622], [-121.5754, 41.6617], [-121.5782, 41.6645], [-121.5814, 41.6654], [-121.5807, 41.6666], [-121.5731, 41.6702], [-121.5703, 41.6706], [-121.5656, 41.6698], [-121.5625, 41.6713], [-121.558, 41.6706], [-121.5567, 41.6711], [-121.5568, 41.6757], [-121.5552, 41.6773], [-121.5533, 41.678], [-121.5524, 41.6806], [-121.5494, 41.6814], [-121.5451, 41.6899], [-121.545, 41.6932], [-121.5402, 41.6956], [-121.5369, 41.6957], [-121.5348, 41.6966], [-121.531, 41.703], [-121.5265, 41.7063], [-121.5257, 41.7161], [-121.5285, 41.7237], [-121.5357, 41.7349], [-121.5418, 41.7404], [-121.5489, 41.7456], [-121.5552, 41.7523], [-121.5559, 41.7595], [-121.5585, 41.7601], [-121.5604, 41.759], [-121.5633, 41.7594], [-121.5666, 41.7617], [-121.5677, 41.7613], [-121.5674, 41.7621], [-121.5684, 41.763], [-121.5675, 41.7629], [-121.5665, 41.7651], [-121.5675, 41.7672], [-121.5665, 41.7672], [-121.5656, 41.7691], [-121.5639, 41.7697], [-121.5636, 41.7676], [-121.5632, 41.768], [-121.5609, 41.7672], [-121.5599, 41.7653], [-121.5578, 41.7648], [-121.5551, 41.7627], [-121.5546, 41.7638], [-121.5525, 41.7644], [-121.5502, 41.7685], [-121.5509, 41.7718], [-121.5516, 41.7713], [-121.5514, 41.7719], [-121.5531, 41.7732], [-121.5554, 41.773], [-121.5559, 41.774], [-121.5592, 41.7751], [-121.56, 41.7767], [-121.5618, 41.7773], [-121.5613, 41.7785], [-121.5625, 41.7795], [-121.5621, 41.7803], [-121.5652, 41.7803], [-121.5669, 41.7812], [-121.5672, 41.7832], [-121.5648, 41.7879], [-121.5652, 41.7888], [-121.5661, 41.7889], [-121.567, 41.7873], [-121.5697, 41.7885], [-121.5713, 41.7885], [-121.5729, 41.7875], [-121.576, 41.7882], [-121.5849, 41.7956], [-121.5867, 41.7941], [-121.5871, 41.7956], [-121.588, 41.7953], [-121.5906, 41.7925], [-121.5931, 41.7923], [-121.5943, 41.7906], [-121.5951, 41.7906], [-121.5952, 41.7928], [-121.5969, 41.7921], [-121.5977, 41.7929], [-121.5986, 41.7927], [-121.5997, 41.7933], [-121.5981, 41.7956], [-121.6, 41.7967], [-121.6013, 41.7988], [-121.6058, 41.7988], [-121.6049, 41.8007], [-121.6034, 41.8007], [-121.6034, 41.8014], [-121.6016, 41.8022], [-121.5989, 41.8019], [-121.5965, 41.8026], [-121.5942, 41.8016], [-121.5911, 41.8016], [-121.5905, 41.8041], [-121.5926, 41.8093], [-121.5926, 41.815], [-121.5953, 41.8161], [-121.5944, 41.8192], [-121.5976, 41.8225], [-121.5978, 41.825], [-121.5993, 41.8257], [-121.6018, 41.8256], [-121.6029, 41.8245], [-121.605, 41.826], [-121.6063, 41.8261], [-121.6064, 41.8268], [-121.6049, 41.8272], [-121.6034, 41.8261], [-121.6024, 41.8263], [-121.6034, 41.827], [-121.6029, 41.8285]]]}, "properties": {"layer": "perimeter"}}, {"type": "Feature", "geometry": {"type": "MultiPolygon", "coordinates": [[[[-121.4312, 41.8169], [-121.4322, 41.8168], [-121.4325, 41.817], [-121.4322, 41.8163], [-121.4285, 41.8152], [-121.4268, 41.8138], [-121.4242, 41.8068], [-121.4223, 41.8054], [-121.4216, 41.8021], [-121.4196, 41.801], [-121.4184, 41.7993], [-121.4156, 41.7986], [-121.4118, 41.796], [-121.409, 41.7956], [-121.4076, 41.7966], [-121.4071, 41.7979], [-121.4081, 41.7989], [-121.4075, 41.7995], [-121.4042, 41.7983], [-121.4014, 41.799], [-121.3998, 41.7984], [-121.3976, 41.7992], [-121.3929, 41.799], [-121.3908, 41.8012], [-121.3905, 41.8026], [-121.389, 41.8033], [-121.388, 41.803], [-121.387, 41.8009], [-121.3901, 41.8009], [-121.3922, 41.7979], [-121.3977, 41.7989], [-121.3994, 41.7974], [-121.4041, 41.7967], [-121.404, 41.7938], [-121.4186, 41.794], [-121.4186, 41.7976], [-121.4282, 41.7977], [-121.4279, 41.8052], [-121.4376, 41.8051], [-121.4376, 41.8219], [-121.4376, 41.8196], [-121.4346, 41.8196], [-121.4323, 41.817], [-121.4312, 41.8169]]], [[[-121.3528, 41.6478], [-121.3528, 41.6443], [-121.3506, 41.6442], [-121.3485, 41.6423], [-121.3494, 41.6408], [-121.3507, 41.6409], [-121.3509, 41.6402], [-121.3474, 41.6368], [-121.3479, 41.6355], [-121.3509, 41.6357], [-121.352, 41.6367], [-121.3527, 41.6356], [-121.3558, 41.6377], [-121.3592, 41.6388], [-121.3625, 41.6421], [-121.3624, 41.648], [-121.3528, 41.6478]]], [[[-121.3919, 41.6539], [-121.3968, 41.6562], [-121.3997, 41.6563], [-121.398, 41.6553], [-121.3983, 41.6542], [-121.3997, 41.6536], [-121.3998, 41.6513], [-121.4009, 41.6495], [-121.3995, 41.6479], [-121.411, 41.6479], [-121.4107, 41.6625], [-121.3914, 41.6624], [-121.3919, 41.6539]]], [[[-121.4985, 41.655], [-121.4988, 41.6552], [-121.4983, 41.6552], [-121.4985, 41.655]]], [[[-121.5027, 41.6549], [-121.5035, 41.6551], [-121.5027, 41.6551], [-121.5027, 41.6549]]], [[[-121.5047, 41.6551], [-121.5035, 41.6533], [-121.508, 41.6541], [-121.508, 41.6551], [-121.5047, 41.6551]]], [[[-121.5558, 41.6769], [-121.5533, 41.678], [-121.5524, 41.6806], [-121.5494, 41.6814], [-121.5469, 41.6856], [-121.5471, 41.6769], [-121.5558, 41.6769]]], [[[-121.4934, 41.666], [-121.4836, 41.666], [-121.4836, 41.6624], [-121.4934, 41.6624], [-121.4934, 41.666]]], [[[-121.4884, 41.677], [-121.4885, 41.6697], [-121.4982, 41.6697], [-121.4983, 41.6624], [-121.5032, 41.6624], [-121.503, 41.677], [-121.5079, 41.677], [-121.5079, 41.6697], [-121.5275, 41.6696], [-121.5276, 41.6769], [-121.5178, 41.677], [-121.5178, 41.6806], [-121.5227, 41.6806], [-121.5227, 41.6842], [-121.5276, 41.6842], [-121.5276, 41.6878], [-121.5129, 41.6879], [-121.5129, 41.6843], [-121.498, 41.6843], [-121.4981, 41.6915], [-121.4883, 41.6915], [-121.4883, 41.6843], [-121.4689, 41.6843], [-121.469, 41.677], [-121.4884, 41.677]]]]}, "properties": {"layer": "retained"}}, {"type": "Feature", "geometry": {"type": "MultiPolygon", "coordinates": [[[[-121.4923, 41.6912], [-121.4926, 41.6909], [-121.4923, 41.6909], [-121.4923, 41.6912]]], [[[-121.4973, 41.6898], [-121.4976, 41.6895], [-121.4973, 41.6895], [-121.4973, 41.6898]]], [[[-121.4926, 41.6896], [-121.4929, 41.6893], [-121.4926, 41.6893], [-121.4926, 41.6896]]], [[[-121.4951, 41.689], [-121.4955, 41.6887], [-121.4951, 41.6887], [-121.4951, 41.689]]], [[[-121.4893, 41.6891], [-121.4897, 41.6888], [-121.4893, 41.6888], [-121.4893, 41.6891]]], [[[-121.4965, 41.6895], [-121.498, 41.6887], [-121.4969, 41.6885], [-121.4965, 41.6895]]], [[[-121.4962, 41.6885], [-121.4969, 41.6882], [-121.4962, 41.6879], [-121.4962, 41.6885]]], [[[-121.4933, 41.6888], [-121.4933, 41.6882], [-121.4922, 41.6877], [-121.4922, 41.6888], [-121.4933, 41.6888]]], [[[-121.498, 41.6884], [-121.4979, 41.6876], [-121.4972, 41.6876], [-121.4972, 41.6882], [-121.498, 41.6884]]], [[[-121.5271, 41.6878], [-121.5274, 41.6873], [-121.5264, 41.6876], [-121.5264, 41.687], [-121.5238, 41.6873], [-121.5239, 41.6879], [-121.5271, 41.6878]]], [[[-121.5231, 41.6873], [-121.5235, 41.6871], [-121.5231, 41.6871], [-121.5231, 41.6873]]], [[[-121.5199, 41.6874], [-121.5202, 41.6871], [-121.5199, 41.6871], [-121.5199, 41.6874]]], [[[-121.517, 41.6871], [-121.5174, 41.6869], [-121.517, 41.6869], [-121.517, 41.6871]]], [[[-121.4929, 41.6874], [-121.4943, 41.6871], [-121.4929, 41.6869], [-121.4929, 41.6874]]], [[[-121.494, 41.6888], [-121.4947, 41.6882], [-121.4958, 41.6882], [-121.4972, 41.6866], [-121.4961, 41.6866], [-121.4961, 41.6874], [-121.4944, 41.6879], [-121.494, 41.6888]]], [[[-121.4943, 41.6869], [-121.4947, 41.6866], [-121.4943, 41.6866], [-121.4943, 41.6869]]], [[[-121.4925, 41.6869], [-121.4929, 41.6863], [-121.4925, 41.6863], [-121.4925, 41.6869]]], [[[-121.4911, 41.6864], [-121.4914, 41.6861], [-121.4911, 41.6861], [-121.4911, 41.6864]]], [[[-121.5159, 41.6874], [-121.517, 41.6871], [-121.5166, 41.6871], [-121.517, 41.6863], [-121.5159, 41.6855], [-121.5152, 41.6866], [-121.5159, 41.6874]]], [[[-121.4958, 41.686], [-121.4961, 41.6858], [-121.4957, 41.6858], [-121.4958, 41.686]]], [[[-121.4979, 41.6868], [-121.4979, 41.6855], [-121.4972, 41.6855], [-121.4972, 41.6866], [-121.4979, 41.6868]]], [[[-121.49, 41.6866], [-121.4904, 41.6858], [-121.4896, 41.6853], [-121.4889, 41.6861], [-121.49, 41.6866]]], [[[-121.4961, 41.6855], [-121.4965, 41.6852], [-121.4961, 41.6852], [-121.4961, 41.6855]]], [[[-121.526, 41.6849], [-121.5263, 41.6846], [-121.526, 41.6846], [-121.526, 41.6849]]], [[[-121.4914, 41.685], [-121.4918, 41.6853], [-121.4921, 41.685], [-121.4914, 41.685]]], [[[-121.4958, 41.6866], [-121.4958, 41.686], [-121.495, 41.685], [-121.4932, 41.6847], [-121.4929, 41.6863], [-121.494, 41.6866], [-121.4947, 41.686], [-121.4947, 41.6866], [-121.4958, 41.6866]], [[-121.4943, 41.6855], [-121.4939, 41.6858], [-121.4939, 41.6855], [-121.4943, 41.6855]], [[-121.4947, 41.6852], [-121.4943, 41.6855], [-121.4943, 41.6852], [-121.4947, 41.6852]]], [[[-121.4961, 41.6852], [-121.4961, 41.6847], [-121.4954, 41.6847], [-121.4954, 41.685], [-121.4961, 41.6852]]], [[[-121.5209, 41.6847], [-121.5213, 41.6844], [-121.5209, 41.6844], [-121.5209, 41.6847]]], [[[-121.4939, 41.6847], [-121.4946, 41.6844], [-121.4939, 41.6844], [-121.4939, 41.6847]]], [[[-121.4928, 41.6847], [-121.4932, 41.6844], [-121.4928, 41.6844], [-121.4928, 41.6847]]], [[[-121.4975, 41.6844], [-121.4979, 41.6841], [-121.4975, 41.6841], [-121.4975, 41.6844]]], [[[-121.4892, 41.6845], [-121.4896, 41.6842], [-121.4892, 41.6842], [-121.4892, 41.6845]]], [[[-121.491, 41.6847], [-121.4914, 41.6839], [-121.491, 41.6839], [-121.491, 41.6847]]], [[[-121.5479, 41.6838], [-121.5479, 41.6832], [-121.5468, 41.6833], [-121.5468, 41.6838], [-121.5479, 41.6838]]], [[[-121.4968, 41.6841], [-121.4971, 41.6839], [-121.4968, 41.6839], [-121.4968, 41.6841]]], [[[-121.4752, 41.6844], [-121.4756, 41.6841], [-121.4752, 41.6841], [-121.4752, 41.6844]]], [[[-121.4954, 41.6844], [-121.4953, 41.6836], [-121.495, 41.6836], [-121.4946, 41.6842], [-121.4954, 41.6844]]], [[[-121.4971, 41.6839], [-121.4975, 41.6836], [-121.4971, 41.6836], [-121.4971, 41.6839]]], [[[-121.4961, 41.6839], [-121.4964, 41.6836], [-121.4961, 41.6836], [-121.4961, 41.6839]]], [[[-121.4932, 41.6839], [-121.4939, 41.6839], [-121.4943, 41.6836], [-121.4932, 41.6839]]], [[[-121.4734, 41.6844], [-121.4748, 41.6838], [-121.4734, 41.6841], [-121.4734, 41.6844]]], [[[-121.4694, 41.6842], [-121.4698, 41.6839], [-121.4694, 41.6839], [-121.4694, 41.6842]]], [[[-121.4817, 41.684], [-121.4824, 41.6838], [-121.4817, 41.6835], [-121.4817, 41.684]]], [[[-121.4709, 41.6842], [-121.4716, 41.6839], [-121.4709, 41.6836], [-121.4709, 41.6842]]], [[[-121.5086, 41.6832], [-121.509, 41.6834], [-121.5094, 41.6832], [-121.5086, 41.6832]]], [[[-121.4953, 41.6836], [-121.4961, 41.6833], [-121.4953, 41.6833], [-121.4953, 41.6836]]], [[[-121.4946, 41.6836], [-121.495, 41.6833], [-121.4946, 41.6833], [-121.4946, 41.6836]]], [[[-121.4824, 41.6838], [-121.4827, 41.6835], [-121.4824, 41.6835], [-121.4824, 41.6838]]], [[[-121.4763, 41.6838], [-121.477, 41.6836], [-121.4763, 41.6836], [-121.4763, 41.6838]]], [[[-121.4748, 41.6838], [-121.4752, 41.6836], [-121.4748, 41.6836], [-121.4748, 41.6838]]], [[[-121.4698, 41.6839], [-121.4705, 41.6836], [-121.4698, 41.6836], [-121.4698, 41.6839]]], [[[-121.4738, 41.6839], [-121.4741, 41.6833], [-121.4737, 41.6833], [-121.4738, 41.6839]]], [[[-121.4943, 41.6833], [-121.4946, 41.6828], [-121.4942, 41.6828], [-121.4943, 41.6833]]], [[[-121.473, 41.6833], [-121.4727, 41.6828], [-121.4719, 41.6828], [-121.4723, 41.6833], [-121.473, 41.6833]]], [[[-121.5486, 41.6822], [-121.5489, 41.6819], [-121.5486, 41.6819], [-121.5486, 41.6822]]], [[[-121.4885, 41.6829], [-121.4888, 41.6826], [-121.4885, 41.6826], [-121.4885, 41.6829]]], [[[-121.4982, 41.6825], [-121.4986, 41.6822], [-121.4982, 41.6822], [-121.4982, 41.6825]]], [[[-121.491, 41.6839], [-121.4921, 41.6828], [-121.4903, 41.6829], [-121.4892, 41.6821], [-121.4888, 41.6826], [-121.491, 41.6839]]], [[[-121.496, 41.6825], [-121.4967, 41.682], [-121.4964, 41.682], [-121.496, 41.6825]]], [[[-121.4784, 41.6827], [-121.4784, 41.6822], [-121.4773, 41.6822], [-121.4773, 41.6825], [-121.4784, 41.6827]]], [[[-121.5061, 41.6821], [-121.5065, 41.6818], [-121.5061, 41.6819], [-121.5061, 41.6821]]], [[[-121.4798, 41.6824], [-121.4802, 41.6822], [-121.4798, 41.6822], [-121.4798, 41.6824]]], [[[-121.4694, 41.6826], [-121.4698, 41.6823], [-121.4694, 41.6823], [-121.4694, 41.6826]]], [[[-121.477, 41.6827], [-121.4766, 41.6819], [-121.4762, 41.6819], [-121.4759, 41.6825], [-121.477, 41.6827]]], [[[-121.4727, 41.6828], [-121.4734, 41.6822], [-121.4726, 41.682], [-121.4727, 41.6828]]], [[[-121.4953, 41.6823], [-121.4957, 41.6817], [-121.4953, 41.6817], [-121.4953, 41.6823]]], [[[-121.5057, 41.6819], [-121.5061, 41.6816], [-121.5057, 41.6816], [-121.5057, 41.6819]]], [[[-121.4906, 41.682], [-121.491, 41.6818], [-121.4906, 41.6818], [-121.4906, 41.682]]], [[[-121.5478, 41.6819], [-121.5489, 41.6811], [-121.5482, 41.6808], [-121.5478, 41.6819]]], [[[-121.4791, 41.6822], [-121.4795, 41.6816], [-121.4791, 41.6816], [-121.4791, 41.6822]]], [[[-121.5054, 41.6816], [-121.5057, 41.6813], [-121.5054, 41.6813], [-121.5054, 41.6816]]], [[[-121.4874, 41.6818], [-121.4877, 41.6815], [-121.4874, 41.6815], [-121.4874, 41.6818]]], [[[-121.4784, 41.6819], [-121.4788, 41.6816], [-121.4784, 41.6816], [-121.4784, 41.6819]]], [[[-121.4773, 41.6819], [-121.4777, 41.6816], [-121.4773, 41.6817], [-121.4773, 41.6819]]], [[[-121.4755, 41.6819], [-121.4762, 41.6817], [-121.4755, 41.6817], [-121.4755, 41.6819]]], [[[-121.4719, 41.682], [-121.4726, 41.6817], [-121.4719, 41.6817], [-121.4719, 41.682]]], [[[-121.4899, 41.6818], [-121.4906, 41.6812], [-121.4903, 41.6812], [-121.4899, 41.6818]]], [[[-121.5475, 41.6808], [-121.5478, 41.6805], [-121.5475, 41.6805], [-121.5475, 41.6808]]], [[[-121.4881, 41.6815], [-121.4888, 41.6812], [-121.4881, 41.6813], [-121.4881, 41.6815]]], [[[-121.4921, 41.682], [-121.4921, 41.6812], [-121.4913, 41.6809], [-121.491, 41.6818], [-121.4921, 41.682]]], [[[-121.4949, 41.6814], [-121.4957, 41.6812], [-121.4949, 41.6809], [-121.4949, 41.6814]]], [[[-121.4766, 41.6817], [-121.4769, 41.6811], [-121.4766, 41.6811], [-121.4766, 41.6817]]], [[[-121.4784, 41.6814], [-121.4787, 41.6811], [-121.4784, 41.6811], [-121.4784, 41.6814]]], [[[-121.469, 41.6815], [-121.4694, 41.6812], [-121.469, 41.6812], [-121.469, 41.6815]]], [[[-121.4921, 41.6812], [-121.4924, 41.6807], [-121.492, 41.6807], [-121.4921, 41.6812]]], [[[-121.4701, 41.6815], [-121.4708, 41.6809], [-121.4705, 41.6809], [-121.4701, 41.6815]]], [[[-121.4791, 41.6811], [-121.4795, 41.6808], [-121.4791, 41.6808], [-121.4791, 41.6811]]], [[[-121.4741, 41.6811], [-121.4744, 41.6809], [-121.4741, 41.6809], [-121.4741, 41.6811]]], [[[-121.55, 41.6811], [-121.5503, 41.6802], [-121.5485, 41.6797], [-121.5485, 41.6805], [-121.55, 41.6811]]], [[[-121.4935, 41.6807], [-121.4938, 41.6804], [-121.4935, 41.6804], [-121.4935, 41.6807]]], [[[-121.4795, 41.6808], [-121.4798, 41.6805], [-121.4794, 41.6805], [-121.4795, 41.6808]]], [[[-121.4784, 41.6808], [-121.4787, 41.6806], [-121.4784, 41.6806], [-121.4784, 41.6808]]], [[[-121.4708, 41.6809], [-121.4712, 41.6806], [-121.4708, 41.6806], [-121.4708, 41.6809]]], [[[-121.4806, 41.6819], [-121.4813, 41.6813], [-121.4802, 41.68], [-121.4805, 41.6813], [-121.4795, 41.6811], [-121.4795, 41.6816], [-121.4806, 41.6819]]], [[[-121.473, 41.6812], [-121.473, 41.6801], [-121.4726, 41.6801], [-121.4723, 41.6809], [-121.473, 41.6812]]], [[[-121.551, 41.6802], [-121.5521, 41.6794], [-121.5514, 41.6791], [-121.551, 41.6802]]], [[[-121.4931, 41.6801], [-121.4935, 41.6798], [-121.4931, 41.6798], [-121.4931, 41.6801]]], [[[-121.5134, 41.688], [-121.5148, 41.6853], [-121.5155, 41.6853], [-121.5144, 41.6839], [-121.5151, 41.6834], [-121.5148, 41.6826], [-121.5169, 41.6836], [-121.5166, 41.685], [-121.5184, 41.6871], [-121.5192, 41.6871], [-121.5192, 41.6863], [-121.5195, 41.6868], [-121.5206, 41.6865], [-121.5206, 41.6874], [-121.521, 41.6868], [-121.5228, 41.6873], [-121.5228, 41.6865], [-121.5249, 41.6868], [-121.5238, 41.686], [-121.5245, 41.6854], [-121.5238, 41.6846], [-121.526, 41.6857], [-121.5253, 41.6865], [-121.5274, 41.6865], [-121.5277, 41.6843], [-121.5263, 41.6843], [-121.5267, 41.6849], [-121.526, 41.6854], [-121.526, 41.6849], [-121.5256, 41.6849], [-121.5259, 41.6843], [-121.5227, 41.6841], [-121.5226, 41.6806], [-121.519, 41.6809], [-121.5176, 41.6804], [-121.5169, 41.6823], [-121.5155, 41.6823], [-121.5158, 41.6807], [-121.5165, 41.6809], [-121.5169, 41.6798], [-121.5154, 41.6807], [-121.5143, 41.6804], [-121.5136, 41.6812], [-121.514, 41.6801], [-121.5129, 41.6793], [-121.5129, 41.6807], [-121.5118, 41.681], [-121.5119, 41.6818], [-121.5101, 41.6821], [-121.5108, 41.6823], [-121.5101, 41.6842], [-121.513, 41.6842], [-121.513, 41.6847], [-121.5137, 41.6847], [-121.5141, 41.685], [-121.513, 41.685], [-121.5134, 41.688]], [[-121.5224, 41.6868], [-121.522, 41.6871], [-121.522, 41.6868], [-121.5224, 41.6868]], [[-121.522, 41.6865], [-121.5217, 41.6868], [-121.5217, 41.6865], [-121.522, 41.6865]], [[-121.5217, 41.6863], [-121.5213, 41.6865], [-121.5213, 41.6863], [-121.5217, 41.6863]], [[-121.5188, 41.6855], [-121.5184, 41.6858], [-121.5184, 41.6855], [-121.5188, 41.6855]], [[-121.5216, 41.6849], [-121.5209, 41.6849], [-121.5209, 41.6847], [-121.5205, 41.6844], [-121.5213, 41.6841], [-121.5216, 41.6844], [-121.5216, 41.6849]], [[-121.5227, 41.6844], [-121.522, 41.6846], [-121.522, 41.6844], [-121.5227, 41.6844]], [[-121.5141, 41.6845], [-121.5137, 41.6847], [-121.5137, 41.6845], [-121.5141, 41.6845]], [[-121.522, 41.6841], [-121.5216, 41.6844], [-121.5216, 41.6841], [-121.522, 41.6841]], [[-121.5176, 41.6823], [-121.5173, 41.6831], [-121.5169, 41.6823], [-121.5176, 41.6823]], [[-121.5122, 41.6829], [-121.5119, 41.6831], [-121.5119, 41.6829], [-121.5122, 41.6829]], [[-121.5212, 41.6825], [-121.5209, 41.6828], [-121.5209, 41.6825], [-121.5212, 41.6825]], [[-121.5126, 41.6829], [-121.5122, 41.6818], [-121.5133, 41.681], [-121.5137, 41.6818], [-121.5126, 41.6829]], [[-121.5183, 41.682], [-121.518, 41.6823], [-121.518, 41.682], [-121.5183, 41.682]], [[-121.5223, 41.6817], [-121.5212, 41.6814], [-121.5223, 41.6808], [-121.5223, 41.6817]], [[-121.5212, 41.6811], [-121.5208, 41.6814], [-121.5208, 41.6811], [-121.5212, 41.6811]]], [[[-121.5115, 41.6796], [-121.5118, 41.6794], [-121.5114, 41.6794], [-121.5115, 41.6796]]], [[[-121.4909, 41.6799], [-121.4913, 41.6796], [-121.4909, 41.6796], [-121.4909, 41.6799]]], [[[-121.4834, 41.68], [-121.4837, 41.6797], [-121.4834, 41.6797], [-121.4834, 41.68]]], [[[-121.4971, 41.6811], [-121.4974, 41.6795], [-121.4963, 41.6793], [-121.4956, 41.6798], [-121.4949, 41.6793], [-121.4953, 41.6804], [-121.4942, 41.6804], [-121.4942, 41.6809], [-121.496, 41.6804], [-121.4971, 41.6811]]], [[[-121.5147, 41.6793], [-121.515, 41.679], [-121.5147, 41.679], [-121.5147, 41.6793]]], [[[-121.4938, 41.6796], [-121.4942, 41.6793], [-121.4938, 41.6793], [-121.4938, 41.6796]]], [[[-121.482, 41.6811], [-121.4819, 41.6797], [-121.4809, 41.6792], [-121.4809, 41.6808], [-121.482, 41.6811]]], [[[-121.5136, 41.6788], [-121.5143, 41.6793], [-121.5143, 41.6788], [-121.5136, 41.6788]]], [[[-121.4971, 41.6793], [-121.4974, 41.679], [-121.497, 41.679], [-121.4971, 41.6793]]], [[[-121.4909, 41.6793], [-121.4906, 41.6788], [-121.4899, 41.6791], [-121.4899, 41.6793], [-121.4909, 41.6793]]], [[[-121.5165, 41.6788], [-121.5168, 41.6785], [-121.5165, 41.6785], [-121.5165, 41.6788]]], [[[-121.4798, 41.6792], [-121.4801, 41.6789], [-121.4798, 41.6789], [-121.4798, 41.6792]]], [[[-121.5514, 41.6789], [-121.5521, 41.6783], [-121.5517, 41.6778], [-121.551, 41.6781], [-121.5514, 41.6789]]], [[[-121.4751, 41.6792], [-121.4758, 41.679], [-121.4751, 41.6787], [-121.4751, 41.6792]]], [[[-121.5524, 41.678], [-121.5528, 41.6778], [-121.5524, 41.6778], [-121.5524, 41.678]]], [[[-121.5168, 41.6785], [-121.5172, 41.6782], [-121.5168, 41.6782], [-121.5168, 41.6785]]], [[[-121.4755, 41.6817], [-121.4762, 41.6809], [-121.4798, 41.6797], [-121.4798, 41.6792], [-121.4794, 41.6792], [-121.4798, 41.6786], [-121.4773, 41.6789], [-121.4783, 41.6795], [-121.4773, 41.68], [-121.4751, 41.6803], [-121.4744, 41.6795], [-121.4733, 41.6806], [-121.4748, 41.6806], [-121.4755, 41.6817]]], [[[-121.4701, 41.6807], [-121.4697, 41.6793], [-121.4715, 41.679], [-121.4704, 41.679], [-121.4704, 41.6785], [-121.4693, 41.679], [-121.469, 41.6785], [-121.469, 41.6804], [-121.4701, 41.6807]]], [[[-121.5521, 41.6778], [-121.5524, 41.6775], [-121.5521, 41.6775], [-121.5521, 41.6778]]], [[[-121.4765, 41.6787], [-121.4769, 41.6784], [-121.4765, 41.6784], [-121.4765, 41.6787]]], [[[-121.4726, 41.6787], [-121.4733, 41.6785], [-121.4726, 41.6785], [-121.4726, 41.6787]]], [[[-121.5175, 41.6785], [-121.5179, 41.6777], [-121.5175, 41.6777], [-121.5175, 41.6785]]], [[[-121.4769, 41.6784], [-121.4772, 41.6781], [-121.4769, 41.6781], [-121.4769, 41.6784]]], [[[-121.5546, 41.6775], [-121.5546, 41.6769], [-121.5528, 41.677], [-121.5531, 41.6775], [-121.5546, 41.6775]]], [[[-121.5553, 41.6772], [-121.5557, 41.6769], [-121.5553, 41.6769], [-121.5553, 41.6772]]], [[[-121.4747, 41.6784], [-121.4751, 41.6779], [-121.474, 41.6779], [-121.474, 41.6782], [-121.4747, 41.6784]]], [[[-121.4722, 41.6787], [-121.4722, 41.6782], [-121.4726, 41.6779], [-121.4715, 41.6782], [-121.4722, 41.6787]]], [[[-121.4708, 41.6782], [-121.4715, 41.6779], [-121.4708, 41.6779], [-121.4708, 41.6782]]], [[[-121.4787, 41.6787], [-121.4787, 41.6778], [-121.4772, 41.6776], [-121.4772, 41.6781], [-121.4787, 41.6787]]], [[[-121.5092, 41.6775], [-121.5096, 41.6772], [-121.5092, 41.6772], [-121.5092, 41.6775]]], [[[-121.492, 41.6777], [-121.4923, 41.6774], [-121.492, 41.6774], [-121.492, 41.6777]]], [[[-121.4751, 41.6779], [-121.4754, 41.6776], [-121.4751, 41.6776], [-121.4751, 41.6779]]], [[[-121.4697, 41.678], [-121.4704, 41.6777], [-121.4697, 41.6777], [-121.4697, 41.678]]], [[[-121.4845, 41.6794], [-121.4844, 41.6786], [-121.4855, 41.6783], [-121.4855, 41.6772], [-121.4841, 41.6781], [-121.4837, 41.6794], [-121.4845, 41.6794]]], [[[-121.5143, 41.6772], [-121.5146, 41.6769], [-121.5143, 41.6769], [-121.5143, 41.6772]]], [[[-121.4859, 41.6775], [-121.4862, 41.6772], [-121.4859, 41.6772], [-121.4859, 41.6775]]], [[[-121.4787, 41.6776], [-121.479, 41.6773], [-121.4787, 41.6773], [-121.4787, 41.6776]]], [[[-121.4726, 41.6777], [-121.4729, 41.6774], [-121.4725, 41.6774], [-121.4726, 41.6777]]], [[[-121.4819, 41.6794], [-121.4823, 41.677], [-121.479, 41.677], [-121.4805, 41.6786], [-121.4816, 41.6786], [-121.4819, 41.6794]], [[-121.4819, 41.6773], [-121.4812, 41.6781], [-121.4812, 41.6773], [-121.4819, 41.6773]]], [[[-121.4834, 41.6786], [-121.4841, 41.6775], [-121.4837, 41.677], [-121.483, 41.677], [-121.4826, 41.6781], [-121.4834, 41.6786]]], [[[-121.5222, 41.6768], [-121.5225, 41.6765], [-121.5222, 41.6765], [-121.5222, 41.6768]]], [[[-121.4855, 41.6772], [-121.4858, 41.677], [-121.4855, 41.677], [-121.4855, 41.6772]]], [[[-121.474, 41.6774], [-121.4743, 41.6771], [-121.474, 41.6771], [-121.474, 41.6774]]], [[[-121.4718, 41.6774], [-121.4722, 41.6771], [-121.4718, 41.6771], [-121.4718, 41.6774]]], [[[-121.5258, 41.677], [-121.5258, 41.6762], [-121.5243, 41.6768], [-121.5243, 41.677], [-121.5258, 41.677]]], [[[-121.524, 41.6765], [-121.5243, 41.6762], [-121.524, 41.6762], [-121.524, 41.6765]]], [[[-121.4902, 41.6769], [-121.4905, 41.6766], [-121.4902, 41.6766], [-121.4902, 41.6769]]], [[[-121.5197, 41.6763], [-121.52, 41.676], [-121.5197, 41.676], [-121.5197, 41.6763]]], [[[-121.5146, 41.6763], [-121.515, 41.6761], [-121.5146, 41.6761], [-121.5146, 41.6763]]], [[[-121.5139, 41.6763], [-121.5143, 41.6761], [-121.5139, 41.6761], [-121.5139, 41.6763]]], [[[-121.5236, 41.6762], [-121.524, 41.6757], [-121.5236, 41.6757], [-121.5236, 41.6762]]], [[[-121.4894, 41.6761], [-121.4898, 41.6758], [-121.4894, 41.6758], [-121.4894, 41.6761]]], [[[-121.5254, 41.6754], [-121.5257, 41.6751], [-121.5254, 41.6751], [-121.5254, 41.6754]]], [[[-121.5239, 41.6751], [-121.5247, 41.6749], [-121.5239, 41.6749], [-121.5239, 41.6751]]], [[[-121.4912, 41.6769], [-121.4916, 41.6753], [-121.4898, 41.6747], [-121.4905, 41.6753], [-121.4901, 41.6761], [-121.4912, 41.6769]]], [[[-121.5247, 41.6746], [-121.525, 41.6743], [-121.5247, 41.6743], [-121.5247, 41.6746]]], [[[-121.4905, 41.6737], [-121.4908, 41.6734], [-121.4905, 41.6734], [-121.4905, 41.6737]]], [[[-121.4883, 41.6739], [-121.489, 41.6734], [-121.4883, 41.6731], [-121.4883, 41.6739]]], [[[-121.5106, 41.6731], [-121.5109, 41.6729], [-121.5106, 41.6729], [-121.5106, 41.6731]]], [[[-121.5116, 41.6718], [-121.5124, 41.6715], [-121.5116, 41.6715], [-121.5116, 41.6718]]], [[[-121.4908, 41.6718], [-121.4911, 41.6715], [-121.4908, 41.6715], [-121.4908, 41.6718]]], [[[-121.5276, 41.6767], [-121.5274, 41.67], [-121.5264, 41.6702], [-121.5267, 41.6708], [-121.5253, 41.6703], [-121.5253, 41.6694], [-121.5224, 41.6695], [-121.5202, 41.6703], [-121.5199, 41.6711], [-121.5213, 41.6706], [-121.5224, 41.6714], [-121.521, 41.6722], [-121.5199, 41.6719], [-121.5196, 41.6728], [-121.5185, 41.6725], [-121.5189, 41.6733], [-121.5182, 41.6739], [-121.5192, 41.6739], [-121.5193, 41.6744], [-121.52, 41.6747], [-121.52, 41.6755], [-121.5204, 41.6755], [-121.5207, 41.676], [-121.5225, 41.6746], [-121.5229, 41.676], [-121.5239, 41.6741], [-121.5257, 41.673], [-121.5257, 41.674], [-121.5268, 41.674], [-121.5261, 41.6751], [-121.5276, 41.6767]], [[-121.5207, 41.6749], [-121.5204, 41.6755], [-121.5203, 41.6749], [-121.5207, 41.6749]], [[-121.5243, 41.6735], [-121.5239, 41.6724], [-121.525, 41.6724], [-121.525, 41.6732], [-121.5243, 41.6735]], [[-121.5214, 41.6733], [-121.5207, 41.6736], [-121.5207, 41.6733], [-121.5214, 41.6733]], [[-121.5264, 41.673], [-121.5261, 41.6732], [-121.5261, 41.673], [-121.5264, 41.673]], [[-121.5264, 41.6721], [-121.5261, 41.6727], [-121.526, 41.6721], [-121.5264, 41.6721]], [[-121.5246, 41.6722], [-121.5235, 41.6722], [-121.5235, 41.6714], [-121.5242, 41.6716], [-121.5242, 41.6708], [-121.5253, 41.6708], [-121.5246, 41.6722]], [[-121.5232, 41.6716], [-121.5224, 41.6722], [-121.5224, 41.6716], [-121.5232, 41.6716]]], [[[-121.5124, 41.6745], [-121.5142, 41.6742], [-121.5146, 41.6731], [-121.5167, 41.6728], [-121.5184, 41.6695], [-121.5109, 41.6696], [-121.5106, 41.6715], [-121.5113, 41.6707], [-121.5124, 41.6715], [-121.5134, 41.6712], [-121.5124, 41.6726], [-121.5131, 41.6728], [-121.5124, 41.6745]], [[-121.5142, 41.6728], [-121.5135, 41.6728], [-121.5135, 41.6723], [-121.5138, 41.6723], [-121.5142, 41.6728]], [[-121.5149, 41.6717], [-121.5145, 41.672], [-121.5145, 41.6717], [-121.5149, 41.6717]], [[-121.5138, 41.6715], [-121.5134, 41.6718], [-121.5134, 41.6715], [-121.5138, 41.6715]], [[-121.5141, 41.6704], [-121.5138, 41.6709], [-121.5138, 41.6704], [-121.5141, 41.6704]], [[-121.5127, 41.6701], [-121.5123, 41.6704], [-121.5123, 41.6701], [-121.5127, 41.6701]]], [[[-121.5098, 41.6699], [-121.5105, 41.6696], [-121.5098, 41.6696], [-121.5098, 41.6699]]], [[[-121.5087, 41.6699], [-121.5091, 41.6696], [-121.5087, 41.6696], [-121.5087, 41.6699]]], [[[-121.5015, 41.6843], [-121.5025, 41.6835], [-121.504, 41.684], [-121.504, 41.6835], [-121.5054, 41.6832], [-121.5057, 41.6819], [-121.5047, 41.6819], [-121.5047, 41.6827], [-121.504, 41.6827], [-121.5039, 41.6819], [-121.505, 41.6808], [-121.5079, 41.6807], [-121.5078, 41.6794], [-121.5093, 41.6786], [-121.5089, 41.6772], [-121.511, 41.675], [-121.5102, 41.6737], [-121.5106, 41.6734], [-121.5106, 41.6731], [-121.5102, 41.6731], [-121.5102, 41.6718], [-121.5091, 41.6713], [-121.5095, 41.6707], [-121.508, 41.6697], [-121.5078, 41.677], [-121.5031, 41.677], [-121.5024, 41.6768], [-121.5031, 41.6762], [-121.503, 41.6716], [-121.5023, 41.6716], [-121.503, 41.6703], [-121.5019, 41.6695], [-121.5004, 41.6695], [-121.5005, 41.67], [-121.499, 41.6698], [-121.4983, 41.6709], [-121.4979, 41.6698], [-121.4886, 41.6699], [-121.4883, 41.6729], [-121.4915, 41.6731], [-121.4912, 41.6736], [-121.4919, 41.6742], [-121.4916, 41.6761], [-121.4934, 41.6761], [-121.4916, 41.6766], [-121.4916, 41.6772], [-121.4945, 41.6774], [-121.4931, 41.679], [-121.4945, 41.6793], [-121.4945, 41.6785], [-121.4978, 41.6787], [-121.4978, 41.6801], [-121.4985, 41.68], [-121.4978, 41.682], [-121.4989, 41.6819], [-121.4993, 41.6825], [-121.4989, 41.6836], [-121.4975, 41.6828], [-121.4979, 41.6838], [-121.4986, 41.6838], [-121.4982, 41.6844], [-121.5, 41.6841], [-121.5004, 41.6841], [-121.5004, 41.6844], [-121.5015, 41.6843]], [[-121.5015, 41.6838], [-121.5011, 41.6841], [-121.5011, 41.6838], [-121.5015, 41.6838]], [[-121.5008, 41.6841], [-121.4997, 41.6838], [-121.4996, 41.683], [-121.5007, 41.6835], [-121.5008, 41.6841]], [[-121.504, 41.683], [-121.5036, 41.6835], [-121.5036, 41.683], [-121.504, 41.683]], [[-121.5025, 41.6835], [-121.5018, 41.683], [-121.5032, 41.6822], [-121.5032, 41.683], [-121.5025, 41.6835]], [[-121.5018, 41.6824], [-121.5011, 41.683], [-121.5011, 41.6827], [-121.5018, 41.6824]], [[-121.5007, 41.6825], [-121.5004, 41.683], [-121.5, 41.6825], [-121.5007, 41.6825]], [[-121.5014, 41.6822], [-121.5007, 41.6825], [-121.5007, 41.6822], [-121.5014, 41.6822]], [[-121.5018, 41.6819], [-121.5014, 41.6822], [-121.5014, 41.6819], [-121.5018, 41.6819]], [[-121.5032, 41.6811], [-121.5029, 41.6814], [-121.5028, 41.6811], [-121.5032, 41.6811]], [[-121.5003, 41.6808], [-121.4996, 41.6814], [-121.4989, 41.6809], [-121.5003, 41.6808]], [[-121.5032, 41.6805], [-121.5028, 41.6808], [-121.5028, 41.6805], [-121.5032, 41.6805]], [[-121.5025, 41.6808], [-121.5018, 41.6808], [-121.5018, 41.6803], [-121.5021, 41.6803], [-121.5025, 41.6808]], [[-121.5064, 41.68], [-121.5057, 41.6805], [-121.5057, 41.6797], [-121.5064, 41.68]], [[-121.5007, 41.6795], [-121.5003, 41.6798], [-121.5003, 41.6795], [-121.5007, 41.6795]], [[-121.5064, 41.6791], [-121.5061, 41.6794], [-121.506, 41.6791], [-121.5064, 41.6791]], [[-121.5064, 41.6778], [-121.506, 41.6786], [-121.5057, 41.6778], [-121.5064, 41.6778]], [[-121.5053, 41.6783], [-121.505, 41.6786], [-121.5049, 41.6784], [-121.5053, 41.6783]], [[-121.5014, 41.6784], [-121.5006, 41.6787], [-121.5006, 41.6784], [-121.5014, 41.6784]], [[-121.5042, 41.6781], [-121.5035, 41.6781], [-121.5031, 41.6776], [-121.5039, 41.6776], [-121.5042, 41.6781]], [[-121.506, 41.6773], [-121.5057, 41.6775], [-121.5056, 41.6773], [-121.506, 41.6773]], [[-121.5031, 41.6773], [-121.5028, 41.6776], [-121.5028, 41.6773], [-121.5031, 41.6773]], [[-121.4941, 41.6766], [-121.4938, 41.6769], [-121.4938, 41.6766], [-121.4941, 41.6766]], [[-121.502, 41.6762], [-121.5017, 41.6765], [-121.5017, 41.6762], [-121.502, 41.6762]], [[-121.5009, 41.6762], [-121.5006, 41.6765], [-121.5006, 41.6762], [-121.5009, 41.6762]], [[-121.4955, 41.6755], [-121.4952, 41.6758], [-121.4952, 41.6755], [-121.4955, 41.6755]], [[-121.5099, 41.6748], [-121.5092, 41.6751], [-121.5092, 41.6748], [-121.5099, 41.6748]], [[-121.4998, 41.6738], [-121.4995, 41.6741], [-121.4995, 41.6738], [-121.4998, 41.6738]], [[-121.5009, 41.6733], [-121.5005, 41.6738], [-121.5005, 41.6733], [-121.5009, 41.6733]], [[-121.5095, 41.6729], [-121.5088, 41.6732], [-121.5088, 41.6729], [-121.5095, 41.6729]], [[-121.5002, 41.673], [-121.4998, 41.6733], [-121.4998, 41.673], [-121.5002, 41.673]], [[-121.4998, 41.6727], [-121.4994, 41.673], [-121.4994, 41.6727], [-121.4998, 41.6727]], [[-121.4944, 41.6728], [-121.494, 41.6731], [-121.494, 41.6728], [-121.4944, 41.6728]], [[-121.494, 41.6725], [-121.4937, 41.6728], [-121.4937, 41.6725], [-121.494, 41.6725]], [[-121.5016, 41.6724], [-121.5009, 41.6722], [-121.5008, 41.6716], [-121.5016, 41.6716], [-121.5016, 41.6724]], [[-121.4929, 41.6709], [-121.4908, 41.6723], [-121.4908, 41.6718], [-121.4904, 41.6712], [-121.4897, 41.671], [-121.4897, 41.6701], [-121.4911, 41.6712], [-121.4929, 41.6709]], [[-121.4904, 41.6723], [-121.489, 41.6723], [-121.489, 41.6718], [-121.4904, 41.6718], [-121.4904, 41.6723]], [[-121.4987, 41.6717], [-121.4983, 41.6719], [-121.4983, 41.6717], [-121.4987, 41.6717]], [[-121.4973, 41.6717], [-121.4969, 41.672], [-121.4969, 41.6717], [-121.4973, 41.6717]], [[-121.5023, 41.6708], [-121.5019, 41.6714], [-121.5019, 41.6708], [-121.5023, 41.6708]], [[-121.4983, 41.6711], [-121.498, 41.6714], [-121.498, 41.6711], [-121.4983, 41.6711]], [[-121.4969, 41.6709], [-121.4965, 41.6714], [-121.4965, 41.6709], [-121.4969, 41.6709]], [[-121.4951, 41.6704], [-121.4944, 41.6714], [-121.4936, 41.6706], [-121.4951, 41.6704]], [[-121.4936, 41.6709], [-121.4933, 41.6712], [-121.4933, 41.6709], [-121.4936, 41.6709]], [[-121.4972, 41.6706], [-121.4969, 41.6709], [-121.4969, 41.6706], [-121.4972, 41.6706]]], [[[-121.5029, 41.6673], [-121.5033, 41.667], [-121.5029, 41.667], [-121.5029, 41.6673]]], [[[-121.4885, 41.6661], [-121.4892, 41.6658], [-121.4885, 41.6658], [-121.4885, 41.6661]]], [[[-121.4863, 41.6661], [-121.4867, 41.6659], [-121.4863, 41.6659], [-121.4863, 41.6661]]], [[[-121.4867, 41.6637], [-121.487, 41.6634], [-121.4866, 41.6634], [-121.4867, 41.6637]]], [[[-121.5001, 41.6698], [-121.5008, 41.6689], [-121.503, 41.6694], [-121.5022, 41.6686], [-121.5029, 41.6686], [-121.5033, 41.6675], [-121.5029, 41.6673], [-121.5022, 41.6673], [-121.5018, 41.6668], [-121.5033, 41.6665], [-121.5032, 41.6657], [-121.5022, 41.6657], [-121.5021, 41.6643], [-121.501, 41.6638], [-121.5014, 41.6624], [-121.4981, 41.6625], [-121.4983, 41.669], [-121.5001, 41.6689], [-121.4994, 41.6695], [-121.5001, 41.6698]], [[-121.5, 41.6676], [-121.4997, 41.6679], [-121.4997, 41.6676], [-121.5, 41.6676]], [[-121.5004, 41.6665], [-121.5, 41.6668], [-121.5, 41.6665], [-121.5004, 41.6665]], [[-121.4997, 41.666], [-121.4989, 41.6662], [-121.4989, 41.666], [-121.4997, 41.666]], [[-121.4996, 41.6649], [-121.4993, 41.6652], [-121.4993, 41.6649], [-121.4996, 41.6649]]], [[[-121.4842, 41.6662], [-121.4838, 41.6653], [-121.4849, 41.6651], [-121.4852, 41.664], [-121.4837, 41.6624], [-121.4842, 41.6651], [-121.4834, 41.6651], [-121.4835, 41.6662], [-121.4842, 41.6662]]], [[[-121.4935, 41.666], [-121.4935, 41.6625], [-121.4895, 41.6623], [-121.4892, 41.6637], [-121.4867, 41.6648], [-121.4867, 41.6659], [-121.4892, 41.6656], [-121.4903, 41.6661], [-121.4899, 41.6655], [-121.4917, 41.6655], [-121.4914, 41.6661], [-121.4935, 41.666]], [[-121.4924, 41.6642], [-121.4917, 41.6644], [-121.4917, 41.6642], [-121.4924, 41.6642]], [[-121.4931, 41.6639], [-121.4924, 41.6642], [-121.4924, 41.6639], [-121.4931, 41.6639]], [[-121.4924, 41.6639], [-121.492, 41.6631], [-121.4927, 41.6628], [-121.4931, 41.6633], [-121.4924, 41.6639]], [[-121.4913, 41.6628], [-121.491, 41.6634], [-121.491, 41.6628], [-121.4913, 41.6628]]], [[[-121.4877, 41.6629], [-121.4877, 41.6623], [-121.487, 41.6623], [-121.487, 41.6626], [-121.4877, 41.6629]]], [[[-121.5055, 41.6548], [-121.5055, 41.654], [-121.5052, 41.654], [-121.5048, 41.6548], [-121.5055, 41.6548]]], [[[-121.5048, 41.654], [-121.5051, 41.6537], [-121.5048, 41.6537], [-121.5048, 41.654]]], [[[-121.4051, 41.653], [-121.4055, 41.6527], [-121.4051, 41.6527], [-121.4051, 41.653]]], [[[-121.4105, 41.6489], [-121.4108, 41.6486], [-121.4105, 41.6486], [-121.4105, 41.6489]]], [[[-121.4072, 41.65], [-121.4079, 41.6489], [-121.4076, 41.6484], [-121.4069, 41.6489], [-121.4072, 41.65]]], [[[-121.4047, 41.6481], [-121.405, 41.6479], [-121.4047, 41.6479], [-121.4047, 41.6481]]], [[[-121.3561, 41.6468], [-121.3565, 41.6465], [-121.3561, 41.6465], [-121.3561, 41.6468]]], [[[-121.3622, 41.6445], [-121.3625, 41.6443], [-121.3622, 41.6443], [-121.3622, 41.6445]]], [[[-121.3618, 41.6443], [-121.3622, 41.644], [-121.3618, 41.644], [-121.3618, 41.6443]]], [[[-121.3619, 41.6481], [-121.3626, 41.6459], [-121.3622, 41.6451], [-121.3611, 41.6451], [-121.3611, 41.644], [-121.3622, 41.6437], [-121.3625, 41.6426], [-121.361, 41.6416], [-121.3607, 41.6402], [-121.3588, 41.6389], [-121.3578, 41.6389], [-121.3578, 41.6394], [-121.3549, 41.64], [-121.3535, 41.6414], [-121.3528, 41.6411], [-121.3524, 41.643], [-121.3535, 41.6438], [-121.3535, 41.6444], [-121.3528, 41.6441], [-121.3529, 41.6471], [-121.354, 41.6471], [-121.3543, 41.6479], [-121.3543, 41.6468], [-121.3554, 41.6468], [-121.355, 41.6476], [-121.3558, 41.6476], [-121.3561, 41.6473], [-121.3561, 41.6468], [-121.3557, 41.6468], [-121.3561, 41.646], [-121.3579, 41.6457], [-121.3579, 41.6465], [-121.3565, 41.647], [-121.3583, 41.6476], [-121.359, 41.647], [-121.3594, 41.6478], [-121.3619, 41.6481]], [[-121.3583, 41.6465], [-121.3579, 41.6467], [-121.3579, 41.6465], [-121.3583, 41.6465]], [[-121.3547, 41.646], [-121.3543, 41.6465], [-121.3543, 41.646], [-121.3547, 41.646]], [[-121.3568, 41.6454], [-121.3564, 41.6457], [-121.3564, 41.6454], [-121.3568, 41.6454]], [[-121.3543, 41.6454], [-121.3539, 41.6457], [-121.3539, 41.6454], [-121.3543, 41.6454]], [[-121.3586, 41.6448], [-121.3582, 41.6454], [-121.3582, 41.6448], [-121.3586, 41.6448]], [[-121.3557, 41.6451], [-121.3543, 41.6449], [-121.3553, 41.6441], [-121.3553, 41.6443], [-121.3557, 41.6443], [-121.3557, 41.6446], [-121.355, 41.6449], [-121.3557, 41.6451]], [[-121.3604, 41.6446], [-121.36, 41.6448], [-121.36, 41.6446], [-121.3604, 41.6446]], [[-121.3607, 41.6443], [-121.3604, 41.6446], [-121.3604, 41.6443], [-121.3607, 41.6443]], [[-121.3539, 41.6444], [-121.3536, 41.6446], [-121.3535, 41.6444], [-121.3539, 41.6444]], [[-121.3575, 41.644], [-121.3568, 41.6438], [-121.3575, 41.6435], [-121.3575, 41.644]], [[-121.3561, 41.6441], [-121.3557, 41.6443], [-121.3557, 41.6441], [-121.3561, 41.6441]], [[-121.3596, 41.6432], [-121.3589, 41.6438], [-121.3589, 41.6432], [-121.3596, 41.6432]], [[-121.3582, 41.643], [-121.3578, 41.6432], [-121.3578, 41.643], [-121.3582, 41.643]], [[-121.3535, 41.643], [-121.3532, 41.6433], [-121.3532, 41.643], [-121.3535, 41.643]], [[-121.36, 41.6424], [-121.3596, 41.6429], [-121.3596, 41.6424], [-121.36, 41.6424]], [[-121.3607, 41.6424], [-121.3603, 41.6427], [-121.3603, 41.6424], [-121.3607, 41.6424]], [[-121.3593, 41.6424], [-121.3585, 41.6427], [-121.3585, 41.6424], [-121.3593, 41.6424]], [[-121.361, 41.6418], [-121.3607, 41.6424], [-121.3607, 41.6418], [-121.361, 41.6418]], [[-121.3603, 41.6421], [-121.36, 41.6424], [-121.36, 41.6421], [-121.3603, 41.6421]], [[-121.3582, 41.6421], [-121.3578, 41.6424], [-121.3578, 41.6421], [-121.3582, 41.6421]], [[-121.3592, 41.6416], [-121.3585, 41.6416], [-121.3585, 41.6411], [-121.3589, 41.6411], [-121.3592, 41.6416]], [[-121.3585, 41.6411], [-121.3567, 41.6408], [-121.3567, 41.6403], [-121.3581, 41.6402], [-121.3585, 41.6411]], [[-121.3589, 41.64], [-121.3581, 41.6402], [-121.3581, 41.64], [-121.3589, 41.64]]], [[[-121.357, 41.6395], [-121.3574, 41.6386], [-121.3552, 41.6392], [-121.3553, 41.6395], [-121.357, 41.6395]]], [[[-121.3535, 41.6408], [-121.3538, 41.6398], [-121.3552, 41.6392], [-121.3552, 41.6384], [-121.3542, 41.6384], [-121.3545, 41.6373], [-121.3523, 41.6381], [-121.3524, 41.64], [-121.3535, 41.6408]], [[-121.3535, 41.6395], [-121.3531, 41.6398], [-121.3531, 41.6395], [-121.3535, 41.6395]], [[-121.3542, 41.6392], [-121.3535, 41.6395], [-121.3534, 41.6392], [-121.3542, 41.6392]], [[-121.3549, 41.6387], [-121.3545, 41.6389], [-121.3545, 41.6387], [-121.3549, 41.6387]]], [[[-121.3531, 41.6373], [-121.3538, 41.6371], [-121.353, 41.6371], [-121.3531, 41.6373]]]]}, "properties": {"layer": "high_severity"}}, {"type": "Feature", "geometry": {"type": "MultiPolygon", "coordinates": [[[[-121.5227, 41.686], [-121.5227, 41.6854], [-121.5217, 41.6855], [-121.5217, 41.6857], [-121.5227, 41.686]]], [[[-121.5227, 41.6854], [-121.5231, 41.6852], [-121.5227, 41.6852], [-121.5227, 41.6854]]], [[[-121.513, 41.6842], [-121.5133, 41.6834], [-121.5112, 41.6837], [-121.5112, 41.6842], [-121.513, 41.6842]]], [[[-121.5213, 41.6836], [-121.5216, 41.6833], [-121.5212, 41.6833], [-121.5213, 41.6836]]], [[[-121.5133, 41.6834], [-121.5137, 41.6831], [-121.5133, 41.6831], [-121.5133, 41.6834]]], [[[-121.5227, 41.6835], [-121.5227, 41.6825], [-121.5223, 41.6825], [-121.522, 41.6836], [-121.5227, 41.6835]]], [[[-121.5209, 41.6857], [-121.5195, 41.6847], [-121.5209, 41.6836], [-121.5198, 41.6828], [-121.5201, 41.6825], [-121.5198, 41.6814], [-121.5177, 41.685], [-121.5188, 41.6847], [-121.5199, 41.6857], [-121.5209, 41.6857]]], [[[-121.4992, 41.68], [-121.4996, 41.6798], [-121.4992, 41.6798], [-121.4992, 41.68]]], [[[-121.5071, 41.6789], [-121.5075, 41.6786], [-121.5071, 41.6786], [-121.5071, 41.6789]]], [[[-121.5043, 41.6805], [-121.505, 41.6792], [-121.5024, 41.6784], [-121.5014, 41.6795], [-121.5043, 41.6805]]], [[[-121.5021, 41.6784], [-121.5024, 41.6781], [-121.5021, 41.6781], [-121.5021, 41.6784]]], [[[-121.5078, 41.6786], [-121.5078, 41.6772], [-121.5074, 41.6772], [-121.5071, 41.6778], [-121.5078, 41.6786]]], [[[-121.5046, 41.6773], [-121.5049, 41.677], [-121.5046, 41.677], [-121.5046, 41.6773]]], [[[-121.4948, 41.6766], [-121.4952, 41.6763], [-121.4948, 41.6763], [-121.4948, 41.6766]]], [[[-121.4941, 41.676], [-121.4945, 41.6758], [-121.4941, 41.6758], [-121.4941, 41.676]]], [[[-121.5085, 41.6748], [-121.5092, 41.6742], [-121.5088, 41.6737], [-121.5077, 41.6743], [-121.5085, 41.6748]]], [[[-121.5232, 41.6741], [-121.5228, 41.673], [-121.5221, 41.6727], [-121.5221, 41.6738], [-121.5232, 41.6741]]], [[[-121.5271, 41.6729], [-121.5275, 41.6727], [-121.5271, 41.6727], [-121.5271, 41.6729]]], [[[-121.5023, 41.673], [-121.5027, 41.6724], [-121.5023, 41.6724], [-121.5023, 41.673]]], [[[-121.4926, 41.6725], [-121.4929, 41.6723], [-121.4926, 41.6723], [-121.4926, 41.6725]]], [[[-121.4996, 41.6795], [-121.4999, 41.6779], [-121.5021, 41.6778], [-121.5017, 41.677], [-121.5006, 41.6773], [-121.4995, 41.6763], [-121.5006, 41.6754], [-121.5027, 41.6754], [-121.5023, 41.673], [-121.5016, 41.673], [-121.5016, 41.6743], [-121.4995, 41.6749], [-121.4984, 41.6741], [-121.4983, 41.6725], [-121.4969, 41.6728], [-121.4955, 41.6717], [-121.4947, 41.672], [-121.4955, 41.6731], [-121.4944, 41.6739], [-121.4933, 41.6736], [-121.493, 41.6728], [-121.4926, 41.6728], [-121.4926, 41.6725], [-121.4922, 41.6725], [-121.4926, 41.6752], [-121.4945, 41.6755], [-121.4955, 41.6747], [-121.4966, 41.6755], [-121.4952, 41.6766], [-121.4952, 41.6779], [-121.4977, 41.6779], [-121.4996, 41.6795]]], [[[-121.5271, 41.6721], [-121.5275, 41.6713], [-121.5267, 41.6713], [-121.5271, 41.6721]]], [[[-121.5081, 41.6724], [-121.5088, 41.6718], [-121.508, 41.6713], [-121.5081, 41.6724]]], [[[-121.4994, 41.6717], [-121.5001, 41.6711], [-121.5012, 41.6705], [-121.4994, 41.6708], [-121.4994, 41.6717]]], [[[-121.5235, 41.6708], [-121.5235, 41.6703], [-121.5242, 41.6697], [-121.5228, 41.6703], [-121.5235, 41.6708]]], [[[-121.4958, 41.6703], [-121.4961, 41.6701], [-121.4958, 41.6701], [-121.4958, 41.6703]]], [[[-121.4918, 41.6704], [-121.4922, 41.6701], [-121.4918, 41.6701], [-121.4918, 41.6704]]], [[[-121.4911, 41.6704], [-121.4915, 41.6701], [-121.4911, 41.6701], [-121.4911, 41.6704]]], [[[-121.516, 41.6717], [-121.517, 41.6706], [-121.5174, 41.6695], [-121.5152, 41.6701], [-121.5149, 41.6712], [-121.516, 41.6717]]], [[[-121.4933, 41.6701], [-121.4936, 41.6698], [-121.4933, 41.6698], [-121.4933, 41.6701]]], [[[-121.5022, 41.6681], [-121.5015, 41.6676], [-121.5008, 41.6678], [-121.5008, 41.6681], [-121.5022, 41.6681]]], [[[-121.5008, 41.6676], [-121.5011, 41.6673], [-121.5008, 41.6673], [-121.5008, 41.6676]]], [[[-121.4986, 41.6673], [-121.4989, 41.6668], [-121.4986, 41.6668], [-121.4986, 41.6673]]], [[[-121.4982, 41.6654], [-121.4986, 41.6652], [-121.4982, 41.6652], [-121.4982, 41.6654]]], [[[-121.4924, 41.665], [-121.4935, 41.6652], [-121.4935, 41.6647], [-121.4924, 41.665]]], [[[-121.5015, 41.6662], [-121.5014, 41.6651], [-121.5003, 41.6643], [-121.5004, 41.666], [-121.5015, 41.6662]]], [[[-121.4888, 41.6645], [-121.491, 41.6647], [-121.4902, 41.6636], [-121.4888, 41.6645]]], [[[-121.4985, 41.6649], [-121.4993, 41.6641], [-121.5003, 41.6643], [-121.5003, 41.6624], [-121.4981, 41.6625], [-121.4985, 41.6649]]], [[[-121.3611, 41.647], [-121.3615, 41.6459], [-121.3593, 41.6454], [-121.359, 41.6465], [-121.3611, 41.647]]], [[[-121.3607, 41.6435], [-121.3611, 41.6432], [-121.3607, 41.6432], [-121.3607, 41.6435]]], [[[-121.3542, 41.6435], [-121.3571, 41.643], [-121.3571, 41.6416], [-121.356, 41.6408], [-121.3535, 41.6427], [-121.3542, 41.6435]]]]}, "properties": {"layer": "interior"}}, {"type": "Feature", "geometry": {"type": "MultiPolygon", "coordinates": [[[[-121.3611, 41.647], [-121.3615, 41.6459], [-121.3593, 41.6454], [-121.359, 41.6465], [-121.3611, 41.647]]], [[[-121.3607, 41.6435], [-121.3611, 41.6432], [-121.3607, 41.6432], [-121.3607, 41.6435]]], [[[-121.3542, 41.6435], [-121.3571, 41.643], [-121.3571, 41.6416], [-121.356, 41.6408], [-121.3535, 41.6427], [-121.3542, 41.6435]]]]}, "properties": {"layer": "cell", "cell_id": "742_4000", "seed_zone": "742", "elevation_band": "4000–4500 ft"}}, {"type": "Feature", "geometry": {"type": "MultiPolygon", "coordinates": [[[[-121.5227, 41.686], [-121.5227, 41.6854], [-121.5217, 41.6855], [-121.5217, 41.6857], [-121.5227, 41.686]]], [[[-121.5227, 41.6854], [-121.5231, 41.6852], [-121.5227, 41.6852], [-121.5227, 41.6854]]], [[[-121.513, 41.6842], [-121.5133, 41.6834], [-121.5112, 41.6837], [-121.5112, 41.6842], [-121.513, 41.6842]]], [[[-121.5213, 41.6836], [-121.5216, 41.6833], [-121.5212, 41.6833], [-121.5213, 41.6836]]], [[[-121.5133, 41.6834], [-121.5137, 41.6831], [-121.5133, 41.6831], [-121.5133, 41.6834]]], [[[-121.5227, 41.6835], [-121.5227, 41.6825], [-121.5223, 41.6825], [-121.522, 41.6836], [-121.5227, 41.6835]]], [[[-121.5209, 41.6857], [-121.5195, 41.6847], [-121.5209, 41.6836], [-121.5198, 41.6828], [-121.5201, 41.6825], [-121.5198, 41.6814], [-121.5177, 41.685], [-121.5188, 41.6847], [-121.5199, 41.6857], [-121.5209, 41.6857]]], [[[-121.4992, 41.68], [-121.4996, 41.6798], [-121.4992, 41.6798], [-121.4992, 41.68]]], [[[-121.5071, 41.6789], [-121.5075, 41.6786], [-121.5071, 41.6786], [-121.5071, 41.6789]]], [[[-121.5043, 41.6805], [-121.505, 41.6792], [-121.5024, 41.6784], [-121.5014, 41.6795], [-121.5043, 41.6805]]], [[[-121.5021, 41.6784], [-121.5024, 41.6781], [-121.5021, 41.6781], [-121.5021, 41.6784]]], [[[-121.5078, 41.6786], [-121.5078, 41.6772], [-121.5074, 41.6772], [-121.5071, 41.6778], [-121.5078, 41.6786]]], [[[-121.5046, 41.6773], [-121.5049, 41.677], [-121.5046, 41.677], [-121.5046, 41.6773]]], [[[-121.4948, 41.6766], [-121.4952, 41.6763], [-121.4948, 41.6763], [-121.4948, 41.6766]]], [[[-121.4941, 41.676], [-121.4945, 41.6758], [-121.4941, 41.6758], [-121.4941, 41.676]]], [[[-121.5085, 41.6748], [-121.5092, 41.6742], [-121.5088, 41.6737], [-121.5077, 41.6743], [-121.5085, 41.6748]]], [[[-121.5023, 41.673], [-121.5027, 41.6724], [-121.5023, 41.6724], [-121.5023, 41.673]]], [[[-121.4926, 41.6725], [-121.4929, 41.6723], [-121.4926, 41.6723], [-121.4926, 41.6725]]], [[[-121.4996, 41.6795], [-121.4999, 41.6779], [-121.5021, 41.6778], [-121.5017, 41.677], [-121.5006, 41.6773], [-121.4995, 41.6763], [-121.5006, 41.6754], [-121.5027, 41.6754], [-121.5023, 41.673], [-121.5016, 41.673], [-121.5016, 41.6743], [-121.4995, 41.6749], [-121.4984, 41.6741], [-121.4983, 41.6725], [-121.4969, 41.6728], [-121.4955, 41.6717], [-121.4947, 41.672], [-121.4955, 41.6731], [-121.4944, 41.6739], [-121.4933, 41.6736], [-121.493, 41.6728], [-121.4926, 41.6728], [-121.4926, 41.6725], [-121.4922, 41.6725], [-121.4926, 41.6752], [-121.4945, 41.6755], [-121.4955, 41.6747], [-121.4966, 41.6755], [-121.4952, 41.6766], [-121.4952, 41.6779], [-121.4977, 41.6779], [-121.4996, 41.6795]]], [[[-121.5081, 41.6724], [-121.5088, 41.6718], [-121.508, 41.6713], [-121.5081, 41.6724]]], [[[-121.4994, 41.6717], [-121.5001, 41.6711], [-121.5012, 41.6705], [-121.4994, 41.6708], [-121.4994, 41.6717]]], [[[-121.4958, 41.6703], [-121.4961, 41.6701], [-121.4958, 41.6701], [-121.4958, 41.6703]]], [[[-121.4918, 41.6704], [-121.4922, 41.6701], [-121.4918, 41.6701], [-121.4918, 41.6704]]], [[[-121.4911, 41.6704], [-121.4915, 41.6701], [-121.4911, 41.6701], [-121.4911, 41.6704]]], [[[-121.4933, 41.6701], [-121.4936, 41.6698], [-121.4933, 41.6698], [-121.4933, 41.6701]]], [[[-121.4924, 41.6655], [-121.4932, 41.6652], [-121.4924, 41.665], [-121.4924, 41.6655]]], [[[-121.4888, 41.6645], [-121.491, 41.6647], [-121.4902, 41.6636], [-121.4888, 41.6645]]]]}, "properties": {"layer": "cell", "cell_id": "742_5000", "seed_zone": "742", "elevation_band": "5000–5500 ft"}}, {"type": "Feature", "geometry": {"type": "MultiPolygon", "coordinates": [[[[-121.5232, 41.6741], [-121.5228, 41.673], [-121.5221, 41.6727], [-121.5221, 41.6738], [-121.5232, 41.6741]]], [[[-121.5271, 41.6729], [-121.5275, 41.6727], [-121.5271, 41.6727], [-121.5271, 41.6729]]], [[[-121.5271, 41.6721], [-121.5275, 41.6713], [-121.5267, 41.6713], [-121.5271, 41.6721]]], [[[-121.5235, 41.6708], [-121.5235, 41.6703], [-121.5242, 41.6697], [-121.5228, 41.6703], [-121.5235, 41.6708]]], [[[-121.516, 41.6717], [-121.517, 41.6706], [-121.5174, 41.6695], [-121.5152, 41.6701], [-121.5149, 41.6712], [-121.516, 41.6717]]], [[[-121.5022, 41.6681], [-121.5015, 41.6676], [-121.5008, 41.6678], [-121.5008, 41.6681], [-121.5022, 41.6681]]], [[[-121.5008, 41.6676], [-121.5011, 41.6673], [-121.5008, 41.6673], [-121.5008, 41.6676]]], [[[-121.4986, 41.6673], [-121.4989, 41.6668], [-121.4986, 41.6668], [-121.4986, 41.6673]]], [[[-121.4982, 41.6654], [-121.4986, 41.6652], [-121.4982, 41.6652], [-121.4982, 41.6654]]], [[[-121.4928, 41.6652], [-121.4935, 41.6647], [-121.4931, 41.6647], [-121.4928, 41.6652]]], [[[-121.5015, 41.6662], [-121.5014, 41.6651], [-121.5003, 41.6643], [-121.5004, 41.666], [-121.5015, 41.6662]]], [[[-121.4985, 41.6649], [-121.4993, 41.6641], [-121.5003, 41.6643], [-121.5003, 41.6624], [-121.4981, 41.6625], [-121.4985, 41.6649]]]]}, "properties": {"layer": "cell", "cell_id": "742_5500", "seed_zone": "742", "elevation_band": "5500–6000 ft"}}]}
