{"type": "FeatureCollection", "features": [{"type": "Feature", "geometry": {"type": "MultiPolygon", "coordinates": [[[[-123.537, 40.8929], [-123.5375, 40.8922], [-123.5377, 40.8927], [-123.537, 40.8929]]], [[[-123.5398, 40.8938], [-123.5401, 40.894], [-123.5399, 40.894], [-123.5398, 40.8938]]], [[[-123.5368, 40.8949], [-123.5377, 40.8933], [-123.5389, 40.8933], [-123.5391, 40.8951], [-123.5381, 40.8954], [-123.5381, 40.8945], [-123.5368, 40.8949]]], [[[-123.5368, 40.8958], [-123.5365, 40.8959], [-123.5365, 40.8957], [-123.5368, 40.8958]]], [[[-123.5361, 40.8981], [-123.5359, 40.8987], [-123.5354, 40.898], [-123.5361, 40.8981]]], [[[-123.5759, 40.9036], [-123.5747, 40.9053], [-123.575, 40.9064], [-123.5764, 40.9064], [-123.5782, 40.9081], [-123.5794, 40.9082], [-123.5817, 40.9055], [-123.5828, 40.9054], [-123.5837, 40.9044], [-123.5844, 40.9054], [-123.5857, 40.9049], [-123.585, 40.9032], [-123.5831, 40.9022], [-123.587, 40.9029], [-123.5904, 40.8985], [-123.592, 40.8977], [-123.5952, 40.8983], [-123.5962, 40.8992], [-123.5977, 40.898], [-123.5975, 40.8992], [-123.5983, 40.9001], [-123.6031, 40.901], [-123.6054, 40.9062], [-123.6115, 40.9123], [-123.6108, 40.9126], [-123.6097, 40.9156], [-123.6106, 40.9189], [-123.6131, 40.918], [-123.6133, 40.9222], [-123.6145, 40.9238], [-123.6177, 40.925], [-123.616, 40.9262], [-123.6149, 40.9308], [-123.6156, 40.9312], [-123.615, 40.9327], [-123.6161, 40.9363], [-123.6138, 40.937], [-123.6128, 40.94], [-123.6113, 40.9405], [-123.6121, 40.9422], [-123.6102, 40.9475], [-123.6139, 40.9498], [-123.6199, 40.95], [-123.6186, 40.9517], [-123.6216, 40.9551], [-123.6197, 40.9577], [-123.6219, 40.9578], [-123.6237, 40.9558], [-123.6246, 40.9557], [-123.6235, 40.9583], [-123.6246, 40.9611], [-123.6231, 40.9622], [-123.6226, 40.9645], [-123.6235, 40.9656], [-123.6221, 40.9662], [-123.6231, 40.9671], [-123.6247, 40.9673], [-123.6256, 40.9687], [-123.6273, 40.969], [-123.6276, 40.9698], [-123.6268, 40.9712], [-123.6274, 40.9721], [-123.6261, 40.973], [-123.6252, 40.9755], [-123.6258, 40.9763], [-123.6249, 40.9768], [-123.6262, 40.9772], [-123.6252, 40.9795], [-123.626, 40.9818], [-123.6192, 40.982], [-123.62, 40.9853], [-123.6185, 40.9866], [-123.6169, 40.9871], [-123.6151, 40.9859], [-123.612, 40.9862], [-123.6107, 40.9858], [-123.6108, 40.9866], [-123.6104, 40.9857], [-123.6089, 40.9854], [-123.6051, 40.9873], [-123.6038, 40.9873], [-123.6029, 40.9883], [-123.6014, 40.9884], [-123.5992, 40.9879], [-123.5967, 40.9859], [-123.5961, 40.9861], [-123.5956, 40.985], [-123.5889, 40.9853], [-123.5916, 40.9858], [-123.6035, 40.9945], [-123.607, 40.9997], [-123.6134, 41.0009], [-123.6109, 41.0032], [-123.6076, 41.0044], [-123.6086, 41.0054], [-123.6072, 41.0052], [-123.6058, 41.0063], [-123.605, 41.0058], [-123.6003, 41.0064], [-123.5992, 41.0079], [-123.5958, 41.0081], [-123.5854, 41.0054], [-123.586, 41.007], [-123.5884, 41.0082], [-123.5881, 41.0091], [-123.5821, 41.0092], [-123.5809, 41.0101], [-123.5753, 41.0115], [-123.5727, 41.0114], [-123.5676, 41.0126], [-123.5621, 41.0095], [-123.5561, 41.0113], [-123.5545, 41.0107], [-123.5507, 41.0069], [-123.5454, 41.0053], [-123.5383, 41.0046], [-123.5343, 41.006], [-123.5328, 41.0054], [-123.5307, 40.9989], [-123.5247, 40.9935], [-123.5182, 40.9908], [-123.515, 40.9875], [-123.5163, 40.9857], [-123.5113, 40.9805], [-123.5118, 40.9781], [-123.5088, 40.9772], [-123.5059, 40.9746], [-123.4999, 40.9761], [-123.4981, 40.9748], [-123.4981, 40.9739], [-123.4948, 40.9752], [-123.4927, 40.9736], [-123.4901, 40.9734], [-123.4887, 40.9725], [-123.4887, 40.971], [-123.4907, 40.9693], [-123.4895, 40.9643], [-123.4915, 40.9622], [-123.49, 40.9603], [-123.4894, 40.9578], [-123.4899, 40.9574], [-123.4912, 40.9578], [-123.4916, 40.9571], [-123.4901, 40.9557], [-123.4931, 40.9542], [-123.4934, 40.9528], [-123.496, 40.9512], [-123.4932, 40.9496], [-123.4942, 40.9486], [-123.4939, 40.9478], [-123.4952, 40.947], [-123.4945, 40.9461], [-123.4924, 40.9458], [-123.4927, 40.9448], [-123.4918, 40.9435], [-123.4925, 40.9427], [-123.4892, 40.9426], [-123.4881, 40.9414], [-123.4834, 40.9415], [-123.4809, 40.9447], [-123.4822, 40.9471], [-123.4793, 40.9473], [-123.4782, 40.948], [-123.4757, 40.9448], [-123.4722, 40.9468], [-123.4724, 40.9451], [-123.4711, 40.9442], [-123.4784, 40.9406], [-123.4791, 40.9385], [-123.4783, 40.9372], [-123.4803, 40.9374], [-123.4828, 40.9359], [-123.485, 40.9356], [-123.4856, 40.9347], [-123.4882, 40.9346], [-123.4943, 40.9329], [-123.4949, 40.932], [-123.4935, 40.9293], [-123.4961, 40.9297], [-123.4989, 40.9264], [-123.5, 40.9262], [-123.5002, 40.9268], [-123.501, 40.9255], [-123.498, 40.9258], [-123.4961, 40.9249], [-123.4955, 40.9255], [-123.4954, 40.9246], [-123.497, 40.9247], [-123.4966, 40.9242], [-123.4924, 40.9247], [-123.4913, 40.9232], [-123.4913, 40.9209], [-123.489, 40.9186], [-123.4868, 40.9184], [-123.4854, 40.9165], [-123.4859, 40.9155], [-123.4813, 40.9146], [-123.481, 40.9112], [-123.4824, 40.9086], [-123.4817, 40.9075], [-123.4835, 40.906], [-123.4838, 40.9048], [-123.4831, 40.9045], [-123.4847, 40.9033], [-123.484, 40.9009], [-123.4798, 40.898], [-123.4784, 40.896], [-123.4789, 40.8937], [-123.4815, 40.8898], [-123.4874, 40.8887], [-123.4891, 40.887], [-123.4911, 40.8863], [-123.4994, 40.8898], [-123.5033, 40.8894], [-123.5076, 40.8904], [-123.5095, 40.8875], [-123.5127, 40.8859], [-123.5156, 40.8871], [-123.5196, 40.895], [-123.5225, 40.8966], [-123.524, 40.8993], [-123.525, 40.8998], [-123.5254, 40.8988], [-123.5279, 40.898], [-123.5323, 40.9003], [-123.5348, 40.9002], [-123.5367, 40.899], [-123.5373, 40.8973], [-123.5432, 40.8923], [-123.5495, 40.8887], [-123.5536, 40.8889], [-123.5535, 40.8898], [-123.5518, 40.8904], [-123.5515, 40.8917], [-123.5496, 40.8933], [-123.5485, 40.8962], [-123.5499, 40.8981], [-123.5515, 40.8983], [-123.5537, 40.8956], [-123.5561, 40.895], [-123.5562, 40.8936], [-123.5568, 40.8944], [-123.5594, 40.8943], [-123.5577, 40.895], [-123.5581, 40.8965], [-123.5571, 40.8991], [-123.5596, 40.8988], [-123.5608, 40.8994], [-123.5591, 40.8968], [-123.5597, 40.8966], [-123.5621, 40.8971], [-123.562, 40.8976], [-123.5625, 40.8978], [-123.5639, 40.8966], [-123.564, 40.8976], [-123.5702, 40.8963], [-123.5732, 40.8978], [-123.5745, 40.8993], [-123.5752, 40.9016], [-123.5741, 40.9029], [-123.5755, 40.903], [-123.5759, 40.9035], [-123.5759, 40.9036]], [[-123.5759, 40.9036], [-123.5759, 40.9036], [-123.5759, 40.9036], [-123.5759, 40.9036]], [[-123.4966, 40.9653], [-123.4965, 40.9648], [-123.4962, 40.9648], [-123.4966, 40.9653]], [[-123.4978, 40.9652], [-123.4977, 40.967], [-123.4995, 40.9686], [-123.4993, 40.9679], [-123.5, 40.9678], [-123.4988, 40.9675], [-123.4993, 40.9666], [-123.4978, 40.9652]], [[-123.4997, 40.9628], [-123.4999, 40.9619], [-123.5001, 40.9628], [-123.5008, 40.9628], [-123.5007, 40.9617], [-123.4993, 40.9617], [-123.4975, 40.9629], [-123.4985, 40.9633], [-123.4997, 40.9628]], [[-123.5154, 40.9599], [-123.5174, 40.959], [-123.5182, 40.9595], [-123.5188, 40.9588], [-123.5161, 40.9566], [-123.5144, 40.9562], [-123.5146, 40.9555], [-123.5126, 40.9572], [-123.5114, 40.9565], [-123.5102, 40.9574], [-123.509, 40.9571], [-123.5089, 40.9587], [-123.508, 40.9588], [-123.5078, 40.9581], [-123.5063, 40.9584], [-123.5074, 40.9595], [-123.5086, 40.9594], [-123.5091, 40.9604], [-123.5102, 40.9601], [-123.5107, 40.9619], [-123.5119, 40.9608], [-123.5129, 40.961], [-123.513, 40.9602], [-123.5153, 40.9608], [-123.5162, 40.9605], [-123.5154, 40.9599]], [[-123.6157, 40.978], [-123.616, 40.9736], [-123.6114, 40.9728], [-123.6104, 40.9736], [-123.6113, 40.9746], [-123.614, 40.9757], [-123.6142, 40.977], [-123.6129, 40.9771], [-123.6157, 40.978]]], [[[-123.535, 40.8901], [-123.5358, 40.8906], [-123.5357, 40.8928], [-123.535, 40.8923], [-123.535, 40.8901]]], [[[-123.5348, 40.897], [-123.5345, 40.897], [-123.5346, 40.8968], [-123.5348, 40.897]]], [[[-123.4822, 40.9035], [-123.4827, 40.903], [-123.4824, 40.9035], [-123.4822, 40.9035]]], [[[-123.4809, 40.9105], [-123.4806, 40.91], [-123.4811, 40.9101], [-123.4809, 40.9105]]], [[[-123.4882, 40.9443], [-123.4883, 40.9447], [-123.4879, 40.9447], [-123.4882, 40.9443]]], [[[-123.4897, 40.9449], [-123.4902, 40.9452], [-123.4895, 40.9451], [-123.4897, 40.9449]]]]}, "properties": {"layer": "perimeter"}}, {"type": "Feature", "geometry": {"type": "MultiPolygon", "coordinates": [[[[-123.5758, 40.9037], [-123.5755, 40.9042], [-123.5755, 40.9032], [-123.5747, 40.9032], [-123.5755, 40.903], [-123.5759, 40.9035], [-123.5759, 40.9036], [-123.5758, 40.9037]], [[-123.5759, 40.9036], [-123.5759, 40.9036], [-123.5759, 40.9036], [-123.5759, 40.9036]]], [[[-123.5754, 40.9063], [-123.5764, 40.9064], [-123.578, 40.9077], [-123.5753, 40.9077], [-123.5754, 40.9063]]], [[[-123.58, 40.9076], [-123.5817, 40.9055], [-123.5828, 40.9054], [-123.5837, 40.9044], [-123.5844, 40.9054], [-123.5857, 40.9049], [-123.585, 40.9032], [-123.5831, 40.9022], [-123.5868, 40.9029], [-123.5895, 40.9], [-123.5894, 40.9033], [-123.5871, 40.9032], [-123.5871, 40.9069], [-123.5815, 40.9068], [-123.5815, 40.9077], [-123.58, 40.9076]]], [[[-123.5898, 40.8995], [-123.592, 40.8977], [-123.5941, 40.8983], [-123.5941, 40.8998], [-123.5898, 40.8995]]], [[[-123.6034, 40.9023], [-123.6038, 40.9028], [-123.6039, 40.903], [-123.6033, 40.903], [-123.6034, 40.9023]]], [[[-123.6044, 40.9042], [-123.6046, 40.9047], [-123.6047, 40.9049], [-123.6044, 40.9042]]], [[[-123.6054, 40.9062], [-123.611, 40.9114], [-123.6115, 40.9123], [-123.6101, 40.9144], [-123.6101, 40.9113], [-123.6079, 40.9112], [-123.608, 40.9093], [-123.6056, 40.9092], [-123.6057, 40.9074], [-123.6033, 40.9073], [-123.6033, 40.9058], [-123.6054, 40.9062]]], [[[-123.6101, 40.9147], [-123.6104, 40.9149], [-123.6101, 40.9152], [-123.6101, 40.9147]]], [[[-123.6102, 40.9178], [-123.6105, 40.9182], [-123.6109, 40.9184], [-123.6102, 40.9184], [-123.6102, 40.9178]]], [[[-123.612, 40.9185], [-123.6122, 40.9183], [-123.6124, 40.9185], [-123.612, 40.9185]]], [[[-123.6154, 40.9237], [-123.6155, 40.9238], [-123.6154, 40.9238], [-123.6154, 40.9237]]], [[[-123.617, 40.9256], [-123.6166, 40.9259], [-123.6164, 40.9257], [-123.6164, 40.9256], [-123.617, 40.9256]]], [[[-123.6163, 40.9257], [-123.6149, 40.9308], [-123.6156, 40.9312], [-123.6147, 40.9327], [-123.6148, 40.9256], [-123.6163, 40.9257]]], [[[-123.616, 40.9358], [-123.6138, 40.937], [-123.6128, 40.94], [-123.6113, 40.9405], [-123.6121, 40.9422], [-123.6107, 40.9455], [-123.6108, 40.9473], [-123.6035, 40.9474], [-123.6035, 40.9435], [-123.608, 40.9434], [-123.6081, 40.9398], [-123.6125, 40.9397], [-123.6125, 40.9358], [-123.616, 40.9358]]], [[[-123.6188, 40.9497], [-123.6199, 40.9502], [-123.6186, 40.9517], [-123.6216, 40.9551], [-123.6196, 40.9573], [-123.6203, 40.9578], [-123.6165, 40.9579], [-123.6163, 40.9508], [-123.6188, 40.9507], [-123.6188, 40.9497]]], [[[-123.6207, 40.9578], [-123.6207, 40.9579], [-123.6206, 40.9579], [-123.6207, 40.9578]]], [[[-123.621, 40.958], [-123.6246, 40.9557], [-123.6235, 40.9583], [-123.6246, 40.9611], [-123.6234, 40.9621], [-123.6234, 40.9615], [-123.6209, 40.9615], [-123.621, 40.958]]], [[[-123.623, 40.9641], [-123.6228, 40.9651], [-123.6235, 40.9656], [-123.6221, 40.9662], [-123.6231, 40.9671], [-123.6247, 40.9673], [-123.6256, 40.9687], [-123.6273, 40.969], [-123.6272, 40.9704], [-123.6219, 40.9705], [-123.622, 40.9667], [-123.6221, 40.9641], [-123.623, 40.9641]]], [[[-123.6271, 40.9722], [-123.6261, 40.973], [-123.6256, 40.9752], [-123.6255, 40.9722], [-123.6271, 40.9722]]], [[[-123.6256, 40.9758], [-123.6258, 40.9763], [-123.6256, 40.9765], [-123.6256, 40.9758]]], [[[-123.6256, 40.9771], [-123.6262, 40.9772], [-123.6257, 40.9789], [-123.6256, 40.9771]]], [[[-123.6256, 40.98], [-123.6258, 40.9802], [-123.6256, 40.9804], [-123.6256, 40.98]]], [[[-123.6255, 40.9818], [-123.6259, 40.9817], [-123.6259, 40.9818], [-123.6255, 40.9818]]], [[[-123.6194, 40.982], [-123.6198, 40.9838], [-123.6107, 40.9838], [-123.6109, 40.9798], [-123.5919, 40.9797], [-123.5922, 40.9723], [-123.5827, 40.9722], [-123.5828, 40.9688], [-123.578, 40.9687], [-123.5781, 40.9651], [-123.5733, 40.9651], [-123.5734, 40.9577], [-123.5639, 40.9576], [-123.5641, 40.9509], [-123.5833, 40.9509], [-123.5831, 40.9577], [-123.5877, 40.9578], [-123.5876, 40.9614], [-123.5924, 40.9615], [-123.5923, 40.9653], [-123.6114, 40.9653], [-123.6113, 40.9723], [-123.6159, 40.9723], [-123.6159, 40.9735], [-123.6122, 40.9728], [-123.6104, 40.9736], [-123.614, 40.9757], [-123.6142, 40.977], [-123.6129, 40.9771], [-123.6158, 40.978], [-123.6157, 40.9796], [-123.6205, 40.9796], [-123.6204, 40.9819], [-123.6194, 40.982]]], [[[-123.6087, 41.0009], [-123.6134, 41.001], [-123.6098, 41.0036], [-123.6087, 41.0009]]], [[[-123.6087, 41.0052], [-123.6085, 41.0054], [-123.6082, 41.0053], [-123.6087, 41.0052]]], [[[-123.6061, 41.0055], [-123.6065, 41.0057], [-123.6063, 41.006], [-123.6061, 41.0055]]], [[[-123.511, 40.8869], [-123.5119, 40.8865], [-123.5119, 40.8869], [-123.511, 40.8869]]], [[[-123.5143, 40.8869], [-123.5149, 40.8865], [-123.5152, 40.8869], [-123.5143, 40.8869]]], [[[-123.5473, 40.89], [-123.5538, 40.889], [-123.5496, 40.8933], [-123.5485, 40.8962], [-123.5499, 40.8981], [-123.5515, 40.8983], [-123.5537, 40.8956], [-123.5561, 40.895], [-123.5562, 40.8936], [-123.5568, 40.8944], [-123.5594, 40.8943], [-123.5577, 40.895], [-123.5581, 40.8965], [-123.5571, 40.8991], [-123.5596, 40.8988], [-123.5608, 40.8994], [-123.5591, 40.8968], [-123.5597, 40.8966], [-123.5621, 40.8971], [-123.562, 40.8976], [-123.5625, 40.8978], [-123.5639, 40.8966], [-123.564, 40.8976], [-123.5702, 40.8963], [-123.5732, 40.8978], [-123.5745, 40.8994], [-123.5752, 40.9016], [-123.5743, 40.9032], [-123.566, 40.9032], [-123.5662, 40.8996], [-123.5472, 40.8999], [-123.5473, 40.89]]], [[[-123.5745, 40.9032], [-123.5746, 40.9032], [-123.5746, 40.9032], [-123.5745, 40.9032]]], [[[-123.6158, 40.978], [-123.6156, 40.9761], [-123.6158, 40.9756], [-123.6158, 40.978]]], [[[-123.6159, 40.9739], [-123.6159, 40.9737], [-123.6159, 40.9737], [-123.6159, 40.9739]]], [[[-123.5418, 40.914], [-123.5228, 40.9143], [-123.5229, 40.9071], [-123.542, 40.907], [-123.5418, 40.914]]], [[[-123.5818, 40.9325], [-123.5838, 40.9316], [-123.5841, 40.9253], [-123.5888, 40.9253], [-123.5887, 40.9277], [-123.5865, 40.929], [-123.5982, 40.9291], [-123.5982, 40.931], [-123.5989, 40.9312], [-123.5988, 40.9436], [-123.5786, 40.9439], [-123.5785, 40.9474], [-123.5736, 40.9474], [-123.5737, 40.9439], [-123.5545, 40.9432], [-123.555, 40.9286], [-123.5507, 40.9287], [-123.5513, 40.9142], [-123.5656, 40.9142], [-123.5646, 40.9285], [-123.5742, 40.9285], [-123.5744, 40.9288], [-123.5743, 40.9325], [-123.5818, 40.9325]], [[-123.5744, 40.9288], [-123.5741, 40.9325], [-123.5795, 40.9325], [-123.5742, 40.9325], [-123.5744, 40.9288]]]]}, "properties": {"layer": "retained"}}, {"type": "Feature", "geometry": {"type": "MultiPolygon", "coordinates": [[[[-123.5897, 40.9687], [-123.5897, 40.9682], [-123.589, 40.9679], [-123.5886, 40.9685], [-123.5897, 40.9687]]], [[[-123.5861, 40.9599], [-123.586, 40.9588], [-123.5857, 40.9588], [-123.5854, 40.9599], [-123.5861, 40.9599]]], [[[-123.5843, 40.9605], [-123.5846, 40.9588], [-123.5856, 40.9585], [-123.5853, 40.9577], [-123.5842, 40.9583], [-123.5831, 40.9578], [-123.5839, 40.9586], [-123.5832, 40.9602], [-123.5843, 40.9605]]], [[[-123.5875, 40.959], [-123.5878, 40.9582], [-123.587, 40.958], [-123.5877, 40.9577], [-123.5863, 40.9577], [-123.586, 40.9583], [-123.5875, 40.959]]], [[[-123.5827, 40.9557], [-123.5826, 40.9546], [-123.5819, 40.9546], [-123.5819, 40.9554], [-123.5827, 40.9557]]], [[[-123.5832, 40.9521], [-123.5831, 40.9513], [-123.5828, 40.9519], [-123.5821, 40.9516], [-123.5821, 40.9522], [-123.5832, 40.9521]]], [[[-123.5757, 40.9526], [-123.576, 40.9515], [-123.5775, 40.9523], [-123.5778, 40.9512], [-123.5756, 40.951], [-123.5739, 40.9516], [-123.5743, 40.9524], [-123.575, 40.9518], [-123.5757, 40.9526]]], [[[-123.571, 40.9433], [-123.5702, 40.9425], [-123.5692, 40.9428], [-123.5696, 40.9433], [-123.571, 40.9433]]], [[[-123.5719, 40.9397], [-123.5722, 40.9392], [-123.5697, 40.9387], [-123.5697, 40.9393], [-123.5719, 40.9397]]], [[[-123.5681, 40.935], [-123.5684, 40.9342], [-123.5673, 40.9339], [-123.5673, 40.9345], [-123.5681, 40.935]]], [[[-123.5724, 40.9354], [-123.5745, 40.9345], [-123.5737, 40.9343], [-123.5741, 40.9334], [-123.5716, 40.9335], [-123.572, 40.9341], [-123.5709, 40.9346], [-123.5731, 40.9348], [-123.5724, 40.9354]], [[-123.5734, 40.9343], [-123.5731, 40.9348], [-123.573, 40.9343], [-123.5734, 40.9343]]], [[[-123.5679, 40.9317], [-123.5683, 40.9312], [-123.5668, 40.931], [-123.5668, 40.9315], [-123.5679, 40.9317]]], [[[-123.5715, 40.9316], [-123.5718, 40.9305], [-123.571, 40.9297], [-123.5693, 40.9298], [-123.5707, 40.9306], [-123.5704, 40.9317], [-123.5715, 40.9316]]], [[[-123.5971, 40.9301], [-123.5967, 40.9296], [-123.5981, 40.9292], [-123.5966, 40.929], [-123.5956, 40.9296], [-123.5971, 40.9301]]], [[[-123.5594, 40.9176], [-123.5597, 40.9166], [-123.5604, 40.9165], [-123.5596, 40.9152], [-123.5586, 40.9163], [-123.5594, 40.9176]]], [[[-123.5653, 40.9153], [-123.5656, 40.9145], [-123.5639, 40.9151], [-123.5639, 40.9153], [-123.5653, 40.9153]]], [[[-123.5271, 40.9123], [-123.5274, 40.9118], [-123.5263, 40.9113], [-123.5263, 40.9118], [-123.5271, 40.9123]]], [[[-123.5384, 40.9101], [-123.5387, 40.9093], [-123.5376, 40.9091], [-123.5376, 40.9099], [-123.5384, 40.9101]]], [[[-123.5869, 40.9052], [-123.5869, 40.9044], [-123.5858, 40.9044], [-123.5858, 40.905], [-123.5869, 40.9052]]]]}, "properties": {"layer": "high_severity"}}, {"type": "Feature", "geometry": {"type": "Polygon", "coordinates": [[[-123.5874, 40.9588], [-123.5878, 40.9582], [-123.5874, 40.9582], [-123.5874, 40.9588]]]}, "properties": {"layer": "interior"}}, {"type": "Feature", "geometry": {"type": "Polygon", "coordinates": [[[-123.5866, 40.9063], [-123.5869, 40.906], [-123.5866, 40.906], [-123.5866, 40.9063]]]}, "properties": {"layer": "cell", "cell_id": "303_1000", "seed_zone": "303", "elevation_band": "1000–1500 ft"}}, {"type": "Feature", "geometry": {"type": "Polygon", "coordinates": [[[-123.5874, 40.9588], [-123.5878, 40.9582], [-123.5874, 40.9582], [-123.5874, 40.9588]]]}, "properties": {"layer": "cell", "cell_id": "303_2500", "seed_zone": "303", "elevation_band": "2500–3000 ft"}}, {"type": "Feature", "geometry": {"type": "Polygon", "coordinates": [[[-123.5757, 40.9518], [-123.576, 40.9515], [-123.5757, 40.9515], [-123.5757, 40.9518]]]}, "properties": {"layer": "cell", "cell_id": "303_3000", "seed_zone": "303", "elevation_band": "3000–3500 ft"}}]}
