{"type": "FeatureCollection", "features": [{"type": "Feature", "geometry": {"type": "Polygon", "coordinates": [[[-121.7118, 36.4484], [-121.7041, 36.4485], [-121.698, 36.4465], [-121.6967, 36.4451], [-121.6967, 36.4437], [-121.6937, 36.4417], [-121.695, 36.4406], [-121.6947, 36.4394], [-121.6923, 36.4383], [-121.6927, 36.4375], [-121.6918, 36.437], [-121.6914, 36.4353], [-121.6904, 36.4371], [-121.689, 36.4376], [-121.688, 36.4363], [-121.6859, 36.4353], [-121.6852, 36.4386], [-121.6841, 36.439], [-121.6826, 36.4385], [-121.6804, 36.4405], [-121.6722, 36.4354], [-121.6581, 36.4303], [-121.6532, 36.4296], [-121.6337, 36.4236], [-121.6216, 36.424], [-121.6125, 36.4188], [-121.6108, 36.4156], [-121.6112, 36.4146], [-121.6072, 36.4109], [-121.607, 36.4089], [-121.6056, 36.4074], [-121.6036, 36.4077], [-121.6025, 36.4052], [-121.6003, 36.4032], [-121.5984, 36.4029], [-121.5955, 36.3999], [-121.5932, 36.3999], [-121.5912, 36.3979], [-121.5903, 36.3955], [-121.5871, 36.3957], [-121.5868, 36.3939], [-121.5889, 36.3928], [-121.5955, 36.3922], [-121.5982, 36.3906], [-121.601, 36.3922], [-121.6025, 36.3909], [-121.6046, 36.3911], [-121.607, 36.3932], [-121.6101, 36.394], [-121.6117, 36.393], [-121.6137, 36.3938], [-121.6151, 36.3928], [-121.6208, 36.3912], [-121.6234, 36.3913], [-121.6257, 36.3923], [-121.6292, 36.3919], [-121.6326, 36.393], [-121.6341, 36.3925], [-121.6391, 36.3936], [-121.6399, 36.3959], [-121.6423, 36.3959], [-121.6427, 36.3964], [-121.6404, 36.3989], [-121.6409, 36.3998], [-121.6445, 36.3996], [-121.6485, 36.3965], [-121.6491, 36.3976], [-121.6462, 36.3987], [-121.6455, 36.4016], [-121.6458, 36.4021], [-121.6474, 36.4017], [-121.649, 36.4046], [-121.6491, 36.4053], [-121.6476, 36.4053], [-121.6483, 36.4078], [-121.649, 36.407], [-121.6506, 36.4082], [-121.6512, 36.4076], [-121.6524, 36.4082], [-121.656, 36.4072], [-121.6578, 36.4096], [-121.6614, 36.4108], [-121.6625, 36.41], [-121.6665, 36.4109], [-121.6672, 36.4122], [-121.6646, 36.4128], [-121.6645, 36.4146], [-121.6654, 36.4158], [-121.6696, 36.4158], [-121.6702, 36.4152], [-121.6707, 36.416], [-121.6718, 36.4157], [-121.6724, 36.4173], [-121.6737, 36.4182], [-121.6737, 36.4194], [-121.6766, 36.4193], [-121.6773, 36.4208], [-121.679, 36.4219], [-121.6837, 36.423], [-121.6825, 36.4208], [-121.6771, 36.4177], [-121.6777, 36.4164], [-121.6757, 36.415], [-121.6768, 36.4146], [-121.6763, 36.4137], [-121.6729, 36.4118], [-121.6725, 36.4099], [-121.6746, 36.4105], [-121.6762, 36.4098], [-121.6803, 36.4145], [-121.6842, 36.4147], [-121.6863, 36.4163], [-121.6878, 36.4164], [-121.6925, 36.414], [-121.6953, 36.4141], [-121.6975, 36.416], [-121.6979, 36.4195], [-121.6996, 36.4219], [-121.7002, 36.4196], [-121.7019, 36.4195], [-121.7027, 36.4179], [-121.7031, 36.419], [-121.7054, 36.4184], [-121.7072, 36.417], [-121.7082, 36.4175], [-121.7105, 36.4174], [-121.7101, 36.4207], [-121.7111, 36.4213], [-121.7115, 36.4232], [-121.7103, 36.4272], [-121.7133, 36.4271], [-121.7149, 36.429], [-121.7138, 36.4307], [-121.7102, 36.433], [-121.7072, 36.4385], [-121.7042, 36.4386], [-121.7039, 36.4391], [-121.7072, 36.4428], [-121.7109, 36.4424], [-121.7118, 36.4438], [-121.7132, 36.444], [-121.7146, 36.443], [-121.7142, 36.4442], [-121.712, 36.4452], [-121.7131, 36.4452], [-121.715, 36.448], [-121.7173, 36.4489], [-121.7178, 36.4507], [-121.7159, 36.4514], [-121.7136, 36.4503], [-121.7118, 36.4484]]]}, "properties": {"layer": "perimeter"}}, {"type": "Feature", "geometry": {"type": "Polygon", "coordinates": [[[-121.7112, 36.4483], [-121.7041, 36.4485], [-121.698, 36.4465], [-121.6967, 36.4451], [-121.6967, 36.4437], [-121.6937, 36.4417], [-121.695, 36.4406], [-121.6947, 36.4394], [-121.6923, 36.4383], [-121.6927, 36.4375], [-121.6918, 36.437], [-121.6914, 36.4353], [-121.6904, 36.4371], [-121.689, 36.4376], [-121.688, 36.4363], [-121.6859, 36.4353], [-121.6852, 36.4386], [-121.6841, 36.439], [-121.6826, 36.4385], [-121.6804, 36.4405], [-121.6722, 36.4354], [-121.6581, 36.4303], [-121.6532, 36.4296], [-121.6337, 36.4236], [-121.6216, 36.424], [-121.6125, 36.4188], [-121.6108, 36.4156], [-121.6112, 36.4146], [-121.6072, 36.4109], [-121.607, 36.4089], [-121.6056, 36.4074], [-121.6036, 36.4077], [-121.6025, 36.4052], [-121.6003, 36.4032], [-121.5984, 36.4029], [-121.5955, 36.3999], [-121.5932, 36.3999], [-121.5912, 36.3979], [-121.5903, 36.3955], [-121.5871, 36.3957], [-121.5868, 36.3939], [-121.5889, 36.3928], [-121.5955, 36.3922], [-121.5982, 36.3906], [-121.601, 36.3922], [-121.6025, 36.3909], [-121.6046, 36.3911], [-121.607, 36.3932], [-121.6101, 36.394], [-121.6117, 36.393], [-121.6137, 36.3938], [-121.6151, 36.3928], [-121.6208, 36.3912], [-121.6234, 36.3913], [-121.6257, 36.3923], [-121.6292, 36.3919], [-121.6326, 36.393], [-121.6341, 36.3925], [-121.6391, 36.3936], [-121.6399, 36.3959], [-121.6423, 36.3959], [-121.6427, 36.3964], [-121.6404, 36.3989], [-121.6409, 36.3998], [-121.6445, 36.3996], [-121.6485, 36.3965], [-121.6491, 36.3976], [-121.6462, 36.3987], [-121.6455, 36.4016], [-121.6458, 36.4021], [-121.6474, 36.4017], [-121.649, 36.4046], [-121.6491, 36.4053], [-121.6476, 36.4053], [-121.6483, 36.4078], [-121.649, 36.407], [-121.6506, 36.4082], [-121.6512, 36.4076], [-121.6524, 36.4082], [-121.656, 36.4072], [-121.6578, 36.4096], [-121.6614, 36.4108], [-121.6625, 36.41], [-121.6665, 36.4109], [-121.6672, 36.4122], [-121.6646, 36.4128], [-121.6645, 36.4146], [-121.6654, 36.4158], [-121.6696, 36.4158], [-121.6702, 36.4152], [-121.6707, 36.416], [-121.6718, 36.4157], [-121.6724, 36.4173], [-121.6737, 36.4182], [-121.6737, 36.4194], [-121.6766, 36.4193], [-121.6773, 36.4208], [-121.679, 36.4219], [-121.6837, 36.423], [-121.6825, 36.4208], [-121.6771, 36.4177], [-121.6777, 36.4164], [-121.6757, 36.415], [-121.6768, 36.4146], [-121.6763, 36.4137], [-121.6729, 36.4118], [-121.6725, 36.4099], [-121.6746, 36.4105], [-121.6762, 36.4098], [-121.6803, 36.4145], [-121.6842, 36.4147], [-121.6863, 36.4163], [-121.6878, 36.4164], [-121.6925, 36.414], [-121.6953, 36.4141], [-121.6975, 36.416], [-121.6979, 36.4195], [-121.6996, 36.4219], [-121.7002, 36.4196], [-121.7019, 36.4195], [-121.7027, 36.4179], [-121.7031, 36.419], [-121.7054, 36.4184], [-121.7072, 36.417], [-121.7082, 36.4175], [-121.7105, 36.4174], [-121.7101, 36.4207], [-121.7111, 36.4213], [-121.7115, 36.4232], [-121.7103, 36.4272], [-121.7133, 36.4271], [-121.7149, 36.429], [-121.7138, 36.4307], [-121.7102, 36.433], [-121.7072, 36.4385], [-121.7042, 36.4386], [-121.7039, 36.4391], [-121.7072, 36.4428], [-121.7109, 36.4424], [-121.7118, 36.4438], [-121.7132, 36.444], [-121.7146, 36.443], [-121.7142, 36.4442], [-121.712, 36.4452], [-121.7131, 36.4452], [-121.715, 36.448], [-121.7173, 36.4489], [-121.7178, 36.4507], [-121.7159, 36.4514], [-121.7112, 36.4483]]]}, "properties": {"layer": "retained"}}, {"type": "Feature", "geometry": {"type": "Polygon", "coordinates": [[[-121.6841, 36.4184], [-121.6848, 36.4182], [-121.6841, 36.4182], [-121.6841, 36.4184]]]}, "properties": {"layer": "high_severity"}}, {"type": "Feature", "geometry": {"type": "Polygon", "coordinates": [[[-121.6902, 36.4216], [-121.6906, 36.4213], [-121.6902, 36.4213], [-121.6902, 36.4216]]]}, "properties": {"layer": "interior"}}, {"type": "Feature", "geometry": {"type": "Polygon", "coordinates": [[[-121.6902, 36.4216], [-121.6906, 36.4213], [-121.6902, 36.4213], [-121.6902, 36.4216]]]}, "properties": {"layer": "cell", "cell_id": "120_1000", "seed_zone": "120", "elevation_band": "1000–1500 ft"}}]}
