{"type": "FeatureCollection", "features": [{"type": "Feature", "geometry": {"type": "MultiPolygon", "coordinates": [[[[-116.6498, 33.6831], [-116.6498, 33.6836], [-116.6495, 33.6831], [-116.6498, 33.6831]]], [[[-116.7002, 33.7024], [-116.6995, 33.7023], [-116.7005, 33.7023], [-116.7002, 33.7024]]], [[[-116.702, 33.7036], [-116.7017, 33.7026], [-116.7011, 33.7028], [-116.7017, 33.7014], [-116.7026, 33.7028], [-116.702, 33.7036]]], [[[-116.7012, 33.7041], [-116.7007, 33.7043], [-116.7011, 33.7039], [-116.7012, 33.7041]]], [[[-116.6532, 33.7602], [-116.6517, 33.7587], [-116.6488, 33.7582], [-116.6493, 33.757], [-116.6489, 33.7535], [-116.6474, 33.7507], [-116.6482, 33.7501], [-116.649, 33.7458], [-116.6477, 33.7438], [-116.6482, 33.7424], [-116.647, 33.7417], [-116.6478, 33.7414], [-116.6473, 33.7396], [-116.646, 33.7387], [-116.6465, 33.7375], [-116.6436, 33.737], [-116.6426, 33.7345], [-116.6397, 33.7342], [-116.6415, 33.7328], [-116.6404, 33.7325], [-116.6399, 33.7306], [-116.6415, 33.7297], [-116.6422, 33.7286], [-116.6417, 33.7282], [-116.6432, 33.7264], [-116.6448, 33.7259], [-116.6446, 33.7254], [-116.6429, 33.726], [-116.6432, 33.725], [-116.6466, 33.7215], [-116.649, 33.7208], [-116.6483, 33.7201], [-116.6515, 33.7198], [-116.6526, 33.718], [-116.654, 33.7177], [-116.6557, 33.7182], [-116.6611, 33.7161], [-116.6605, 33.7155], [-116.6617, 33.7152], [-116.6616, 33.7143], [-116.6628, 33.7142], [-116.6621, 33.713], [-116.6649, 33.712], [-116.6634, 33.7109], [-116.6648, 33.7099], [-116.6672, 33.7103], [-116.6698, 33.7126], [-116.6759, 33.7105], [-116.6751, 33.7097], [-116.6755, 33.7086], [-116.6725, 33.7084], [-116.6741, 33.7079], [-116.6727, 33.7074], [-116.6743, 33.7057], [-116.6765, 33.7062], [-116.6773, 33.7075], [-116.6807, 33.7093], [-116.6832, 33.7079], [-116.6849, 33.7098], [-116.6868, 33.7098], [-116.6882, 33.7083], [-116.6876, 33.7066], [-116.6891, 33.7057], [-116.6907, 33.7025], [-116.6917, 33.702], [-116.6907, 33.7011], [-116.6908, 33.6992], [-116.6884, 33.6991], [-116.6887, 33.6981], [-116.688, 33.6988], [-116.687, 33.6987], [-116.6878, 33.6978], [-116.6851, 33.6966], [-116.6842, 33.697], [-116.6845, 33.6976], [-116.6863, 33.6982], [-116.685, 33.6985], [-116.6828, 33.698], [-116.6828, 33.6954], [-116.6807, 33.6946], [-116.6805, 33.6937], [-116.6773, 33.6919], [-116.6766, 33.6924], [-116.6767, 33.6915], [-116.6743, 33.6905], [-116.672, 33.6908], [-116.6725, 33.6901], [-116.6696, 33.6893], [-116.6651, 33.6905], [-116.6639, 33.6899], [-116.6639, 33.6904], [-116.6627, 33.6911], [-116.662, 33.6908], [-116.6617, 33.6914], [-116.6613, 33.6904], [-116.6601, 33.6902], [-116.6606, 33.6891], [-116.6596, 33.6896], [-116.6583, 33.6893], [-116.6576, 33.6899], [-116.6561, 33.6879], [-116.6556, 33.6883], [-116.6555, 33.6878], [-116.6542, 33.6877], [-116.6545, 33.6863], [-116.6509, 33.6855], [-116.6513, 33.6851], [-116.65, 33.6843], [-116.6504, 33.6831], [-116.6488, 33.6806], [-116.647, 33.6807], [-116.6453, 33.6778], [-116.6431, 33.6781], [-116.6402, 33.6802], [-116.6395, 33.6796], [-116.6402, 33.6781], [-116.6438, 33.6779], [-116.6442, 33.6773], [-116.6436, 33.6767], [-116.6421, 33.6772], [-116.6413, 33.6765], [-116.6405, 33.6742], [-116.641, 33.6746], [-116.6409, 33.673], [-116.6422, 33.6729], [-116.6445, 33.6742], [-116.645, 33.6737], [-116.6454, 33.6747], [-116.6473, 33.6747], [-116.6476, 33.6757], [-116.6484, 33.675], [-116.649, 33.6755], [-116.6496, 33.6728], [-116.6485, 33.6729], [-116.6475, 33.6719], [-116.6485, 33.6708], [-116.6502, 33.6707], [-116.6531, 33.669], [-116.6539, 33.6694], [-116.6538, 33.6702], [-116.6559, 33.6712], [-116.6569, 33.6744], [-116.6635, 33.6757], [-116.6651, 33.6773], [-116.6653, 33.6789], [-116.667, 33.6771], [-116.6692, 33.6816], [-116.6727, 33.68], [-116.6728, 33.6812], [-116.6757, 33.6807], [-116.6771, 33.6812], [-116.6781, 33.6783], [-116.6828, 33.6805], [-116.6841, 33.6761], [-116.6846, 33.6769], [-116.6874, 33.6771], [-116.6924, 33.68], [-116.696, 33.6804], [-116.6985, 33.679], [-116.7, 33.6809], [-116.7029, 33.6809], [-116.7081, 33.6824], [-116.708, 33.683], [-116.71, 33.6828], [-116.7135, 33.6843], [-116.7165, 33.6847], [-116.7176, 33.6863], [-116.7191, 33.6863], [-116.7196, 33.6874], [-116.7233, 33.6885], [-116.7297, 33.6935], [-116.7313, 33.6939], [-116.7326, 33.6979], [-116.7433, 33.6994], [-116.7445, 33.7005], [-116.7478, 33.7014], [-116.7494, 33.7039], [-116.7516, 33.7041], [-116.7551, 33.7066], [-116.7585, 33.7071], [-116.7609, 33.7087], [-116.7649, 33.7101], [-116.7679, 33.7096], [-116.7701, 33.7117], [-116.7706, 33.7145], [-116.7698, 33.7147], [-116.7705, 33.7174], [-116.7698, 33.7196], [-116.7692, 33.7203], [-116.7665, 33.7204], [-116.7656, 33.7215], [-116.765, 33.7265], [-116.7632, 33.7282], [-116.7648, 33.729], [-116.7591, 33.7329], [-116.7564, 33.7331], [-116.7555, 33.734], [-116.7534, 33.7331], [-116.7522, 33.7338], [-116.7479, 33.734], [-116.747, 33.7323], [-116.7485, 33.7316], [-116.7483, 33.7308], [-116.7456, 33.729], [-116.7422, 33.7279], [-116.7421, 33.7269], [-116.7367, 33.7289], [-116.7345, 33.7288], [-116.7283, 33.7302], [-116.7247, 33.7328], [-116.7241, 33.7304], [-116.7225, 33.7317], [-116.7207, 33.7306], [-116.7209, 33.7299], [-116.7198, 33.7286], [-116.7188, 33.7281], [-116.7178, 33.7285], [-116.7185, 33.7263], [-116.7172, 33.7247], [-116.7168, 33.7251], [-116.7151, 33.7248], [-116.7137, 33.7254], [-116.7136, 33.7264], [-116.713, 33.726], [-116.7093, 33.7268], [-116.7077, 33.7255], [-116.706, 33.7254], [-116.7002, 33.7301], [-116.6994, 33.7296], [-116.6974, 33.7302], [-116.6969, 33.7313], [-116.6976, 33.7325], [-116.6959, 33.7358], [-116.697, 33.7371], [-116.6957, 33.7375], [-116.6953, 33.739], [-116.6916, 33.7389], [-116.691, 33.7406], [-116.6904, 33.7401], [-116.6899, 33.741], [-116.6892, 33.7405], [-116.6892, 33.7411], [-116.6888, 33.7409], [-116.6864, 33.7427], [-116.6841, 33.7476], [-116.6845, 33.7486], [-116.6825, 33.7486], [-116.6822, 33.7494], [-116.6797, 33.75], [-116.6798, 33.7514], [-116.6783, 33.7525], [-116.6789, 33.7535], [-116.6782, 33.7542], [-116.6785, 33.7554], [-116.6721, 33.7562], [-116.6712, 33.7576], [-116.6698, 33.7578], [-116.6676, 33.7559], [-116.6665, 33.7569], [-116.6645, 33.7567], [-116.6612, 33.7585], [-116.6599, 33.7586], [-116.6592, 33.7599], [-116.6532, 33.7602]], [[-116.688, 33.7114], [-116.6883, 33.7094], [-116.6873, 33.7103], [-116.6858, 33.7102], [-116.686, 33.711], [-116.6851, 33.7114], [-116.6869, 33.7118], [-116.688, 33.7114]], [[-116.7095, 33.7103], [-116.7099, 33.7111], [-116.7105, 33.7107], [-116.7123, 33.7114], [-116.7155, 33.7113], [-116.7165, 33.7106], [-116.7173, 33.7111], [-116.7161, 33.7094], [-116.7169, 33.7086], [-116.7194, 33.7089], [-116.7212, 33.7074], [-116.7225, 33.7077], [-116.7255, 33.7048], [-116.7247, 33.7038], [-116.7253, 33.7033], [-116.7249, 33.7027], [-116.7225, 33.7012], [-116.7224, 33.7017], [-116.722, 33.7013], [-116.721, 33.702], [-116.7217, 33.7012], [-116.7186, 33.699], [-116.7178, 33.6995], [-116.7165, 33.6986], [-116.7134, 33.6988], [-116.7142, 33.701], [-116.7201, 33.7015], [-116.72, 33.7026], [-116.7209, 33.7027], [-116.7205, 33.7035], [-116.7237, 33.7047], [-116.7215, 33.7053], [-116.7201, 33.7043], [-116.7148, 33.7033], [-116.7146, 33.7025], [-116.7098, 33.7003], [-116.7012, 33.6991], [-116.698, 33.6995], [-116.6972, 33.7018], [-116.6987, 33.7022], [-116.6975, 33.7022], [-116.6974, 33.7027], [-116.6969, 33.7019], [-116.6953, 33.7016], [-116.6946, 33.7032], [-116.6927, 33.7048], [-116.6938, 33.7063], [-116.6947, 33.7052], [-116.697, 33.705], [-116.6978, 33.704], [-116.6986, 33.7055], [-116.6995, 33.7054], [-116.6991, 33.7048], [-116.6997, 33.7047], [-116.7013, 33.7062], [-116.7022, 33.7049], [-116.7033, 33.7068], [-116.7034, 33.7054], [-116.7051, 33.7069], [-116.7058, 33.7059], [-116.7077, 33.7062], [-116.7075, 33.7055], [-116.7059, 33.7058], [-116.7061, 33.7044], [-116.7098, 33.7048], [-116.7142, 33.7034], [-116.716, 33.7045], [-116.7181, 33.7043], [-116.7205, 33.7058], [-116.7197, 33.7059], [-116.7196, 33.707], [-116.7168, 33.7077], [-116.7169, 33.7086], [-116.7166, 33.7082], [-116.716, 33.708], [-116.7156, 33.709], [-116.715, 33.7088], [-116.7156, 33.7076], [-116.7145, 33.7077], [-116.7135, 33.7068], [-116.7118, 33.708], [-116.712, 33.7085], [-116.7116, 33.708], [-116.7108, 33.7087], [-116.7088, 33.7076], [-116.7081, 33.7086], [-116.7087, 33.7083], [-116.7085, 33.7091], [-116.7095, 33.709], [-116.7105, 33.7101], [-116.7095, 33.7103]], [[-116.705, 33.6823], [-116.7043, 33.6826], [-116.703, 33.6824], [-116.7034, 33.6827], [-116.706, 33.6829], [-116.705, 33.6823]]], [[[-116.657, 33.7166], [-116.658, 33.717], [-116.6561, 33.7173], [-116.6568, 33.717], [-116.657, 33.7166]]]]}, "properties": {"layer": "perimeter"}}, {"type": "Feature", "geometry": {"type": "MultiPolygon", "coordinates": [[[[-116.702, 33.7016], [-116.7026, 33.7028], [-116.702, 33.7036], [-116.7019, 33.7035], [-116.702, 33.7016]]], [[[-116.6454, 33.7224], [-116.649, 33.7208], [-116.6483, 33.7201], [-116.6494, 33.7203], [-116.6493, 33.7227], [-116.6454, 33.7224]]], [[[-116.6759, 33.7085], [-116.6725, 33.7084], [-116.6741, 33.7079], [-116.6727, 33.7074], [-116.6736, 33.706], [-116.6751, 33.7056], [-116.6758, 33.7058], [-116.6759, 33.7085]]], [[[-116.6757, 33.6808], [-116.6767, 33.6808], [-116.6768, 33.6808], [-116.6757, 33.6808]]], [[[-116.6779, 33.6808], [-116.6774, 33.6806], [-116.6779, 33.6802], [-116.6779, 33.6808]]], [[[-116.6781, 33.6786], [-116.6784, 33.6784], [-116.6791, 33.6786], [-116.6781, 33.6786]]], [[[-116.6806, 33.6799], [-116.6808, 33.6793], [-116.6817, 33.6799], [-116.6806, 33.6799]]], [[[-116.6833, 33.6799], [-116.6827, 33.6791], [-116.6832, 33.6789], [-116.6833, 33.6799]]], [[[-116.6834, 33.6789], [-116.6841, 33.6777], [-116.6836, 33.6766], [-116.6844, 33.6776], [-116.6844, 33.679], [-116.6834, 33.6789]]], [[[-116.7194, 33.6864], [-116.7196, 33.6874], [-116.7216, 33.6876], [-116.7269, 33.6907], [-116.7281, 33.6922], [-116.7282, 33.6936], [-116.7193, 33.6937], [-116.7194, 33.6864]]], [[[-116.7499, 33.7337], [-116.7477, 33.7339], [-116.747, 33.7323], [-116.7485, 33.7316], [-116.7483, 33.7308], [-116.7456, 33.729], [-116.7422, 33.7279], [-116.7414, 33.726], [-116.7498, 33.7259], [-116.7498, 33.7254], [-116.7506, 33.7254], [-116.75, 33.7259], [-116.7499, 33.7337]]], [[[-116.7383, 33.728], [-116.7371, 33.7288], [-116.7367, 33.7289], [-116.7356, 33.7288], [-116.7371, 33.7288], [-116.737, 33.7279], [-116.7383, 33.728]]], [[[-116.7342, 33.7289], [-116.7283, 33.7302], [-116.7249, 33.7328], [-116.724, 33.7318], [-116.7241, 33.7304], [-116.7227, 33.7317], [-116.7205, 33.7302], [-116.7285, 33.7298], [-116.7285, 33.7289], [-116.7342, 33.7289]]], [[[-116.7206, 33.7299], [-116.7206, 33.7299], [-116.7206, 33.7299], [-116.7206, 33.7299]]], [[[-116.7197, 33.7286], [-116.7188, 33.7281], [-116.7178, 33.7285], [-116.7187, 33.7275], [-116.7185, 33.7263], [-116.7178, 33.725], [-116.7158, 33.7246], [-116.716, 33.7236], [-116.7198, 33.7236], [-116.7197, 33.7286]]], [[[-116.7136, 33.7264], [-116.7135, 33.7264], [-116.7137, 33.7264], [-116.7136, 33.7264]]], [[[-116.7198, 33.7086], [-116.7212, 33.7074], [-116.7225, 33.7077], [-116.7255, 33.7048], [-116.7247, 33.7038], [-116.7252, 33.703], [-116.7239, 33.7024], [-116.7239, 33.7016], [-116.7225, 33.7012], [-116.7225, 33.7017], [-116.7219, 33.7013], [-116.7212, 33.702], [-116.7213, 33.7008], [-116.7369, 33.7008], [-116.7368, 33.7154], [-116.7197, 33.7151], [-116.7198, 33.7086]]], [[[-116.7111, 33.701], [-116.7201, 33.7015], [-116.72, 33.7026], [-116.7209, 33.7027], [-116.7205, 33.7035], [-116.7237, 33.7047], [-116.7215, 33.7053], [-116.7201, 33.7043], [-116.7148, 33.7033], [-116.7146, 33.7025], [-116.7111, 33.701]]], [[[-116.7062, 33.7044], [-116.7062, 33.7044], [-116.7062, 33.7044], [-116.7062, 33.7044]]], [[[-116.7113, 33.7044], [-116.7141, 33.7034], [-116.7159, 33.7044], [-116.7113, 33.7044]]], [[[-116.7162, 33.7044], [-116.7163, 33.7042], [-116.7181, 33.7044], [-116.7162, 33.7044]]], [[[-116.7197, 33.7056], [-116.7205, 33.7059], [-116.7197, 33.7059], [-116.7197, 33.7064], [-116.7197, 33.7056]]], [[[-116.6675, 33.7229], [-116.6673, 33.7157], [-116.6764, 33.7157], [-116.6764, 33.7229], [-116.6675, 33.7229]]]]}, "properties": {"layer": "retained"}}, {"type": "Feature", "geometry": {"type": "MultiPolygon", "coordinates": [[[[-116.6488, 33.7228], [-116.6486, 33.7214], [-116.6476, 33.7217], [-116.6479, 33.7225], [-116.6466, 33.7222], [-116.6466, 33.7227], [-116.6488, 33.7228]]], [[[-116.7248, 33.6936], [-116.7242, 33.6928], [-116.7226, 33.693], [-116.7232, 33.6936], [-116.7248, 33.6936]]], [[[-116.7214, 33.6913], [-116.7214, 33.6905], [-116.7207, 33.6905], [-116.7207, 33.6913], [-116.7214, 33.6913]]], [[[-116.7201, 33.6908], [-116.7201, 33.69], [-116.7195, 33.6899], [-116.7191, 33.6905], [-116.7201, 33.6908]]]]}, "properties": {"layer": "high_severity"}}, {"type": "Feature", "geometry": {"type": "Polygon", "coordinates": [[[-116.7207, 33.6913], [-116.7214, 33.6908], [-116.7207, 33.6908], [-116.7207, 33.6913]]]}, "properties": {"layer": "interior"}}, {"type": "Feature", "geometry": {"type": "Polygon", "coordinates": [[[-116.7239, 33.6936], [-116.7242, 33.6933], [-116.7239, 33.6933], [-116.7239, 33.6936]]]}, "properties": {"layer": "cell", "cell_id": "997_4500", "seed_zone": "997", "elevation_band": "4500–5000 ft"}}, {"type": "Feature", "geometry": {"type": "Polygon", "coordinates": [[[-116.7207, 33.6913], [-116.7214, 33.6908], [-116.7207, 33.6908], [-116.7207, 33.6913]]]}, "properties": {"layer": "cell", "cell_id": "997_5000", "seed_zone": "997", "elevation_band": "5000–5500 ft"}}]}
