{"type": "FeatureCollection", "features": [{"type": "Feature", "geometry": {"type": "Polygon", "coordinates": [[[-121.0841, 41.7194], [-121.0811, 41.7224], [-121.082, 41.7242], [-121.0804, 41.7242], [-121.0795, 41.7268], [-121.0755, 41.7301], [-121.0733, 41.73], [-121.0724, 41.729], [-121.0692, 41.7278], [-121.0711, 41.7297], [-121.0712, 41.7324], [-121.069, 41.7328], [-121.0693, 41.734], [-121.0677, 41.7358], [-121.0659, 41.7366], [-121.065, 41.7366], [-121.0636, 41.7354], [-121.0612, 41.7354], [-121.0599, 41.7368], [-121.0606, 41.7353], [-121.0597, 41.734], [-121.0581, 41.7365], [-121.0531, 41.7351], [-121.0544, 41.7329], [-121.0543, 41.731], [-121.0534, 41.7306], [-121.0524, 41.7337], [-121.0476, 41.7351], [-121.0473, 41.7311], [-121.0458, 41.7287], [-121.0452, 41.7317], [-121.0436, 41.733], [-121.0396, 41.7314], [-121.0405, 41.73], [-121.0422, 41.7302], [-121.0419, 41.7291], [-121.044, 41.7259], [-121.0433, 41.7252], [-121.0435, 41.723], [-121.0459, 41.7198], [-121.0449, 41.7178], [-121.0453, 41.7141], [-121.0478, 41.7144], [-121.0473, 41.7132], [-121.0487, 41.7127], [-121.0492, 41.7138], [-121.0507, 41.7141], [-121.051, 41.7128], [-121.0539, 41.7132], [-121.0552, 41.7158], [-121.057, 41.7154], [-121.0581, 41.7166], [-121.0578, 41.7173], [-121.0611, 41.7167], [-121.0618, 41.7171], [-121.0617, 41.718], [-121.0659, 41.719], [-121.065, 41.7201], [-121.0656, 41.7206], [-121.0717, 41.7232], [-121.0746, 41.7223], [-121.0742, 41.7196], [-121.0751, 41.7189], [-121.0747, 41.7177], [-121.0722, 41.7175], [-121.0724, 41.7154], [-121.0716, 41.7145], [-121.0729, 41.7143], [-121.0766, 41.7163], [-121.0778, 41.7159], [-121.0796, 41.7174], [-121.0831, 41.7177], [-121.0841, 41.7194]]]}, "properties": {"layer": "perimeter"}}]}
