{"type": "FeatureCollection", "features": [{"type": "Feature", "geometry": {"type": "MultiPolygon", "coordinates": [[[[-122.9321, 40.9454], [-122.9304, 40.9429], [-122.9288, 40.9428], [-122.9285, 40.9415], [-122.9274, 40.942], [-122.928, 40.9428], [-122.9268, 40.9433], [-122.9262, 40.9423], [-122.9255, 40.9431], [-122.9241, 40.9432], [-122.9224, 40.9417], [-122.9222, 40.9423], [-122.9217, 40.942], [-122.9198, 40.943], [-122.9215, 40.9407], [-122.9212, 40.94], [-122.9194, 40.9414], [-122.9159, 40.9425], [-122.916, 40.9411], [-122.9151, 40.9421], [-122.913, 40.9412], [-122.9135, 40.9403], [-122.9112, 40.9414], [-122.9102, 40.9399], [-122.9072, 40.9386], [-122.9113, 40.938], [-122.9116, 40.9369], [-122.9108, 40.9361], [-122.9101, 40.9366], [-122.9101, 40.9359], [-122.9114, 40.9354], [-122.9114, 40.9351], [-122.9094, 40.9357], [-122.9075, 40.9384], [-122.9068, 40.9375], [-122.9055, 40.9385], [-122.9049, 40.9379], [-122.9056, 40.9347], [-122.9071, 40.9341], [-122.906, 40.933], [-122.9021, 40.9354], [-122.8994, 40.935], [-122.902, 40.9326], [-122.9042, 40.9321], [-122.9048, 40.9313], [-122.9073, 40.9307], [-122.9077, 40.9314], [-122.9077, 40.9306], [-122.9104, 40.9301], [-122.9108, 40.9294], [-122.9124, 40.9297], [-122.9131, 40.9289], [-122.9146, 40.9292], [-122.9138, 40.9307], [-122.9146, 40.9309], [-122.9158, 40.9302], [-122.9173, 40.9311], [-122.9179, 40.9306], [-122.9242, 40.9306], [-122.9248, 40.93], [-122.9257, 40.931], [-122.9261, 40.9298], [-122.9281, 40.9286], [-122.9287, 40.9289], [-122.9297, 40.9248], [-122.9275, 40.9268], [-122.9284, 40.9272], [-122.9278, 40.9281], [-122.9249, 40.9288], [-122.9208, 40.9287], [-122.9219, 40.9298], [-122.9193, 40.9299], [-122.9191, 40.9294], [-122.9202, 40.9287], [-122.9186, 40.9281], [-122.9172, 40.9293], [-122.9172, 40.9285], [-122.9152, 40.9276], [-122.9146, 40.9279], [-122.9143, 40.927], [-122.9102, 40.9275], [-122.9086, 40.9263], [-122.9076, 40.923], [-122.9091, 40.9219], [-122.9096, 40.9197], [-122.9052, 40.917], [-122.9073, 40.9162], [-122.911, 40.9167], [-122.9153, 40.9146], [-122.9154, 40.913], [-122.9212, 40.9128], [-122.9242, 40.9115], [-122.925, 40.9102], [-122.9212, 40.9099], [-122.9189, 40.9109], [-122.9166, 40.9093], [-122.9147, 40.9091], [-122.9115, 40.9103], [-122.9102, 40.9098], [-122.9084, 40.9112], [-122.9079, 40.9108], [-122.9092, 40.9087], [-122.9119, 40.9067], [-122.9122, 40.9046], [-122.9109, 40.9052], [-122.9104, 40.9039], [-122.9078, 40.9042], [-122.9062, 40.9025], [-122.9078, 40.8996], [-122.9134, 40.8993], [-122.9147, 40.8986], [-122.9141, 40.8983], [-122.9147, 40.8978], [-122.916, 40.899], [-122.9155, 40.8983], [-122.917, 40.8976], [-122.9179, 40.895], [-122.9192, 40.8947], [-122.9203, 40.8899], [-122.9215, 40.889], [-122.9267, 40.8882], [-122.9286, 40.8868], [-122.9304, 40.8888], [-122.9316, 40.889], [-122.9324, 40.8908], [-122.9355, 40.8922], [-122.9363, 40.895], [-122.9358, 40.8959], [-122.9365, 40.8958], [-122.9369, 40.897], [-122.9397, 40.8991], [-122.9403, 40.9011], [-122.9415, 40.9012], [-122.9419, 40.9037], [-122.945, 40.9042], [-122.9453, 40.9072], [-122.948, 40.9092], [-122.9478, 40.9114], [-122.9501, 40.913], [-122.9531, 40.9177], [-122.9553, 40.9228], [-122.9557, 40.9263], [-122.957, 40.9278], [-122.9579, 40.9276], [-122.957, 40.9313], [-122.9557, 40.9324], [-122.9558, 40.9344], [-122.954, 40.9359], [-122.9539, 40.9373], [-122.9524, 40.9374], [-122.9512, 40.9388], [-122.9516, 40.94], [-122.9489, 40.9396], [-122.9449, 40.9379], [-122.9427, 40.936], [-122.943, 40.9337], [-122.9419, 40.9332], [-122.9418, 40.9338], [-122.9402, 40.9338], [-122.9396, 40.9326], [-122.9367, 40.9357], [-122.9332, 40.936], [-122.9331, 40.937], [-122.9325, 40.9368], [-122.9323, 40.9375], [-122.9308, 40.938], [-122.9327, 40.9406], [-122.9317, 40.9406], [-122.9325, 40.9415], [-122.932, 40.9422], [-122.9329, 40.9423], [-122.9325, 40.9427], [-122.9334, 40.9429], [-122.9334, 40.9437], [-122.9342, 40.9438], [-122.9337, 40.9445], [-122.9345, 40.9446], [-122.9335, 40.9454], [-122.9321, 40.9454]], [[-122.9156, 40.9387], [-122.917, 40.9377], [-122.9164, 40.9372], [-122.9137, 40.9383], [-122.9138, 40.9388], [-122.9156, 40.9387]]], [[[-122.9175, 40.9306], [-122.9172, 40.9306], [-122.9173, 40.9305], [-122.9175, 40.9306]]], [[[-122.9091, 40.9376], [-122.9094, 40.9382], [-122.9089, 40.938], [-122.9091, 40.9376]]], [[[-122.9212, 40.9435], [-122.9206, 40.9439], [-122.9204, 40.9433], [-122.9212, 40.9435]]], [[[-122.9353, 40.9436], [-122.9356, 40.9435], [-122.9355, 40.9437], [-122.9353, 40.9436]]]]}, "properties": {"layer": "perimeter"}}, {"type": "Feature", "geometry": {"type": "Polygon", "coordinates": [[[-122.9203, 40.8899], [-122.9215, 40.889], [-122.9241, 40.8885], [-122.9241, 40.8902], [-122.9203, 40.8899]]]}, "properties": {"layer": "retained"}}, {"type": "Feature", "geometry": {"type": "Polygon", "coordinates": [[[-122.9221, 40.8901], [-122.9225, 40.8898], [-122.9221, 40.8898], [-122.9221, 40.8901]]]}, "properties": {"layer": "high_severity"}}]}
