{"type": "FeatureCollection", "features": [{"type": "Feature", "geometry": {"type": "Polygon", "coordinates": [[[-122.5283, 40.4926], [-122.5206, 40.4924], [-122.5145, 40.4951], [-122.5021, 40.4922], [-122.5004, 40.4936], [-122.4973, 40.4946], [-122.4965, 40.4898], [-122.4976, 40.4881], [-122.4969, 40.4846], [-122.5009, 40.48], [-122.5021, 40.4802], [-122.5085, 40.4774], [-122.5099, 40.4772], [-122.5114, 40.4787], [-122.5268, 40.4773], [-122.5279, 40.4778], [-122.5272, 40.4785], [-122.5282, 40.4795], [-122.5269, 40.48], [-122.5261, 40.4816], [-122.5273, 40.4815], [-122.5288, 40.4826], [-122.5275, 40.4839], [-122.5302, 40.484], [-122.5294, 40.4848], [-122.5316, 40.4858], [-122.5332, 40.4856], [-122.5341, 40.4842], [-122.5347, 40.4849], [-122.5362, 40.4848], [-122.5378, 40.4883], [-122.5356, 40.488], [-122.5358, 40.4889], [-122.5382, 40.4892], [-122.5389, 40.4904], [-122.5359, 40.4904], [-122.5345, 40.4917], [-122.5317, 40.4921], [-122.5316, 40.4967], [-122.531, 40.4967], [-122.5297, 40.4934], [-122.5283, 40.4926]]]}, "properties": {"layer": "perimeter"}}, {"type": "Feature", "geometry": {"type": "Polygon", "coordinates": [[[-122.5264, 40.4924], [-122.5221, 40.4928], [-122.5206, 40.4924], [-122.5175, 40.4939], [-122.5164, 40.4928], [-122.514, 40.4937], [-122.5032, 40.4905], [-122.5002, 40.4915], [-122.4997, 40.4937], [-122.4987, 40.4943], [-122.4971, 40.4932], [-122.4969, 40.4908], [-122.5004, 40.4881], [-122.4975, 40.4881], [-122.4969, 40.4846], [-122.5009, 40.48], [-122.5021, 40.4802], [-122.5085, 40.4774], [-122.5099, 40.4772], [-122.5114, 40.4787], [-122.5268, 40.4773], [-122.5279, 40.4778], [-122.5272, 40.4785], [-122.5282, 40.4795], [-122.5269, 40.48], [-122.5261, 40.4816], [-122.5273, 40.4815], [-122.5288, 40.4826], [-122.5275, 40.4839], [-122.5302, 40.484], [-122.5294, 40.4848], [-122.5316, 40.4858], [-122.5332, 40.4856], [-122.5341, 40.4842], [-122.5347, 40.4849], [-122.5362, 40.4848], [-122.5378, 40.4883], [-122.5356, 40.488], [-122.5358, 40.4889], [-122.5382, 40.4892], [-122.5389, 40.4904], [-122.5359, 40.4904], [-122.5345, 40.4917], [-122.5317, 40.4921], [-122.5316, 40.4967], [-122.531, 40.4967], [-122.5297, 40.4934], [-122.5264, 40.4924]]]}, "properties": {"layer": "retained"}}]}
