{"type": "FeatureCollection", "features": [{"type": "Feature", "geometry": {"type": "Polygon", "coordinates": [[[-120.1039, 41.2854], [-120.0993, 41.2822], [-120.0948, 41.2772], [-120.0918, 41.2762], [-120.09, 41.2696], [-120.0864, 41.2665], [-120.0846, 41.2578], [-120.0833, 41.2558], [-120.0853, 41.2523], [-120.087, 41.2514], [-120.0945, 41.2511], [-120.0961, 41.2518], [-120.0976, 41.2542], [-120.1064, 41.2554], [-120.108, 41.2569], [-120.1055, 41.2621], [-120.1062, 41.2634], [-120.1077, 41.2642], [-120.1104, 41.2639], [-120.1138, 41.2601], [-120.1156, 41.2592], [-120.1191, 41.259], [-120.1207, 41.2598], [-120.1231, 41.2594], [-120.1256, 41.2608], [-120.125, 41.2655], [-120.1232, 41.2676], [-120.1246, 41.27], [-120.1235, 41.2738], [-120.1211, 41.2769], [-120.1233, 41.2803], [-120.1163, 41.2819], [-120.111, 41.285], [-120.1039, 41.2854]]]}, "properties": {"layer": "perimeter"}}, {"type": "Feature", "geometry": {"type": "MultiPolygon", "coordinates": [[[[-120.1035, 41.2854], [-120.0903, 41.2725], [-120.0903, 41.2709], [-120.0937, 41.2709], [-120.0937, 41.2746], [-120.0985, 41.2746], [-120.0985, 41.2722], [-120.1033, 41.2721], [-120.1034, 41.2793], [-120.1179, 41.2791], [-120.1179, 41.2815], [-120.1154, 41.2823], [-120.1113, 41.2849], [-120.1035, 41.2854]]], [[[-120.0888, 41.2687], [-120.0871, 41.2674], [-120.0871, 41.2673], [-120.0888, 41.2674], [-120.0888, 41.2687]]]]}, "properties": {"layer": "retained"}}]}
