{"type": "FeatureCollection", "features": [{"type": "Feature", "geometry": {"type": "Polygon", "coordinates": [[[-118.8613, 35.4949], [-118.8605, 35.4915], [-118.8583, 35.4878], [-118.8584, 35.4855], [-118.8592, 35.4853], [-118.8581, 35.4851], [-118.8572, 35.4834], [-118.8576, 35.4825], [-118.8584, 35.4827], [-118.8589, 35.4811], [-118.861, 35.4812], [-118.861, 35.4798], [-118.8631, 35.4798], [-118.8632, 35.4804], [-118.8635, 35.4795], [-118.862, 35.4772], [-118.8632, 35.4778], [-118.866, 35.4771], [-118.8672, 35.4777], [-118.8675, 35.4768], [-118.8687, 35.4782], [-118.8683, 35.4798], [-118.8756, 35.4866], [-118.8799, 35.4873], [-118.8815, 35.4883], [-118.883, 35.4907], [-118.886, 35.4906], [-118.892, 35.4969], [-118.896, 35.4977], [-118.8964, 35.4984], [-118.8956, 35.5006], [-118.8936, 35.5013], [-118.894, 35.5023], [-118.8925, 35.5008], [-118.8924, 35.5021], [-118.8903, 35.5035], [-118.8862, 35.5029], [-118.8842, 35.503], [-118.883, 35.5039], [-118.8793, 35.5039], [-118.8753, 35.5022], [-118.874, 35.5022], [-118.8736, 35.5014], [-118.8706, 35.5009], [-118.8689, 35.4981], [-118.8656, 35.4974], [-118.8613, 35.4949]]]}, "properties": {"layer": "perimeter"}}, {"type": "Feature", "geometry": {"type": "Polygon", "coordinates": [[[-118.8613, 35.4949], [-118.8605, 35.4915], [-118.8583, 35.4878], [-118.8584, 35.4855], [-118.8592, 35.4853], [-118.8581, 35.4851], [-118.8572, 35.4834], [-118.8576, 35.4825], [-118.8584, 35.4827], [-118.8589, 35.4811], [-118.861, 35.4812], [-118.861, 35.4798], [-118.8631, 35.4798], [-118.8632, 35.4804], [-118.8635, 35.4795], [-118.862, 35.4772], [-118.8632, 35.4778], [-118.866, 35.4771], [-118.8672, 35.4777], [-118.8675, 35.4768], [-118.8687, 35.4782], [-118.8683, 35.4798], [-118.8756, 35.4866], [-118.8799, 35.4873], [-118.8815, 35.4883], [-118.883, 35.4907], [-118.886, 35.4906], [-118.892, 35.4969], [-118.896, 35.4977], [-118.8964, 35.4984], [-118.8956, 35.5006], [-118.8936, 35.5013], [-118.894, 35.5023], [-118.8925, 35.5008], [-118.8924, 35.5021], [-118.8903, 35.5035], [-118.8862, 35.5029], [-118.8842, 35.503], [-118.883, 35.5039], [-118.8793, 35.5039], [-118.8753, 35.5022], [-118.874, 35.5022], [-118.8736, 35.5014], [-118.8706, 35.5009], [-118.8689, 35.4981], [-118.8656, 35.4974], [-118.8613, 35.4949]]]}, "properties": {"layer": "retained"}}]}
