{"type": "FeatureCollection", "features": [{"type": "Feature", "geometry": {"type": "Polygon", "coordinates": [[[-120.6232, 38.3729], [-120.6152, 38.3709], [-120.6156, 38.3687], [-120.6178, 38.3677], [-120.6189, 38.3663], [-120.6177, 38.3633], [-120.6179, 38.3614], [-120.6203, 38.3577], [-120.6238, 38.3578], [-120.6283, 38.356], [-120.6292, 38.351], [-120.631, 38.3476], [-120.6277, 38.3466], [-120.6246, 38.3472], [-120.6232, 38.3453], [-120.6201, 38.3454], [-120.6188, 38.3434], [-120.6193, 38.3415], [-120.6182, 38.3404], [-120.6194, 38.3394], [-120.6177, 38.3383], [-120.6195, 38.3373], [-120.619, 38.3361], [-120.6227, 38.3346], [-120.6227, 38.3326], [-120.6255, 38.3321], [-120.6266, 38.3312], [-120.6284, 38.3314], [-120.6288, 38.3305], [-120.631, 38.33], [-120.6319, 38.3307], [-120.6348, 38.3309], [-120.6328, 38.3304], [-120.6352, 38.3303], [-120.6362, 38.3294], [-120.6363, 38.3274], [-120.6387, 38.3272], [-120.6407, 38.326], [-120.6401, 38.3252], [-120.6371, 38.3253], [-120.6406, 38.3227], [-120.6454, 38.3244], [-120.6457, 38.3224], [-120.6474, 38.3213], [-120.649, 38.3213], [-120.6512, 38.322], [-120.6517, 38.3233], [-120.6541, 38.3248], [-120.655, 38.3244], [-120.6562, 38.3224], [-120.6583, 38.321], [-120.66, 38.3204], [-120.6611, 38.321], [-120.663, 38.3194], [-120.6636, 38.3185], [-120.6613, 38.3175], [-120.6612, 38.3169], [-120.6628, 38.3149], [-120.6641, 38.3156], [-120.6649, 38.315], [-120.6671, 38.3159], [-120.6715, 38.3155], [-120.6712, 38.3164], [-120.6732, 38.318], [-120.6722, 38.3186], [-120.6725, 38.3192], [-120.6749, 38.3183], [-120.6737, 38.3175], [-120.6751, 38.3177], [-120.6798, 38.3193], [-120.6794, 38.3201], [-120.6801, 38.3214], [-120.681, 38.3204], [-120.6833, 38.3206], [-120.6845, 38.3222], [-120.6855, 38.322], [-120.6865, 38.3204], [-120.6888, 38.3191], [-120.6929, 38.3182], [-120.6952, 38.3186], [-120.6955, 38.3197], [-120.6945, 38.3202], [-120.6942, 38.3219], [-120.6955, 38.3236], [-120.6932, 38.3268], [-120.6934, 38.3291], [-120.6919, 38.3303], [-120.6902, 38.3301], [-120.687, 38.3311], [-120.6856, 38.3303], [-120.6869, 38.3322], [-120.6848, 38.3333], [-120.6847, 38.3363], [-120.6811, 38.3378], [-120.682, 38.3401], [-120.6806, 38.3397], [-120.68, 38.3405], [-120.6793, 38.3402], [-120.6794, 38.3409], [-120.6772, 38.3417], [-120.6777, 38.3429], [-120.6761, 38.3449], [-120.6752, 38.3444], [-120.6692, 38.3456], [-120.664, 38.3427], [-120.6613, 38.3437], [-120.6585, 38.3433], [-120.6557, 38.3448], [-120.6533, 38.3452], [-120.6509, 38.3452], [-120.6499, 38.3443], [-120.6473, 38.345], [-120.6477, 38.3458], [-120.6433, 38.3527], [-120.6406, 38.3519], [-120.6408, 38.3507], [-120.6415, 38.3512], [-120.6431, 38.3508], [-120.643, 38.3505], [-120.64, 38.3503], [-120.6386, 38.3514], [-120.638, 38.3506], [-120.6388, 38.3503], [-120.6372, 38.3499], [-120.6368, 38.3511], [-120.6393, 38.3523], [-120.6386, 38.3538], [-120.6396, 38.3559], [-120.6384, 38.3564], [-120.6396, 38.3577], [-120.6386, 38.3588], [-120.6393, 38.3596], [-120.6385, 38.3624], [-120.6375, 38.3625], [-120.637, 38.3617], [-120.6357, 38.3627], [-120.6363, 38.3636], [-120.6377, 38.3632], [-120.6377, 38.3643], [-120.6366, 38.3653], [-120.6364, 38.3643], [-120.6344, 38.3636], [-120.6346, 38.3661], [-120.6306, 38.3659], [-120.6285, 38.3669], [-120.6272, 38.3667], [-120.6268, 38.3686], [-120.6277, 38.3707], [-120.6232, 38.3729]]]}, "properties": {"layer": "perimeter"}}, {"type": "Feature", "geometry": {"type": "MultiPolygon", "coordinates": [[[[-120.6203, 38.3451], [-120.6188, 38.3434], [-120.6193, 38.3415], [-120.6182, 38.3404], [-120.6194, 38.3394], [-120.6177, 38.3383], [-120.6195, 38.3373], [-120.619, 38.3361], [-120.6227, 38.3346], [-120.6227, 38.3326], [-120.6236, 38.3322], [-120.6255, 38.3321], [-120.6266, 38.3312], [-120.6284, 38.3314], [-120.6288, 38.3305], [-120.631, 38.33], [-120.6329, 38.3309], [-120.6294, 38.3308], [-120.6293, 38.3343], [-120.634, 38.3343], [-120.634, 38.3412], [-120.631, 38.3411], [-120.6306, 38.342], [-120.6284, 38.3415], [-120.6281, 38.3423], [-120.6271, 38.3423], [-120.627, 38.3415], [-120.6249, 38.3415], [-120.6249, 38.338], [-120.6203, 38.338], [-120.6203, 38.3451]]], [[[-120.6385, 38.3309], [-120.6328, 38.3304], [-120.6352, 38.3303], [-120.6362, 38.3294], [-120.6363, 38.3274], [-120.6385, 38.3272], [-120.6385, 38.3309]]], [[[-120.639, 38.327], [-120.6407, 38.3255], [-120.6371, 38.3253], [-120.64, 38.323], [-120.641, 38.3227], [-120.6454, 38.3244], [-120.6457, 38.3224], [-120.6474, 38.3213], [-120.6512, 38.322], [-120.6517, 38.3233], [-120.6541, 38.3248], [-120.655, 38.3244], [-120.6562, 38.3224], [-120.6583, 38.321], [-120.66, 38.3204], [-120.6611, 38.321], [-120.663, 38.3194], [-120.6636, 38.3185], [-120.6613, 38.3175], [-120.6612, 38.3169], [-120.6628, 38.3149], [-120.6641, 38.3156], [-120.6649, 38.315], [-120.6671, 38.3159], [-120.6715, 38.3155], [-120.6712, 38.3164], [-120.6732, 38.318], [-120.6722, 38.3186], [-120.6725, 38.3192], [-120.6749, 38.3183], [-120.6737, 38.3175], [-120.6751, 38.3177], [-120.6798, 38.3193], [-120.6794, 38.3201], [-120.6801, 38.3214], [-120.681, 38.3204], [-120.6818, 38.3205], [-120.6786, 38.3231], [-120.6796, 38.3237], [-120.6796, 38.3266], [-120.6822, 38.3259], [-120.6843, 38.3237], [-120.6844, 38.3264], [-120.689, 38.3264], [-120.689, 38.3228], [-120.6934, 38.3228], [-120.6931, 38.3191], [-120.6956, 38.3191], [-120.6945, 38.3202], [-120.6942, 38.3219], [-120.6955, 38.3236], [-120.6932, 38.3268], [-120.6934, 38.3291], [-120.6919, 38.3303], [-120.6902, 38.3301], [-120.687, 38.3311], [-120.6856, 38.3303], [-120.6869, 38.3322], [-120.6848, 38.3333], [-120.6847, 38.3363], [-120.6811, 38.3378], [-120.682, 38.3401], [-120.6806, 38.3397], [-120.68, 38.3405], [-120.6793, 38.3402], [-120.6794, 38.3409], [-120.6772, 38.3417], [-120.6777, 38.3429], [-120.6761, 38.3449], [-120.6752, 38.3444], [-120.6692, 38.3456], [-120.664, 38.3427], [-120.6613, 38.3437], [-120.6585, 38.3433], [-120.6557, 38.3448], [-120.6533, 38.3452], [-120.6509, 38.3452], [-120.6499, 38.3443], [-120.6473, 38.345], [-120.6477, 38.3458], [-120.6433, 38.3527], [-120.6406, 38.3519], [-120.6408, 38.3507], [-120.6415, 38.3512], [-120.6431, 38.3508], [-120.643, 38.3505], [-120.64, 38.3503], [-120.6386, 38.3514], [-120.638, 38.3506], [-120.6388, 38.3503], [-120.6372, 38.3499], [-120.6368, 38.3511], [-120.6393, 38.3523], [-120.6386, 38.3538], [-120.6396, 38.3559], [-120.6384, 38.3564], [-120.6396, 38.3577], [-120.6386, 38.3588], [-120.6393, 38.3596], [-120.6385, 38.3624], [-120.6375, 38.3625], [-120.637, 38.3617], [-120.6357, 38.3627], [-120.6363, 38.3636], [-120.6377, 38.3632], [-120.6377, 38.3643], [-120.6366, 38.3653], [-120.6364, 38.3643], [-120.6344, 38.3636], [-120.6346, 38.3661], [-120.6306, 38.3659], [-120.6285, 38.3669], [-120.6272, 38.3667], [-120.6268, 38.3686], [-120.6277, 38.3707], [-120.6232, 38.3729], [-120.6215, 38.3727], [-120.6206, 38.3723], [-120.6196, 38.3659], [-120.6218, 38.366], [-120.6213, 38.359], [-120.6291, 38.3592], [-120.6292, 38.3556], [-120.6336, 38.3557], [-120.6339, 38.3487], [-120.6384, 38.3485], [-120.6385, 38.345], [-120.6339, 38.3451], [-120.634, 38.3412], [-120.6385, 38.3414], [-120.6385, 38.3342], [-120.6431, 38.3341], [-120.6431, 38.327], [-120.639, 38.327]], [[-120.6524, 38.3338], [-120.6569, 38.3304], [-120.6524, 38.3303], [-120.6524, 38.3338]], [[-120.6704, 38.3408], [-120.675, 38.3408], [-120.675, 38.3372], [-120.6704, 38.3372], [-120.6704, 38.3408]]], [[[-120.6804, 38.3231], [-120.6832, 38.3207], [-120.6832, 38.3231], [-120.6804, 38.3231]]]]}, "properties": {"layer": "retained"}}, {"type": "Feature", "geometry": {"type": "Polygon", "coordinates": [[[-120.6376, 38.3534], [-120.6383, 38.3528], [-120.6372, 38.3528], [-120.6376, 38.3534]]]}, "properties": {"layer": "high_severity"}}]}
