{"type": "FeatureCollection", "features": [{"type": "Feature", "geometry": {"type": "MultiPolygon", "coordinates": [[[[-116.9187, 33.6524], [-116.9187, 33.6524], [-116.9187, 33.6524], [-116.9187, 33.6524]]], [[[-116.9187, 33.6524], [-116.9206, 33.6529], [-116.9215, 33.6549], [-116.9197, 33.6571], [-116.9177, 33.6572], [-116.9176, 33.6587], [-116.9168, 33.659], [-116.9113, 33.6575], [-116.9088, 33.6584], [-116.9091, 33.66], [-116.9083, 33.66], [-116.9075, 33.6591], [-116.9066, 33.6599], [-116.9049, 33.6597], [-116.9031, 33.6604], [-116.9023, 33.6599], [-116.9001, 33.6609], [-116.9025, 33.661], [-116.9054, 33.6634], [-116.9047, 33.6651], [-116.901, 33.6653], [-116.9007, 33.6669], [-116.8964, 33.6686], [-116.896, 33.6697], [-116.8985, 33.6691], [-116.8982, 33.6714], [-116.8975, 33.6719], [-116.8983, 33.6734], [-116.9003, 33.6745], [-116.8997, 33.6752], [-116.8982, 33.6748], [-116.8971, 33.6767], [-116.8972, 33.6783], [-116.9015, 33.6795], [-116.9042, 33.6788], [-116.9072, 33.6794], [-116.9077, 33.681], [-116.9094, 33.6798], [-116.9093, 33.6806], [-116.9105, 33.6809], [-116.9105, 33.6817], [-116.9128, 33.682], [-116.9119, 33.6825], [-116.9118, 33.6842], [-116.911, 33.6844], [-116.9111, 33.6852], [-116.9128, 33.6859], [-116.914, 33.6848], [-116.9163, 33.6848], [-116.9166, 33.684], [-116.9209, 33.6861], [-116.9233, 33.6863], [-116.9249, 33.6855], [-116.9266, 33.6864], [-116.9262, 33.6852], [-116.9276, 33.6848], [-116.9285, 33.6852], [-116.9285, 33.6844], [-116.9329, 33.687], [-116.9334, 33.6862], [-116.9348, 33.6864], [-116.9352, 33.6854], [-116.9361, 33.6853], [-116.9367, 33.6862], [-116.9369, 33.6852], [-116.9376, 33.6852], [-116.9404, 33.6866], [-116.94, 33.6891], [-116.9417, 33.6906], [-116.9412, 33.6909], [-116.9416, 33.6918], [-116.9432, 33.692], [-116.9427, 33.6915], [-116.9436, 33.6917], [-116.9439, 33.6905], [-116.947, 33.691], [-116.9497, 33.6934], [-116.9514, 33.6937], [-116.9528, 33.6961], [-116.9552, 33.6979], [-116.9543, 33.6992], [-116.956, 33.6996], [-116.9531, 33.7006], [-116.9533, 33.7015], [-116.9512, 33.702], [-116.9501, 33.702], [-116.948, 33.6997], [-116.9472, 33.7011], [-116.9455, 33.7007], [-116.9448, 33.7019], [-116.9432, 33.7013], [-116.9397, 33.7029], [-116.9379, 33.7026], [-116.9403, 33.705], [-116.9418, 33.7049], [-116.945, 33.7061], [-116.942, 33.7071], [-116.9382, 33.7077], [-116.9375, 33.7069], [-116.932, 33.707], [-116.9324, 33.7075], [-116.9312, 33.7076], [-116.9292, 33.7068], [-116.9277, 33.707], [-116.9252, 33.7056], [-116.922, 33.7067], [-116.9206, 33.7066], [-116.9181, 33.708], [-116.9187, 33.7086], [-116.915, 33.7131], [-116.9144, 33.7127], [-116.9133, 33.7145], [-116.9119, 33.7145], [-116.9098, 33.7178], [-116.9089, 33.7168], [-116.907, 33.7174], [-116.903, 33.7156], [-116.9039, 33.7144], [-116.9033, 33.7138], [-116.9036, 33.7127], [-116.9044, 33.7119], [-116.9027, 33.7106], [-116.9015, 33.7064], [-116.9041, 33.7048], [-116.9039, 33.7041], [-116.9027, 33.7043], [-116.9027, 33.7034], [-116.9018, 33.7042], [-116.9007, 33.7041], [-116.901, 33.7028], [-116.8997, 33.7022], [-116.8983, 33.7025], [-116.898, 33.701], [-116.8949, 33.7008], [-116.8935, 33.7038], [-116.8925, 33.7038], [-116.8917, 33.7048], [-116.8917, 33.7071], [-116.8929, 33.7074], [-116.8932, 33.7085], [-116.8928, 33.7135], [-116.8933, 33.715], [-116.8903, 33.7152], [-116.8887, 33.7145], [-116.8887, 33.712], [-116.8868, 33.7131], [-116.8853, 33.713], [-116.8853, 33.7121], [-116.8844, 33.7122], [-116.885, 33.7101], [-116.887, 33.7084], [-116.8863, 33.7078], [-116.8836, 33.7092], [-116.8817, 33.709], [-116.8805, 33.7108], [-116.8753, 33.7087], [-116.8746, 33.707], [-116.8712, 33.7065], [-116.8713, 33.708], [-116.8699, 33.708], [-116.8562, 33.7003], [-116.853, 33.6965], [-116.8511, 33.6961], [-116.8501, 33.6939], [-116.8476, 33.6932], [-116.848, 33.6937], [-116.8441, 33.6937], [-116.8454, 33.6966], [-116.8369, 33.6947], [-116.8375, 33.6962], [-116.8426, 33.6973], [-116.8405, 33.6982], [-116.8416, 33.7007], [-116.844, 33.6996], [-116.8465, 33.6998], [-116.8477, 33.7015], [-116.8502, 33.701], [-116.8501, 33.7034], [-116.8507, 33.7039], [-116.8491, 33.7044], [-116.8509, 33.7049], [-116.8528, 33.7037], [-116.8553, 33.7048], [-116.8539, 33.7055], [-116.8548, 33.7071], [-116.8537, 33.7082], [-116.8541, 33.7086], [-116.8567, 33.7091], [-116.8576, 33.708], [-116.859, 33.7078], [-116.8607, 33.7102], [-116.8601, 33.7103], [-116.8603, 33.7115], [-116.8581, 33.7131], [-116.8589, 33.7142], [-116.8606, 33.7145], [-116.8635, 33.7136], [-116.8652, 33.7137], [-116.8687, 33.7125], [-116.8698, 33.7138], [-116.8723, 33.7149], [-116.8736, 33.7147], [-116.8763, 33.7171], [-116.8761, 33.7201], [-116.874, 33.7211], [-116.8733, 33.7228], [-116.8671, 33.7224], [-116.8665, 33.7249], [-116.8634, 33.7239], [-116.858, 33.7243], [-116.8679, 33.7296], [-116.8688, 33.7305], [-116.8686, 33.7314], [-116.8659, 33.7322], [-116.8636, 33.7319], [-116.8627, 33.7332], [-116.8613, 33.7319], [-116.8615, 33.7305], [-116.86, 33.73], [-116.8587, 33.7308], [-116.8573, 33.7299], [-116.8568, 33.7304], [-116.8561, 33.7286], [-116.8546, 33.7304], [-116.8527, 33.7273], [-116.8493, 33.7269], [-116.8493, 33.7297], [-116.8475, 33.7327], [-116.8477, 33.7355], [-116.8507, 33.7369], [-116.8503, 33.7375], [-116.8496, 33.7371], [-116.8487, 33.7384], [-116.8472, 33.7377], [-116.8451, 33.7384], [-116.8426, 33.7372], [-116.842, 33.7366], [-116.8432, 33.7366], [-116.8438, 33.7355], [-116.8423, 33.733], [-116.84, 33.7324], [-116.836, 33.733], [-116.835, 33.7318], [-116.8323, 33.7307], [-116.8341, 33.7279], [-116.8326, 33.7271], [-116.8323, 33.7243], [-116.8308, 33.7232], [-116.8318, 33.7211], [-116.8266, 33.7223], [-116.8249, 33.7197], [-116.8252, 33.7191], [-116.8216, 33.7187], [-116.8219, 33.7136], [-116.8212, 33.7126], [-116.8227, 33.7099], [-116.8208, 33.7096], [-116.8192, 33.7085], [-116.8178, 33.7035], [-116.8149, 33.6999], [-116.8145, 33.6958], [-116.8122, 33.6931], [-116.814, 33.6902], [-116.8112, 33.6907], [-116.8112, 33.6913], [-116.8101, 33.6887], [-116.8095, 33.6897], [-116.8083, 33.6888], [-116.807, 33.69], [-116.8049, 33.6895], [-116.8048, 33.6876], [-116.8059, 33.6863], [-116.8009, 33.6859], [-116.801, 33.6849], [-116.7986, 33.6839], [-116.7992, 33.6829], [-116.7979, 33.6824], [-116.7958, 33.6802], [-116.7946, 33.6806], [-116.7933, 33.6793], [-116.7928, 33.68], [-116.7916, 33.6793], [-116.7923, 33.6784], [-116.7908, 33.6777], [-116.7916, 33.6772], [-116.788, 33.6766], [-116.7898, 33.676], [-116.7895, 33.6745], [-116.7902, 33.6744], [-116.7911, 33.6721], [-116.7859, 33.6736], [-116.7875, 33.6712], [-116.7887, 33.6716], [-116.7896, 33.6709], [-116.7907, 33.6711], [-116.7908, 33.6685], [-116.7921, 33.6676], [-116.7916, 33.6663], [-116.79, 33.666], [-116.7927, 33.6616], [-116.7922, 33.6611], [-116.79, 33.6622], [-116.7877, 33.6615], [-116.7868, 33.6598], [-116.7881, 33.659], [-116.7844, 33.6591], [-116.7823, 33.6577], [-116.7801, 33.6515], [-116.7853, 33.6465], [-116.7882, 33.6461], [-116.7899, 33.6465], [-116.7898, 33.6458], [-116.7872, 33.6446], [-116.7851, 33.6426], [-116.787, 33.6403], [-116.789, 33.6401], [-116.7899, 33.6411], [-116.7925, 33.6396], [-116.7942, 33.64], [-116.7945, 33.6392], [-116.7969, 33.6391], [-116.7969, 33.6368], [-116.7945, 33.636], [-116.7948, 33.6354], [-116.7961, 33.6345], [-116.7978, 33.6355], [-116.7998, 33.6349], [-116.7992, 33.6345], [-116.7998, 33.6342], [-116.799, 33.6334], [-116.7994, 33.6327], [-116.7971, 33.6319], [-116.7967, 33.6291], [-116.7954, 33.6281], [-116.7963, 33.6267], [-116.7976, 33.6262], [-116.7986, 33.6273], [-116.8001, 33.6269], [-116.8004, 33.6259], [-116.8022, 33.6256], [-116.803, 33.6246], [-116.805, 33.6251], [-116.8091, 33.6204], [-116.8117, 33.6198], [-116.8137, 33.6184], [-116.8157, 33.6184], [-116.8146, 33.617], [-116.8146, 33.6131], [-116.8153, 33.6128], [-116.8159, 33.6136], [-116.8174, 33.6138], [-116.8203, 33.6167], [-116.8215, 33.6169], [-116.8211, 33.616], [-116.8231, 33.6152], [-116.8232, 33.614], [-116.8221, 33.6135], [-116.8218, 33.6125], [-116.8245, 33.6126], [-116.8249, 33.6118], [-116.8262, 33.6117], [-116.8266, 33.6123], [-116.8269, 33.6118], [-116.8297, 33.6121], [-116.83, 33.6135], [-116.8325, 33.6143], [-116.8336, 33.6137], [-116.8347, 33.6142], [-116.8368, 33.6138], [-116.8385, 33.6128], [-116.8402, 33.613], [-116.8413, 33.6136], [-116.843, 33.6167], [-116.8452, 33.6185], [-116.8483, 33.6189], [-116.8501, 33.6202], [-116.8568, 33.6221], [-116.8595, 33.6214], [-116.861, 33.6218], [-116.8681, 33.6258], [-116.8685, 33.6298], [-116.8657, 33.6332], [-116.8643, 33.6335], [-116.8636, 33.6346], [-116.865, 33.6348], [-116.8668, 33.6339], [-116.8662, 33.6365], [-116.8669, 33.6377], [-116.8686, 33.6374], [-116.8709, 33.636], [-116.8737, 33.6355], [-116.8742, 33.6359], [-116.8759, 33.6335], [-116.8788, 33.6331], [-116.8804, 33.6312], [-116.882, 33.6306], [-116.8828, 33.6315], [-116.8828, 33.6309], [-116.8853, 33.6288], [-116.8856, 33.6265], [-116.8866, 33.6257], [-116.8869, 33.627], [-116.8854, 33.6293], [-116.8856, 33.63], [-116.8874, 33.6281], [-116.8888, 33.6288], [-116.8891, 33.6301], [-116.8931, 33.6292], [-116.8924, 33.6297], [-116.8942, 33.6307], [-116.8943, 33.6334], [-116.8958, 33.633], [-116.8959, 33.6341], [-116.8981, 33.6341], [-116.899, 33.6348], [-116.9009, 33.6345], [-116.9023, 33.6363], [-116.9015, 33.6369], [-116.9035, 33.6387], [-116.9019, 33.6395], [-116.9061, 33.6413], [-116.9066, 33.6424], [-116.9082, 33.6429], [-116.9084, 33.6439], [-116.9112, 33.6445], [-116.9123, 33.6437], [-116.9132, 33.6441], [-116.915, 33.6429], [-116.9147, 33.6419], [-116.9163, 33.642], [-116.9175, 33.6436], [-116.9189, 33.6443], [-116.9199, 33.6464], [-116.9204, 33.6455], [-116.923, 33.6455], [-116.9234, 33.6434], [-116.9265, 33.6429], [-116.9269, 33.644], [-116.9261, 33.6455], [-116.9272, 33.6464], [-116.9282, 33.6446], [-116.9306, 33.6452], [-116.9296, 33.6431], [-116.9303, 33.6429], [-116.9353, 33.6457], [-116.9351, 33.648], [-116.9362, 33.6493], [-116.9374, 33.6496], [-116.9375, 33.6505], [-116.9363, 33.6506], [-116.9364, 33.652], [-116.9346, 33.6499], [-116.933, 33.6506], [-116.9315, 33.6498], [-116.929, 33.6497], [-116.9276, 33.651], [-116.9248, 33.6512], [-116.9227, 33.6498], [-116.9219, 33.65], [-116.9215, 33.6491], [-116.92, 33.65], [-116.9191, 33.6498], [-116.9174, 33.6514], [-116.9175, 33.6519], [-116.9178, 33.6522], [-116.9182, 33.6521], [-116.9184, 33.6523], [-116.9184, 33.6522], [-116.9187, 33.6524]], [[-116.8984, 33.6748], [-116.8984, 33.6748], [-116.8984, 33.6748], [-116.8984, 33.6748]], [[-116.8245, 33.6126], [-116.8245, 33.6125], [-116.8245, 33.6125], [-116.8245, 33.6126]], [[-116.8718, 33.6993], [-116.8762, 33.6965], [-116.8767, 33.6955], [-116.874, 33.6943], [-116.8709, 33.6943], [-116.8707, 33.6937], [-116.8713, 33.6936], [-116.869, 33.6926], [-116.8697, 33.6916], [-116.8686, 33.6912], [-116.8686, 33.6905], [-116.8678, 33.6908], [-116.8657, 33.6897], [-116.8668, 33.6894], [-116.8663, 33.6886], [-116.867, 33.6886], [-116.8657, 33.6867], [-116.8631, 33.6876], [-116.8609, 33.6868], [-116.859, 33.6873], [-116.8593, 33.6885], [-116.858, 33.6892], [-116.8583, 33.6898], [-116.861, 33.691], [-116.861, 33.6934], [-116.8633, 33.6954], [-116.864, 33.6951], [-116.8651, 33.6976], [-116.8631, 33.6981], [-116.8632, 33.6987], [-116.8626, 33.6983], [-116.8622, 33.6989], [-116.8609, 33.6981], [-116.8598, 33.6982], [-116.86, 33.6968], [-116.8592, 33.6971], [-116.8585, 33.696], [-116.8595, 33.7003], [-116.8633, 33.7001], [-116.8661, 33.7014], [-116.8696, 33.6998], [-116.8717, 33.7019], [-116.8725, 33.7006], [-116.8718, 33.6993]], [[-116.8628, 33.7228], [-116.8603, 33.7209], [-116.8589, 33.7213], [-116.8605, 33.7227], [-116.8628, 33.7228]]], [[[-116.8315, 33.7245], [-116.8311, 33.725], [-116.8308, 33.7246], [-116.8315, 33.7245]]], [[[-116.8507, 33.7384], [-116.8514, 33.7386], [-116.8518, 33.7392], [-116.8509, 33.739], [-116.8507, 33.7384]]]]}, "properties": {"layer": "perimeter"}}, {"type": "Feature", "geometry": {"type": "MultiPolygon", "coordinates": [[[[-116.9199, 33.6564], [-116.9197, 33.6571], [-116.9177, 33.6572], [-116.9176, 33.6587], [-116.9168, 33.659], [-116.9113, 33.6575], [-116.9088, 33.6584], [-116.9091, 33.66], [-116.9083, 33.66], [-116.9075, 33.6591], [-116.9066, 33.6599], [-116.9049, 33.6597], [-116.9031, 33.6604], [-116.9023, 33.6599], [-116.9002, 33.6609], [-116.9025, 33.661], [-116.9054, 33.6634], [-116.9047, 33.6651], [-116.901, 33.6653], [-116.9007, 33.6669], [-116.8964, 33.6686], [-116.896, 33.6697], [-116.8985, 33.6691], [-116.8982, 33.6714], [-116.8975, 33.6719], [-116.8983, 33.6734], [-116.9003, 33.6745], [-116.8997, 33.6752], [-116.8982, 33.6748], [-116.8971, 33.6767], [-116.8972, 33.6783], [-116.9015, 33.6795], [-116.9042, 33.6788], [-116.9072, 33.6794], [-116.9077, 33.681], [-116.9094, 33.6798], [-116.9093, 33.6806], [-116.9105, 33.6809], [-116.9105, 33.6817], [-116.9128, 33.682], [-116.9119, 33.6825], [-116.9118, 33.6842], [-116.911, 33.6844], [-116.9111, 33.6852], [-116.9128, 33.6859], [-116.914, 33.6848], [-116.9163, 33.6848], [-116.9166, 33.684], [-116.9209, 33.6861], [-116.9233, 33.6863], [-116.9249, 33.6855], [-116.9266, 33.6864], [-116.9262, 33.6852], [-116.9276, 33.6848], [-116.9285, 33.6852], [-116.9285, 33.6844], [-116.9329, 33.687], [-116.9334, 33.6862], [-116.9348, 33.6864], [-116.9352, 33.6854], [-116.9361, 33.6853], [-116.9367, 33.6862], [-116.9369, 33.6852], [-116.9393, 33.6858], [-116.9404, 33.6866], [-116.94, 33.6891], [-116.9417, 33.6906], [-116.9412, 33.6909], [-116.9416, 33.6918], [-116.9432, 33.692], [-116.9427, 33.6915], [-116.9436, 33.6917], [-116.9439, 33.6905], [-116.9458, 33.6912], [-116.9464, 33.6908], [-116.9497, 33.6934], [-116.9514, 33.6937], [-116.954, 33.697], [-116.954, 33.7005], [-116.9531, 33.7006], [-116.9533, 33.7015], [-116.9501, 33.702], [-116.948, 33.6997], [-116.9472, 33.7011], [-116.9455, 33.7007], [-116.9448, 33.7019], [-116.9432, 33.7013], [-116.9397, 33.7029], [-116.9379, 33.7026], [-116.9403, 33.705], [-116.9418, 33.7049], [-116.945, 33.7061], [-116.942, 33.7071], [-116.9382, 33.7077], [-116.9375, 33.7069], [-116.932, 33.707], [-116.9324, 33.7075], [-116.9312, 33.7076], [-116.9292, 33.7068], [-116.9277, 33.707], [-116.9252, 33.7056], [-116.922, 33.7067], [-116.9206, 33.7066], [-116.9181, 33.708], [-116.9187, 33.7086], [-116.915, 33.7131], [-116.9144, 33.7127], [-116.9133, 33.7145], [-116.9119, 33.7145], [-116.9098, 33.7178], [-116.9089, 33.7168], [-116.907, 33.7174], [-116.903, 33.7156], [-116.9039, 33.7144], [-116.9033, 33.7138], [-116.9036, 33.7127], [-116.9044, 33.7119], [-116.9027, 33.7106], [-116.9015, 33.7064], [-116.9041, 33.7048], [-116.9039, 33.7041], [-116.9027, 33.7043], [-116.9027, 33.7034], [-116.9018, 33.7042], [-116.9007, 33.7041], [-116.901, 33.7028], [-116.8997, 33.7022], [-116.8983, 33.7025], [-116.898, 33.701], [-116.8949, 33.7008], [-116.8935, 33.7038], [-116.8925, 33.7038], [-116.8917, 33.7048], [-116.8917, 33.7071], [-116.8929, 33.7074], [-116.8932, 33.7085], [-116.8928, 33.7135], [-116.8933, 33.715], [-116.8894, 33.7149], [-116.8888, 33.7145], [-116.8886, 33.712], [-116.8868, 33.7131], [-116.8853, 33.713], [-116.8853, 33.7121], [-116.8844, 33.7122], [-116.885, 33.7101], [-116.887, 33.7084], [-116.8863, 33.7078], [-116.8836, 33.7092], [-116.8817, 33.709], [-116.8805, 33.7108], [-116.8753, 33.7086], [-116.8751, 33.6972], [-116.8742, 33.6972], [-116.8762, 33.6965], [-116.8767, 33.6955], [-116.874, 33.6943], [-116.8709, 33.6943], [-116.8711, 33.6934], [-116.869, 33.6926], [-116.8696, 33.6915], [-116.8686, 33.6912], [-116.8686, 33.6905], [-116.8678, 33.6908], [-116.8667, 33.6902], [-116.8667, 33.6865], [-116.8586, 33.6865], [-116.8586, 33.6709], [-116.877, 33.6709], [-116.8769, 33.6563], [-116.8585, 33.6564], [-116.8584, 33.6217], [-116.861, 33.6218], [-116.8681, 33.6258], [-116.8685, 33.6298], [-116.8657, 33.6332], [-116.8643, 33.6335], [-116.8636, 33.6346], [-116.865, 33.6348], [-116.8668, 33.6339], [-116.8662, 33.6365], [-116.8669, 33.6377], [-116.8686, 33.6374], [-116.8709, 33.636], [-116.8737, 33.6355], [-116.8742, 33.6359], [-116.8759, 33.6335], [-116.8788, 33.6331], [-116.8804, 33.6312], [-116.882, 33.6306], [-116.8828, 33.6315], [-116.8828, 33.6309], [-116.8853, 33.6288], [-116.8856, 33.6265], [-116.8866, 33.6257], [-116.8869, 33.627], [-116.8854, 33.6293], [-116.8856, 33.63], [-116.8874, 33.6281], [-116.8888, 33.6288], [-116.8891, 33.6301], [-116.8931, 33.6292], [-116.8924, 33.6297], [-116.8942, 33.6307], [-116.8943, 33.6334], [-116.8958, 33.633], [-116.8959, 33.6341], [-116.8981, 33.6341], [-116.899, 33.6348], [-116.9009, 33.6345], [-116.9023, 33.6363], [-116.9015, 33.6369], [-116.9035, 33.6387], [-116.9019, 33.6395], [-116.9061, 33.6413], [-116.9066, 33.6424], [-116.9082, 33.6429], [-116.9083, 33.6439], [-116.9112, 33.6445], [-116.9123, 33.6437], [-116.9132, 33.6441], [-116.915, 33.6429], [-116.9147, 33.6419], [-116.9163, 33.642], [-116.9175, 33.6436], [-116.9186, 33.644], [-116.9194, 33.6455], [-116.911, 33.6455], [-116.9108, 33.6563], [-116.9199, 33.6564]], [[-116.8984, 33.6748], [-116.8984, 33.6748], [-116.8984, 33.6748], [-116.8984, 33.6748]], [[-116.8768, 33.681], [-116.8767, 33.6864], [-116.8891, 33.6863], [-116.8894, 33.6817], [-116.8768, 33.681]], [[-116.8842, 33.7079], [-116.8842, 33.7042], [-116.8797, 33.7043], [-116.8797, 33.7079], [-116.8842, 33.7079]]], [[[-116.8713, 33.7079], [-116.8699, 33.708], [-116.8672, 33.7069], [-116.8562, 33.7003], [-116.853, 33.6965], [-116.8511, 33.6961], [-116.8501, 33.6939], [-116.8476, 33.6932], [-116.848, 33.6937], [-116.8441, 33.6937], [-116.8455, 33.6966], [-116.8435, 33.6963], [-116.8435, 33.6954], [-116.8413, 33.6954], [-116.8415, 33.6865], [-116.8583, 33.6865], [-116.8584, 33.6936], [-116.8541, 33.6936], [-116.854, 33.6972], [-116.8584, 33.6972], [-116.8584, 33.7008], [-116.8633, 33.7001], [-116.8652, 33.7014], [-116.8668, 33.7012], [-116.8667, 33.7062], [-116.8689, 33.7061], [-116.8689, 33.7074], [-116.8713, 33.7079]]], [[[-116.8502, 33.701], [-116.8501, 33.7034], [-116.8507, 33.7039], [-116.8498, 33.704], [-116.8502, 33.701]]], [[[-116.8514, 33.7044], [-116.8517, 33.7044], [-116.8514, 33.7044], [-116.8514, 33.7044]]], [[[-116.8522, 33.704], [-116.8539, 33.7038], [-116.8553, 33.7048], [-116.8541, 33.7054], [-116.8541, 33.7044], [-116.8522, 33.704]]], [[[-116.8541, 33.7057], [-116.8548, 33.7071], [-116.8543, 33.708], [-116.8537, 33.7082], [-116.8545, 33.7088], [-116.8567, 33.7091], [-116.8576, 33.708], [-116.859, 33.7078], [-116.8607, 33.7102], [-116.8601, 33.7103], [-116.8597, 33.7121], [-116.8582, 33.713], [-116.8583, 33.7116], [-116.8456, 33.7116], [-116.8457, 33.708], [-116.8541, 33.708], [-116.8541, 33.7057]]], [[[-116.8582, 33.7134], [-116.8606, 33.7145], [-116.8667, 33.7131], [-116.8667, 33.7151], [-116.8736, 33.7147], [-116.8763, 33.7171], [-116.8761, 33.7201], [-116.8755, 33.7202], [-116.8754, 33.7187], [-116.8582, 33.7186], [-116.8582, 33.7134]]], [[[-116.8675, 33.7128], [-116.8682, 33.7125], [-116.8682, 33.7125], [-116.8675, 33.7128]]], [[[-116.8733, 33.7228], [-116.8671, 33.7224], [-116.8669, 33.7241], [-116.8669, 33.7223], [-116.8733, 33.7223], [-116.8733, 33.7228]]], [[[-116.8675, 33.7294], [-116.8688, 33.7305], [-116.8686, 33.7314], [-116.8659, 33.7322], [-116.8636, 33.7319], [-116.8627, 33.7332], [-116.8613, 33.7319], [-116.8615, 33.7305], [-116.86, 33.73], [-116.8587, 33.7308], [-116.8579, 33.73], [-116.8568, 33.7304], [-116.8563, 33.7295], [-116.8675, 33.7294]]], [[[-116.8554, 33.7295], [-116.8546, 33.7304], [-116.8536, 33.7295], [-116.8554, 33.7295]]], [[[-116.8493, 33.7297], [-116.8475, 33.7327], [-116.8477, 33.7355], [-116.8507, 33.7369], [-116.8503, 33.7375], [-116.8496, 33.7371], [-116.8488, 33.7382], [-116.8472, 33.7377], [-116.8451, 33.7384], [-116.842, 33.7366], [-116.8432, 33.7366], [-116.8439, 33.7358], [-116.8427, 33.7332], [-116.8454, 33.7332], [-116.8453, 33.7296], [-116.8493, 33.7297]]], [[[-116.841, 33.7328], [-116.836, 33.733], [-116.835, 33.7318], [-116.8329, 33.7313], [-116.841, 33.7314], [-116.841, 33.7328]]], [[[-116.7976, 33.6354], [-116.8042, 33.635], [-116.8042, 33.6368], [-116.8064, 33.6368], [-116.8064, 33.6387], [-116.8107, 33.6386], [-116.8108, 33.6423], [-116.8151, 33.6422], [-116.8152, 33.6495], [-116.8064, 33.6496], [-116.8064, 33.6405], [-116.8042, 33.6405], [-116.8042, 33.6386], [-116.802, 33.6387], [-116.802, 33.6368], [-116.7976, 33.6369], [-116.7976, 33.6354]]], [[[-116.824, 33.6122], [-116.8245, 33.6126], [-116.8249, 33.6118], [-116.8262, 33.6117], [-116.8266, 33.6123], [-116.8269, 33.6118], [-116.8297, 33.6121], [-116.83, 33.6135], [-116.8325, 33.6143], [-116.8336, 33.6137], [-116.8347, 33.6142], [-116.8368, 33.6138], [-116.8385, 33.6128], [-116.8402, 33.613], [-116.8413, 33.6136], [-116.8446, 33.6182], [-116.8483, 33.6189], [-116.85, 33.6201], [-116.824, 33.6199], [-116.824, 33.6122]], [[-116.8245, 33.6126], [-116.8245, 33.6125], [-116.8245, 33.6125], [-116.8245, 33.6126]]], [[[-116.9217, 33.6455], [-116.9219, 33.6454], [-116.9221, 33.6455], [-116.9217, 33.6455]]], [[[-116.923, 33.6455], [-116.9234, 33.6434], [-116.9256, 33.6429], [-116.9268, 33.6433], [-116.9261, 33.6455], [-116.9268, 33.6462], [-116.9282, 33.6446], [-116.9305, 33.6453], [-116.9296, 33.6431], [-116.9303, 33.6429], [-116.9353, 33.6457], [-116.9351, 33.648], [-116.9362, 33.6493], [-116.9373, 33.6494], [-116.9375, 33.6505], [-116.9363, 33.6506], [-116.9364, 33.652], [-116.9346, 33.6499], [-116.933, 33.6506], [-116.9307, 33.6496], [-116.9286, 33.6498], [-116.9276, 33.651], [-116.9247, 33.6512], [-116.9238, 33.6507], [-116.9239, 33.6455], [-116.923, 33.6455]]], [[[-116.8674, 33.7008], [-116.8694, 33.6998], [-116.8707, 33.7008], [-116.8674, 33.7008]]], [[[-116.8483, 33.6299], [-116.848, 33.6296], [-116.8483, 33.6296], [-116.8483, 33.6299]]]]}, "properties": {"layer": "retained"}}, {"type": "Feature", "geometry": {"type": "Polygon", "coordinates": [[[-116.8259, 33.6177], [-116.8266, 33.6175], [-116.8259, 33.6174], [-116.8259, 33.6177]]]}, "properties": {"layer": "high_severity"}}]}
