{"type": "FeatureCollection", "features": [{"type": "Feature", "geometry": {"type": "MultiPolygon", "coordinates": [[[[-119.7709, 37.7023], [-119.7717, 37.7033], [-119.773, 37.7031], [-119.7727, 37.7042], [-119.7714, 37.7046], [-119.769, 37.7038], [-119.768, 37.7043], [-119.7663, 37.7086], [-119.7633, 37.7092], [-119.7601, 37.7073], [-119.7599, 37.7055], [-119.759, 37.7057], [-119.7585, 37.705], [-119.7582, 37.7019], [-119.7611, 37.6984], [-119.7606, 37.6978], [-119.7579, 37.6974], [-119.7588, 37.6947], [-119.7549, 37.6958], [-119.7508, 37.6935], [-119.7509, 37.6924], [-119.7427, 37.6929], [-119.74, 37.695], [-119.7402, 37.6965], [-119.739, 37.6979], [-119.7352, 37.6999], [-119.7331, 37.7021], [-119.7331, 37.7039], [-119.7362, 37.7082], [-119.7358, 37.7092], [-119.7347, 37.7094], [-119.7337, 37.7087], [-119.7341, 37.7103], [-119.7318, 37.7109], [-119.7322, 37.7126], [-119.7312, 37.7135], [-119.7283, 37.7135], [-119.7262, 37.7158], [-119.7228, 37.7173], [-119.7232, 37.7181], [-119.7216, 37.72], [-119.7227, 37.7204], [-119.72, 37.7213], [-119.7217, 37.7181], [-119.7198, 37.7186], [-119.7191, 37.7199], [-119.718, 37.7196], [-119.7177, 37.7206], [-119.7183, 37.7211], [-119.7169, 37.7224], [-119.7166, 37.7208], [-119.7167, 37.7228], [-119.716, 37.7232], [-119.7151, 37.7217], [-119.7154, 37.7205], [-119.7146, 37.7203], [-119.7197, 37.7154], [-119.7202, 37.7129], [-119.7161, 37.7122], [-119.7163, 37.7108], [-119.7146, 37.7137], [-119.7105, 37.7131], [-119.7083, 37.7096], [-119.7123, 37.7052], [-119.7124, 37.7009], [-119.7134, 37.7004], [-119.713, 37.6998], [-119.7138, 37.6992], [-119.7123, 37.6994], [-119.7116, 37.7002], [-119.7111, 37.6994], [-119.7072, 37.6981], [-119.7082, 37.6968], [-119.707, 37.6956], [-119.7075, 37.6934], [-119.7052, 37.6917], [-119.6999, 37.69], [-119.6998, 37.6895], [-119.7022, 37.6872], [-119.7063, 37.6864], [-119.7095, 37.6849], [-119.7095, 37.6843], [-119.7036, 37.682], [-119.7039, 37.681], [-119.7018, 37.6799], [-119.7013, 37.6787], [-119.6993, 37.6788], [-119.699, 37.6806], [-119.6971, 37.6804], [-119.6981, 37.6795], [-119.6969, 37.6787], [-119.6979, 37.6779], [-119.6977, 37.6769], [-119.6998, 37.6763], [-119.6978, 37.6762], [-119.6988, 37.6756], [-119.6979, 37.6751], [-119.6984, 37.6744], [-119.6964, 37.6742], [-119.695, 37.6732], [-119.6961, 37.6728], [-119.6951, 37.6725], [-119.6948, 37.6717], [-119.696, 37.6711], [-119.6953, 37.6706], [-119.6937, 37.6702], [-119.6917, 37.6712], [-119.6904, 37.6707], [-119.6908, 37.6696], [-119.6923, 37.6687], [-119.6914, 37.6688], [-119.6905, 37.6676], [-119.6908, 37.6666], [-119.6896, 37.6666], [-119.6887, 37.6649], [-119.6897, 37.6646], [-119.6889, 37.6629], [-119.6875, 37.6631], [-119.6862, 37.6623], [-119.6821, 37.6638], [-119.6821, 37.6626], [-119.6796, 37.6626], [-119.68, 37.6621], [-119.6789, 37.6613], [-119.679, 37.6608], [-119.6826, 37.6598], [-119.6856, 37.6597], [-119.6867, 37.6588], [-119.6898, 37.6591], [-119.6922, 37.658], [-119.6906, 37.6577], [-119.6919, 37.6566], [-119.6974, 37.6563], [-119.696, 37.6554], [-119.6974, 37.6546], [-119.7027, 37.6548], [-119.7027, 37.652], [-119.7004, 37.6516], [-119.702, 37.6486], [-119.7039, 37.648], [-119.7052, 37.6487], [-119.7085, 37.6488], [-119.709, 37.65], [-119.7111, 37.6507], [-119.7131, 37.6495], [-119.7161, 37.6492], [-119.716, 37.6506], [-119.7182, 37.6508], [-119.7194, 37.652], [-119.7227, 37.6527], [-119.7244, 37.6518], [-119.7232, 37.6504], [-119.724, 37.6505], [-119.7244, 37.6489], [-119.7236, 37.6485], [-119.7249, 37.6451], [-119.7243, 37.643], [-119.7247, 37.6413], [-119.7265, 37.6393], [-119.7226, 37.639], [-119.722, 37.6381], [-119.7209, 37.6386], [-119.7202, 37.638], [-119.72, 37.6347], [-119.7209, 37.6341], [-119.7194, 37.6333], [-119.7184, 37.6314], [-119.7152, 37.6313], [-119.7121, 37.6301], [-119.7081, 37.6307], [-119.7055, 37.6284], [-119.704, 37.6284], [-119.7025, 37.6275], [-119.7014, 37.6287], [-119.6995, 37.6293], [-119.6973, 37.6274], [-119.6959, 37.6246], [-119.6894, 37.6244], [-119.6884, 37.6238], [-119.6903, 37.6193], [-119.6891, 37.6157], [-119.687, 37.6152], [-119.6881, 37.6141], [-119.6884, 37.6122], [-119.6841, 37.6091], [-119.6844, 37.6051], [-119.6859, 37.6031], [-119.6847, 37.6008], [-119.6832, 37.5998], [-119.6829, 37.5979], [-119.6849, 37.5915], [-119.6899, 37.5899], [-119.6894, 37.5851], [-119.6889, 37.5842], [-119.683, 37.582], [-119.681, 37.5796], [-119.6784, 37.5801], [-119.6782, 37.5772], [-119.6802, 37.5745], [-119.6811, 37.5767], [-119.6871, 37.5761], [-119.688, 37.5753], [-119.6883, 37.5748], [-119.6876, 37.5746], [-119.689, 37.574], [-119.6913, 37.569], [-119.6919, 37.5692], [-119.6922, 37.5674], [-119.6915, 37.567], [-119.6926, 37.5659], [-119.6923, 37.5648], [-119.6935, 37.563], [-119.6905, 37.5614], [-119.6874, 37.5614], [-119.6872, 37.558], [-119.6858, 37.5563], [-119.6857, 37.5509], [-119.6833, 37.5495], [-119.6811, 37.5498], [-119.6797, 37.5491], [-119.6801, 37.5485], [-119.6795, 37.5481], [-119.6805, 37.547], [-119.6801, 37.545], [-119.6769, 37.5393], [-119.6766, 37.5334], [-119.6767, 37.533], [-119.6781, 37.5322], [-119.678, 37.532], [-119.672, 37.5329], [-119.6714, 37.532], [-119.673, 37.5286], [-119.6729, 37.5275], [-119.6703, 37.5261], [-119.6683, 37.5233], [-119.6695, 37.5214], [-119.6678, 37.5202], [-119.6679, 37.5183], [-119.6662, 37.5182], [-119.671, 37.5163], [-119.6783, 37.5155], [-119.6823, 37.5114], [-119.6889, 37.5112], [-119.6906, 37.5102], [-119.6936, 37.51], [-119.6989, 37.5084], [-119.7028, 37.5105], [-119.707, 37.5111], [-119.708, 37.5141], [-119.7078, 37.5157], [-119.7093, 37.5166], [-119.7125, 37.5175], [-119.718, 37.5167], [-119.7198, 37.517], [-119.7208, 37.5195], [-119.7234, 37.5192], [-119.7269, 37.521], [-119.7287, 37.5213], [-119.7318, 37.52], [-119.7347, 37.5203], [-119.736, 37.5185], [-119.7367, 37.5163], [-119.736, 37.5155], [-119.7359, 37.5093], [-119.7369, 37.5072], [-119.741, 37.5065], [-119.7478, 37.5102], [-119.7507, 37.5095], [-119.7553, 37.5105], [-119.7572, 37.5079], [-119.7562, 37.5035], [-119.7591, 37.5008], [-119.7614, 37.5016], [-119.7623, 37.5028], [-119.7636, 37.5095], [-119.7681, 37.5079], [-119.7724, 37.51], [-119.7756, 37.5135], [-119.7769, 37.5171], [-119.7782, 37.518], [-119.7799, 37.5179], [-119.7837, 37.5152], [-119.7862, 37.5119], [-119.7878, 37.5122], [-119.7884, 37.5136], [-119.7922, 37.5126], [-119.7964, 37.5123], [-119.7975, 37.5128], [-119.7989, 37.5124], [-119.7982, 37.5119], [-119.799, 37.5115], [-119.8003, 37.5126], [-119.8033, 37.5128], [-119.8042, 37.5135], [-119.8098, 37.513], [-119.813, 37.5157], [-119.8126, 37.5165], [-119.814, 37.5179], [-119.8131, 37.5196], [-119.815, 37.5219], [-119.8147, 37.5245], [-119.8157, 37.5245], [-119.8151, 37.5259], [-119.816, 37.5269], [-119.8162, 37.5318], [-119.8149, 37.5342], [-119.8176, 37.5347], [-119.8196, 37.5391], [-119.8227, 37.5427], [-119.8232, 37.5423], [-119.8246, 37.5426], [-119.8249, 37.5436], [-119.8262, 37.5438], [-119.8278, 37.5457], [-119.8294, 37.5457], [-119.8317, 37.5473], [-119.8321, 37.5484], [-119.8333, 37.5484], [-119.8337, 37.5501], [-119.8355, 37.5503], [-119.8388, 37.5535], [-119.8391, 37.5552], [-119.842, 37.5587], [-119.8472, 37.5576], [-119.8497, 37.5589], [-119.8503, 37.5604], [-119.8538, 37.563], [-119.8541, 37.5652], [-119.8526, 37.5668], [-119.8489, 37.5693], [-119.8466, 37.5691], [-119.8451, 37.57], [-119.8461, 37.5707], [-119.846, 37.573], [-119.8471, 37.5735], [-119.8459, 37.5749], [-119.8472, 37.5777], [-119.8463, 37.5783], [-119.8473, 37.5791], [-119.8467, 37.5797], [-119.8485, 37.5816], [-119.8484, 37.5853], [-119.8457, 37.5885], [-119.8458, 37.5901], [-119.8473, 37.5907], [-119.8481, 37.5901], [-119.8487, 37.5912], [-119.8481, 37.5929], [-119.8499, 37.5945], [-119.8516, 37.593], [-119.8531, 37.5937], [-119.8543, 37.5932], [-119.8561, 37.5955], [-119.8576, 37.5949], [-119.8588, 37.5957], [-119.8601, 37.5955], [-119.8606, 37.5943], [-119.862, 37.5938], [-119.8661, 37.5939], [-119.8662, 37.5928], [-119.8683, 37.5907], [-119.8674, 37.5896], [-119.8692, 37.5854], [-119.873, 37.5865], [-119.8791, 37.5868], [-119.8818, 37.5835], [-119.8814, 37.5814], [-119.884, 37.5803], [-119.8869, 37.5806], [-119.8917, 37.5792], [-119.8926, 37.5813], [-119.896, 37.5836], [-119.8968, 37.5862], [-119.8984, 37.5863], [-119.8983, 37.5878], [-119.9003, 37.5896], [-119.9003, 37.5925], [-119.8978, 37.5973], [-119.8986, 37.5995], [-119.8973, 37.6004], [-119.8984, 37.6042], [-119.9014, 37.6073], [-119.9016, 37.6099], [-119.9022, 37.6096], [-119.904, 37.6104], [-119.9039, 37.6119], [-119.9103, 37.6177], [-119.9109, 37.6197], [-119.9155, 37.624], [-119.9189, 37.6294], [-119.9206, 37.6298], [-119.9244, 37.6341], [-119.926, 37.635], [-119.9291, 37.6365], [-119.932, 37.6363], [-119.9327, 37.637], [-119.9311, 37.6384], [-119.9296, 37.6383], [-119.9279, 37.6391], [-119.9257, 37.6418], [-119.9212, 37.6444], [-119.9204, 37.647], [-119.9174, 37.6488], [-119.9141, 37.6527], [-119.914, 37.6532], [-119.9153, 37.6529], [-119.9156, 37.6543], [-119.9168, 37.6551], [-119.9172, 37.6575], [-119.919, 37.6591], [-119.9177, 37.6601], [-119.9187, 37.6617], [-119.9224, 37.6638], [-119.9248, 37.6663], [-119.9231, 37.6676], [-119.9186, 37.668], [-119.9095, 37.672], [-119.9112, 37.672], [-119.9189, 37.6687], [-119.9208, 37.6686], [-119.9204, 37.6695], [-119.9213, 37.6702], [-119.9219, 37.6686], [-119.9227, 37.6684], [-119.9253, 37.6689], [-119.9264, 37.6703], [-119.931, 37.6723], [-119.9334, 37.6759], [-119.9387, 37.6726], [-119.9448, 37.6732], [-119.9461, 37.6747], [-119.9454, 37.6787], [-119.9428, 37.6815], [-119.9421, 37.6844], [-119.9404, 37.6867], [-119.9418, 37.6906], [-119.9396, 37.6933], [-119.9371, 37.6929], [-119.9383, 37.6965], [-119.9382, 37.699], [-119.935, 37.7058], [-119.9404, 37.7092], [-119.94, 37.7102], [-119.9426, 37.7131], [-119.9442, 37.7167], [-119.9407, 37.7204], [-119.9367, 37.7216], [-119.9361, 37.7224], [-119.937, 37.7229], [-119.9368, 37.725], [-119.9341, 37.7272], [-119.9349, 37.73], [-119.9334, 37.7336], [-119.9339, 37.7355], [-119.9307, 37.7392], [-119.9333, 37.7442], [-119.9334, 37.7492], [-119.9347, 37.7535], [-119.9354, 37.754], [-119.9372, 37.7539], [-119.9363, 37.7551], [-119.9359, 37.7546], [-119.9345, 37.7551], [-119.9352, 37.756], [-119.9358, 37.7629], [-119.9351, 37.7637], [-119.9319, 37.7631], [-119.9295, 37.7642], [-119.9293, 37.7631], [-119.9259, 37.7644], [-119.9203, 37.7621], [-119.9123, 37.761], [-119.9074, 37.7579], [-119.9056, 37.7577], [-119.8945, 37.7617], [-119.8842, 37.7605], [-119.8826, 37.7621], [-119.8769, 37.7635], [-119.8741, 37.7658], [-119.8698, 37.7653], [-119.8668, 37.766], [-119.866, 37.7652], [-119.8626, 37.7649], [-119.862, 37.7671], [-119.8609, 37.7674], [-119.8585, 37.7657], [-119.8565, 37.7662], [-119.8553, 37.7659], [-119.8548, 37.7644], [-119.8537, 37.7637], [-119.8538, 37.7623], [-119.8529, 37.7635], [-119.8514, 37.7635], [-119.8499, 37.7644], [-119.8425, 37.7631], [-119.8423, 37.7613], [-119.8445, 37.7612], [-119.8455, 37.7608], [-119.8445, 37.7595], [-119.8452, 37.758], [-119.8467, 37.7574], [-119.8461, 37.7555], [-119.8484, 37.7543], [-119.8477, 37.7494], [-119.8486, 37.7487], [-119.8476, 37.745], [-119.8435, 37.7411], [-119.8412, 37.7354], [-119.8399, 37.7342], [-119.8406, 37.7337], [-119.8399, 37.7322], [-119.8393, 37.7325], [-119.8387, 37.729], [-119.8377, 37.7283], [-119.8349, 37.7204], [-119.8356, 37.7196], [-119.8362, 37.7199], [-119.8368, 37.7173], [-119.8345, 37.7138], [-119.8335, 37.7106], [-119.8355, 37.7082], [-119.841, 37.7077], [-119.8413, 37.7049], [-119.8446, 37.7003], [-119.8444, 37.6988], [-119.8418, 37.6977], [-119.8426, 37.6961], [-119.846, 37.6959], [-119.8468, 37.6942], [-119.8509, 37.6927], [-119.8518, 37.6913], [-119.8558, 37.6892], [-119.8577, 37.687], [-119.8581, 37.6854], [-119.8564, 37.6832], [-119.8551, 37.6828], [-119.8541, 37.6805], [-119.8565, 37.6786], [-119.8549, 37.6771], [-119.8544, 37.6751], [-119.856, 37.674], [-119.8588, 37.6734], [-119.8602, 37.6714], [-119.8638, 37.6718], [-119.8638, 37.6704], [-119.8662, 37.6669], [-119.8665, 37.6649], [-119.8624, 37.66], [-119.8573, 37.6588], [-119.8549, 37.6594], [-119.8477, 37.6591], [-119.8468, 37.6597], [-119.8477, 37.6612], [-119.8425, 37.6623], [-119.8412, 37.6643], [-119.8417, 37.6648], [-119.841, 37.6662], [-119.839, 37.6674], [-119.8358, 37.6676], [-119.836, 37.6699], [-119.8338, 37.6735], [-119.8327, 37.6736], [-119.8301, 37.6714], [-119.825, 37.6695], [-119.8164, 37.6687], [-119.811, 37.6665], [-119.8104, 37.6652], [-119.8056, 37.6657], [-119.8057, 37.6698], [-119.7995, 37.6703], [-119.7946, 37.6716], [-119.792, 37.6712], [-119.786, 37.6718], [-119.7833, 37.673], [-119.7826, 37.6743], [-119.7757, 37.677], [-119.7786, 37.6806], [-119.7767, 37.6828], [-119.7772, 37.6852], [-119.7764, 37.6858], [-119.778, 37.6873], [-119.7783, 37.6891], [-119.7815, 37.6907], [-119.7856, 37.6945], [-119.7844, 37.6961], [-119.7802, 37.6962], [-119.7791, 37.6956], [-119.7783, 37.6968], [-119.7773, 37.6967], [-119.7723, 37.6933], [-119.7724, 37.6925], [-119.7747, 37.6917], [-119.7735, 37.6908], [-119.7722, 37.6908], [-119.7709, 37.6897], [-119.7697, 37.691], [-119.7682, 37.6893], [-119.7672, 37.6894], [-119.7663, 37.6906], [-119.7699, 37.6924], [-119.7681, 37.6921], [-119.7674, 37.6913], [-119.7665, 37.6915], [-119.7667, 37.6934], [-119.7683, 37.6945], [-119.7684, 37.6961], [-119.7674, 37.6965], [-119.769, 37.6982], [-119.7702, 37.6984], [-119.7696, 37.699], [-119.7706, 37.6995], [-119.7698, 37.7001], [-119.771, 37.7008], [-119.7709, 37.7023]], [[-119.6857, 37.5509], [-119.6857, 37.5509], [-119.6857, 37.5509], [-119.6857, 37.5509]], [[-119.7708, 37.7021], [-119.7708, 37.7021], [-119.7708, 37.7021], [-119.7708, 37.7021]], [[-119.8785, 37.7258], [-119.8848, 37.727], [-119.8882, 37.7261], [-119.8845, 37.7214], [-119.8804, 37.7217], [-119.8779, 37.7206], [-119.8764, 37.7231], [-119.8783, 37.7238], [-119.8774, 37.7249], [-119.8785, 37.7258]]], [[[-119.7787, 37.6968], [-119.7787, 37.6968], [-119.7786, 37.6969], [-119.7787, 37.6968]]], [[[-119.7389, 37.698], [-119.7389, 37.6979], [-119.7389, 37.6979], [-119.7389, 37.698]]], [[[-119.7323, 37.7137], [-119.7321, 37.7128], [-119.7327, 37.7133], [-119.7323, 37.7137]]], [[[-119.716, 37.7132], [-119.7157, 37.7134], [-119.7155, 37.7134], [-119.716, 37.7132]]], [[[-119.8433, 37.7601], [-119.8433, 37.7597], [-119.8437, 37.7599], [-119.8433, 37.7601]]], [[[-119.8627, 37.7682], [-119.8615, 37.7689], [-119.8622, 37.7672], [-119.8627, 37.7682]]], [[[-119.682, 37.6528], [-119.6823, 37.6524], [-119.6831, 37.6524], [-119.682, 37.6528]]], [[[-119.6889, 37.6554], [-119.6845, 37.6548], [-119.6824, 37.6553], [-119.6833, 37.6544], [-119.6825, 37.6538], [-119.6834, 37.6534], [-119.6836, 37.652], [-119.6864, 37.6529], [-119.6882, 37.6526], [-119.6893, 37.6544], [-119.6889, 37.6554]]], [[[-119.6721, 37.6637], [-119.6733, 37.6635], [-119.6738, 37.6638], [-119.6726, 37.6643], [-119.6721, 37.6637]]], [[[-119.6908, 37.6833], [-119.69, 37.6825], [-119.6898, 37.6804], [-119.6922, 37.6813], [-119.6938, 37.6805], [-119.6936, 37.6811], [-119.6945, 37.6808], [-119.6953, 37.6814], [-119.695, 37.6822], [-119.6918, 37.6819], [-119.6921, 37.6831], [-119.6908, 37.6833]]], [[[-119.7069, 37.6858], [-119.7066, 37.6856], [-119.7072, 37.6859], [-119.7069, 37.6858]]], [[[-119.7131, 37.7218], [-119.7141, 37.7211], [-119.7145, 37.7209], [-119.714, 37.7218], [-119.7131, 37.7218]]], [[[-119.7127, 37.7231], [-119.7137, 37.7233], [-119.713, 37.7235], [-119.7127, 37.7231]]]]}, "properties": {"layer": "perimeter"}}, {"type": "Feature", "geometry": {"type": "MultiPolygon", "coordinates": [[[[-119.7681, 37.7034], [-119.7677, 37.7058], [-119.7656, 37.7057], [-119.7655, 37.7067], [-119.7643, 37.7067], [-119.7644, 37.7033], [-119.7681, 37.7034]]], [[[-119.7132, 37.6495], [-119.7161, 37.6492], [-119.716, 37.6506], [-119.7182, 37.6508], [-119.7194, 37.652], [-119.7227, 37.6527], [-119.7244, 37.6518], [-119.7232, 37.6504], [-119.724, 37.6505], [-119.7244, 37.6489], [-119.7236, 37.6485], [-119.7249, 37.6451], [-119.7243, 37.643], [-119.7247, 37.6413], [-119.7265, 37.6391], [-119.7226, 37.639], [-119.7226, 37.6371], [-119.7362, 37.6371], [-119.7361, 37.6407], [-119.7407, 37.6407], [-119.7405, 37.6444], [-119.7451, 37.6444], [-119.7452, 37.6408], [-119.7497, 37.6408], [-119.7496, 37.6444], [-119.7541, 37.6444], [-119.7539, 37.6516], [-119.7494, 37.6516], [-119.7496, 37.6586], [-119.7156, 37.6586], [-119.7155, 37.655], [-119.7132, 37.655], [-119.7132, 37.6495]]], [[[-119.7037, 37.6281], [-119.7023, 37.6275], [-119.7003, 37.6292], [-119.6987, 37.6288], [-119.6956, 37.6246], [-119.6956, 37.6223], [-119.704, 37.6225], [-119.7037, 37.6281]]], [[[-119.6789, 37.5145], [-119.6803, 37.514], [-119.6801, 37.5131], [-119.6813, 37.512], [-119.6812, 37.5146], [-119.6789, 37.5145]]], [[[-119.7626, 37.5042], [-119.7636, 37.5095], [-119.765, 37.5086], [-119.7686, 37.508], [-119.7724, 37.51], [-119.7756, 37.5135], [-119.7762, 37.5184], [-119.7675, 37.5182], [-119.7674, 37.5153], [-119.763, 37.5154], [-119.763, 37.5116], [-119.7585, 37.5116], [-119.7583, 37.5082], [-119.7628, 37.5081], [-119.7626, 37.5042]]], [[[-119.7841, 37.5147], [-119.7862, 37.5119], [-119.7878, 37.5122], [-119.7884, 37.5136], [-119.7922, 37.5126], [-119.7964, 37.5123], [-119.7975, 37.5128], [-119.7991, 37.5118], [-119.799, 37.5154], [-119.7841, 37.5147]]], [[[-119.8037, 37.5131], [-119.8054, 37.5131], [-119.8055, 37.5136], [-119.8098, 37.513], [-119.8129, 37.5157], [-119.8128, 37.5183], [-119.8082, 37.5184], [-119.8083, 37.5148], [-119.8037, 37.5149], [-119.8037, 37.5131]]], [[[-119.8136, 37.5184], [-119.8131, 37.5196], [-119.815, 37.5219], [-119.8127, 37.5219], [-119.8128, 37.5183], [-119.8136, 37.5184]]], [[[-119.8372, 37.5523], [-119.8384, 37.553], [-119.8389, 37.5542], [-119.837, 37.5542], [-119.8372, 37.5523]]], [[[-119.8416, 37.5579], [-119.8421, 37.5587], [-119.8472, 37.5576], [-119.8497, 37.5589], [-119.8503, 37.5604], [-119.8538, 37.563], [-119.8541, 37.5652], [-119.8507, 37.5682], [-119.8504, 37.5613], [-119.8459, 37.5614], [-119.8459, 37.5652], [-119.8369, 37.5652], [-119.8369, 37.5578], [-119.8416, 37.5579]]], [[[-119.8499, 37.5687], [-119.846, 37.5694], [-119.846, 37.5685], [-119.8499, 37.5687]]], [[[-119.846, 37.5706], [-119.8463, 37.5713], [-119.846, 37.572], [-119.846, 37.5706]]], [[[-119.846, 37.5729], [-119.8471, 37.5735], [-119.846, 37.5748], [-119.846, 37.5729]]], [[[-119.8461, 37.5755], [-119.8472, 37.5777], [-119.8463, 37.5783], [-119.8473, 37.5791], [-119.847, 37.5796], [-119.846, 37.5796], [-119.8461, 37.5755]]], [[[-119.8482, 37.5815], [-119.8485, 37.5835], [-119.8483, 37.5853], [-119.8482, 37.5815]]], [[[-119.8469, 37.5871], [-119.8464, 37.5881], [-119.8461, 37.5883], [-119.8461, 37.5869], [-119.8469, 37.5871]]], [[[-119.8461, 37.5902], [-119.8473, 37.5907], [-119.8481, 37.5901], [-119.8487, 37.5912], [-119.8481, 37.5929], [-119.8499, 37.5944], [-119.846, 37.5945], [-119.8461, 37.5902]]], [[[-119.8504, 37.5944], [-119.8516, 37.593], [-119.8531, 37.5937], [-119.8543, 37.5932], [-119.8548, 37.5943], [-119.8504, 37.5944]]], [[[-119.861, 37.5943], [-119.862, 37.5938], [-119.8661, 37.5939], [-119.8662, 37.5928], [-119.8683, 37.5907], [-119.8674, 37.5896], [-119.8689, 37.586], [-119.8688, 37.5942], [-119.861, 37.5943]]], [[[-119.9019, 37.6084], [-119.9016, 37.6099], [-119.9022, 37.6096], [-119.904, 37.6104], [-119.9039, 37.6119], [-119.908, 37.6159], [-119.9017, 37.6159], [-119.9015, 37.6121], [-119.897, 37.6121], [-119.8969, 37.6083], [-119.9019, 37.6084]]], [[[-119.9226, 37.6677], [-119.9224, 37.6677], [-119.9226, 37.6677], [-119.9226, 37.6677]]], [[[-119.9204, 37.6678], [-119.9197, 37.6681], [-119.9191, 37.6681], [-119.9204, 37.6678]]], [[[-119.9162, 37.6696], [-119.9208, 37.6686], [-119.9204, 37.6695], [-119.9213, 37.6702], [-119.9222, 37.6685], [-119.9255, 37.6694], [-119.9257, 37.6901], [-119.917, 37.6903], [-119.9162, 37.6696]]], [[[-119.9374, 37.7214], [-119.9361, 37.7224], [-119.937, 37.7229], [-119.9368, 37.725], [-119.9282, 37.7249], [-119.928, 37.7095], [-119.9373, 37.7097], [-119.9374, 37.7214]]], [[[-119.8704, 37.7655], [-119.8675, 37.7655], [-119.8668, 37.766], [-119.866, 37.7652], [-119.8626, 37.7649], [-119.8614, 37.7672], [-119.8616, 37.7645], [-119.8707, 37.7645], [-119.8704, 37.7655]]], [[[-119.8556, 37.6594], [-119.8504, 37.6594], [-119.8484, 37.6588], [-119.8468, 37.6597], [-119.8474, 37.6604], [-119.8466, 37.6604], [-119.8466, 37.6586], [-119.8555, 37.6585], [-119.8556, 37.6594]]], [[[-119.8776, 37.7254], [-119.8848, 37.727], [-119.8856, 37.7266], [-119.8856, 37.7276], [-119.8762, 37.7275], [-119.8759, 37.7159], [-119.8809, 37.7159], [-119.8808, 37.7216], [-119.8775, 37.7206], [-119.8765, 37.7226], [-119.8766, 37.7235], [-119.8783, 37.7238], [-119.8776, 37.7254]]], [[[-119.8627, 37.7684], [-119.8618, 37.7676], [-119.8622, 37.7672], [-119.8627, 37.7684]]], [[[-119.89, 37.6062], [-119.8898, 37.6025], [-119.8944, 37.6025], [-119.8945, 37.6062], [-119.89, 37.6062]]], [[[-119.8199, 37.6025], [-119.8214, 37.6064], [-119.8224, 37.6062], [-119.8238, 37.6101], [-119.8218, 37.6107], [-119.8179, 37.6029], [-119.8199, 37.6025]]], [[[-119.8967, 37.6369], [-119.8919, 37.637], [-119.8918, 37.6335], [-119.8874, 37.6336], [-119.8872, 37.6271], [-119.8916, 37.627], [-119.8918, 37.6302], [-119.8966, 37.63], [-119.8967, 37.6369]]], [[[-119.8419, 37.6373], [-119.8416, 37.6364], [-119.8441, 37.6358], [-119.8446, 37.6369], [-119.8419, 37.6373]]], [[[-119.8433, 37.6454], [-119.8393, 37.6431], [-119.8356, 37.6417], [-119.8367, 37.6408], [-119.8403, 37.6421], [-119.8443, 37.6445], [-119.8433, 37.6454]]], [[[-119.8429, 37.6469], [-119.8438, 37.6462], [-119.846, 37.6478], [-119.8454, 37.6484], [-119.8429, 37.6469]]], [[[-119.8856, 37.6482], [-119.8888, 37.6534], [-119.884, 37.6549], [-119.8835, 37.6532], [-119.8858, 37.6525], [-119.8838, 37.6487], [-119.8802, 37.6458], [-119.8824, 37.6452], [-119.8856, 37.6482]]], [[[-119.8685, 37.662], [-119.8715, 37.6627], [-119.8796, 37.6672], [-119.8784, 37.6685], [-119.871, 37.6647], [-119.8708, 37.6671], [-119.8753, 37.6678], [-119.875, 37.6684], [-119.8771, 37.6715], [-119.8758, 37.672], [-119.8739, 37.6689], [-119.8707, 37.6685], [-119.8707, 37.6702], [-119.8687, 37.6702], [-119.8687, 37.6736], [-119.8669, 37.6736], [-119.8669, 37.6621], [-119.8662, 37.6595], [-119.8675, 37.659], [-119.8685, 37.662]]], [[[-119.7807, 37.5221], [-119.7763, 37.522], [-119.7762, 37.5184], [-119.7808, 37.5185], [-119.7807, 37.5221]]], [[[-119.7816, 37.5847], [-119.7794, 37.5847], [-119.7782, 37.5757], [-119.7804, 37.5756], [-119.7816, 37.5847]]], [[[-119.7965, 37.6025], [-119.7941, 37.6025], [-119.794, 37.594], [-119.7965, 37.5941], [-119.7965, 37.6025]]], [[[-119.7684, 37.6407], [-119.7688, 37.6371], [-119.7713, 37.6371], [-119.7708, 37.6407], [-119.7684, 37.6407]]], [[[-119.768, 37.6589], [-119.7675, 37.6534], [-119.763, 37.6534], [-119.7631, 37.648], [-119.7722, 37.6479], [-119.7717, 37.6515], [-119.7726, 37.659], [-119.768, 37.6589]]], [[[-119.7709, 37.6724], [-119.7709, 37.6751], [-119.7693, 37.6749], [-119.7692, 37.6723], [-119.7709, 37.6724]]], [[[-119.7602, 37.6781], [-119.7642, 37.6782], [-119.7638, 37.6774], [-119.7657, 37.6773], [-119.7679, 37.6778], [-119.763, 37.6793], [-119.7607, 37.6791], [-119.7602, 37.6781]]], [[[-119.7632, 37.6795], [-119.7681, 37.6781], [-119.7691, 37.6802], [-119.7653, 37.6798], [-119.7632, 37.6795]]]]}, "properties": {"layer": "retained"}}, {"type": "Feature", "geometry": {"type": "MultiPolygon", "coordinates": [[[[-119.8615, 37.7653], [-119.8619, 37.765], [-119.8615, 37.765], [-119.8615, 37.7653]]], [[[-119.8673, 37.7645], [-119.8677, 37.7648], [-119.868, 37.7645], [-119.8673, 37.7645]]], [[[-119.8633, 37.7648], [-119.8653, 37.7645], [-119.8633, 37.7645], [-119.8633, 37.7648]]], [[[-119.8619, 37.7648], [-119.8626, 37.7645], [-119.8619, 37.7645], [-119.8619, 37.7648]]], [[[-119.9329, 37.7249], [-119.9332, 37.7246], [-119.9329, 37.7246], [-119.9329, 37.7249]]], [[[-119.9366, 37.7244], [-119.9369, 37.7241], [-119.9366, 37.7241], [-119.9366, 37.7244]]], [[[-119.9329, 37.7244], [-119.9325, 37.7238], [-119.9318, 37.7238], [-119.9318, 37.7244], [-119.9329, 37.7244]]], [[[-119.9363, 37.7241], [-119.9366, 37.7238], [-119.9363, 37.7238], [-119.9363, 37.7241]]], [[[-119.9366, 37.7214], [-119.9366, 37.7208], [-119.9356, 37.7208], [-119.9356, 37.7214], [-119.9366, 37.7214]]], [[[-119.9318, 37.7208], [-119.9322, 37.7206], [-119.9318, 37.7206], [-119.9318, 37.7208]]], [[[-119.9349, 37.7206], [-119.9352, 37.7203], [-119.9349, 37.7203], [-119.9349, 37.7206]]], [[[-119.9356, 37.7206], [-119.9359, 37.72], [-119.9356, 37.72], [-119.9356, 37.7206]]], [[[-119.9363, 37.7195], [-119.9366, 37.7192], [-119.9363, 37.7192], [-119.9363, 37.7195]]], [[[-119.8794, 37.7192], [-119.8804, 37.7189], [-119.879, 37.7186], [-119.8794, 37.7192]]], [[[-119.9356, 37.7176], [-119.9359, 37.7173], [-119.9356, 37.7173], [-119.9356, 37.7176]]], [[[-119.9318, 37.716], [-119.9322, 37.7157], [-119.9318, 37.7157], [-119.9318, 37.716]]], [[[-119.9301, 37.7144], [-119.9305, 37.7141], [-119.9301, 37.7141], [-119.9301, 37.7144]]], [[[-119.9322, 37.7125], [-119.9325, 37.7122], [-119.9322, 37.7122], [-119.9322, 37.7125]]], [[[-119.9329, 37.7119], [-119.9332, 37.7117], [-119.9329, 37.7117], [-119.9329, 37.7119]]], [[[-119.9312, 37.7109], [-119.9315, 37.7106], [-119.9312, 37.7106], [-119.9312, 37.7109]]], [[[-119.9332, 37.7106], [-119.9336, 37.7103], [-119.9332, 37.7103], [-119.9332, 37.7106]]], [[[-119.9298, 37.7106], [-119.9305, 37.7103], [-119.9298, 37.7103], [-119.9298, 37.7106]]], [[[-119.9291, 37.7106], [-119.9295, 37.7103], [-119.9291, 37.7103], [-119.9291, 37.7106]]], [[[-119.9336, 37.7103], [-119.9339, 37.7101], [-119.9336, 37.7101], [-119.9336, 37.7103]]], [[[-119.9332, 37.7114], [-119.9332, 37.7106], [-119.9325, 37.71], [-119.9301, 37.7095], [-119.9305, 37.7103], [-119.9322, 37.7103], [-119.9325, 37.7114], [-119.9332, 37.7114]]], [[[-119.9298, 37.71], [-119.9295, 37.7095], [-119.9288, 37.7095], [-119.9288, 37.71], [-119.9298, 37.71]]], [[[-119.9179, 37.6903], [-119.9182, 37.6901], [-119.9179, 37.6901], [-119.9179, 37.6903]]], [[[-119.9196, 37.6901], [-119.9199, 37.6898], [-119.9196, 37.6898], [-119.9196, 37.6901]]], [[[-119.9203, 37.6898], [-119.9206, 37.6895], [-119.9203, 37.6895], [-119.9203, 37.6898]]], [[[-119.9186, 37.6898], [-119.9189, 37.6895], [-119.9186, 37.6895], [-119.9186, 37.6898]]], [[[-119.9199, 37.6895], [-119.9203, 37.6893], [-119.9199, 37.6893], [-119.9199, 37.6895]]], [[[-119.9169, 37.6885], [-119.9176, 37.6882], [-119.9169, 37.6879], [-119.9169, 37.6885]]], [[[-119.9186, 37.6882], [-119.9189, 37.6879], [-119.9186, 37.6879], [-119.9186, 37.6882]]], [[[-119.9189, 37.6879], [-119.9193, 37.6876], [-119.9189, 37.6876], [-119.9189, 37.6879]]], [[[-119.9247, 37.6796], [-119.9254, 37.679], [-119.9251, 37.679], [-119.9247, 37.6796]]], [[[-119.7184, 37.6587], [-119.7187, 37.6585], [-119.7184, 37.6585], [-119.7184, 37.6587]]], [[[-119.7157, 37.6587], [-119.716, 37.6582], [-119.7157, 37.6582], [-119.7157, 37.6587]]], [[[-119.7456, 37.6585], [-119.746, 37.6583], [-119.7456, 37.6583], [-119.7456, 37.6585]]], [[[-119.7487, 37.6585], [-119.7497, 37.6583], [-119.7487, 37.658], [-119.7487, 37.6585]]], [[[-119.7705, 37.658], [-119.7712, 37.6575], [-119.7708, 37.6575], [-119.7705, 37.658]]], [[[-119.7684, 37.6588], [-119.7695, 37.6586], [-119.7698, 37.6575], [-119.7688, 37.6575], [-119.7684, 37.6588]]], [[[-119.7211, 37.6577], [-119.7218, 37.6571], [-119.7208, 37.6571], [-119.7211, 37.6577]]], [[[-119.7477, 37.6574], [-119.748, 37.6572], [-119.7477, 37.6572], [-119.7477, 37.6574]]], [[[-119.7327, 37.6571], [-119.733, 37.6566], [-119.7327, 37.6566], [-119.7327, 37.6571]]], [[[-119.716, 37.6571], [-119.7163, 37.6566], [-119.716, 37.6566], [-119.716, 37.6571]]], [[[-119.7698, 37.657], [-119.7701, 37.6567], [-119.7698, 37.6567], [-119.7698, 37.657]]], [[[-119.7313, 37.6569], [-119.7317, 37.6566], [-119.7313, 37.6566], [-119.7313, 37.6569]]], [[[-119.7701, 37.6567], [-119.7705, 37.6564], [-119.7701, 37.6564], [-119.7701, 37.6567]]], [[[-119.7184, 37.6568], [-119.7204, 37.6571], [-119.7198, 37.6563], [-119.7181, 37.6558], [-119.7163, 37.6563], [-119.7174, 37.6566], [-119.7174, 37.6574], [-119.7184, 37.6574], [-119.7184, 37.6568]]], [[[-119.7497, 37.6566], [-119.7497, 37.6558], [-119.7494, 37.6558], [-119.749, 37.6566], [-119.7497, 37.6566]]], [[[-119.7484, 37.6561], [-119.7487, 37.6558], [-119.7484, 37.6558], [-119.7484, 37.6561]]], [[[-119.7402, 37.6561], [-119.7409, 37.6558], [-119.7402, 37.6558], [-119.7402, 37.6561]]], [[[-119.7225, 37.656], [-119.7228, 37.6558], [-119.7225, 37.6558], [-119.7225, 37.656]]], [[[-119.748, 37.6558], [-119.7484, 37.6556], [-119.748, 37.6556], [-119.748, 37.6558]]], [[[-119.7398, 37.6561], [-119.7402, 37.6555], [-119.7392, 37.6555], [-119.7392, 37.6558], [-119.7398, 37.6561]]], [[[-119.716, 37.6566], [-119.716, 37.656], [-119.7167, 37.6555], [-119.7157, 37.6555], [-119.716, 37.6566]]], [[[-119.7378, 37.6555], [-119.7381, 37.6553], [-119.7378, 37.6553], [-119.7378, 37.6555]]], [[[-119.7153, 37.6555], [-119.7157, 37.6552], [-119.7153, 37.6552], [-119.7153, 37.6555]]], [[[-119.7463, 37.6572], [-119.7477, 37.6561], [-119.7473, 37.655], [-119.7463, 37.6564], [-119.7463, 37.6572]]], [[[-119.7463, 37.6553], [-119.7467, 37.655], [-119.7463, 37.655], [-119.7463, 37.6553]]], [[[-119.7136, 37.6549], [-119.7143, 37.6547], [-119.7136, 37.6547], [-119.7136, 37.6549]]], [[[-119.7392, 37.6555], [-119.7392, 37.6547], [-119.7385, 37.6545], [-119.7381, 37.6553], [-119.7392, 37.6555]]], [[[-119.7293, 37.655], [-119.729, 37.6544], [-119.7283, 37.6547], [-119.7283, 37.655], [-119.7293, 37.655]]], [[[-119.746, 37.6545], [-119.7463, 37.6542], [-119.746, 37.6542], [-119.746, 37.6545]]], [[[-119.748, 37.6545], [-119.7484, 37.6539], [-119.748, 37.6539], [-119.748, 37.6545]]], [[[-119.7477, 37.6548], [-119.7477, 37.6534], [-119.7473, 37.6534], [-119.747, 37.6545], [-119.7477, 37.6548]]], [[[-119.7422, 37.6539], [-119.7426, 37.6534], [-119.7422, 37.6534], [-119.7422, 37.6539]]], [[[-119.7354, 37.6536], [-119.7358, 37.6534], [-119.7354, 37.6534], [-119.7354, 37.6536]]], [[[-119.7266, 37.6534], [-119.7276, 37.6536], [-119.7276, 37.6531], [-119.7266, 37.6534]]], [[[-119.7313, 37.6547], [-119.731, 37.6528], [-119.73, 37.6531], [-119.73, 37.6539], [-119.7286, 37.6539], [-119.729, 37.6544], [-119.731, 37.6539], [-119.7313, 37.6547]]], [[[-119.7467, 37.6542], [-119.746, 37.6529], [-119.7443, 37.6534], [-119.7446, 37.6542], [-119.7453, 37.6534], [-119.7467, 37.6542]]], [[[-119.7286, 37.6534], [-119.729, 37.6528], [-119.7286, 37.6528], [-119.7286, 37.6534]]], [[[-119.7215, 37.6531], [-119.7218, 37.6528], [-119.7215, 37.6528], [-119.7215, 37.6531]]], [[[-119.764, 37.6532], [-119.764, 37.6526], [-119.7634, 37.6526], [-119.7634, 37.6529], [-119.764, 37.6532]]], [[[-119.7688, 37.6529], [-119.7691, 37.6526], [-119.7688, 37.6526], [-119.7688, 37.6529]]], [[[-119.7419, 37.6528], [-119.7422, 37.6526], [-119.7419, 37.6526], [-119.7419, 37.6528]]], [[[-119.713, 37.6528], [-119.7133, 37.6525], [-119.713, 37.6525], [-119.713, 37.6528]]], [[[-119.7422, 37.6526], [-119.7426, 37.6523], [-119.7422, 37.6523], [-119.7422, 37.6526]]], [[[-119.7473, 37.6529], [-119.7477, 37.6523], [-119.745, 37.6515], [-119.745, 37.652], [-119.7473, 37.6529]]], [[[-119.7494, 37.6558], [-119.7494, 37.6523], [-119.7487, 37.6523], [-119.7491, 37.6521], [-119.7487, 37.6515], [-119.748, 37.6523], [-119.7487, 37.6531], [-119.748, 37.6534], [-119.7487, 37.6537], [-119.7484, 37.6548], [-119.749, 37.6548], [-119.7484, 37.6556], [-119.7494, 37.6558]]], [[[-119.7535, 37.6515], [-119.7538, 37.6513], [-119.7535, 37.6513], [-119.7535, 37.6515]]], [[[-119.7528, 37.6515], [-119.7531, 37.6513], [-119.7528, 37.6513], [-119.7528, 37.6515]]], [[[-119.7484, 37.6515], [-119.7487, 37.6512], [-119.7484, 37.6512], [-119.7484, 37.6515]]], [[[-119.7456, 37.6515], [-119.7463, 37.6512], [-119.7456, 37.6512], [-119.7456, 37.6515]]], [[[-119.7708, 37.6518], [-119.7708, 37.6513], [-119.7702, 37.651], [-119.7698, 37.6518], [-119.7708, 37.6518]]], [[[-119.7419, 37.6512], [-119.7422, 37.651], [-119.7419, 37.651], [-119.7419, 37.6512]]], [[[-119.7136, 37.6509], [-119.714, 37.6512], [-119.7143, 37.6509], [-119.7136, 37.6509]]], [[[-119.7354, 37.6515], [-119.7358, 37.6509], [-119.7344, 37.6507], [-119.7344, 37.6512], [-119.7354, 37.6515]]], [[[-119.7525, 37.6515], [-119.7521, 37.6507], [-119.7508, 37.6504], [-119.7487, 37.651], [-119.7491, 37.6515], [-119.7525, 37.6515]]], [[[-119.7484, 37.6512], [-119.7484, 37.6507], [-119.7457, 37.6504], [-119.747, 37.6512], [-119.7484, 37.6512]]], [[[-119.7531, 37.651], [-119.7538, 37.6504], [-119.7531, 37.6504], [-119.7531, 37.651]]], [[[-119.7143, 37.6506], [-119.7147, 37.6504], [-119.7143, 37.6504], [-119.7143, 37.6506]]], [[[-119.7487, 37.6507], [-119.7491, 37.6502], [-119.7487, 37.6502], [-119.7487, 37.6507]]], [[[-119.7671, 37.6499], [-119.7674, 37.6497], [-119.7671, 37.6497], [-119.7671, 37.6499]]], [[[-119.7436, 37.6499], [-119.7443, 37.6496], [-119.7436, 37.6496], [-119.7436, 37.6499]]], [[[-119.7674, 37.6497], [-119.7678, 37.6494], [-119.7674, 37.6494], [-119.7674, 37.6497]]], [[[-119.7504, 37.6496], [-119.7508, 37.6494], [-119.7504, 37.6494], [-119.7504, 37.6496]]], [[[-119.747, 37.6502], [-119.7474, 37.6494], [-119.7467, 37.6496], [-119.7467, 37.6491], [-119.7453, 37.6496], [-119.747, 37.6502]]], [[[-119.7654, 37.6494], [-119.7657, 37.6491], [-119.7654, 37.6491], [-119.7654, 37.6494]]], [[[-119.7674, 37.6491], [-119.7678, 37.6489], [-119.7674, 37.6489], [-119.7674, 37.6491]]], [[[-119.7467, 37.6491], [-119.747, 37.6488], [-119.7467, 37.6488], [-119.7467, 37.6491]]], [[[-119.7477, 37.6491], [-119.7477, 37.6485], [-119.747, 37.6485], [-119.747, 37.6488], [-119.7477, 37.6491]]], [[[-119.7334, 37.6488], [-119.7337, 37.6485], [-119.7334, 37.6485], [-119.7334, 37.6488]]], [[[-119.7664, 37.6486], [-119.7668, 37.6483], [-119.7664, 37.6483], [-119.7664, 37.6486]]], [[[-119.7514, 37.6499], [-119.7514, 37.6486], [-119.7521, 37.6483], [-119.7504, 37.648], [-119.7501, 37.6485], [-119.7514, 37.6499]]], [[[-119.7651, 37.6483], [-119.7654, 37.648], [-119.7651, 37.648], [-119.7651, 37.6483]]], [[[-119.7412, 37.6483], [-119.7419, 37.648], [-119.7412, 37.648], [-119.7412, 37.6483]]], [[[-119.7283, 37.6474], [-119.7286, 37.6472], [-119.7283, 37.6472], [-119.7283, 37.6474]]], [[[-119.7538, 37.6502], [-119.7542, 37.6488], [-119.7542, 37.6469], [-119.7535, 37.6469], [-119.7535, 37.6488], [-119.7525, 37.6475], [-119.7514, 37.6477], [-119.7525, 37.6483], [-119.7528, 37.6499], [-119.7538, 37.6502]], [[-119.7535, 37.6494], [-119.7531, 37.6496], [-119.7531, 37.6494], [-119.7535, 37.6494]]], [[[-119.7344, 37.6485], [-119.7348, 37.6474], [-119.7358, 37.6469], [-119.7344, 37.6466], [-119.7344, 37.6472], [-119.7334, 37.6472], [-119.7331, 37.648], [-119.7344, 37.6485]]], [[[-119.7341, 37.6461], [-119.7344, 37.6458], [-119.7341, 37.6458], [-119.7341, 37.6461]]], [[[-119.7453, 37.6453], [-119.7457, 37.645], [-119.7453, 37.645], [-119.7453, 37.6453]]], [[[-119.744, 37.6453], [-119.7443, 37.645], [-119.744, 37.645], [-119.744, 37.6453]]], [[[-119.7348, 37.645], [-119.7351, 37.6447], [-119.7348, 37.6447], [-119.7348, 37.645]]], [[[-119.7426, 37.6469], [-119.7436, 37.6461], [-119.7416, 37.6445], [-119.7412, 37.645], [-119.7419, 37.645], [-119.7416, 37.6458], [-119.7426, 37.6469]]], [[[-119.7344, 37.6447], [-119.7348, 37.6445], [-119.7344, 37.6445], [-119.7344, 37.6447]]], [[[-119.7334, 37.6442], [-119.7338, 37.6439], [-119.7334, 37.6439], [-119.7334, 37.6442]]], [[[-119.7259, 37.6442], [-119.7263, 37.6439], [-119.7259, 37.6439], [-119.7259, 37.6442]]], [[[-119.7494, 37.644], [-119.7498, 37.6437], [-119.7494, 37.6437], [-119.7494, 37.644]]], [[[-119.7355, 37.6434], [-119.7358, 37.6431], [-119.7355, 37.6431], [-119.7355, 37.6434]]], [[[-119.7256, 37.6431], [-119.7259, 37.6434], [-119.7263, 37.6431], [-119.7256, 37.6431]]], [[[-119.7338, 37.6426], [-119.7341, 37.6423], [-119.7338, 37.6423], [-119.7338, 37.6426]]], [[[-119.7382, 37.6423], [-119.7389, 37.642], [-119.7382, 37.642], [-119.7382, 37.6423]]], [[[-119.7341, 37.6423], [-119.7344, 37.642], [-119.7341, 37.642], [-119.7341, 37.6423]]], [[[-119.7263, 37.6428], [-119.7259, 37.6423], [-119.727, 37.642], [-119.7256, 37.6417], [-119.7253, 37.6426], [-119.7263, 37.6428]]], [[[-119.7263, 37.6417], [-119.7266, 37.6415], [-119.7263, 37.6415], [-119.7263, 37.6417]]], [[[-119.7259, 37.6415], [-119.7263, 37.6412], [-119.7259, 37.6412], [-119.7259, 37.6415]]], [[[-119.7395, 37.6545], [-119.7392, 37.6528], [-119.7402, 37.6523], [-119.7399, 37.6512], [-119.7409, 37.651], [-119.7412, 37.6485], [-119.7412, 37.6483], [-119.7409, 37.6483], [-119.7412, 37.6477], [-119.7406, 37.6472], [-119.7412, 37.6466], [-119.7402, 37.6458], [-119.7402, 37.6431], [-119.7385, 37.6431], [-119.7389, 37.6426], [-119.7375, 37.6431], [-119.7378, 37.6423], [-119.7365, 37.6426], [-119.7365, 37.6418], [-119.7351, 37.641], [-119.7344, 37.6426], [-119.7358, 37.6423], [-119.7361, 37.6431], [-119.7358, 37.6469], [-119.7361, 37.6469], [-119.7365, 37.6477], [-119.7348, 37.6482], [-119.7334, 37.6501], [-119.7341, 37.6501], [-119.7341, 37.6499], [-119.7344, 37.6499], [-119.7344, 37.6496], [-119.7348, 37.6496], [-119.7351, 37.6507], [-119.7361, 37.6504], [-119.7361, 37.6507], [-119.7365, 37.6507], [-119.7368, 37.6509], [-119.7361, 37.6518], [-119.7351, 37.6518], [-119.7351, 37.6523], [-119.7354, 37.6523], [-119.7361, 37.6531], [-119.7364, 37.6542], [-119.7375, 37.6536], [-119.7368, 37.6528], [-119.7378, 37.6528], [-119.7388, 37.651], [-119.7392, 37.6512], [-119.7388, 37.6526], [-119.7382, 37.6528], [-119.7395, 37.6545]], [[-119.7365, 37.6526], [-119.7361, 37.6531], [-119.7361, 37.6526], [-119.7365, 37.6526]], [[-119.7358, 37.652], [-119.7354, 37.6523], [-119.7354, 37.652], [-119.7358, 37.652]], [[-119.7378, 37.6512], [-119.7371, 37.6515], [-119.7371, 37.6512], [-119.7378, 37.6512]], [[-119.7395, 37.651], [-119.7392, 37.6512], [-119.7392, 37.651], [-119.7395, 37.651]], [[-119.7385, 37.6507], [-119.7382, 37.651], [-119.7382, 37.6507], [-119.7385, 37.6507]], [[-119.7402, 37.6504], [-119.7395, 37.6507], [-119.7395, 37.6504], [-119.7402, 37.6504]], [[-119.7368, 37.6504], [-119.7365, 37.6507], [-119.7365, 37.6504], [-119.7368, 37.6504]], [[-119.7395, 37.6501], [-119.7392, 37.6504], [-119.7392, 37.6501], [-119.7395, 37.6501]], [[-119.7405, 37.6499], [-119.7399, 37.6496], [-119.7405, 37.6493], [-119.7405, 37.6499]], [[-119.7378, 37.6499], [-119.7375, 37.6501], [-119.7375, 37.6499], [-119.7378, 37.6499]], [[-119.7368, 37.6496], [-119.7365, 37.6499], [-119.7365, 37.6496], [-119.7368, 37.6496]], [[-119.7351, 37.6493], [-119.7348, 37.6496], [-119.7348, 37.6493], [-119.7351, 37.6493]], [[-119.7382, 37.6491], [-119.7375, 37.6493], [-119.7375, 37.6491], [-119.7382, 37.6491]], [[-119.7361, 37.6491], [-119.7358, 37.6493], [-119.7358, 37.6491], [-119.7361, 37.6491]], [[-119.7348, 37.6491], [-119.7344, 37.6493], [-119.7344, 37.6491], [-119.7348, 37.6491]], [[-119.7406, 37.6488], [-119.7402, 37.6491], [-119.7402, 37.6488], [-119.7406, 37.6488]], [[-119.7354, 37.6488], [-119.7348, 37.6491], [-119.7348, 37.6488], [-119.7354, 37.6488]], [[-119.7365, 37.6482], [-119.7358, 37.6488], [-119.7358, 37.6482], [-119.7365, 37.6482]], [[-119.7385, 37.6485], [-119.7375, 37.648], [-119.7382, 37.6477], [-119.7375, 37.6466], [-119.7378, 37.6466], [-119.7389, 37.6456], [-119.7385, 37.645], [-119.7399, 37.645], [-119.7392, 37.6456], [-119.7399, 37.6464], [-119.7389, 37.6469], [-119.7395, 37.6477], [-119.7385, 37.6485]], [[-119.7371, 37.6483], [-119.7368, 37.6485], [-119.7368, 37.6482], [-119.7371, 37.6483]], [[-119.7399, 37.648], [-119.7395, 37.6483], [-119.7395, 37.648], [-119.7399, 37.648]], [[-119.7406, 37.6474], [-119.7402, 37.648], [-119.7402, 37.6474], [-119.7406, 37.6474]], [[-119.7368, 37.6477], [-119.7365, 37.648], [-119.7365, 37.6477], [-119.7368, 37.6477]], [[-119.7406, 37.6466], [-119.7402, 37.6469], [-119.7402, 37.6466], [-119.7406, 37.6466]], [[-119.7365, 37.6466], [-119.7361, 37.6469], [-119.7361, 37.6466], [-119.7365, 37.6466]], [[-119.7378, 37.6461], [-119.7375, 37.6464], [-119.7375, 37.6461], [-119.7378, 37.6461]], [[-119.7382, 37.6453], [-119.7378, 37.6456], [-119.7378, 37.6453], [-119.7382, 37.6453]], [[-119.7378, 37.6445], [-119.7372, 37.6445], [-119.7372, 37.6439], [-119.7375, 37.6439], [-119.7378, 37.6445]], [[-119.7389, 37.6439], [-119.7385, 37.6442], [-119.7385, 37.6439], [-119.7389, 37.6439]], [[-119.7372, 37.6437], [-119.7368, 37.6439], [-119.7368, 37.6437], [-119.7372, 37.6437]], [[-119.7395, 37.6434], [-119.7392, 37.6437], [-119.7392, 37.6434], [-119.7395, 37.6434]], [[-119.7375, 37.6426], [-119.7372, 37.6429], [-119.7372, 37.6426], [-119.7375, 37.6426]]], [[[-119.7266, 37.6407], [-119.727, 37.6404], [-119.7266, 37.6404], [-119.7266, 37.6407]]], [[[-119.8968, 37.6369], [-119.8969, 37.6364], [-119.8958, 37.6364], [-119.8958, 37.6366], [-119.8968, 37.6369]]], [[[-119.8931, 37.6366], [-119.8934, 37.6363], [-119.8931, 37.6363], [-119.8931, 37.6366]]], [[[-119.8948, 37.6363], [-119.8951, 37.6358], [-119.8948, 37.6358], [-119.8948, 37.6363]]], [[[-119.8951, 37.6358], [-119.8955, 37.6355], [-119.8951, 37.6355], [-119.8951, 37.6358]]], [[[-119.8931, 37.635], [-119.8934, 37.6347], [-119.8931, 37.6347], [-119.8931, 37.635]]], [[[-119.8928, 37.6347], [-119.8931, 37.6345], [-119.8928, 37.6345], [-119.8928, 37.6347]]], [[[-119.8948, 37.6345], [-119.8952, 37.6342], [-119.8948, 37.6342], [-119.8948, 37.6345]]], [[[-119.8941, 37.6347], [-119.8941, 37.6336], [-119.8938, 37.6336], [-119.8934, 37.6347], [-119.8941, 37.6347]]], [[[-119.8941, 37.6336], [-119.8945, 37.6334], [-119.8941, 37.6334], [-119.8941, 37.6336]]], [[[-119.8894, 37.6334], [-119.89, 37.6331], [-119.8894, 37.6328], [-119.8894, 37.6334]]], [[[-119.8928, 37.6331], [-119.8931, 37.6328], [-119.8928, 37.6328], [-119.8928, 37.6331]]], [[[-119.89, 37.6331], [-119.8907, 37.6326], [-119.8904, 37.6326], [-119.89, 37.6331]]], [[[-119.8883, 37.6326], [-119.8887, 37.6328], [-119.8894, 37.6326], [-119.8883, 37.6326]]], [[[-119.8907, 37.6326], [-119.8911, 37.6323], [-119.8907, 37.6323], [-119.8907, 37.6326]]], [[[-119.8938, 37.6323], [-119.8941, 37.632], [-119.8938, 37.632], [-119.8938, 37.6323]]], [[[-119.89, 37.6318], [-119.8904, 37.6315], [-119.89, 37.6315], [-119.89, 37.6318]]], [[[-119.8931, 37.632], [-119.8935, 37.631], [-119.8924, 37.6318], [-119.8914, 37.6315], [-119.8914, 37.632], [-119.8931, 37.632]]], [[[-119.8921, 37.6312], [-119.8924, 37.6309], [-119.8921, 37.6309], [-119.8921, 37.6312]]], [[[-119.888, 37.6312], [-119.888, 37.6307], [-119.8883, 37.6304], [-119.8873, 37.6307], [-119.888, 37.6312]]], [[[-119.8928, 37.6304], [-119.8931, 37.6301], [-119.8928, 37.6301], [-119.8928, 37.6304]]], [[[-119.8883, 37.6304], [-119.8887, 37.6301], [-119.8883, 37.6301], [-119.8883, 37.6304]]], [[[-119.8877, 37.6301], [-119.8883, 37.6296], [-119.888, 37.6296], [-119.8877, 37.6301]]], [[[-119.8904, 37.6299], [-119.8907, 37.6296], [-119.8904, 37.6296], [-119.8904, 37.6299]]], [[[-119.8907, 37.6296], [-119.8911, 37.6293], [-119.8907, 37.6293], [-119.8907, 37.6296]]], [[[-119.8883, 37.6296], [-119.889, 37.6293], [-119.8884, 37.6293], [-119.8883, 37.6296]]], [[[-119.8907, 37.6291], [-119.8918, 37.6288], [-119.8907, 37.6288], [-119.8907, 37.6291]]], [[[-119.8894, 37.6288], [-119.8897, 37.6285], [-119.8894, 37.6285], [-119.8894, 37.6288]]], [[[-119.889, 37.6285], [-119.8894, 37.6282], [-119.889, 37.6282], [-119.889, 37.6285]]], [[[-119.8894, 37.6282], [-119.8897, 37.628], [-119.8894, 37.628], [-119.8894, 37.6282]]], [[[-119.8897, 37.628], [-119.8901, 37.6277], [-119.8897, 37.6277], [-119.8897, 37.628]]], [[[-119.8877, 37.6277], [-119.888, 37.6274], [-119.8877, 37.6274], [-119.8877, 37.6277]]], [[[-119.888, 37.6274], [-119.8884, 37.6272], [-119.888, 37.6272], [-119.888, 37.6274]]], [[[-119.8897, 37.6272], [-119.8904, 37.6269], [-119.8897, 37.6269], [-119.8897, 37.6272]]], [[[-119.9078, 37.6159], [-119.9074, 37.6153], [-119.9067, 37.6153], [-119.9067, 37.6158], [-119.9078, 37.6159]]], [[[-119.905, 37.615], [-119.9054, 37.6148], [-119.905, 37.6148], [-119.905, 37.615]]], [[[-119.9044, 37.615], [-119.9047, 37.6148], [-119.9044, 37.6148], [-119.9044, 37.615]]], [[[-119.903, 37.615], [-119.9033, 37.6148], [-119.903, 37.6148], [-119.903, 37.615]]], [[[-119.9061, 37.6148], [-119.9064, 37.6145], [-119.9061, 37.6145], [-119.9061, 37.6148]]], [[[-119.9054, 37.6148], [-119.9057, 37.6145], [-119.9054, 37.6145], [-119.9054, 37.6148]]], [[[-119.9064, 37.6145], [-119.9068, 37.6142], [-119.9064, 37.6142], [-119.9064, 37.6145]]], [[[-119.9023, 37.6145], [-119.903, 37.6142], [-119.9023, 37.614], [-119.9023, 37.6145]]], [[[-119.9061, 37.6142], [-119.9064, 37.614], [-119.9061, 37.614], [-119.9061, 37.6142]]], [[[-119.9054, 37.614], [-119.9057, 37.6137], [-119.9054, 37.6137], [-119.9054, 37.614]]], [[[-119.905, 37.6148], [-119.9054, 37.6131], [-119.9044, 37.6126], [-119.9037, 37.6134], [-119.9047, 37.614], [-119.9037, 37.614], [-119.9037, 37.6145], [-119.905, 37.6148]]], [[[-119.9023, 37.6134], [-119.9033, 37.6123], [-119.9044, 37.6121], [-119.902, 37.6118], [-119.9016, 37.6129], [-119.9023, 37.6134]], [[-119.903, 37.6123], [-119.9023, 37.6126], [-119.9023, 37.6123], [-119.903, 37.6123]], [[-119.9023, 37.6121], [-119.902, 37.6123], [-119.902, 37.6121], [-119.9023, 37.6121]]], [[[-119.904, 37.611], [-119.9037, 37.6102], [-119.9023, 37.6102], [-119.9034, 37.611], [-119.904, 37.611]]], [[[-119.902, 37.6107], [-119.902, 37.6099], [-119.901, 37.6096], [-119.901, 37.6107], [-119.902, 37.6107]]], [[[-119.8989, 37.6096], [-119.8993, 37.6102], [-119.9003, 37.6096], [-119.8989, 37.6096]]], [[[-119.9006, 37.6096], [-119.901, 37.6094], [-119.9006, 37.6094], [-119.9006, 37.6096]]], [[[-119.9013, 37.6091], [-119.9017, 37.6088], [-119.9013, 37.6088], [-119.9013, 37.6091]]], [[[-119.9017, 37.6086], [-119.902, 37.6083], [-119.9017, 37.6083], [-119.9017, 37.6086]]], [[[-119.901, 37.6086], [-119.9013, 37.6083], [-119.901, 37.6083], [-119.901, 37.6086]]], [[[-119.8942, 37.6061], [-119.8945, 37.6059], [-119.8942, 37.6059], [-119.8942, 37.6061]]], [[[-119.8935, 37.6042], [-119.8938, 37.6037], [-119.8935, 37.6037], [-119.8935, 37.6042]]], [[[-119.8901, 37.6037], [-119.8904, 37.6034], [-119.8901, 37.6034], [-119.8901, 37.6037]]], [[[-119.8928, 37.6029], [-119.8932, 37.6026], [-119.8928, 37.6026], [-119.8928, 37.6029]]], [[[-119.854, 37.5945], [-119.8544, 37.5942], [-119.854, 37.5942], [-119.854, 37.5945]]], [[[-119.8486, 37.5942], [-119.8493, 37.5937], [-119.8489, 37.5937], [-119.8486, 37.5942]]], [[[-119.7789, 37.5819], [-119.7799, 37.5814], [-119.7789, 37.5814], [-119.7789, 37.5819]]], [[[-119.7789, 37.5806], [-119.7796, 37.5809], [-119.7802, 37.5806], [-119.7789, 37.5806]]], [[[-119.8504, 37.5648], [-119.8507, 37.5645], [-119.8504, 37.5645], [-119.8504, 37.5648]]], [[[-119.8534, 37.5648], [-119.8534, 37.5643], [-119.8524, 37.5645], [-119.8524, 37.5648], [-119.8534, 37.5648]]], [[[-119.8524, 37.5651], [-119.8517, 37.5648], [-119.8524, 37.5637], [-119.8514, 37.5634], [-119.851, 37.5648], [-119.8524, 37.5651]]], [[[-119.8521, 37.5634], [-119.8524, 37.5632], [-119.8521, 37.5632], [-119.8521, 37.5634]]], [[[-119.8446, 37.5624], [-119.8449, 37.5621], [-119.8446, 37.5621], [-119.8446, 37.5624]]], [[[-119.8456, 37.5618], [-119.8459, 37.5615], [-119.8456, 37.5615], [-119.8456, 37.5618]]], [[[-119.8453, 37.5613], [-119.8456, 37.561], [-119.8453, 37.561], [-119.8453, 37.5613]]], [[[-119.8388, 37.558], [-119.8391, 37.5578], [-119.8388, 37.5578], [-119.8388, 37.558]]], [[[-119.7808, 37.522], [-119.7808, 37.5212], [-119.7804, 37.5212], [-119.7801, 37.522], [-119.7808, 37.522]]], [[[-119.7777, 37.5212], [-119.778, 37.521], [-119.7777, 37.521], [-119.7777, 37.5212]]], [[[-119.8131, 37.521], [-119.8134, 37.5207], [-119.8131, 37.5207], [-119.8131, 37.521]]], [[[-119.7767, 37.521], [-119.777, 37.5207], [-119.7767, 37.5207], [-119.7767, 37.521]]], [[[-119.7777, 37.5207], [-119.7787, 37.5204], [-119.7777, 37.5204], [-119.7777, 37.5207]]], [[[-119.7763, 37.5207], [-119.7767, 37.5204], [-119.7763, 37.5204], [-119.7763, 37.5207]]], [[[-119.7784, 37.5201], [-119.7787, 37.5199], [-119.7784, 37.5199], [-119.7784, 37.5201]]], [[[-119.7774, 37.5193], [-119.7777, 37.5191], [-119.7774, 37.5191], [-119.7774, 37.5193]]], [[[-119.8114, 37.5183], [-119.812, 37.518], [-119.8114, 37.518], [-119.8114, 37.5183]]], [[[-119.812, 37.518], [-119.8124, 37.5178], [-119.812, 37.5178], [-119.812, 37.518]]], [[[-119.7706, 37.5174], [-119.7709, 37.5172], [-119.7706, 37.5172], [-119.7706, 37.5174]]], [[[-119.7699, 37.5164], [-119.7699, 37.5158], [-119.7692, 37.5158], [-119.7692, 37.5161], [-119.7699, 37.5164]]], [[[-119.7743, 37.5161], [-119.7747, 37.5158], [-119.7743, 37.5158], [-119.7743, 37.5161]]], [[[-119.7699, 37.5158], [-119.7702, 37.5155], [-119.7699, 37.5155], [-119.7699, 37.5158]]], [[[-119.7648, 37.5153], [-119.7651, 37.515], [-119.7648, 37.515], [-119.7648, 37.5153]]], [[[-119.7923, 37.515], [-119.793, 37.5148], [-119.7923, 37.5148], [-119.7923, 37.515]]], [[[-119.79, 37.515], [-119.7903, 37.5148], [-119.79, 37.5148], [-119.79, 37.515]]], [[[-119.7692, 37.515], [-119.7696, 37.5147], [-119.7692, 37.5147], [-119.7692, 37.515]]], [[[-119.7675, 37.515], [-119.7679, 37.5147], [-119.7675, 37.5147], [-119.7675, 37.515]]], [[[-119.7645, 37.515], [-119.7648, 37.5147], [-119.7645, 37.5147], [-119.7645, 37.515]]], [[[-119.7645, 37.5147], [-119.7645, 37.5142], [-119.7634, 37.5142], [-119.7634, 37.5147], [-119.7645, 37.5147]]], [[[-119.6805, 37.5145], [-119.6812, 37.514], [-119.6809, 37.514], [-119.6805, 37.5145]]], [[[-119.7927, 37.5145], [-119.7934, 37.5142], [-119.7927, 37.5142], [-119.7927, 37.5145]]], [[[-119.7682, 37.5147], [-119.7682, 37.5142], [-119.7675, 37.5139], [-119.7675, 37.5145], [-119.7682, 37.5147]]], [[[-119.7699, 37.5142], [-119.7709, 37.5142], [-119.7709, 37.5137], [-119.7699, 37.5142]]], [[[-119.7913, 37.514], [-119.7917, 37.5137], [-119.7913, 37.5137], [-119.7913, 37.514]]], [[[-119.7668, 37.5139], [-119.7672, 37.5136], [-119.7668, 37.5136], [-119.7668, 37.5139]]], [[[-119.7923, 37.514], [-119.793, 37.5137], [-119.7923, 37.5134], [-119.7923, 37.514]]], [[[-119.7709, 37.5137], [-119.7713, 37.5134], [-119.7709, 37.5134], [-119.7709, 37.5137]]], [[[-119.7672, 37.5136], [-119.7675, 37.5134], [-119.7672, 37.5134], [-119.7672, 37.5136]]], [[[-119.792, 37.5134], [-119.7923, 37.5132], [-119.792, 37.5132], [-119.792, 37.5134]]], [[[-119.7859, 37.5131], [-119.7862, 37.5129], [-119.7859, 37.5129], [-119.7859, 37.5131]]], [[[-119.7866, 37.5126], [-119.7869, 37.5123], [-119.7866, 37.5123], [-119.7866, 37.5126]]], [[[-119.7696, 37.5126], [-119.7699, 37.5123], [-119.7696, 37.5123], [-119.7696, 37.5126]]], [[[-119.7733, 37.5123], [-119.7736, 37.512], [-119.7733, 37.512], [-119.7733, 37.5123]]], [[[-119.7702, 37.5123], [-119.7706, 37.512], [-119.7703, 37.512], [-119.7702, 37.5123]]], [[[-119.7682, 37.5126], [-119.7682, 37.512], [-119.7672, 37.5118], [-119.7672, 37.512], [-119.7682, 37.5126]]], [[[-119.773, 37.512], [-119.7733, 37.5118], [-119.773, 37.5118], [-119.773, 37.512]]], [[[-119.7706, 37.512], [-119.7709, 37.5118], [-119.7706, 37.5118], [-119.7706, 37.512]]], [[[-119.7703, 37.5118], [-119.7706, 37.5115], [-119.7703, 37.5115], [-119.7703, 37.5118]]], [[[-119.7686, 37.5115], [-119.7692, 37.5112], [-119.7686, 37.5112], [-119.7686, 37.5115]]], [[[-119.7618, 37.5117], [-119.7628, 37.5112], [-119.7624, 37.5107], [-119.7604, 37.5109], [-119.7618, 37.5117]]], [[[-119.7703, 37.511], [-119.7706, 37.5107], [-119.7703, 37.5107], [-119.7703, 37.511]]], [[[-119.7648, 37.5109], [-119.7655, 37.5104], [-119.7655, 37.5099], [-119.7638, 37.5101], [-119.7648, 37.5109]]], [[[-119.7706, 37.5099], [-119.7709, 37.5096], [-119.7706, 37.5096], [-119.7706, 37.5099]]], [[[-119.7668, 37.5134], [-119.7672, 37.5123], [-119.7665, 37.512], [-119.7672, 37.5112], [-119.7679, 37.5115], [-119.7686, 37.5104], [-119.7703, 37.5104], [-119.7703, 37.5099], [-119.7682, 37.5096], [-119.7679, 37.5088], [-119.7669, 37.5088], [-119.7669, 37.5099], [-119.7652, 37.5112], [-119.7658, 37.5118], [-119.7655, 37.5131], [-119.7665, 37.5128], [-119.7668, 37.5134]], [[-119.7669, 37.5112], [-119.7658, 37.5118], [-119.7658, 37.5112], [-119.7669, 37.5112]], [[-119.7679, 37.5101], [-119.7675, 37.5104], [-119.7675, 37.5101], [-119.7679, 37.5101]], [[-119.7679, 37.5093], [-119.7675, 37.5096], [-119.7675, 37.5093], [-119.7679, 37.5093]]], [[[-119.7675, 37.5085], [-119.7679, 37.5083], [-119.7675, 37.5083], [-119.7675, 37.5085]]]]}, "properties": {"layer": "high_severity"}}, {"type": "Feature", "geometry": {"type": "MultiPolygon", "coordinates": [[[[-119.7375, 37.651], [-119.7378, 37.6507], [-119.7375, 37.6507], [-119.7375, 37.651]]], [[[-119.7388, 37.6504], [-119.7392, 37.6501], [-119.7388, 37.6501], [-119.7388, 37.6504]]], [[[-119.7385, 37.6504], [-119.7392, 37.6491], [-119.7375, 37.6493], [-119.7371, 37.6485], [-119.7368, 37.6499], [-119.7385, 37.6504]]], [[[-119.7368, 37.6453], [-119.7372, 37.645], [-119.7368, 37.645], [-119.7368, 37.6453]]], [[[-119.7389, 37.6442], [-119.7392, 37.6439], [-119.7389, 37.6439], [-119.7389, 37.6442]]], [[[-119.7385, 37.6439], [-119.7389, 37.6437], [-119.7385, 37.6437], [-119.7385, 37.6439]]], [[[-119.7368, 37.6434], [-119.7372, 37.6431], [-119.7368, 37.6431], [-119.7368, 37.6434]]], [[[-119.7662, 37.5112], [-119.7665, 37.5109], [-119.7662, 37.5109], [-119.7662, 37.5112]]]]}, "properties": {"layer": "interior"}}, {"type": "Feature", "geometry": {"type": "MultiPolygon", "coordinates": [[[[-119.7375, 37.651], [-119.7378, 37.6507], [-119.7375, 37.6507], [-119.7375, 37.651]]], [[[-119.7388, 37.6504], [-119.7392, 37.6501], [-119.7388, 37.6501], [-119.7388, 37.6504]]], [[[-119.7385, 37.6504], [-119.7392, 37.6491], [-119.7371, 37.6491], [-119.7368, 37.6499], [-119.7385, 37.6504]]], [[[-119.7662, 37.5112], [-119.7665, 37.5109], [-119.7662, 37.5109], [-119.7662, 37.5112]]]]}, "properties": {"layer": "cell", "cell_id": "532_5000", "seed_zone": "532", "elevation_band": "5000–5500 ft"}}, {"type": "Feature", "geometry": {"type": "MultiPolygon", "coordinates": [[[[-119.7371, 37.6491], [-119.7375, 37.6485], [-119.7371, 37.6485], [-119.7371, 37.6491]]], [[[-119.7368, 37.6453], [-119.7372, 37.645], [-119.7368, 37.645], [-119.7368, 37.6453]]], [[[-119.7389, 37.6442], [-119.7392, 37.6439], [-119.7389, 37.6439], [-119.7389, 37.6442]]], [[[-119.7385, 37.6439], [-119.7389, 37.6437], [-119.7385, 37.6437], [-119.7385, 37.6439]]]]}, "properties": {"layer": "cell", "cell_id": "532_5500", "seed_zone": "532", "elevation_band": "5500–6000 ft"}}, {"type": "Feature", "geometry": {"type": "Polygon", "coordinates": [[[-119.7368, 37.6434], [-119.7372, 37.6431], [-119.7368, 37.6431], [-119.7368, 37.6434]]]}, "properties": {"layer": "cell", "cell_id": "532_6000", "seed_zone": "532", "elevation_band": "6000–6500 ft"}}]}
