{"type": "FeatureCollection", "features": [{"type": "Feature", "geometry": {"type": "MultiPolygon", "coordinates": [[[[-120.4511, 38.9793], [-120.4512, 38.9792], [-120.4512, 38.9793], [-120.4511, 38.9793]]], [[[-120.4067, 38.9988], [-120.4052, 38.998], [-120.4059, 38.9955], [-120.4039, 38.9967], [-120.4022, 38.9957], [-120.3993, 38.9969], [-120.3983, 38.9958], [-120.3985, 38.997], [-120.3976, 38.9979], [-120.3954, 38.9961], [-120.3958, 38.9945], [-120.3944, 38.994], [-120.3933, 38.992], [-120.3951, 38.9918], [-120.3974, 38.9903], [-120.3989, 38.9904], [-120.399, 38.9887], [-120.4039, 38.9872], [-120.4047, 38.9853], [-120.4056, 38.9843], [-120.4069, 38.9842], [-120.4076, 38.9828], [-120.4096, 38.9828], [-120.4128, 38.9848], [-120.4177, 38.9826], [-120.422, 38.983], [-120.4299, 38.9798], [-120.4391, 38.9786], [-120.4419, 38.9771], [-120.4411, 38.976], [-120.4419, 38.9742], [-120.4409, 38.9731], [-120.4432, 38.9728], [-120.444, 38.9714], [-120.4507, 38.9699], [-120.4554, 38.9702], [-120.454, 38.9714], [-120.4541, 38.9747], [-120.4516, 38.9761], [-120.4508, 38.9775], [-120.451, 38.9795], [-120.4513, 38.9797], [-120.4499, 38.9804], [-120.4452, 38.9807], [-120.4439, 38.9844], [-120.4399, 38.9828], [-120.4376, 38.9841], [-120.4377, 38.9854], [-120.4392, 38.9866], [-120.4425, 38.9857], [-120.4429, 38.9849], [-120.4439, 38.9861], [-120.4458, 38.9866], [-120.4456, 38.9885], [-120.4445, 38.9883], [-120.4441, 38.989], [-120.4416, 38.9901], [-120.4394, 38.9893], [-120.4391, 38.9913], [-120.437, 38.9906], [-120.4358, 38.9919], [-120.4342, 38.9904], [-120.4312, 38.9911], [-120.431, 38.9921], [-120.4292, 38.9932], [-120.4297, 38.9938], [-120.429, 38.9936], [-120.4279, 38.9954], [-120.4259, 38.9963], [-120.427, 38.9972], [-120.4266, 38.9976], [-120.4257, 38.9971], [-120.4208, 38.9986], [-120.418, 38.9984], [-120.4149, 38.9969], [-120.4136, 38.9974], [-120.414, 38.998], [-120.4131, 38.9987], [-120.4113, 38.9988], [-120.411, 38.998], [-120.4096, 38.9991], [-120.4067, 38.9988]]], [[[-120.4461, 38.9878], [-120.4461, 38.988], [-120.446, 38.9879], [-120.4461, 38.9878]]]]}, "properties": {"layer": "perimeter"}}, {"type": "Feature", "geometry": {"type": "MultiPolygon", "coordinates": [[[[-120.4096, 38.9991], [-120.4052, 38.998], [-120.4061, 38.9955], [-120.4039, 38.9967], [-120.4023, 38.9957], [-120.4005, 38.9968], [-120.3997, 38.9963], [-120.3991, 38.9967], [-120.3991, 38.9954], [-120.4039, 38.9954], [-120.4038, 38.9919], [-120.4273, 38.9918], [-120.4271, 38.9956], [-120.4179, 38.9955], [-120.4177, 38.9983], [-120.4149, 38.9969], [-120.4136, 38.9974], [-120.414, 38.998], [-120.4131, 38.9987], [-120.4113, 38.9988], [-120.411, 38.998], [-120.4096, 38.9991]]], [[[-120.3943, 38.9933], [-120.3933, 38.9921], [-120.3936, 38.9918], [-120.3943, 38.9918], [-120.3943, 38.9933]]], [[[-120.4005, 38.9881], [-120.4005, 38.9881], [-120.4006, 38.9881], [-120.4005, 38.9881]]], [[[-120.4015, 38.9882], [-120.4011, 38.9879], [-120.4015, 38.988], [-120.4015, 38.9882]]], [[[-120.4018, 38.9881], [-120.4039, 38.9872], [-120.4055, 38.9845], [-120.4082, 38.9844], [-120.4082, 38.9882], [-120.4018, 38.9881]]], [[[-120.4131, 38.9846], [-120.4178, 38.9844], [-120.4178, 38.9881], [-120.4131, 38.9881], [-120.4131, 38.9846]]], [[[-120.4274, 38.9808], [-120.4412, 38.9809], [-120.4413, 38.9831], [-120.4399, 38.9828], [-120.4375, 38.9843], [-120.4273, 38.9844], [-120.4274, 38.9808]]], [[[-120.4409, 38.9731], [-120.4432, 38.9728], [-120.444, 38.9714], [-120.4505, 38.9704], [-120.4508, 38.9743], [-120.4409, 38.9731]]]]}, "properties": {"layer": "retained"}}, {"type": "Feature", "geometry": {"type": "MultiPolygon", "coordinates": [[[[-120.407, 38.994], [-120.4077, 38.9935], [-120.4074, 38.9927], [-120.4067, 38.9932], [-120.407, 38.994]]], [[[-120.407, 38.9921], [-120.408, 38.9924], [-120.408, 38.9919], [-120.407, 38.9921]]], [[[-120.4084, 38.9975], [-120.4091, 38.997], [-120.4088, 38.9962], [-120.4108, 38.9954], [-120.4105, 38.9948], [-120.4115, 38.9937], [-120.4146, 38.9937], [-120.4136, 38.9929], [-120.4143, 38.9918], [-120.4122, 38.9918], [-120.4126, 38.9924], [-120.4087, 38.9919], [-120.4094, 38.9929], [-120.4077, 38.9927], [-120.4084, 38.9937], [-120.407, 38.994], [-120.4077, 38.9946], [-120.4067, 38.9954], [-120.4074, 38.9954], [-120.407, 38.9973], [-120.4081, 38.997], [-120.4084, 38.9975]], [[-120.4088, 38.9959], [-120.4081, 38.9962], [-120.4081, 38.9959], [-120.4088, 38.9959]], [[-120.4091, 38.9951], [-120.4088, 38.9954], [-120.4088, 38.9951], [-120.4091, 38.9951]], [[-120.4098, 38.9948], [-120.4088, 38.9948], [-120.4087, 38.9937], [-120.4098, 38.994], [-120.4098, 38.9948]], [[-120.4081, 38.9946], [-120.4077, 38.9948], [-120.4077, 38.9946], [-120.4081, 38.9946]], [[-120.4115, 38.9935], [-120.4112, 38.9937], [-120.4112, 38.9935], [-120.4115, 38.9935]], [[-120.4105, 38.9932], [-120.4101, 38.9937], [-120.4101, 38.9932], [-120.4105, 38.9932]], [[-120.4122, 38.9929], [-120.4115, 38.9935], [-120.4115, 38.9929], [-120.4122, 38.9929]], [[-120.4133, 38.9929], [-120.4129, 38.9932], [-120.4129, 38.9929], [-120.4133, 38.9929]]], [[[-120.4084, 38.9865], [-120.4084, 38.9848], [-120.4073, 38.9848], [-120.4077, 38.9856], [-120.407, 38.9851], [-120.4056, 38.9857], [-120.4084, 38.9865]]], [[[-120.4368, 38.9831], [-120.4368, 38.9826], [-120.4378, 38.9828], [-120.4381, 38.981], [-120.4336, 38.9812], [-120.434, 38.9815], [-120.4336, 38.9826], [-120.4368, 38.9831]], [[-120.4378, 38.9815], [-120.4375, 38.9818], [-120.4375, 38.9815], [-120.4378, 38.9815]], [[-120.4357, 38.9815], [-120.4354, 38.9818], [-120.4354, 38.9815], [-120.4357, 38.9815]], [[-120.435, 38.9812], [-120.4347, 38.9818], [-120.4347, 38.9812], [-120.435, 38.9812]]], [[[-120.4295, 38.9829], [-120.4305, 38.9826], [-120.4302, 38.9818], [-120.4316, 38.9818], [-120.4312, 38.9821], [-120.4316, 38.9826], [-120.4323, 38.9821], [-120.4336, 38.9823], [-120.4336, 38.9815], [-120.4326, 38.9807], [-120.4309, 38.9807], [-120.4288, 38.9821], [-120.4295, 38.9829]], [[-120.4295, 38.9821], [-120.4291, 38.9823], [-120.4291, 38.9821], [-120.4295, 38.9821]], [[-120.4319, 38.9812], [-120.4312, 38.9815], [-120.4312, 38.9812], [-120.4319, 38.9812]]]]}, "properties": {"layer": "high_severity"}}, {"type": "Feature", "geometry": {"type": "Polygon", "coordinates": [[[-120.4368, 38.982], [-120.4371, 38.981], [-120.435, 38.9812], [-120.435, 38.9818], [-120.4368, 38.982]]]}, "properties": {"layer": "interior"}}, {"type": "Feature", "geometry": {"type": "Polygon", "coordinates": [[[-120.4357, 38.982], [-120.4371, 38.9818], [-120.4371, 38.981], [-120.4357, 38.9815], [-120.4357, 38.982]]]}, "properties": {"layer": "cell", "cell_id": "526_5000", "seed_zone": "526", "elevation_band": "5000–5500 ft"}}, {"type": "Feature", "geometry": {"type": "Polygon", "coordinates": [[[-120.435, 38.9815], [-120.4361, 38.9812], [-120.435, 38.9812], [-120.435, 38.9815]]]}, "properties": {"layer": "cell", "cell_id": "526_5500", "seed_zone": "526", "elevation_band": "5500–6000 ft"}}]}
