{"type": "FeatureCollection", "features": [{"type": "Feature", "geometry": {"type": "MultiPolygon", "coordinates": [[[[-122.8477, 41.2095], [-122.8476, 41.2094], [-122.8479, 41.2094], [-122.8477, 41.2095]]], [[[-122.8522, 41.2227], [-122.8523, 41.2228], [-122.8522, 41.2228], [-122.8522, 41.2227]]], [[[-122.8606, 41.226], [-122.8606, 41.2261], [-122.8606, 41.226], [-122.8606, 41.226]]], [[[-122.8507, 41.2162], [-122.8496, 41.2161], [-122.8496, 41.2175], [-122.8508, 41.2175], [-122.8501, 41.2185], [-122.8516, 41.219], [-122.8528, 41.2217], [-122.8502, 41.2241], [-122.852, 41.2246], [-122.8522, 41.2237], [-122.8532, 41.2235], [-122.8527, 41.2232], [-122.8544, 41.2227], [-122.8545, 41.2217], [-122.8573, 41.222], [-122.8579, 41.2215], [-122.858, 41.2221], [-122.8592, 41.2218], [-122.8588, 41.2228], [-122.8598, 41.2225], [-122.8603, 41.223], [-122.8597, 41.2244], [-122.8608, 41.2252], [-122.86, 41.2265], [-122.8611, 41.2267], [-122.8612, 41.2276], [-122.8629, 41.2273], [-122.8624, 41.2289], [-122.8646, 41.231], [-122.8658, 41.234], [-122.865, 41.2347], [-122.8663, 41.2349], [-122.8674, 41.236], [-122.8682, 41.2384], [-122.8664, 41.241], [-122.8658, 41.2451], [-122.8683, 41.2456], [-122.8683, 41.2474], [-122.8697, 41.2482], [-122.8679, 41.2523], [-122.8661, 41.2532], [-122.8669, 41.2539], [-122.8652, 41.2541], [-122.8657, 41.2547], [-122.865, 41.2543], [-122.8644, 41.2553], [-122.8662, 41.256], [-122.8654, 41.257], [-122.8634, 41.2569], [-122.8627, 41.2579], [-122.8627, 41.256], [-122.8594, 41.2553], [-122.8591, 41.2561], [-122.8579, 41.2556], [-122.8577, 41.2567], [-122.8562, 41.2577], [-122.8554, 41.2555], [-122.8547, 41.2562], [-122.854, 41.2559], [-122.8547, 41.2568], [-122.8528, 41.2599], [-122.8507, 41.2604], [-122.8504, 41.2597], [-122.8472, 41.2604], [-122.8468, 41.2597], [-122.845, 41.26], [-122.8438, 41.2593], [-122.8431, 41.2579], [-122.8449, 41.2529], [-122.8447, 41.2486], [-122.8442, 41.2499], [-122.8434, 41.2499], [-122.8438, 41.2505], [-122.8415, 41.2515], [-122.8403, 41.2448], [-122.8394, 41.2436], [-122.8404, 41.2394], [-122.8419, 41.2383], [-122.8412, 41.2372], [-122.8418, 41.2358], [-122.8412, 41.2338], [-122.8443, 41.2323], [-122.8426, 41.2319], [-122.8431, 41.2299], [-122.8452, 41.2281], [-122.8451, 41.2261], [-122.8464, 41.2247], [-122.8455, 41.2248], [-122.8459, 41.2227], [-122.8446, 41.223], [-122.8442, 41.2223], [-122.8451, 41.222], [-122.8438, 41.2219], [-122.8434, 41.2207], [-122.8449, 41.2195], [-122.8448, 41.2185], [-122.8465, 41.2174], [-122.8463, 41.216], [-122.8445, 41.2154], [-122.8442, 41.2147], [-122.8437, 41.2151], [-122.8434, 41.2132], [-122.8471, 41.2108], [-122.8489, 41.2111], [-122.8486, 41.2119], [-122.8494, 41.2119], [-122.8512, 41.2142], [-122.8496, 41.2147], [-122.8507, 41.2162]], [[-122.8509, 41.2278], [-122.8512, 41.2259], [-122.8496, 41.2259], [-122.8484, 41.2247], [-122.8466, 41.2264], [-122.8488, 41.2261], [-122.8509, 41.2278]]], [[[-122.8669, 41.2423], [-122.8671, 41.2423], [-122.8671, 41.2424], [-122.8669, 41.2423]]], [[[-122.859, 41.2567], [-122.8582, 41.2567], [-122.8588, 41.2564], [-122.859, 41.2567]]], [[[-122.8535, 41.259], [-122.8536, 41.2587], [-122.8537, 41.2589], [-122.8535, 41.259]]], [[[-122.8531, 41.2599], [-122.8536, 41.2593], [-122.8534, 41.26], [-122.8531, 41.2599]]], [[[-122.85, 41.2605], [-122.85, 41.2604], [-122.85, 41.2604], [-122.85, 41.2605]]], [[[-122.8505, 41.2616], [-122.8505, 41.2616], [-122.8505, 41.2616], [-122.8505, 41.2616]]]]}, "properties": {"layer": "perimeter"}}]}
