{"type": "FeatureCollection", "features": [{"type": "Feature", "geometry": {"type": "MultiPolygon", "coordinates": [[[[-118.5881, 35.6486], [-118.588, 35.6484], [-118.5882, 35.6486], [-118.5881, 35.6486]]], [[[-118.5074, 35.665], [-118.5083, 35.6645], [-118.5077, 35.6636], [-118.5083, 35.6624], [-118.5098, 35.6618], [-118.5103, 35.6605], [-118.5114, 35.6605], [-118.5112, 35.66], [-118.5126, 35.6607], [-118.5128, 35.6597], [-118.5114, 35.66], [-118.5111, 35.6588], [-118.5119, 35.6589], [-118.5116, 35.6596], [-118.5141, 35.6585], [-118.5141, 35.6543], [-118.5167, 35.6526], [-118.5181, 35.6528], [-118.519, 35.6522], [-118.5187, 35.6532], [-118.5193, 35.6537], [-118.5201, 35.6524], [-118.5209, 35.6539], [-118.5215, 35.6524], [-118.5223, 35.6529], [-118.5233, 35.6527], [-118.5236, 35.6516], [-118.5249, 35.652], [-118.526, 35.651], [-118.5275, 35.6512], [-118.5273, 35.6518], [-118.5292, 35.6523], [-118.5288, 35.6529], [-118.5299, 35.6535], [-118.532, 35.6537], [-118.5324, 35.6527], [-118.5334, 35.6527], [-118.5369, 35.6542], [-118.5393, 35.6529], [-118.5395, 35.6541], [-118.541, 35.6533], [-118.5417, 35.6559], [-118.5451, 35.6549], [-118.5469, 35.6557], [-118.5483, 35.655], [-118.5483, 35.6543], [-118.5502, 35.6538], [-118.5507, 35.6528], [-118.5475, 35.6509], [-118.5463, 35.651], [-118.5457, 35.652], [-118.5449, 35.6518], [-118.5457, 35.6513], [-118.5451, 35.6501], [-118.546, 35.6496], [-118.5468, 35.6503], [-118.5479, 35.6499], [-118.5444, 35.6475], [-118.5445, 35.6483], [-118.5419, 35.6493], [-118.5417, 35.647], [-118.5439, 35.6454], [-118.5428, 35.6442], [-118.5444, 35.6424], [-118.5497, 35.6415], [-118.5505, 35.6403], [-118.5508, 35.6411], [-118.5518, 35.641], [-118.5519, 35.6399], [-118.5523, 35.6409], [-118.5537, 35.6409], [-118.5536, 35.6399], [-118.5584, 35.6396], [-118.5585, 35.6384], [-118.5597, 35.6387], [-118.5608, 35.6379], [-118.5634, 35.6392], [-118.5654, 35.6393], [-118.5701, 35.6381], [-118.5714, 35.6371], [-118.5765, 35.638], [-118.5777, 35.6376], [-118.5791, 35.6381], [-118.5796, 35.6391], [-118.579, 35.6411], [-118.5816, 35.6443], [-118.5812, 35.6458], [-118.5826, 35.648], [-118.5859, 35.648], [-118.5871, 35.6495], [-118.5866, 35.6505], [-118.5887, 35.6502], [-118.5875, 35.651], [-118.5886, 35.6524], [-118.5897, 35.6522], [-118.5892, 35.6504], [-118.5919, 35.6447], [-118.593, 35.6457], [-118.592, 35.6468], [-118.5923, 35.648], [-118.593, 35.6487], [-118.5975, 35.6491], [-118.5973, 35.65], [-118.5991, 35.6526], [-118.6001, 35.6512], [-118.6011, 35.6514], [-118.6033, 35.6493], [-118.6043, 35.6504], [-118.6055, 35.6502], [-118.6048, 35.6494], [-118.6055, 35.6483], [-118.607, 35.6479], [-118.6094, 35.6488], [-118.6109, 35.652], [-118.6118, 35.6501], [-118.6146, 35.6478], [-118.6161, 35.6493], [-118.6177, 35.6491], [-118.6203, 35.6518], [-118.6223, 35.6508], [-118.6289, 35.6565], [-118.628, 35.6592], [-118.6259, 35.6598], [-118.6271, 35.6606], [-118.6268, 35.6614], [-118.6286, 35.662], [-118.6289, 35.6633], [-118.6307, 35.664], [-118.6306, 35.6648], [-118.6316, 35.6657], [-118.6303, 35.6664], [-118.6318, 35.6676], [-118.6328, 35.6672], [-118.6325, 35.6678], [-118.6337, 35.6684], [-118.6342, 35.6671], [-118.6419, 35.6673], [-118.6458, 35.6709], [-118.6466, 35.6739], [-118.6506, 35.6784], [-118.6488, 35.68], [-118.6503, 35.6818], [-118.6496, 35.6836], [-118.65, 35.6853], [-118.6483, 35.6857], [-118.6478, 35.6865], [-118.6475, 35.6854], [-118.6444, 35.6855], [-118.6429, 35.6868], [-118.6395, 35.6875], [-118.6405, 35.6884], [-118.6401, 35.6889], [-118.6381, 35.6885], [-118.6373, 35.689], [-118.6374, 35.6906], [-118.6384, 35.69], [-118.6396, 35.6902], [-118.6388, 35.6919], [-118.6376, 35.6925], [-118.6356, 35.6917], [-118.6348, 35.6906], [-118.6319, 35.6904], [-118.6312, 35.6932], [-118.6328, 35.6948], [-118.631, 35.6953], [-118.6326, 35.6961], [-118.633, 35.697], [-118.6323, 35.6974], [-118.6328, 35.6984], [-118.6344, 35.6988], [-118.6341, 35.6997], [-118.6318, 35.7007], [-118.6312, 35.7], [-118.631, 35.701], [-118.6301, 35.7004], [-118.627, 35.7012], [-118.6258, 35.702], [-118.6266, 35.7035], [-118.6252, 35.7036], [-118.625, 35.7047], [-118.6241, 35.7043], [-118.623, 35.7052], [-118.6225, 35.7044], [-118.6234, 35.7041], [-118.6226, 35.7033], [-118.6212, 35.7044], [-118.6188, 35.7038], [-118.6175, 35.7018], [-118.6167, 35.7022], [-118.6174, 35.7031], [-118.6165, 35.7031], [-118.6168, 35.7037], [-118.6155, 35.7043], [-118.615, 35.7036], [-118.6137, 35.7039], [-118.6137, 35.703], [-118.6127, 35.7029], [-118.613, 35.7021], [-118.6102, 35.7035], [-118.6094, 35.7035], [-118.6098, 35.7028], [-118.6088, 35.703], [-118.6081, 35.7024], [-118.607, 35.7037], [-118.6074, 35.7044], [-118.6057, 35.7038], [-118.6037, 35.7047], [-118.6023, 35.7037], [-118.6034, 35.703], [-118.6016, 35.7027], [-118.6014, 35.704], [-118.6023, 35.704], [-118.6033, 35.706], [-118.6018, 35.7064], [-118.6017, 35.7057], [-118.6021, 35.7056], [-118.6024, 35.7053], [-118.6017, 35.7051], [-118.6006, 35.7062], [-118.6015, 35.7074], [-118.6015, 35.7094], [-118.5994, 35.7097], [-118.5996, 35.7112], [-118.5968, 35.7108], [-118.5966, 35.7116], [-118.5949, 35.7116], [-118.5949, 35.7128], [-118.5937, 35.713], [-118.5937, 35.714], [-118.5956, 35.7148], [-118.5958, 35.7176], [-118.5988, 35.7193], [-118.6014, 35.7198], [-118.6026, 35.7214], [-118.6077, 35.7211], [-118.6098, 35.7197], [-118.6121, 35.7203], [-118.6169, 35.7185], [-118.6169, 35.7194], [-118.616, 35.7204], [-118.6128, 35.721], [-118.6114, 35.7232], [-118.6115, 35.7242], [-118.609, 35.7258], [-118.6081, 35.728], [-118.6064, 35.7281], [-118.6051, 35.7292], [-118.6015, 35.7288], [-118.5982, 35.7313], [-118.5962, 35.7316], [-118.5937, 35.7337], [-118.5918, 35.7328], [-118.5907, 35.7333], [-118.5896, 35.7356], [-118.588, 35.7363], [-118.5857, 35.7393], [-118.5797, 35.743], [-118.5774, 35.743], [-118.5764, 35.742], [-118.5748, 35.742], [-118.5747, 35.744], [-118.5729, 35.744], [-118.5745, 35.7463], [-118.5732, 35.7479], [-118.5704, 35.7479], [-118.5692, 35.749], [-118.5657, 35.7495], [-118.565, 35.748], [-118.5632, 35.7482], [-118.5616, 35.747], [-118.5643, 35.744], [-118.5668, 35.743], [-118.5661, 35.7427], [-118.5639, 35.7436], [-118.5599, 35.7476], [-118.5606, 35.7505], [-118.5595, 35.7501], [-118.5587, 35.7508], [-118.5605, 35.7518], [-118.5622, 35.7515], [-118.5631, 35.7526], [-118.5609, 35.7531], [-118.5608, 35.7545], [-118.5596, 35.755], [-118.5588, 35.7541], [-118.5583, 35.7545], [-118.5581, 35.7538], [-118.5562, 35.7535], [-118.5567, 35.7526], [-118.5587, 35.7522], [-118.5581, 35.7513], [-118.5565, 35.7517], [-118.5557, 35.7527], [-118.5556, 35.7517], [-118.5533, 35.7496], [-118.5528, 35.7501], [-118.5523, 35.7493], [-118.5492, 35.7483], [-118.5473, 35.7493], [-118.5473, 35.7478], [-118.5488, 35.746], [-118.5479, 35.7444], [-118.546, 35.7445], [-118.5466, 35.7454], [-118.5457, 35.7461], [-118.5448, 35.7457], [-118.5453, 35.7453], [-118.5447, 35.7447], [-118.5435, 35.7458], [-118.5432, 35.7445], [-118.5429, 35.7454], [-118.5408, 35.7453], [-118.5405, 35.7458], [-118.5387, 35.7439], [-118.5375, 35.7454], [-118.5343, 35.7443], [-118.5335, 35.7447], [-118.533, 35.7438], [-118.531, 35.7445], [-118.5308, 35.7455], [-118.5298, 35.7454], [-118.5303, 35.7467], [-118.5285, 35.7458], [-118.5289, 35.7468], [-118.5283, 35.7478], [-118.5251, 35.7483], [-118.5256, 35.7479], [-118.5243, 35.7474], [-118.5245, 35.747], [-118.523, 35.7473], [-118.5209, 35.7457], [-118.5207, 35.7442], [-118.5222, 35.7443], [-118.5235, 35.7429], [-118.5221, 35.7411], [-118.5189, 35.7402], [-118.5169, 35.7414], [-118.515, 35.7403], [-118.5146, 35.7391], [-118.5135, 35.7392], [-118.5141, 35.738], [-118.5107, 35.7379], [-118.5091, 35.739], [-118.5082, 35.7388], [-118.5076, 35.7372], [-118.5061, 35.7368], [-118.5077, 35.7358], [-118.5066, 35.7359], [-118.5056, 35.7348], [-118.5069, 35.7342], [-118.5067, 35.7336], [-118.5022, 35.7334], [-118.5034, 35.7304], [-118.5022, 35.7297], [-118.502, 35.7311], [-118.4982, 35.7309], [-118.4996, 35.7312], [-118.4992, 35.7318], [-118.5014, 35.7334], [-118.5014, 35.7343], [-118.4964, 35.7341], [-118.4936, 35.7329], [-118.4907, 35.7306], [-118.4899, 35.7302], [-118.4896, 35.7309], [-118.4891, 35.73], [-118.4898, 35.7298], [-118.4879, 35.7266], [-118.4863, 35.7269], [-118.4842, 35.7252], [-118.4842, 35.7245], [-118.4866, 35.7235], [-118.487, 35.7219], [-118.4897, 35.7213], [-118.4894, 35.7202], [-118.4904, 35.7189], [-118.4897, 35.7171], [-118.4913, 35.7176], [-118.4923, 35.717], [-118.4945, 35.7189], [-118.4944, 35.7178], [-118.4962, 35.7187], [-118.4983, 35.718], [-118.4986, 35.7155], [-118.4983, 35.7147], [-118.4966, 35.7142], [-118.4969, 35.7133], [-118.4978, 35.7138], [-118.4984, 35.7131], [-118.5013, 35.7126], [-118.5031, 35.7141], [-118.5054, 35.713], [-118.5056, 35.714], [-118.5076, 35.7124], [-118.5098, 35.7129], [-118.5118, 35.7121], [-118.5148, 35.7142], [-118.5171, 35.7124], [-118.5214, 35.7133], [-118.5257, 35.713], [-118.5269, 35.7119], [-118.527, 35.7091], [-118.5254, 35.7086], [-118.527, 35.708], [-118.5277, 35.7087], [-118.5282, 35.708], [-118.528, 35.7073], [-118.527, 35.7075], [-118.5262, 35.7048], [-118.5266, 35.7042], [-118.528, 35.7046], [-118.5288, 35.7028], [-118.5278, 35.7033], [-118.5275, 35.702], [-118.5262, 35.7013], [-118.5279, 35.7004], [-118.5267, 35.6997], [-118.5273, 35.6988], [-118.5264, 35.6976], [-118.5269, 35.6951], [-118.5287, 35.6949], [-118.53, 35.6958], [-118.5294, 35.6964], [-118.5298, 35.6969], [-118.5313, 35.6963], [-118.5331, 35.6967], [-118.5313, 35.6955], [-118.5307, 35.694], [-118.5297, 35.6943], [-118.5298, 35.693], [-118.5291, 35.6934], [-118.5285, 35.6925], [-118.5258, 35.6923], [-118.5254, 35.6916], [-118.5247, 35.6926], [-118.524, 35.6921], [-118.5237, 35.6931], [-118.5202, 35.6933], [-118.5191, 35.6927], [-118.5201, 35.6923], [-118.5187, 35.6917], [-118.5184, 35.6905], [-118.5169, 35.6907], [-118.5156, 35.69], [-118.5162, 35.6896], [-118.5156, 35.6897], [-118.5156, 35.6892], [-118.5163, 35.6893], [-118.5163, 35.6891], [-118.5133, 35.6889], [-118.5115, 35.6898], [-118.5075, 35.6898], [-118.5065, 35.6877], [-118.5049, 35.687], [-118.5052, 35.6848], [-118.5022, 35.6839], [-118.5019, 35.6827], [-118.4992, 35.6808], [-118.497, 35.681], [-118.4963, 35.6791], [-118.4951, 35.6787], [-118.4954, 35.6778], [-118.494, 35.6777], [-118.4941, 35.6739], [-118.4971, 35.6741], [-118.4985, 35.6727], [-118.4972, 35.6718], [-118.4974, 35.6711], [-118.4981, 35.6703], [-118.4989, 35.6707], [-118.4988, 35.6692], [-118.5, 35.6689], [-118.499, 35.6652], [-118.5003, 35.6662], [-118.5019, 35.665], [-118.5017, 35.6643], [-118.5029, 35.6645], [-118.5043, 35.6636], [-118.5062, 35.664], [-118.5074, 35.665]], [[-118.5596, 35.7325], [-118.5577, 35.7293], [-118.5549, 35.7297], [-118.5553, 35.731], [-118.5545, 35.7304], [-118.554, 35.7266], [-118.5532, 35.7266], [-118.5526, 35.7249], [-118.5509, 35.7249], [-118.5505, 35.7238], [-118.5483, 35.7267], [-118.5469, 35.7269], [-118.5472, 35.7279], [-118.5451, 35.7273], [-118.5444, 35.7284], [-118.5418, 35.7287], [-118.5395, 35.7307], [-118.5432, 35.7312], [-118.544, 35.7327], [-118.5497, 35.7326], [-118.5519, 35.7351], [-118.5546, 35.7355], [-118.555, 35.7374], [-118.5572, 35.7383], [-118.5596, 35.7325]], [[-118.5608, 35.7136], [-118.5616, 35.7122], [-118.5605, 35.7116], [-118.5626, 35.7092], [-118.5626, 35.7081], [-118.5617, 35.7088], [-118.561, 35.7079], [-118.5615, 35.7077], [-118.56, 35.7078], [-118.5578, 35.7098], [-118.556, 35.7076], [-118.5536, 35.7082], [-118.5528, 35.7071], [-118.551, 35.7086], [-118.5512, 35.7099], [-118.5546, 35.7104], [-118.5552, 35.7142], [-118.5586, 35.7149], [-118.5594, 35.7145], [-118.5603, 35.7162], [-118.5611, 35.7153], [-118.5608, 35.7136]], [[-118.5685, 35.7477], [-118.5712, 35.7444], [-118.5707, 35.7437], [-118.5684, 35.7448], [-118.5677, 35.747], [-118.5685, 35.7477]], [[-118.5848, 35.7032], [-118.5831, 35.7037], [-118.5849, 35.7051], [-118.5866, 35.705], [-118.5849, 35.7045], [-118.5848, 35.7032]], [[-118.5878, 35.7061], [-118.5882, 35.7066], [-118.5907, 35.7065], [-118.5913, 35.7057], [-118.593, 35.707], [-118.5942, 35.7069], [-118.5898, 35.7038], [-118.59, 35.7028], [-118.5892, 35.7024], [-118.5875, 35.7031], [-118.5883, 35.7033], [-118.5888, 35.7048], [-118.5878, 35.7061]], [[-118.5964, 35.7043], [-118.5975, 35.7053], [-118.6005, 35.7057], [-118.5984, 35.7024], [-118.5973, 35.702], [-118.5909, 35.7017], [-118.591, 35.7022], [-118.5928, 35.7024], [-118.5934, 35.704], [-118.5958, 35.7047], [-118.5964, 35.7043]], [[-118.6204, 35.6939], [-118.6201, 35.6944], [-118.6209, 35.694], [-118.6225, 35.6955], [-118.6224, 35.693], [-118.6231, 35.6931], [-118.6239, 35.6949], [-118.6249, 35.6943], [-118.6249, 35.6934], [-118.6232, 35.6927], [-118.6224, 35.6915], [-118.6204, 35.6919], [-118.6196, 35.6927], [-118.6193, 35.6938], [-118.6204, 35.6939]], [[-118.6257, 35.681], [-118.6242, 35.6815], [-118.6232, 35.6832], [-118.6248, 35.6837], [-118.6261, 35.6821], [-118.6257, 35.681]], [[-118.6347, 35.6862], [-118.6354, 35.6874], [-118.6358, 35.6867], [-118.6336, 35.6837], [-118.6339, 35.6828], [-118.6325, 35.6824], [-118.6312, 35.683], [-118.6295, 35.6822], [-118.6271, 35.6833], [-118.6263, 35.685], [-118.6245, 35.686], [-118.6277, 35.6882], [-118.6316, 35.6881], [-118.6334, 35.6864], [-118.6347, 35.6862]], [[-118.646, 35.6802], [-118.6483, 35.6775], [-118.6468, 35.6751], [-118.6457, 35.6753], [-118.6453, 35.6779], [-118.6429, 35.6766], [-118.6431, 35.679], [-118.6396, 35.6775], [-118.64, 35.6759], [-118.6384, 35.6766], [-118.6379, 35.676], [-118.6398, 35.6734], [-118.6392, 35.6724], [-118.6377, 35.6722], [-118.6374, 35.6748], [-118.6363, 35.6752], [-118.6346, 35.6739], [-118.6345, 35.6758], [-118.6331, 35.6773], [-118.6317, 35.6775], [-118.6307, 35.6766], [-118.6289, 35.6763], [-118.6299, 35.6771], [-118.6279, 35.6787], [-118.6283, 35.6793], [-118.631, 35.6796], [-118.6326, 35.6779], [-118.6355, 35.6768], [-118.6408, 35.6801], [-118.646, 35.6802]]], [[[-118.5466, 35.7464], [-118.548, 35.7459], [-118.5477, 35.7465], [-118.5466, 35.7464]]], [[[-118.5453, 35.7475], [-118.5455, 35.7469], [-118.5468, 35.7476], [-118.5461, 35.7478], [-118.5453, 35.7475]]], [[[-118.543, 35.748], [-118.5429, 35.7476], [-118.5433, 35.7479], [-118.543, 35.748]]], [[[-118.5451, 35.7481], [-118.5457, 35.7487], [-118.5455, 35.7494], [-118.5451, 35.7481]]], [[[-118.5416, 35.7471], [-118.5416, 35.7463], [-118.5424, 35.7462], [-118.5425, 35.7469], [-118.5416, 35.7471]]], [[[-118.543, 35.7487], [-118.5428, 35.7483], [-118.5432, 35.7483], [-118.543, 35.7487]]], [[[-118.543, 35.7489], [-118.5427, 35.7492], [-118.5427, 35.7491], [-118.543, 35.7489]]], [[[-118.5402, 35.75], [-118.5392, 35.7494], [-118.5404, 35.7491], [-118.5419, 35.7497], [-118.5402, 35.75]]], [[[-118.5349, 35.7511], [-118.5351, 35.7496], [-118.5345, 35.7491], [-118.5349, 35.7484], [-118.5361, 35.7491], [-118.5361, 35.7501], [-118.5349, 35.7511]]], [[[-118.5389, 35.7518], [-118.5381, 35.7513], [-118.539, 35.7509], [-118.5389, 35.7518]]]]}, "properties": {"layer": "perimeter"}}, {"type": "Feature", "geometry": {"type": "MultiPolygon", "coordinates": [[[[-118.6464, 35.6733], [-118.6506, 35.6784], [-118.6488, 35.68], [-118.6503, 35.6818], [-118.6496, 35.6836], [-118.65, 35.6853], [-118.6483, 35.6857], [-118.6478, 35.6865], [-118.6475, 35.6854], [-118.6444, 35.6855], [-118.6428, 35.6868], [-118.6427, 35.6801], [-118.6467, 35.68], [-118.6483, 35.6775], [-118.6471, 35.6752], [-118.6461, 35.675], [-118.6453, 35.6779], [-118.6429, 35.6766], [-118.6435, 35.6784], [-118.6427, 35.6791], [-118.6426, 35.6734], [-118.6464, 35.6733]]], [[[-118.6029, 35.7292], [-118.6015, 35.7288], [-118.5982, 35.7313], [-118.5962, 35.7316], [-118.5937, 35.7337], [-118.5917, 35.7328], [-118.5892, 35.7345], [-118.5891, 35.7314], [-118.5937, 35.7312], [-118.5936, 35.7277], [-118.6028, 35.7279], [-118.6029, 35.7292]]], [[[-118.489, 35.729], [-118.4879, 35.7266], [-118.4863, 35.7269], [-118.484, 35.725], [-118.4866, 35.7235], [-118.487, 35.7219], [-118.4897, 35.7213], [-118.4894, 35.7202], [-118.4904, 35.7189], [-118.4897, 35.7171], [-118.4913, 35.7176], [-118.4923, 35.717], [-118.4945, 35.7189], [-118.4944, 35.7178], [-118.4962, 35.7187], [-118.4981, 35.7182], [-118.4978, 35.7218], [-118.4937, 35.7218], [-118.4934, 35.7289], [-118.489, 35.729]]], [[[-118.4982, 35.7146], [-118.4969, 35.7145], [-118.4966, 35.7135], [-118.4983, 35.7134], [-118.4982, 35.7146]]], [[[-118.4945, 35.678], [-118.4939, 35.6772], [-118.4941, 35.6739], [-118.4971, 35.6741], [-118.4985, 35.6727], [-118.4972, 35.6718], [-118.4982, 35.6707], [-118.5017, 35.6707], [-118.5019, 35.6642], [-118.503, 35.6645], [-118.5037, 35.6636], [-118.5057, 35.6639], [-118.5055, 35.6745], [-118.5016, 35.6744], [-118.5018, 35.678], [-118.4945, 35.678]]], [[[-118.5596, 35.7325], [-118.5577, 35.7293], [-118.5549, 35.7297], [-118.5553, 35.731], [-118.5544, 35.7303], [-118.5543, 35.7287], [-118.5581, 35.7288], [-118.5597, 35.7319], [-118.5595, 35.7336], [-118.5582, 35.7359], [-118.5583, 35.7377], [-118.557, 35.7389], [-118.5577, 35.7411], [-118.5577, 35.7429], [-118.5568, 35.7398], [-118.5568, 35.7416], [-118.5559, 35.7429], [-118.5566, 35.7398], [-118.5548, 35.7398], [-118.5548, 35.7362], [-118.5535, 35.7362], [-118.5534, 35.7353], [-118.5525, 35.7355], [-118.5523, 35.7351], [-118.5543, 35.7353], [-118.555, 35.7362], [-118.555, 35.7374], [-118.5575, 35.7382], [-118.5577, 35.7358], [-118.5596, 35.7325]]], [[[-118.5532, 35.7266], [-118.5532, 35.7266], [-118.5532, 35.7265], [-118.5532, 35.7266]]], [[[-118.5532, 35.7264], [-118.5532, 35.7264], [-118.5532, 35.7265], [-118.5532, 35.7264]]], [[[-118.553, 35.7261], [-118.5526, 35.7249], [-118.5509, 35.7249], [-118.5505, 35.7238], [-118.5483, 35.7267], [-118.5469, 35.7269], [-118.5472, 35.7278], [-118.5452, 35.7273], [-118.5442, 35.7284], [-118.5443, 35.7205], [-118.5437, 35.7203], [-118.5435, 35.7197], [-118.5444, 35.7176], [-118.553, 35.7176], [-118.553, 35.7261]], [[-118.5437, 35.7195], [-118.5443, 35.7203], [-118.5444, 35.7191], [-118.5437, 35.7195]]], [[[-118.5415, 35.7289], [-118.5409, 35.7296], [-118.5396, 35.7304], [-118.5396, 35.7289], [-118.5415, 35.7289]]], [[[-118.5396, 35.7307], [-118.5436, 35.7315], [-118.5443, 35.7366], [-118.5396, 35.7367], [-118.5396, 35.7307]]], [[[-118.5444, 35.7327], [-118.545, 35.7326], [-118.5451, 35.7327], [-118.5444, 35.7327]]], [[[-118.5453, 35.7327], [-118.5454, 35.7326], [-118.5455, 35.7327], [-118.5453, 35.7327]]], [[[-118.5471, 35.7326], [-118.5477, 35.7326], [-118.548, 35.7326], [-118.5471, 35.7326]]], [[[-118.5497, 35.7326], [-118.55, 35.7328], [-118.5502, 35.7331], [-118.5497, 35.7326]]], [[[-118.5508, 35.7339], [-118.5514, 35.7342], [-118.5515, 35.7343], [-118.5508, 35.7339]]], [[[-118.5305, 35.6611], [-118.5305, 35.6603], [-118.5327, 35.6603], [-118.5327, 35.6612], [-118.5305, 35.6611]]], [[[-118.5312, 35.6731], [-118.5302, 35.6731], [-118.5303, 35.6713], [-118.5313, 35.6713], [-118.5313, 35.6704], [-118.5303, 35.6704], [-118.5303, 35.6687], [-118.5325, 35.6686], [-118.5325, 35.6678], [-118.5303, 35.6677], [-118.5304, 35.664], [-118.5326, 35.664], [-118.5327, 35.6612], [-118.5338, 35.6612], [-118.5338, 35.6621], [-118.5372, 35.6621], [-118.5372, 35.6612], [-118.535, 35.6612], [-118.535, 35.6603], [-118.5395, 35.6603], [-118.5397, 35.6584], [-118.5442, 35.6585], [-118.5439, 35.6603], [-118.5529, 35.6604], [-118.5529, 35.6665], [-118.554, 35.6665], [-118.5539, 35.6715], [-118.5529, 35.6715], [-118.5529, 35.6734], [-118.5551, 35.6733], [-118.5553, 35.6787], [-118.5529, 35.6788], [-118.5531, 35.6898], [-118.5351, 35.6899], [-118.5345, 35.6749], [-118.5323, 35.675], [-118.5323, 35.674], [-118.5312, 35.674], [-118.5312, 35.6731]], [[-118.5323, 35.674], [-118.5346, 35.674], [-118.5346, 35.6731], [-118.5335, 35.6731], [-118.5335, 35.6722], [-118.5324, 35.6722], [-118.5323, 35.674]], [[-118.5335, 35.6713], [-118.5336, 35.6704], [-118.5324, 35.6704], [-118.5324, 35.6713], [-118.5335, 35.6713]], [[-118.5391, 35.6704], [-118.537, 35.6704], [-118.5369, 35.6713], [-118.5392, 35.6713], [-118.5391, 35.6704]]], [[[-118.5889, 35.693], [-118.5889, 35.6967], [-118.5756, 35.6964], [-118.5754, 35.6893], [-118.5798, 35.6893], [-118.5799, 35.6929], [-118.5889, 35.693]]], [[[-118.5618, 35.7068], [-118.562, 35.707], [-118.5618, 35.707], [-118.5618, 35.7068]]], [[[-118.5618, 35.7075], [-118.562, 35.7077], [-118.5617, 35.7077], [-118.5618, 35.7075]]], [[[-118.5315, 35.6621], [-118.5315, 35.6631], [-118.5305, 35.6631], [-118.5305, 35.6621], [-118.5315, 35.6621]]]]}, "properties": {"layer": "retained"}}, {"type": "Feature", "geometry": {"type": "MultiPolygon", "coordinates": [[[[-118.5558, 35.743], [-118.5561, 35.7428], [-118.5558, 35.7428], [-118.5558, 35.743]]], [[[-118.5561, 35.7425], [-118.5565, 35.7422], [-118.5561, 35.7422], [-118.5561, 35.7425]]], [[[-118.5575, 35.7428], [-118.5578, 35.742], [-118.5575, 35.742], [-118.5575, 35.7428]]], [[[-118.5565, 35.7414], [-118.5568, 35.7409], [-118.5565, 35.7409], [-118.5565, 35.7414]]], [[[-118.5565, 35.7406], [-118.5568, 35.7401], [-118.5565, 35.7401], [-118.5565, 35.7406]]], [[[-118.5569, 35.7387], [-118.5572, 35.7385], [-118.5569, 35.7385], [-118.5569, 35.7387]]], [[[-118.542, 35.7367], [-118.5416, 35.7361], [-118.5406, 35.7364], [-118.5406, 35.7366], [-118.542, 35.7367]]], [[[-118.5396, 35.7366], [-118.54, 35.7361], [-118.5397, 35.7361], [-118.5396, 35.7366]]], [[[-118.5443, 35.7367], [-118.5443, 35.7356], [-118.544, 35.7356], [-118.5433, 35.7367], [-118.5443, 35.7367]]], [[[-118.544, 35.7351], [-118.5443, 35.7345], [-118.544, 35.7345], [-118.544, 35.7351]]], [[[-118.541, 35.7342], [-118.5414, 35.734], [-118.541, 35.7339], [-118.541, 35.7342]]], [[[-118.542, 35.7356], [-118.5423, 35.7348], [-118.5413, 35.7348], [-118.5413, 35.7345], [-118.541, 35.7345], [-118.541, 35.7342], [-118.5407, 35.7342], [-118.5407, 35.7334], [-118.5397, 35.7334], [-118.5397, 35.7345], [-118.542, 35.7356]], [[-118.5404, 35.7337], [-118.54, 35.7339], [-118.54, 35.7337], [-118.5404, 35.7337]]], [[[-118.5929, 35.7316], [-118.5932, 35.7313], [-118.5929, 35.7313], [-118.5929, 35.7316]]], [[[-118.5915, 35.7316], [-118.5922, 35.7313], [-118.5915, 35.7313], [-118.5915, 35.7316]]], [[[-118.5942, 35.7314], [-118.5945, 35.7311], [-118.5942, 35.7311], [-118.5942, 35.7314]]], [[[-118.5398, 35.7291], [-118.5401, 35.7288], [-118.5398, 35.7288], [-118.5398, 35.7291]]], [[[-118.5564, 35.729], [-118.5567, 35.7287], [-118.5564, 35.7287], [-118.5564, 35.729]]], [[[-118.5952, 35.7306], [-118.5956, 35.7289], [-118.5949, 35.7289], [-118.5949, 35.7297], [-118.5936, 35.7295], [-118.5939, 35.7303], [-118.5952, 35.7306]]], [[[-118.5962, 35.7292], [-118.5969, 35.729], [-118.5962, 35.729], [-118.5962, 35.7292]]], [[[-118.5972, 35.729], [-118.5976, 35.7287], [-118.5972, 35.7287], [-118.5972, 35.729]]], [[[-118.5939, 35.7289], [-118.5942, 35.7287], [-118.5939, 35.7287], [-118.5939, 35.7289]]], [[[-118.5976, 35.7287], [-118.5979, 35.7284], [-118.5976, 35.7284], [-118.5976, 35.7287]]], [[[-118.5996, 35.7285], [-118.5999, 35.7282], [-118.5996, 35.7282], [-118.5996, 35.7285]]], [[[-118.5956, 35.7284], [-118.5959, 35.7281], [-118.5956, 35.7281], [-118.5956, 35.7284]]], [[[-118.5936, 35.7281], [-118.5939, 35.7284], [-118.5943, 35.7281], [-118.5936, 35.7281]]], [[[-118.5949, 35.7281], [-118.5953, 35.7279], [-118.5949, 35.7279], [-118.5949, 35.7281]]], [[[-118.5442, 35.7259], [-118.5445, 35.7256], [-118.5442, 35.7256], [-118.5442, 35.7259]]], [[[-118.5465, 35.7251], [-118.5472, 35.7248], [-118.5465, 35.7248], [-118.5465, 35.7251]]], [[[-118.5488, 35.7241], [-118.5492, 35.7227], [-118.5479, 35.7227], [-118.5479, 35.7238], [-118.5488, 35.7241]]], [[[-118.5512, 35.723], [-118.5519, 35.723], [-118.5525, 35.7227], [-118.5512, 35.723]]], [[[-118.5475, 35.7227], [-118.5479, 35.7224], [-118.5475, 35.7224], [-118.5475, 35.7227]]], [[[-118.5462, 35.7256], [-118.5462, 35.7246], [-118.5472, 35.7243], [-118.5475, 35.7248], [-118.5479, 35.7238], [-118.5475, 35.7227], [-118.5465, 35.7227], [-118.5462, 35.7229], [-118.5459, 35.7219], [-118.5455, 35.7229], [-118.5452, 35.7224], [-118.5442, 35.7226], [-118.5442, 35.7253], [-118.5462, 35.7256]], [[-118.5455, 35.7248], [-118.5452, 35.7251], [-118.5452, 35.7248], [-118.5455, 35.7248]], [[-118.5475, 35.7238], [-118.5472, 35.724], [-118.5472, 35.7238], [-118.5475, 35.7238]], [[-118.5459, 35.7237], [-118.5455, 35.724], [-118.5455, 35.7237], [-118.5459, 35.7237]], [[-118.5465, 35.7232], [-118.5459, 35.7237], [-118.5459, 35.7229], [-118.5465, 35.7232]], [[-118.5449, 35.7235], [-118.5445, 35.7237], [-118.5445, 35.7235], [-118.5449, 35.7235]]], [[[-118.5522, 35.7225], [-118.5522, 35.7217], [-118.5512, 35.7217], [-118.5519, 35.7219], [-118.5515, 35.7225], [-118.5522, 35.7225]]], [[[-118.5482, 35.7222], [-118.5482, 35.7216], [-118.5489, 35.7211], [-118.5472, 35.7213], [-118.5482, 35.7222]]], [[[-118.5522, 35.7211], [-118.5525, 35.7214], [-118.5529, 35.7211], [-118.5522, 35.7211]]], [[[-118.5453, 35.7208], [-118.5456, 35.7205], [-118.5453, 35.7205], [-118.5453, 35.7208]]], [[[-118.5439, 35.7205], [-118.5443, 35.7202], [-118.5439, 35.7202], [-118.5439, 35.7205]]], [[[-118.5436, 35.7202], [-118.5439, 35.7199], [-118.5436, 35.7199], [-118.5436, 35.7202]]], [[[-118.5436, 35.7194], [-118.544, 35.7191], [-118.5436, 35.7191], [-118.5436, 35.7194]]], [[[-118.5469, 35.7197], [-118.547, 35.7189], [-118.5456, 35.7192], [-118.5459, 35.7197], [-118.5469, 35.7197]]], [[[-118.5523, 35.7192], [-118.5526, 35.7187], [-118.5523, 35.7187], [-118.5523, 35.7192]]], [[[-118.5459, 35.72], [-118.5449, 35.7194], [-118.545, 35.7183], [-118.5453, 35.7191], [-118.5466, 35.7189], [-118.546, 35.7183], [-118.5473, 35.7184], [-118.547, 35.7189], [-118.5499, 35.7184], [-118.5506, 35.7192], [-118.5509, 35.7184], [-118.5523, 35.7187], [-118.5529, 35.7179], [-118.5526, 35.7176], [-118.5443, 35.7178], [-118.5443, 35.7197], [-118.5459, 35.72]], [[-118.545, 35.7181], [-118.5446, 35.7183], [-118.5446, 35.7181], [-118.545, 35.7181]], [[-118.5486, 35.7178], [-118.5483, 35.7181], [-118.5483, 35.7178], [-118.5486, 35.7178]]], [[[-118.5859, 35.6951], [-118.5862, 35.6948], [-118.5859, 35.6948], [-118.5859, 35.6951]]], [[[-118.5883, 35.6935], [-118.5886, 35.6932], [-118.5883, 35.6932], [-118.5883, 35.6935]]], [[[-118.5385, 35.6899], [-118.5389, 35.6896], [-118.5385, 35.6896], [-118.5385, 35.6899]]], [[[-118.5355, 35.6899], [-118.5359, 35.6893], [-118.5356, 35.6893], [-118.5355, 35.6899]]], [[[-118.5452, 35.6897], [-118.5458, 35.6894], [-118.5452, 35.6894], [-118.5452, 35.6897]]], [[[-118.5349, 35.6896], [-118.5352, 35.6893], [-118.5349, 35.6893], [-118.5349, 35.6896]]], [[[-118.5488, 35.6898], [-118.5488, 35.6892], [-118.5475, 35.6895], [-118.5475, 35.6897], [-118.5488, 35.6898]]], [[[-118.5432, 35.6897], [-118.5435, 35.6891], [-118.5432, 35.6891], [-118.5432, 35.6897]]], [[[-118.5879, 35.6967], [-118.5879, 35.6959], [-118.5859, 35.6956], [-118.5859, 35.6951], [-118.5842, 35.695], [-118.5849, 35.6932], [-118.5859, 35.6937], [-118.5862, 35.6945], [-118.5889, 35.6948], [-118.5889, 35.6943], [-118.5882, 35.6946], [-118.5866, 35.6937], [-118.5869, 35.6929], [-118.5796, 35.6931], [-118.58, 35.6923], [-118.5787, 35.692], [-118.5787, 35.6915], [-118.58, 35.6915], [-118.5797, 35.6893], [-118.5787, 35.6893], [-118.5787, 35.6904], [-118.5777, 35.6896], [-118.577, 35.6898], [-118.577, 35.6893], [-118.5754, 35.6893], [-118.5756, 35.6955], [-118.5766, 35.6963], [-118.5796, 35.6963], [-118.5796, 35.6961], [-118.5802, 35.6961], [-118.5802, 35.6958], [-118.5806, 35.6958], [-118.5806, 35.6964], [-118.5835, 35.6967], [-118.5836, 35.6959], [-118.5842, 35.6959], [-118.5845, 35.6967], [-118.5879, 35.6967]], [[-118.5862, 35.6959], [-118.5859, 35.6964], [-118.5859, 35.6959], [-118.5862, 35.6959]], [[-118.5849, 35.6959], [-118.5846, 35.6961], [-118.5846, 35.6959], [-118.5849, 35.6959]], [[-118.5776, 35.6958], [-118.5773, 35.696], [-118.5773, 35.6958], [-118.5776, 35.6958]], [[-118.5856, 35.6956], [-118.5849, 35.6959], [-118.5849, 35.6956], [-118.5856, 35.6956]], [[-118.5809, 35.6953], [-118.5806, 35.6958], [-118.5806, 35.6953], [-118.5809, 35.6953]], [[-118.5779, 35.6955], [-118.5776, 35.6958], [-118.5776, 35.6955], [-118.5779, 35.6955]], [[-118.5846, 35.6953], [-118.5839, 35.6956], [-118.5839, 35.6953], [-118.5846, 35.6953]], [[-118.5793, 35.6955], [-118.5786, 35.6955], [-118.5783, 35.695], [-118.5789, 35.695], [-118.5789, 35.6947], [-118.5793, 35.6947], [-118.5793, 35.6955]], [[-118.5819, 35.695], [-118.5816, 35.6953], [-118.5816, 35.695], [-118.5819, 35.695]], [[-118.5766, 35.695], [-118.5763, 35.6952], [-118.5763, 35.695], [-118.5766, 35.695]], [[-118.5839, 35.6948], [-118.5836, 35.695], [-118.5836, 35.6948], [-118.5839, 35.6948]], [[-118.5813, 35.6947], [-118.5806, 35.695], [-118.5806, 35.6947], [-118.5813, 35.6947]], [[-118.5763, 35.6947], [-118.5759, 35.6949], [-118.5759, 35.6947], [-118.5763, 35.6947]], [[-118.5829, 35.6948], [-118.5823, 35.6948], [-118.5823, 35.6942], [-118.5826, 35.6942], [-118.5829, 35.6948]], [[-118.5799, 35.6945], [-118.5793, 35.6947], [-118.5793, 35.6944], [-118.5799, 35.6945]], [[-118.5826, 35.6939], [-118.5816, 35.6939], [-118.582, 35.6931], [-118.5826, 35.6931], [-118.5826, 35.6939]], [[-118.5863, 35.6935], [-118.5859, 35.6937], [-118.5859, 35.6934], [-118.5863, 35.6935]], [[-118.579, 35.6934], [-118.5786, 35.6936], [-118.5786, 35.6934], [-118.579, 35.6934]], [[-118.5783, 35.6931], [-118.578, 35.6934], [-118.578, 35.6931], [-118.5783, 35.6931]], [[-118.5786, 35.6928], [-118.5776, 35.6925], [-118.5777, 35.6917], [-118.578, 35.6923], [-118.5787, 35.692], [-118.5786, 35.6928]], [[-118.5767, 35.6912], [-118.5763, 35.6914], [-118.5763, 35.6912], [-118.5767, 35.6912]], [[-118.5793, 35.6909], [-118.579, 35.6912], [-118.579, 35.6909], [-118.5793, 35.6909]], [[-118.579, 35.6904], [-118.5787, 35.6907], [-118.5787, 35.6904], [-118.579, 35.6904]]], [[[-118.5518, 35.6898], [-118.5518, 35.689], [-118.5505, 35.6895], [-118.5505, 35.6898], [-118.5518, 35.6898]]], [[[-118.5415, 35.6899], [-118.5419, 35.6891], [-118.5405, 35.6888], [-118.5405, 35.6896], [-118.5415, 35.6899]]], [[[-118.5379, 35.6899], [-118.5379, 35.6891], [-118.5362, 35.6888], [-118.5362, 35.6899], [-118.5379, 35.6899]]], [[[-118.5422, 35.6891], [-118.5425, 35.6889], [-118.5422, 35.6889], [-118.5422, 35.6891]]], [[[-118.5402, 35.6894], [-118.5406, 35.6883], [-118.5392, 35.6883], [-118.5395, 35.6894], [-118.5402, 35.6894]]], [[[-118.5505, 35.6892], [-118.5508, 35.6882], [-118.5499, 35.6881], [-118.5498, 35.6892], [-118.5505, 35.6892]]], [[[-118.5386, 35.6891], [-118.5389, 35.6885], [-118.5372, 35.688], [-118.5372, 35.6885], [-118.5386, 35.6891]]], [[[-118.5416, 35.6883], [-118.5422, 35.6886], [-118.5422, 35.688], [-118.5416, 35.6883]]], [[[-118.5442, 35.6883], [-118.5449, 35.6881], [-118.5442, 35.6881], [-118.5442, 35.6883]]], [[[-118.5409, 35.6883], [-118.5412, 35.688], [-118.5409, 35.688], [-118.5409, 35.6883]]], [[[-118.5382, 35.6883], [-118.5392, 35.688], [-118.5382, 35.688], [-118.5382, 35.6883]]], [[[-118.5349, 35.6882], [-118.5353, 35.688], [-118.5349, 35.688], [-118.5349, 35.6882]]], [[[-118.5532, 35.6893], [-118.5525, 35.6879], [-118.5512, 35.6879], [-118.5512, 35.6882], [-118.5532, 35.6893]]], [[[-118.5412, 35.688], [-118.5416, 35.6878], [-118.5412, 35.6878], [-118.5412, 35.688]]], [[[-118.5482, 35.6873], [-118.5485, 35.687], [-118.5482, 35.687], [-118.5482, 35.6873]]], [[[-118.5369, 35.6872], [-118.5373, 35.6869], [-118.5369, 35.6869], [-118.5369, 35.6872]]], [[[-118.5376, 35.6869], [-118.5379, 35.6866], [-118.5376, 35.6866], [-118.5376, 35.6869]]], [[[-118.5482, 35.6868], [-118.5486, 35.6865], [-118.5482, 35.6865], [-118.5482, 35.6868]]], [[[-118.5446, 35.6867], [-118.5449, 35.6865], [-118.5446, 35.6865], [-118.5446, 35.6867]]], [[[-118.5369, 35.6866], [-118.5373, 35.6864], [-118.5369, 35.6864], [-118.5369, 35.6866]]], [[[-118.5512, 35.6879], [-118.5519, 35.6863], [-118.5512, 35.6868], [-118.5496, 35.6865], [-118.5502, 35.6879], [-118.5512, 35.6879]]], [[[-118.5476, 35.6862], [-118.5479, 35.6865], [-118.5482, 35.6862], [-118.5476, 35.6862]]], [[[-118.5492, 35.6862], [-118.5496, 35.686], [-118.5492, 35.686], [-118.5492, 35.6862]]], [[[-118.5419, 35.6859], [-118.5423, 35.6862], [-118.5426, 35.6859], [-118.5419, 35.6859]]], [[[-118.5512, 35.6863], [-118.5516, 35.6857], [-118.5512, 35.6857], [-118.5512, 35.6863]]], [[[-118.5519, 35.6863], [-118.5529, 35.686], [-118.5519, 35.6855], [-118.5519, 35.6863]]], [[[-118.5469, 35.6862], [-118.5476, 35.6857], [-118.5466, 35.6854], [-118.5469, 35.6862]]], [[[-118.5496, 35.6857], [-118.5499, 35.6854], [-118.5496, 35.6854], [-118.5496, 35.6857]]], [[[-118.5529, 35.686], [-118.5532, 35.6852], [-118.5529, 35.6852], [-118.5529, 35.686]]], [[[-118.5499, 35.6854], [-118.5502, 35.6852], [-118.5499, 35.6852], [-118.5499, 35.6854]]], [[[-118.5456, 35.6851], [-118.5463, 35.6846], [-118.5456, 35.6846], [-118.5456, 35.6851]]], [[[-118.5499, 35.6849], [-118.5503, 35.6846], [-118.5499, 35.6846], [-118.5499, 35.6849]]], [[[-118.5469, 35.6849], [-118.5473, 35.6846], [-118.5469, 35.6846], [-118.5469, 35.6849]]], [[[-118.5473, 35.6851], [-118.5483, 35.6843], [-118.5473, 35.6843], [-118.5476, 35.6846], [-118.5473, 35.6851]]], [[[-118.5523, 35.6841], [-118.5529, 35.6839], [-118.5523, 35.6839], [-118.5523, 35.6841]]], [[[-118.5519, 35.6838], [-118.5523, 35.6836], [-118.5519, 35.6836], [-118.5519, 35.6838]]], [[[-118.5513, 35.6838], [-118.5516, 35.6836], [-118.5513, 35.6836], [-118.5513, 35.6838]]], [[[-118.5523, 35.6836], [-118.5529, 35.6833], [-118.5523, 35.6833], [-118.5523, 35.6836]]], [[[-118.547, 35.6835], [-118.5473, 35.6833], [-118.547, 35.6832], [-118.547, 35.6835]]], [[[-118.5449, 35.6843], [-118.546, 35.6838], [-118.545, 35.683], [-118.5449, 35.6843]]], [[[-118.5413, 35.6843], [-118.5416, 35.6837], [-118.5407, 35.6829], [-118.54, 35.6837], [-118.5413, 35.6843]]], [[[-118.5516, 35.6836], [-118.5519, 35.683], [-118.5516, 35.683], [-118.5516, 35.6836]]], [[[-118.5456, 35.6832], [-118.546, 35.683], [-118.5456, 35.683], [-118.5456, 35.6832]]], [[[-118.543, 35.6837], [-118.5436, 35.6832], [-118.5443, 35.6827], [-118.543, 35.6827], [-118.543, 35.6837]]], [[[-118.549, 35.6827], [-118.5493, 35.6822], [-118.549, 35.6822], [-118.549, 35.6827]]], [[[-118.5483, 35.6825], [-118.5486, 35.6822], [-118.5483, 35.6822], [-118.5483, 35.6825]]], [[[-118.546, 35.6824], [-118.5466, 35.6822], [-118.546, 35.6822], [-118.546, 35.6824]]], [[[-118.5506, 35.6822], [-118.551, 35.6819], [-118.5506, 35.6819], [-118.5506, 35.6822]]], [[[-118.5486, 35.6822], [-118.549, 35.6819], [-118.5486, 35.6819], [-118.5486, 35.6822]]], [[[-118.5423, 35.6826], [-118.543, 35.6818], [-118.5423, 35.6816], [-118.5423, 35.6826]]], [[[-118.5417, 35.6818], [-118.542, 35.6816], [-118.5417, 35.6816], [-118.5417, 35.6818]]], [[[-118.5413, 35.6816], [-118.5417, 35.6813], [-118.5414, 35.6813], [-118.5413, 35.6816]]], [[[-118.542, 35.681], [-118.5423, 35.6813], [-118.5427, 35.681], [-118.542, 35.681]]], [[[-118.547, 35.6811], [-118.5473, 35.6803], [-118.547, 35.6803], [-118.547, 35.6811]]], [[[-118.5407, 35.6805], [-118.541, 35.6799], [-118.5407, 35.6799], [-118.5407, 35.6805]]], [[[-118.5523, 35.6801], [-118.5527, 35.6798], [-118.5523, 35.6798], [-118.5523, 35.6801]]], [[[-118.553, 35.6798], [-118.553, 35.6793], [-118.5523, 35.6793], [-118.5523, 35.6795], [-118.553, 35.6798]]], [[[-118.555, 35.6782], [-118.5554, 35.6779], [-118.555, 35.6779], [-118.555, 35.6782]]], [[[-118.554, 35.6787], [-118.555, 35.6785], [-118.555, 35.6782], [-118.5544, 35.6782], [-118.5547, 35.6771], [-118.5537, 35.6774], [-118.554, 35.6787]]], [[[-118.5547, 35.6769], [-118.555, 35.6766], [-118.5547, 35.6766], [-118.5547, 35.6769]]], [[[-118.5518, 35.673], [-118.5521, 35.6728], [-118.5518, 35.6728], [-118.5518, 35.673]]], [[[-118.5515, 35.6725], [-118.5521, 35.672], [-118.5515, 35.672], [-118.5515, 35.6725]]], [[[-118.5505, 35.6719], [-118.5518, 35.6714], [-118.5508, 35.6709], [-118.5505, 35.6719]]], [[[-118.5482, 35.6711], [-118.5485, 35.6708], [-118.5482, 35.6708], [-118.5482, 35.6711]]], [[[-118.5505, 35.6701], [-118.5509, 35.6695], [-118.5505, 35.6695], [-118.5505, 35.6701]]], [[[-118.5535, 35.6696], [-118.5539, 35.669], [-118.5535, 35.669], [-118.5535, 35.6696]]], [[[-118.5496, 35.6682], [-118.5502, 35.6679], [-118.5496, 35.6679], [-118.5496, 35.6682]]], [[[-118.5492, 35.6679], [-118.5496, 35.6676], [-118.5492, 35.6676], [-118.5492, 35.6679]]], [[[-118.552, 35.6633], [-118.553, 35.6633], [-118.552, 35.6628], [-118.552, 35.6633]]], [[[-118.5526, 35.6631], [-118.553, 35.6628], [-118.5527, 35.6628], [-118.5526, 35.6631]]], [[[-118.5437, 35.6627], [-118.544, 35.6621], [-118.5437, 35.6621], [-118.5437, 35.6627]]], [[[-118.54, 35.6626], [-118.5407, 35.6621], [-118.5404, 35.6621], [-118.54, 35.6626]]], [[[-118.5493, 35.6625], [-118.5497, 35.6622], [-118.5493, 35.6622], [-118.5493, 35.6625]]], [[[-118.553, 35.6623], [-118.553, 35.6617], [-118.552, 35.662], [-118.552, 35.6622], [-118.553, 35.6623]]], [[[-118.5503, 35.662], [-118.5507, 35.6617], [-118.5503, 35.6617], [-118.5503, 35.662]]], [[[-118.5513, 35.6617], [-118.5517, 35.6614], [-118.5513, 35.6614], [-118.5513, 35.6617]]], [[[-118.5527, 35.6614], [-118.553, 35.6612], [-118.5527, 35.6612], [-118.5527, 35.6614]]], [[[-118.551, 35.6614], [-118.5514, 35.6612], [-118.551, 35.6611], [-118.551, 35.6614]]], [[[-118.552, 35.6612], [-118.5524, 35.6606], [-118.552, 35.6606], [-118.552, 35.6612]]], [[[-118.5494, 35.6606], [-118.5504, 35.6603], [-118.5494, 35.6603], [-118.5494, 35.6606]]]]}, "properties": {"layer": "high_severity"}}, {"type": "Feature", "geometry": {"type": "MultiPolygon", "coordinates": [[[[-118.5452, 35.7243], [-118.5452, 35.7235], [-118.5449, 35.7235], [-118.5445, 35.7243], [-118.5452, 35.7243]]], [[[-118.546, 35.7189], [-118.5466, 35.7186], [-118.546, 35.7186], [-118.546, 35.7189]]], [[[-118.5453, 35.7183], [-118.5476, 35.7184], [-118.5476, 35.7178], [-118.546, 35.7175], [-118.5453, 35.7183]]], [[[-118.5503, 35.7181], [-118.551, 35.7176], [-118.549, 35.7176], [-118.549, 35.7178], [-118.5503, 35.7181]]], [[[-118.548, 35.7178], [-118.5483, 35.7176], [-118.548, 35.7176], [-118.548, 35.7178]]], [[[-118.5776, 35.696], [-118.5779, 35.6958], [-118.5776, 35.6958], [-118.5776, 35.696]]], [[[-118.5826, 35.6961], [-118.5832, 35.6956], [-118.5826, 35.6953], [-118.5826, 35.6961]]], [[[-118.5793, 35.6955], [-118.5796, 35.6953], [-118.5793, 35.6953], [-118.5793, 35.6955]]], [[[-118.5832, 35.6953], [-118.5833, 35.6945], [-118.5829, 35.6945], [-118.5826, 35.695], [-118.5832, 35.6953]]], [[[-118.5833, 35.6942], [-118.5836, 35.694], [-118.5833, 35.694], [-118.5833, 35.6942]]], [[[-118.5806, 35.6953], [-118.581, 35.6931], [-118.5793, 35.6931], [-118.5783, 35.6942], [-118.5799, 35.6945], [-118.5793, 35.695], [-118.5806, 35.6953]]], [[[-118.5833, 35.6929], [-118.5839, 35.6934], [-118.5849, 35.6929], [-118.5833, 35.6929]]], [[[-118.5776, 35.6958], [-118.5773, 35.695], [-118.5783, 35.6942], [-118.5773, 35.6939], [-118.5767, 35.6925], [-118.5777, 35.6909], [-118.5757, 35.6895], [-118.5756, 35.6944], [-118.5776, 35.6958]], [[-118.5767, 35.6912], [-118.5763, 35.6914], [-118.5763, 35.6912], [-118.5767, 35.6912]]], [[[-118.5754, 35.6895], [-118.5757, 35.6893], [-118.5754, 35.6893], [-118.5754, 35.6895]]]]}, "properties": {"layer": "interior"}}, {"type": "Feature", "geometry": {"type": "MultiPolygon", "coordinates": [[[[-118.5452, 35.7243], [-118.5452, 35.7235], [-118.5449, 35.7235], [-118.5445, 35.7243], [-118.5452, 35.7243]]], [[[-118.546, 35.7189], [-118.5466, 35.7186], [-118.546, 35.7186], [-118.546, 35.7189]]], [[[-118.5453, 35.7183], [-118.5476, 35.7184], [-118.5476, 35.7178], [-118.546, 35.7175], [-118.5453, 35.7183]]], [[[-118.549, 35.7178], [-118.5496, 35.7176], [-118.549, 35.7176], [-118.549, 35.7178]]], [[[-118.548, 35.7178], [-118.5483, 35.7176], [-118.548, 35.7176], [-118.548, 35.7178]]], [[[-118.5776, 35.696], [-118.5779, 35.6958], [-118.5776, 35.6958], [-118.5776, 35.696]]], [[[-118.5826, 35.6961], [-118.5832, 35.6956], [-118.5826, 35.6953], [-118.5826, 35.6961]]], [[[-118.5793, 35.6955], [-118.5796, 35.6953], [-118.5793, 35.6953], [-118.5793, 35.6955]]], [[[-118.5832, 35.6953], [-118.5833, 35.6945], [-118.5829, 35.6945], [-118.5826, 35.695], [-118.5832, 35.6953]]], [[[-118.5833, 35.6942], [-118.5836, 35.694], [-118.5833, 35.694], [-118.5833, 35.6942]]], [[[-118.5806, 35.6953], [-118.581, 35.6931], [-118.5793, 35.6931], [-118.5783, 35.6942], [-118.5799, 35.6945], [-118.5793, 35.695], [-118.5806, 35.6953]]], [[[-118.5833, 35.6929], [-118.5839, 35.6934], [-118.5849, 35.6929], [-118.5833, 35.6929]]], [[[-118.5776, 35.6958], [-118.5773, 35.695], [-118.5783, 35.6942], [-118.5773, 35.6939], [-118.5767, 35.6925], [-118.5777, 35.6909], [-118.5757, 35.6895], [-118.5756, 35.6944], [-118.5776, 35.6958]], [[-118.5767, 35.6912], [-118.5763, 35.6914], [-118.5763, 35.6912], [-118.5767, 35.6912]]], [[[-118.5754, 35.6895], [-118.5757, 35.6893], [-118.5754, 35.6893], [-118.5754, 35.6895]]]]}, "properties": {"layer": "cell", "cell_id": "540_5500", "seed_zone": "540", "elevation_band": "5500–6000 ft"}}, {"type": "Feature", "geometry": {"type": "Polygon", "coordinates": [[[-118.5496, 35.7176], [-118.5503, 35.7179], [-118.551, 35.7176], [-118.5496, 35.7176]]]}, "properties": {"layer": "cell", "cell_id": "540_6000", "seed_zone": "540", "elevation_band": "6000–6500 ft"}}]}
