{"type": "FeatureCollection", "features": [{"type": "Feature", "geometry": {"type": "Polygon", "coordinates": [[[-116.047, 33.8941], [-116.052, 33.8887], [-116.0514, 33.8877], [-116.0508, 33.8881], [-116.0513, 33.8865], [-116.0525, 33.8852], [-116.0535, 33.8863], [-116.0539, 33.8851], [-116.054, 33.8858], [-116.0553, 33.8863], [-116.0546, 33.8877], [-116.0555, 33.8922], [-116.0548, 33.8962], [-116.0535, 33.8973], [-116.0541, 33.8986], [-116.0531, 33.904], [-116.0537, 33.9056], [-116.0522, 33.911], [-116.0509, 33.9114], [-116.0516, 33.9119], [-116.0487, 33.9168], [-116.0479, 33.9173], [-116.0459, 33.9168], [-116.0442, 33.9179], [-116.0399, 33.9186], [-116.0409, 33.9206], [-116.0403, 33.9223], [-116.0335, 33.9208], [-116.0325, 33.9201], [-116.0356, 33.9193], [-116.0367, 33.9182], [-116.0358, 33.9176], [-116.036, 33.9151], [-116.0344, 33.9112], [-116.0363, 33.9065], [-116.0404, 33.9011], [-116.04, 33.9], [-116.0435, 33.8953], [-116.0451, 33.8941], [-116.047, 33.8941]]]}, "properties": {"layer": "perimeter"}}]}
