{"type": "FeatureCollection", "features": [{"type": "Feature", "geometry": {"type": "MultiPolygon", "coordinates": [[[[-120.7723, 41.1223], [-120.7664, 41.1216], [-120.7636, 41.1199], [-120.761, 41.1202], [-120.7601, 41.1195], [-120.7592, 41.12], [-120.7578, 41.118], [-120.7538, 41.1184], [-120.7528, 41.1175], [-120.7516, 41.118], [-120.7478, 41.1152], [-120.7475, 41.1133], [-120.7515, 41.1086], [-120.7582, 41.1069], [-120.7612, 41.1036], [-120.7656, 41.1028], [-120.7657, 41.1022], [-120.7664, 41.1027], [-120.7732, 41.103], [-120.7749, 41.1054], [-120.7774, 41.1068], [-120.7795, 41.1056], [-120.7799, 41.1024], [-120.7818, 41.1012], [-120.7831, 41.1011], [-120.7832, 41.1003], [-120.7846, 41.1002], [-120.7836, 41.0996], [-120.7869, 41.0925], [-120.787, 41.0903], [-120.7858, 41.0903], [-120.7865, 41.088], [-120.7849, 41.085], [-120.7854, 41.084], [-120.7844, 41.0837], [-120.7841, 41.0826], [-120.782, 41.082], [-120.7834, 41.0805], [-120.7824, 41.0786], [-120.7796, 41.0789], [-120.7788, 41.0769], [-120.775, 41.0773], [-120.7742, 41.0755], [-120.7737, 41.0765], [-120.7714, 41.0768], [-120.7732, 41.0758], [-120.7735, 41.0742], [-120.775, 41.0754], [-120.775, 41.0738], [-120.7739, 41.0738], [-120.7741, 41.0724], [-120.775, 41.0716], [-120.7762, 41.0724], [-120.7765, 41.0709], [-120.7743, 41.0707], [-120.7737, 41.0696], [-120.7716, 41.0697], [-120.7712, 41.0686], [-120.7724, 41.0678], [-120.7727, 41.0659], [-120.7719, 41.0655], [-120.7734, 41.0649], [-120.7727, 41.0639], [-120.7715, 41.0634], [-120.7692, 41.0644], [-120.7679, 41.0638], [-120.7699, 41.0633], [-120.7684, 41.0621], [-120.7672, 41.0623], [-120.7681, 41.0599], [-120.7695, 41.0589], [-120.7676, 41.0592], [-120.7671, 41.0582], [-120.765, 41.0585], [-120.7661, 41.0571], [-120.7673, 41.057], [-120.7654, 41.0555], [-120.7668, 41.0521], [-120.7654, 41.0516], [-120.7663, 41.0513], [-120.7662, 41.0502], [-120.7634, 41.0461], [-120.7625, 41.0465], [-120.7617, 41.0459], [-120.7601, 41.0467], [-120.7562, 41.0456], [-120.7511, 41.042], [-120.7489, 41.0385], [-120.7464, 41.0378], [-120.7451, 41.0357], [-120.745, 41.0363], [-120.7435, 41.0361], [-120.7436, 41.0353], [-120.7385, 41.0338], [-120.7366, 41.0319], [-120.7317, 41.0307], [-120.7311, 41.0297], [-120.7281, 41.0297], [-120.724, 41.025], [-120.7247, 41.0237], [-120.7237, 41.0229], [-120.7231, 41.0191], [-120.7214, 41.0187], [-120.7206, 41.0195], [-120.717, 41.0184], [-120.7139, 41.0158], [-120.7114, 41.0118], [-120.7102, 41.0115], [-120.7107, 41.0107], [-120.7089, 41.0082], [-120.7104, 41.0068], [-120.7097, 41.0051], [-120.7082, 41.004], [-120.7091, 41.0031], [-120.7083, 41.0026], [-120.7083, 41.0012], [-120.7098, 40.9998], [-120.7117, 40.9995], [-120.7136, 40.9983], [-120.7146, 40.9986], [-120.716, 40.9977], [-120.7172, 40.9978], [-120.7186, 41.0008], [-120.7179, 41.0019], [-120.7207, 41.0027], [-120.7215, 41.0045], [-120.7237, 41.0053], [-120.7245, 41.0045], [-120.7254, 41.0054], [-120.7271, 41.0051], [-120.7241, 41.0035], [-120.7253, 41.0021], [-120.7276, 41.002], [-120.7282, 41.0029], [-120.7287, 41.0026], [-120.7309, 41.0037], [-120.7332, 41.0063], [-120.7332, 41.0074], [-120.7364, 41.0082], [-120.7371, 41.009], [-120.7363, 41.0096], [-120.7373, 41.0094], [-120.7401, 41.0111], [-120.7414, 41.0163], [-120.7428, 41.017], [-120.7436, 41.0166], [-120.7434, 41.0179], [-120.7451, 41.0181], [-120.7458, 41.0189], [-120.7474, 41.0182], [-120.7481, 41.0192], [-120.7494, 41.0188], [-120.7494, 41.0196], [-120.7525, 41.0202], [-120.7557, 41.0225], [-120.759, 41.0288], [-120.7588, 41.0305], [-120.757, 41.0321], [-120.76, 41.0323], [-120.7626, 41.0346], [-120.7662, 41.0352], [-120.7726, 41.0347], [-120.7731, 41.0364], [-120.7738, 41.036], [-120.7743, 41.0365], [-120.773, 41.0388], [-120.7743, 41.0398], [-120.7744, 41.0392], [-120.7749, 41.0395], [-120.7753, 41.0417], [-120.7768, 41.0407], [-120.7763, 41.0431], [-120.7778, 41.0441], [-120.7793, 41.0431], [-120.7807, 41.0443], [-120.7817, 41.0442], [-120.7826, 41.0413], [-120.7819, 41.0405], [-120.7827, 41.0399], [-120.7828, 41.0399], [-120.7829, 41.0398], [-120.7822, 41.0371], [-120.7832, 41.0379], [-120.7828, 41.0393], [-120.7853, 41.0384], [-120.7859, 41.0391], [-120.7871, 41.0383], [-120.7893, 41.0387], [-120.7902, 41.0374], [-120.7915, 41.0378], [-120.791, 41.0363], [-120.7917, 41.0355], [-120.7894, 41.0342], [-120.7881, 41.0344], [-120.7836, 41.0286], [-120.7849, 41.0276], [-120.7846, 41.0268], [-120.7836, 41.0262], [-120.7822, 41.0263], [-120.7802, 41.0239], [-120.7836, 41.0221], [-120.783, 41.0197], [-120.7842, 41.0191], [-120.7873, 41.0202], [-120.7884, 41.0196], [-120.7899, 41.0214], [-120.7921, 41.0213], [-120.7932, 41.0228], [-120.7945, 41.0203], [-120.7976, 41.0223], [-120.7992, 41.0224], [-120.8011, 41.0241], [-120.803, 41.0241], [-120.805, 41.025], [-120.8048, 41.0267], [-120.8076, 41.028], [-120.8085, 41.0269], [-120.8113, 41.0265], [-120.8125, 41.0255], [-120.8137, 41.0262], [-120.8145, 41.0257], [-120.8144, 41.0267], [-120.8154, 41.0273], [-120.817, 41.0257], [-120.8194, 41.0261], [-120.8182, 41.024], [-120.8197, 41.0231], [-120.8204, 41.0217], [-120.8225, 41.0221], [-120.8226, 41.0234], [-120.8253, 41.0243], [-120.8249, 41.023], [-120.8255, 41.0226], [-120.8265, 41.023], [-120.8269, 41.0223], [-120.8291, 41.0229], [-120.8308, 41.0225], [-120.8291, 41.0218], [-120.8295, 41.0211], [-120.8321, 41.0218], [-120.8381, 41.0211], [-120.838, 41.0201], [-120.8357, 41.0181], [-120.8429, 41.0183], [-120.8469, 41.0177], [-120.8511, 41.0193], [-120.853, 41.0213], [-120.8544, 41.0274], [-120.8539, 41.033], [-120.8576, 41.0364], [-120.8563, 41.0374], [-120.8586, 41.0373], [-120.8631, 41.0426], [-120.8619, 41.0435], [-120.8628, 41.0434], [-120.8648, 41.0447], [-120.8664, 41.0468], [-120.8659, 41.0478], [-120.8676, 41.0483], [-120.8675, 41.0497], [-120.869, 41.0498], [-120.8884, 41.0741], [-120.8909, 41.0759], [-120.8904, 41.0766], [-120.8918, 41.0781], [-120.8914, 41.0797], [-120.8941, 41.0803], [-120.8981, 41.0836], [-120.9049, 41.0858], [-120.9089, 41.0884], [-120.913, 41.093], [-120.9145, 41.0959], [-120.9135, 41.0961], [-120.9134, 41.0969], [-120.9111, 41.0974], [-120.9118, 41.099], [-120.9108, 41.0994], [-120.9118, 41.0998], [-120.9127, 41.1022], [-120.9144, 41.1018], [-120.9153, 41.1025], [-120.9138, 41.103], [-120.9138, 41.1054], [-120.9128, 41.1058], [-120.9121, 41.1052], [-120.9126, 41.1043], [-120.9113, 41.1025], [-120.9106, 41.1032], [-120.9115, 41.1042], [-120.9098, 41.1039], [-120.9096, 41.1053], [-120.9114, 41.1055], [-120.9141, 41.1088], [-120.9156, 41.1086], [-120.9151, 41.1102], [-120.916, 41.1092], [-120.9197, 41.11], [-120.9209, 41.1119], [-120.92, 41.1128], [-120.9164, 41.1132], [-120.9097, 41.1117], [-120.9059, 41.1092], [-120.902, 41.1084], [-120.9019, 41.1057], [-120.9005, 41.1039], [-120.8959, 41.1038], [-120.8962, 41.1028], [-120.8943, 41.102], [-120.8881, 41.102], [-120.884, 41.1], [-120.8801, 41.1009], [-120.8767, 41.1002], [-120.8753, 41.0992], [-120.8752, 41.0998], [-120.8742, 41.0987], [-120.8718, 41.0984], [-120.8719, 41.099], [-120.8673, 41.095], [-120.8664, 41.0951], [-120.8663, 41.097], [-120.8639, 41.0973], [-120.859, 41.0925], [-120.8563, 41.0908], [-120.8527, 41.0908], [-120.8498, 41.0938], [-120.847, 41.0948], [-120.8452, 41.0944], [-120.8453, 41.095], [-120.8442, 41.094], [-120.8432, 41.0947], [-120.8433, 41.0938], [-120.8422, 41.0937], [-120.8392, 41.0957], [-120.8394, 41.0951], [-120.8387, 41.0954], [-120.837, 41.0969], [-120.8348, 41.0943], [-120.8332, 41.0934], [-120.8308, 41.0958], [-120.8285, 41.0941], [-120.8263, 41.0951], [-120.8235, 41.0943], [-120.8249, 41.0928], [-120.8234, 41.0917], [-120.8221, 41.0931], [-120.8178, 41.0922], [-120.8192, 41.0952], [-120.8175, 41.0955], [-120.8168, 41.0966], [-120.816, 41.0963], [-120.8161, 41.0979], [-120.8141, 41.098], [-120.8133, 41.0994], [-120.8115, 41.1003], [-120.8096, 41.0997], [-120.8075, 41.101], [-120.8077, 41.1028], [-120.8095, 41.1041], [-120.8088, 41.1057], [-120.8049, 41.1083], [-120.7996, 41.1072], [-120.7967, 41.1094], [-120.7973, 41.1096], [-120.7965, 41.1111], [-120.7974, 41.113], [-120.7969, 41.1136], [-120.794, 41.1138], [-120.7935, 41.1133], [-120.7926, 41.1145], [-120.7905, 41.1151], [-120.789, 41.1173], [-120.7903, 41.1206], [-120.7855, 41.1219], [-120.7843, 41.1209], [-120.7831, 41.1217], [-120.7784, 41.122], [-120.7766, 41.1212], [-120.7759, 41.1216], [-120.7754, 41.1207], [-120.7723, 41.1223]]], [[[-120.7789, 41.0947], [-120.7785, 41.0943], [-120.7802, 41.0937], [-120.7793, 41.0932], [-120.7811, 41.093], [-120.7819, 41.092], [-120.7828, 41.092], [-120.7823, 41.094], [-120.7811, 41.0938], [-120.7789, 41.0947]]], [[[-120.8128, 41.1059], [-120.8125, 41.1058], [-120.8128, 41.1057], [-120.8128, 41.1059]]]]}, "properties": {"layer": "perimeter"}}, {"type": "Feature", "geometry": {"type": "MultiPolygon", "coordinates": [[[[-120.7661, 41.1215], [-120.7636, 41.1199], [-120.761, 41.1202], [-120.7601, 41.1195], [-120.7592, 41.12], [-120.7578, 41.118], [-120.7538, 41.1184], [-120.7528, 41.1175], [-120.7516, 41.118], [-120.7474, 41.1145], [-120.7475, 41.1133], [-120.7515, 41.1086], [-120.7582, 41.1069], [-120.7614, 41.1036], [-120.7613, 41.1194], [-120.7662, 41.1195], [-120.7661, 41.1215]]], [[[-120.7694, 41.0644], [-120.768, 41.0639], [-120.7682, 41.0635], [-120.7691, 41.0634], [-120.7694, 41.0644]]], [[[-120.7693, 41.0628], [-120.7684, 41.0621], [-120.7672, 41.0623], [-120.7681, 41.0599], [-120.7695, 41.0589], [-120.7676, 41.0592], [-120.7671, 41.0582], [-120.765, 41.0585], [-120.7661, 41.0571], [-120.7673, 41.057], [-120.7655, 41.0551], [-120.7662, 41.0538], [-120.7695, 41.0538], [-120.7695, 41.0501], [-120.7743, 41.0501], [-120.7742, 41.0609], [-120.7694, 41.061], [-120.7693, 41.0628]]], [[[-120.7696, 41.0465], [-120.7617, 41.0459], [-120.7598, 41.0466], [-120.7598, 41.043], [-120.7647, 41.0429], [-120.7645, 41.0357], [-120.7693, 41.0356], [-120.7696, 41.0465]]], [[[-120.7271, 41.0282], [-120.724, 41.0251], [-120.7244, 41.0234], [-120.7318, 41.0233], [-120.7317, 41.027], [-120.7273, 41.0271], [-120.7271, 41.0282]]], [[[-120.7133, 41.0124], [-120.7102, 41.0115], [-120.7107, 41.0107], [-120.709, 41.0086], [-120.7104, 41.0069], [-120.7093, 41.005], [-120.7132, 41.0049], [-120.7133, 41.0124]]], [[[-120.7084, 41.0043], [-120.7082, 41.004], [-120.7084, 41.0037], [-120.7084, 41.0043]]], [[[-120.7084, 41.0026], [-120.7082, 41.0018], [-120.7082, 41.0015], [-120.7083, 41.0015], [-120.7084, 41.0026]]], [[[-120.7315, 41.0045], [-120.7332, 41.0074], [-120.7352, 41.0081], [-120.7319, 41.0082], [-120.7321, 41.0196], [-120.7274, 41.0196], [-120.7273, 41.0045], [-120.7315, 41.0045]]], [[[-120.7361, 41.0081], [-120.7361, 41.0081], [-120.736, 41.0081], [-120.7361, 41.0081]]], [[[-120.836, 41.0212], [-120.8361, 41.0212], [-120.8359, 41.0212], [-120.836, 41.0212]]], [[[-120.8357, 41.0184], [-120.8361, 41.0181], [-120.8361, 41.0188], [-120.8357, 41.0184]]], [[[-120.8517, 41.02], [-120.852, 41.0209], [-120.8513, 41.0202], [-120.8517, 41.02]]], [[[-120.853, 41.0213], [-120.8545, 41.0278], [-120.8543, 41.0283], [-120.8506, 41.0283], [-120.8505, 41.0212], [-120.853, 41.0213]]], [[[-120.8539, 41.033], [-120.8576, 41.0364], [-120.8563, 41.0374], [-120.8586, 41.0373], [-120.8631, 41.0426], [-120.8619, 41.0435], [-120.8628, 41.0434], [-120.8648, 41.0447], [-120.8664, 41.0468], [-120.8659, 41.0478], [-120.8676, 41.0483], [-120.8675, 41.0497], [-120.869, 41.0498], [-120.8884, 41.0741], [-120.8909, 41.0759], [-120.8904, 41.0766], [-120.8918, 41.0781], [-120.8914, 41.0797], [-120.8941, 41.0803], [-120.8981, 41.0836], [-120.9049, 41.0858], [-120.9089, 41.0884], [-120.913, 41.093], [-120.9145, 41.0959], [-120.9135, 41.0961], [-120.9134, 41.0969], [-120.9111, 41.0974], [-120.9118, 41.099], [-120.911, 41.0996], [-120.9042, 41.0996], [-120.9036, 41.0922], [-120.8991, 41.0923], [-120.8993, 41.0852], [-120.8941, 41.0852], [-120.8945, 41.0959], [-120.8991, 41.0959], [-120.8996, 41.1037], [-120.8959, 41.1038], [-120.8962, 41.1028], [-120.8943, 41.102], [-120.8881, 41.102], [-120.884, 41.1], [-120.8804, 41.1009], [-120.8767, 41.1002], [-120.8749, 41.0984], [-120.8744, 41.096], [-120.8688, 41.0962], [-120.8673, 41.095], [-120.8664, 41.0951], [-120.8656, 41.0975], [-120.8639, 41.0973], [-120.859, 41.0925], [-120.8563, 41.0908], [-120.8544, 41.0905], [-120.8523, 41.091], [-120.8491, 41.0942], [-120.847, 41.0948], [-120.8452, 41.0944], [-120.8453, 41.095], [-120.8442, 41.094], [-120.8428, 41.0946], [-120.8433, 41.0938], [-120.8422, 41.0937], [-120.8377, 41.0963], [-120.8376, 41.0929], [-120.8471, 41.0929], [-120.8468, 41.0856], [-120.8513, 41.0855], [-120.8512, 41.0818], [-120.8466, 41.0818], [-120.8465, 41.0801], [-120.8371, 41.0799], [-120.8368, 41.0719], [-120.8559, 41.0719], [-120.856, 41.0762], [-120.8609, 41.0763], [-120.8609, 41.0804], [-120.8709, 41.0807], [-120.871, 41.0685], [-120.8749, 41.0685], [-120.8747, 41.0648], [-120.866, 41.0648], [-120.8656, 41.0612], [-120.8606, 41.0611], [-120.8603, 41.0576], [-120.8508, 41.0577], [-120.8507, 41.0503], [-120.8553, 41.0503], [-120.8553, 41.0394], [-120.8507, 41.0394], [-120.8504, 41.0321], [-120.8538, 41.0321], [-120.8539, 41.033]], [[-120.8747, 41.0963], [-120.8751, 41.0981], [-120.8756, 41.0991], [-120.8757, 41.096], [-120.8747, 41.0963]]], [[[-120.9139, 41.103], [-120.9144, 41.1018], [-120.9153, 41.1025], [-120.9139, 41.103]]], [[[-120.914, 41.1086], [-120.9156, 41.1086], [-120.9151, 41.1102], [-120.916, 41.1092], [-120.9202, 41.1102], [-120.9209, 41.1119], [-120.9203, 41.1127], [-120.9156, 41.1131], [-120.9085, 41.1111], [-120.9086, 41.1105], [-120.914, 41.1104], [-120.914, 41.1086]]], [[[-120.7803, 41.0942], [-120.7785, 41.0943], [-120.7802, 41.0937], [-120.7793, 41.0932], [-120.7802, 41.093], [-120.7803, 41.0942]]], [[[-120.8365, 41.0646], [-120.8556, 41.0647], [-120.8558, 41.0682], [-120.832, 41.0682], [-120.8319, 41.0646], [-120.8274, 41.0647], [-120.8272, 41.061], [-120.8365, 41.061], [-120.8365, 41.0646]]], [[[-120.784, 41.0537], [-120.784, 41.0465], [-120.7935, 41.0465], [-120.7935, 41.0501], [-120.7983, 41.0502], [-120.7983, 41.0428], [-120.7934, 41.0429], [-120.7934, 41.0356], [-120.8217, 41.0358], [-120.8217, 41.0285], [-120.841, 41.0284], [-120.8409, 41.032], [-120.8361, 41.0321], [-120.8361, 41.0357], [-120.8409, 41.0357], [-120.8411, 41.0429], [-120.8362, 41.0429], [-120.8364, 41.0502], [-120.8315, 41.0502], [-120.8318, 41.0574], [-120.827, 41.0574], [-120.8269, 41.0539], [-120.822, 41.0538], [-120.8223, 41.0647], [-120.8174, 41.0647], [-120.8182, 41.0822], [-120.8038, 41.0824], [-120.8036, 41.0757], [-120.7942, 41.0757], [-120.794, 41.0721], [-120.7893, 41.0721], [-120.7891, 41.0684], [-120.7844, 41.0684], [-120.7846, 41.0757], [-120.7797, 41.0758], [-120.7795, 41.0685], [-120.7745, 41.0683], [-120.7742, 41.0646], [-120.7793, 41.0645], [-120.7792, 41.0608], [-120.7937, 41.061], [-120.7936, 41.0574], [-120.7889, 41.0573], [-120.7887, 41.0537], [-120.784, 41.0537]], [[-120.7937, 41.061], [-120.7939, 41.0683], [-120.7986, 41.0684], [-120.7984, 41.0611], [-120.7937, 41.061]], [[-120.7988, 41.072], [-120.8035, 41.072], [-120.8034, 41.0684], [-120.7986, 41.0684], [-120.7988, 41.072]]]]}, "properties": {"layer": "retained"}}, {"type": "Feature", "geometry": {"type": "MultiPolygon", "coordinates": [[[[-120.8976, 41.1022], [-120.8979, 41.1016], [-120.8972, 41.1011], [-120.8968, 41.1019], [-120.8976, 41.1022]]], [[[-120.8896, 41.0974], [-120.8907, 41.0976], [-120.8907, 41.0966], [-120.8896, 41.0974]]], [[[-120.8868, 41.0942], [-120.8871, 41.0933], [-120.886, 41.092], [-120.8835, 41.0915], [-120.8835, 41.0923], [-120.8839, 41.0923], [-120.8842, 41.0926], [-120.8839, 41.0934], [-120.8868, 41.0942]], [[-120.8864, 41.0933], [-120.886, 41.0936], [-120.886, 41.0934], [-120.8864, 41.0933]], [[-120.886, 41.0931], [-120.8846, 41.0931], [-120.8846, 41.0928], [-120.8853, 41.0925], [-120.886, 41.0931]], [[-120.8842, 41.092], [-120.8839, 41.0923], [-120.8839, 41.092], [-120.8842, 41.092]]], [[[-120.8767, 41.0915], [-120.8764, 41.0904], [-120.876, 41.0904], [-120.8757, 41.0915], [-120.8767, 41.0915]]], [[[-120.8767, 41.0899], [-120.8767, 41.0888], [-120.8756, 41.0888], [-120.8756, 41.0899], [-120.8767, 41.0899]], [[-120.8763, 41.0894], [-120.876, 41.0896], [-120.876, 41.0894], [-120.8763, 41.0894]]], [[[-120.8685, 41.0902], [-120.8696, 41.0891], [-120.8685, 41.0886], [-120.8685, 41.0902]]], [[[-120.8892, 41.0914], [-120.8885, 41.0895], [-120.8913, 41.0898], [-120.8913, 41.0887], [-120.8906, 41.089], [-120.8906, 41.0885], [-120.8885, 41.0877], [-120.8881, 41.0882], [-120.8852, 41.0877], [-120.8853, 41.0885], [-120.8831, 41.0885], [-120.8835, 41.0893], [-120.8867, 41.0893], [-120.8871, 41.0906], [-120.8881, 41.0904], [-120.8892, 41.0914]], [[-120.8878, 41.0893], [-120.8874, 41.0896], [-120.8874, 41.0893], [-120.8878, 41.0893]], [[-120.887, 41.089], [-120.8867, 41.0893], [-120.8867, 41.089], [-120.887, 41.089]], [[-120.8885, 41.0887], [-120.8881, 41.089], [-120.8881, 41.0887], [-120.8885, 41.0887]]], [[[-120.8606, 41.087], [-120.862, 41.0868], [-120.8606, 41.0865], [-120.8606, 41.087]]], [[[-120.8788, 41.0899], [-120.8796, 41.0891], [-120.8778, 41.0877], [-120.8767, 41.0877], [-120.8767, 41.0872], [-120.876, 41.0875], [-120.8756, 41.0861], [-120.8738, 41.0864], [-120.8738, 41.0869], [-120.8756, 41.0872], [-120.8756, 41.0883], [-120.877, 41.088], [-120.8774, 41.0899], [-120.8788, 41.0899]]], [[[-120.8688, 41.0881], [-120.8692, 41.0859], [-120.8681, 41.0856], [-120.8681, 41.087], [-120.8688, 41.0881]]], [[[-120.8792, 41.0858], [-120.8781, 41.0848], [-120.8774, 41.0848], [-120.8781, 41.0858], [-120.8792, 41.0858]]], [[[-120.8706, 41.0859], [-120.8706, 41.0848], [-120.8692, 41.0854], [-120.8688, 41.0843], [-120.8688, 41.0856], [-120.8706, 41.0859]]], [[[-120.8559, 41.0844], [-120.8574, 41.0841], [-120.8574, 41.0835], [-120.8563, 41.0833], [-120.8556, 41.0841], [-120.8545, 41.0841], [-120.8559, 41.0844]]], [[[-120.8588, 41.083], [-120.8584, 41.0819], [-120.8581, 41.0819], [-120.8577, 41.083], [-120.8588, 41.083]]], [[[-120.8627, 41.0827], [-120.8616, 41.0816], [-120.8609, 41.0822], [-120.8606, 41.0816], [-120.8598, 41.0819], [-120.8595, 41.0811], [-120.8595, 41.0827], [-120.8598, 41.0822], [-120.8609, 41.0827], [-120.8627, 41.0827]], [[-120.8616, 41.0822], [-120.8613, 41.0824], [-120.8613, 41.0822], [-120.8616, 41.0822]]], [[[-120.806, 41.0815], [-120.8063, 41.0806], [-120.8052, 41.0804], [-120.8045, 41.0812], [-120.8056, 41.0809], [-120.806, 41.0815]]], [[[-120.8577, 41.0817], [-120.8577, 41.0803], [-120.8566, 41.0798], [-120.857, 41.0803], [-120.8563, 41.0806], [-120.8577, 41.0817]]], [[[-120.8498, 41.0817], [-120.8523, 41.0806], [-120.8527, 41.0798], [-120.8537, 41.0795], [-120.8523, 41.0795], [-120.8509, 41.0809], [-120.8495, 41.0809], [-120.8498, 41.0817]]], [[[-120.8555, 41.08], [-120.8559, 41.079], [-120.8537, 41.079], [-120.8541, 41.0801], [-120.8555, 41.08]]], [[[-120.8045, 41.0801], [-120.8045, 41.079], [-120.8038, 41.079], [-120.8038, 41.0801], [-120.8045, 41.0801]]], [[[-120.8181, 41.0822], [-120.8181, 41.0789], [-120.8174, 41.0798], [-120.8166, 41.0784], [-120.8181, 41.0779], [-120.8177, 41.0749], [-120.8173, 41.0757], [-120.8162, 41.0754], [-120.8162, 41.0746], [-120.8155, 41.0746], [-120.8159, 41.0752], [-120.8144, 41.0746], [-120.8137, 41.0752], [-120.8123, 41.0747], [-120.8098, 41.0749], [-120.8095, 41.0771], [-120.8105, 41.0766], [-120.8102, 41.076], [-120.812, 41.076], [-120.8113, 41.0798], [-120.8077, 41.0793], [-120.807, 41.0787], [-120.8073, 41.0779], [-120.8056, 41.079], [-120.807, 41.0809], [-120.8103, 41.0822], [-120.8117, 41.0822], [-120.8117, 41.0817], [-120.8145, 41.0822], [-120.8138, 41.0814], [-120.8149, 41.0814], [-120.8152, 41.0822], [-120.8181, 41.0822]], [[-120.8106, 41.0812], [-120.8102, 41.0814], [-120.8102, 41.0812], [-120.8106, 41.0812]], [[-120.8106, 41.0806], [-120.8102, 41.0809], [-120.8102, 41.0806], [-120.8106, 41.0806]], [[-120.8099, 41.0804], [-120.8095, 41.0809], [-120.8095, 41.0804], [-120.8099, 41.0804]], [[-120.8159, 41.08], [-120.8156, 41.0803], [-120.8156, 41.08], [-120.8159, 41.08]], [[-120.8152, 41.0798], [-120.8149, 41.08], [-120.8149, 41.0798], [-120.8152, 41.0798]], [[-120.8163, 41.0779], [-120.8159, 41.0784], [-120.8159, 41.0779], [-120.8163, 41.0779]], [[-120.8173, 41.0776], [-120.817, 41.0779], [-120.817, 41.0776], [-120.8173, 41.0776]], [[-120.8166, 41.0773], [-120.8163, 41.0779], [-120.8163, 41.0773], [-120.8166, 41.0773]], [[-120.817, 41.076], [-120.8162, 41.0763], [-120.8162, 41.076], [-120.817, 41.076]], [[-120.8155, 41.0757], [-120.8152, 41.076], [-120.8152, 41.0757], [-120.8155, 41.0757]]], [[[-120.8448, 41.0761], [-120.8455, 41.075], [-120.8448, 41.075], [-120.8444, 41.0739], [-120.8433, 41.075], [-120.8444, 41.075], [-120.8448, 41.0761]]], [[[-120.843, 41.0745], [-120.8419, 41.0737], [-120.8412, 41.0739], [-120.8412, 41.0745], [-120.843, 41.0745]]], [[[-120.8415, 41.0734], [-120.8415, 41.0723], [-120.8397, 41.0723], [-120.8405, 41.0734], [-120.8415, 41.0734]]], [[[-120.7988, 41.0758], [-120.7984, 41.0745], [-120.7995, 41.0745], [-120.7994, 41.0734], [-120.7973, 41.0734], [-120.798, 41.072], [-120.7987, 41.072], [-120.7987, 41.0702], [-120.7959, 41.071], [-120.7962, 41.0696], [-120.7955, 41.0696], [-120.7951, 41.0707], [-120.7948, 41.0699], [-120.7937, 41.0699], [-120.793, 41.0721], [-120.7941, 41.0721], [-120.7941, 41.0734], [-120.7948, 41.0734], [-120.7941, 41.0753], [-120.7948, 41.0759], [-120.7988, 41.0758]], [[-120.7955, 41.0753], [-120.7952, 41.0756], [-120.7952, 41.0753], [-120.7955, 41.0753]], [[-120.7973, 41.075], [-120.797, 41.0753], [-120.797, 41.075], [-120.7973, 41.075]], [[-120.7952, 41.075], [-120.7948, 41.0753], [-120.7948, 41.075], [-120.7952, 41.075]], [[-120.797, 41.0748], [-120.7966, 41.075], [-120.7966, 41.0748], [-120.797, 41.0748]], [[-120.7962, 41.0742], [-120.7959, 41.0748], [-120.7955, 41.0742], [-120.7962, 41.0742]], [[-120.7955, 41.0748], [-120.7945, 41.0748], [-120.7945, 41.0745], [-120.7952, 41.0742], [-120.7955, 41.0748]], [[-120.7959, 41.0734], [-120.7955, 41.0737], [-120.7955, 41.0734], [-120.7959, 41.0734]], [[-120.7973, 41.0723], [-120.7969, 41.0726], [-120.7969, 41.0723], [-120.7973, 41.0723]], [[-120.7973, 41.0715], [-120.7966, 41.0721], [-120.7962, 41.0715], [-120.7973, 41.0715]], [[-120.7962, 41.0712], [-120.7959, 41.0715], [-120.7959, 41.0713], [-120.7962, 41.0712]], [[-120.7948, 41.0707], [-120.7944, 41.0713], [-120.7944, 41.0707], [-120.7948, 41.0707]], [[-120.7976, 41.0707], [-120.7973, 41.071], [-120.7973, 41.0707], [-120.7976, 41.0707]]], [[[-120.8109, 41.0744], [-120.8112, 41.0736], [-120.8126, 41.0733], [-120.8141, 41.0738], [-120.8141, 41.0728], [-120.8123, 41.0717], [-120.8123, 41.0711], [-120.8137, 41.0709], [-120.8133, 41.0701], [-120.814, 41.0695], [-120.8151, 41.0698], [-120.8158, 41.0692], [-120.8162, 41.0708], [-120.8176, 41.0711], [-120.8176, 41.0671], [-120.8161, 41.0668], [-120.8133, 41.0679], [-120.8129, 41.0674], [-120.8104, 41.0671], [-120.8119, 41.069], [-120.8094, 41.0693], [-120.8091, 41.0706], [-120.8076, 41.0701], [-120.8069, 41.0706], [-120.8073, 41.0717], [-120.8062, 41.0717], [-120.8058, 41.0709], [-120.8051, 41.0712], [-120.8059, 41.0742], [-120.8109, 41.0744]], [[-120.8105, 41.0733], [-120.8102, 41.0739], [-120.8102, 41.0733], [-120.8105, 41.0733]], [[-120.8112, 41.073], [-120.8109, 41.0736], [-120.8109, 41.073], [-120.8112, 41.073]], [[-120.8116, 41.0728], [-120.8112, 41.073], [-120.8112, 41.0728], [-120.8116, 41.0728]], [[-120.8112, 41.0725], [-120.8109, 41.0728], [-120.8109, 41.0725], [-120.8112, 41.0725]], [[-120.8123, 41.0722], [-120.8119, 41.0725], [-120.8119, 41.0722], [-120.8123, 41.0722]], [[-120.8144, 41.0687], [-120.8137, 41.0687], [-120.8133, 41.0679], [-120.814, 41.0679], [-120.8144, 41.0687]]], [[[-120.8404, 41.0669], [-120.8404, 41.0664], [-120.8397, 41.0661], [-120.8393, 41.0669], [-120.8404, 41.0669]]], [[[-120.8479, 41.0671], [-120.8479, 41.0663], [-120.8465, 41.0658], [-120.8461, 41.0671], [-120.8479, 41.0671]]], [[[-120.7841, 41.0681], [-120.7862, 41.0667], [-120.7851, 41.0656], [-120.784, 41.0662], [-120.784, 41.0673], [-120.7826, 41.0665], [-120.7815, 41.0667], [-120.7819, 41.0676], [-120.7841, 41.0681]], [[-120.7848, 41.067], [-120.7844, 41.0673], [-120.7844, 41.067], [-120.7848, 41.067]], [[-120.7855, 41.0667], [-120.7851, 41.067], [-120.7851, 41.0667], [-120.7855, 41.0667]], [[-120.7855, 41.0662], [-120.7851, 41.0665], [-120.7851, 41.0662], [-120.7855, 41.0662]]], [[[-120.8015, 41.0653], [-120.8029, 41.0655], [-120.8026, 41.065], [-120.8015, 41.0653]]], [[[-120.8062, 41.0701], [-120.808, 41.0696], [-120.8076, 41.0687], [-120.8097, 41.0685], [-120.8094, 41.0676], [-120.8101, 41.0676], [-120.8101, 41.0666], [-120.809, 41.0647], [-120.8083, 41.0655], [-120.8086, 41.0666], [-120.8065, 41.0666], [-120.8062, 41.0682], [-120.8055, 41.0679], [-120.8058, 41.0674], [-120.804, 41.0669], [-120.8012, 41.068], [-120.8047, 41.0685], [-120.8065, 41.0696], [-120.8062, 41.0701]], [[-120.8097, 41.0666], [-120.8094, 41.0674], [-120.8094, 41.0666], [-120.8097, 41.0666]], [[-120.8079, 41.0671], [-120.8076, 41.0674], [-120.8076, 41.0671], [-120.8079, 41.0671]]], [[[-120.778, 41.0657], [-120.7783, 41.0649], [-120.7769, 41.0652], [-120.7769, 41.0657], [-120.778, 41.0657]]], [[[-120.789, 41.0648], [-120.789, 41.0643], [-120.7879, 41.064], [-120.7879, 41.0645], [-120.789, 41.0648]]], [[[-120.7905, 41.0707], [-120.7908, 41.0699], [-120.7933, 41.0694], [-120.7933, 41.0688], [-120.7905, 41.0689], [-120.7908, 41.0683], [-120.7923, 41.0686], [-120.7912, 41.0656], [-120.7926, 41.0653], [-120.7929, 41.0637], [-120.7904, 41.0645], [-120.7905, 41.0667], [-120.7915, 41.067], [-120.7894, 41.0689], [-120.7894, 41.0705], [-120.7905, 41.0707]]], [[[-120.8119, 41.066], [-120.8133, 41.0644], [-120.8143, 41.0646], [-120.8154, 41.0636], [-120.8143, 41.0636], [-120.8143, 41.063], [-120.8118, 41.0636], [-120.8122, 41.0649], [-120.8101, 41.0655], [-120.8119, 41.066]]], [[[-120.8183, 41.0643], [-120.819, 41.0633], [-120.8182, 41.063], [-120.8183, 41.0643]]], [[[-120.8179, 41.0644], [-120.8175, 41.0627], [-120.8168, 41.0633], [-120.8157, 41.063], [-120.8168, 41.0644], [-120.8179, 41.0644]]], [[[-120.804, 41.0644], [-120.804, 41.0639], [-120.8061, 41.0642], [-120.8061, 41.0633], [-120.8043, 41.0631], [-120.8054, 41.0623], [-120.8054, 41.0612], [-120.8015, 41.0628], [-120.8022, 41.0642], [-120.804, 41.0644]], [[-120.8036, 41.0628], [-120.8033, 41.0631], [-120.8033, 41.0628], [-120.8036, 41.0628]]], [[[-120.7808, 41.0657], [-120.7812, 41.064], [-120.7844, 41.0638], [-120.7825, 41.0608], [-120.7793, 41.0611], [-120.7794, 41.0632], [-120.7801, 41.0635], [-120.7794, 41.0635], [-120.7787, 41.0651], [-120.7797, 41.0649], [-120.7808, 41.0657]], [[-120.7808, 41.0616], [-120.7797, 41.0619], [-120.7797, 41.0616], [-120.7808, 41.0616]]], [[[-120.8093, 41.062], [-120.8093, 41.0612], [-120.8082, 41.0606], [-120.8082, 41.0614], [-120.8093, 41.062]]], [[[-120.8125, 41.0617], [-120.8121, 41.0606], [-120.8111, 41.0609], [-120.8122, 41.0611], [-120.8125, 41.0617]]], [[[-120.8136, 41.0617], [-120.8139, 41.0609], [-120.8129, 41.0606], [-120.8129, 41.0614], [-120.8136, 41.0617]]], [[[-120.8146, 41.0609], [-120.815, 41.0598], [-120.8157, 41.0598], [-120.8157, 41.0606], [-120.8168, 41.0606], [-120.8164, 41.0592], [-120.815, 41.0584], [-120.8121, 41.0584], [-120.8121, 41.0601], [-120.8136, 41.0598], [-120.8136, 41.0606], [-120.8146, 41.0609]], [[-120.8132, 41.0595], [-120.8129, 41.0598], [-120.8128, 41.0595], [-120.8132, 41.0595]], [[-120.815, 41.0587], [-120.8146, 41.059], [-120.8146, 41.0587], [-120.815, 41.0587]]], [[[-120.8093, 41.0601], [-120.8093, 41.0582], [-120.8075, 41.0579], [-120.8082, 41.0582], [-120.8082, 41.0598], [-120.8093, 41.0601]]], [[[-120.7711, 41.0582], [-120.7714, 41.0571], [-120.7704, 41.0568], [-120.77, 41.0576], [-120.7711, 41.0582]]], [[[-120.8061, 41.0577], [-120.806, 41.0569], [-120.8046, 41.0563], [-120.805, 41.0574], [-120.8061, 41.0577]]], [[[-120.8067, 41.0563], [-120.8075, 41.0571], [-120.8075, 41.0563], [-120.8067, 41.0563]]], [[[-120.8175, 41.0571], [-120.8178, 41.0562], [-120.8153, 41.0563], [-120.8153, 41.0565], [-120.8175, 41.0571]]], [[[-120.8153, 41.0557], [-120.816, 41.0552], [-120.8149, 41.0549], [-120.8153, 41.0557]]], [[[-120.8206, 41.0554], [-120.8199, 41.0546], [-120.8189, 41.0552], [-120.8189, 41.0554], [-120.8206, 41.0554]]], [[[-120.8221, 41.0549], [-120.8217, 41.0543], [-120.8203, 41.0543], [-120.821, 41.0549], [-120.8221, 41.0549]]], [[[-120.7733, 41.059], [-120.7743, 41.0584], [-120.7743, 41.0538], [-120.7736, 41.0546], [-120.7739, 41.0557], [-120.7732, 41.0554], [-120.7729, 41.0563], [-120.7714, 41.056], [-120.7714, 41.0568], [-120.7732, 41.0576], [-120.7715, 41.0587], [-120.7733, 41.059]], [[-120.7736, 41.0579], [-120.7732, 41.0581], [-120.7732, 41.0579], [-120.7736, 41.0579]], [[-120.7739, 41.0571], [-120.7732, 41.0576], [-120.7732, 41.0573], [-120.7739, 41.0571]]], [[[-120.8149, 41.0549], [-120.8149, 41.053], [-120.8138, 41.053], [-120.8142, 41.0536], [-120.8128, 41.0541], [-120.8139, 41.0544], [-120.8139, 41.0549], [-120.8149, 41.0549]], [[-120.8146, 41.0544], [-120.8142, 41.0546], [-120.8142, 41.0544], [-120.8146, 41.0544]], [[-120.8142, 41.0541], [-120.8139, 41.0544], [-120.8139, 41.0541], [-120.8142, 41.0541]]], [[[-120.8213, 41.0532], [-120.822, 41.0519], [-120.8192, 41.0522], [-120.8185, 41.0516], [-120.8181, 41.0527], [-120.8213, 41.0532]]], [[[-120.8138, 41.0528], [-120.8153, 41.0519], [-120.8128, 41.0519], [-120.8138, 41.0528]]], [[[-120.7711, 41.0544], [-120.7728, 41.053], [-120.7739, 41.0533], [-120.7742, 41.0514], [-120.7721, 41.0506], [-120.7725, 41.0522], [-120.7718, 41.0522], [-120.7707, 41.0517], [-120.771, 41.0501], [-120.7696, 41.0501], [-120.7696, 41.0528], [-120.771, 41.0525], [-120.7711, 41.0536], [-120.77, 41.0541], [-120.7711, 41.0544]], [[-120.7728, 41.0527], [-120.7721, 41.053], [-120.7721, 41.0527], [-120.7728, 41.0527]]], [[[-120.7895, 41.0478], [-120.7899, 41.0464], [-120.7885, 41.0464], [-120.7888, 41.0478], [-120.7895, 41.0478]]], [[[-120.8067, 41.0542], [-120.8071, 41.0531], [-120.8064, 41.0531], [-120.8056, 41.0509], [-120.8063, 41.0501], [-120.806, 41.049], [-120.8031, 41.0501], [-120.8038, 41.0509], [-120.8028, 41.0507], [-120.8028, 41.0496], [-120.801, 41.0491], [-120.8017, 41.0472], [-120.8006, 41.0472], [-120.8009, 41.0458], [-120.8002, 41.0458], [-120.7999, 41.0474], [-120.8006, 41.0488], [-120.7992, 41.0496], [-120.7995, 41.0485], [-120.7985, 41.0483], [-120.7981, 41.051], [-120.7992, 41.0512], [-120.7992, 41.0501], [-120.801, 41.0499], [-120.801, 41.0507], [-120.802, 41.0504], [-120.8031, 41.0512], [-120.8028, 41.052], [-120.8035, 41.052], [-120.8039, 41.0534], [-120.8056, 41.0533], [-120.8067, 41.0542]], [[-120.8049, 41.0498], [-120.8045, 41.0501], [-120.8045, 41.0498], [-120.8049, 41.0498]], [[-120.801, 41.0491], [-120.8006, 41.0496], [-120.8006, 41.0491], [-120.801, 41.0491]]], [[[-120.8274, 41.0567], [-120.8299, 41.0559], [-120.8303, 41.0548], [-120.831, 41.0548], [-120.8306, 41.0543], [-120.8317, 41.054], [-120.831, 41.054], [-120.8302, 41.0526], [-120.8288, 41.0529], [-120.8256, 41.0486], [-120.8209, 41.0487], [-120.8206, 41.0492], [-120.8202, 41.0481], [-120.8206, 41.0468], [-120.8213, 41.0468], [-120.8209, 41.0462], [-120.8238, 41.0465], [-120.8245, 41.0473], [-120.8259, 41.0456], [-120.8248, 41.0459], [-120.8237, 41.0451], [-120.8227, 41.0457], [-120.8227, 41.0451], [-120.8216, 41.0454], [-120.8187, 41.0446], [-120.8184, 41.0454], [-120.8152, 41.0454], [-120.8152, 41.046], [-120.8131, 41.0468], [-120.8131, 41.046], [-120.8123, 41.046], [-120.813, 41.0457], [-120.813, 41.0438], [-120.8116, 41.0438], [-120.8109, 41.0449], [-120.8098, 41.0447], [-120.8098, 41.0458], [-120.8088, 41.0452], [-120.8084, 41.0463], [-120.8066, 41.0466], [-120.807, 41.0479], [-120.8056, 41.0474], [-120.8056, 41.0482], [-120.8092, 41.049], [-120.8095, 41.0503], [-120.811, 41.0495], [-120.8127, 41.0495], [-120.8142, 41.0514], [-120.8152, 41.0509], [-120.817, 41.0522], [-120.8181, 41.0519], [-120.8185, 41.0508], [-120.8177, 41.0503], [-120.8181, 41.0498], [-120.8188, 41.05], [-120.8191, 41.0487], [-120.8192, 41.0497], [-120.8217, 41.05], [-120.822, 41.0516], [-120.8227, 41.0495], [-120.8238, 41.0497], [-120.8242, 41.0513], [-120.8252, 41.0513], [-120.8267, 41.0527], [-120.8281, 41.0524], [-120.8267, 41.0535], [-120.8274, 41.0567]], [[-120.8278, 41.0543], [-120.8274, 41.0546], [-120.8274, 41.0543], [-120.8278, 41.0543]], [[-120.8299, 41.0532], [-120.8295, 41.0535], [-120.8295, 41.0532], [-120.8299, 41.0532]], [[-120.817, 41.0511], [-120.8167, 41.0514], [-120.8167, 41.0511], [-120.817, 41.0511]], [[-120.8149, 41.05], [-120.8145, 41.0506], [-120.8145, 41.05], [-120.8149, 41.05]], [[-120.8224, 41.0495], [-120.822, 41.05], [-120.822, 41.0495], [-120.8224, 41.0495]], [[-120.8177, 41.05], [-120.8142, 41.0498], [-120.8138, 41.049], [-120.8127, 41.049], [-120.8159, 41.046], [-120.8174, 41.0484], [-120.8181, 41.0484], [-120.8184, 41.0487], [-120.8177, 41.05]], [[-120.8142, 41.0498], [-120.8138, 41.0501], [-120.8138, 41.0498], [-120.8142, 41.0498]], [[-120.8249, 41.0492], [-120.8242, 41.0497], [-120.8241, 41.0489], [-120.8249, 41.0492]], [[-120.8106, 41.0493], [-120.8092, 41.049], [-120.8092, 41.0485], [-120.8109, 41.0487], [-120.8106, 41.0493]], [[-120.8184, 41.0481], [-120.8181, 41.0484], [-120.8181, 41.0481], [-120.8184, 41.0481]], [[-120.8109, 41.0479], [-120.8106, 41.0484], [-120.8106, 41.0479], [-120.8109, 41.0479]], [[-120.8102, 41.0476], [-120.8099, 41.0482], [-120.8099, 41.0476], [-120.8102, 41.0476]], [[-120.8106, 41.0474], [-120.8102, 41.0476], [-120.8102, 41.0474], [-120.8106, 41.0474]], [[-120.8084, 41.0474], [-120.8077, 41.0477], [-120.8077, 41.0474], [-120.8084, 41.0474]], [[-120.8081, 41.0468], [-120.8077, 41.0471], [-120.8077, 41.0468], [-120.8081, 41.0468]], [[-120.8241, 41.0462], [-120.8238, 41.0465], [-120.8238, 41.0462], [-120.8241, 41.0462]], [[-120.8205, 41.0462], [-120.8202, 41.0465], [-120.8202, 41.0462], [-120.8205, 41.0462]], [[-120.8088, 41.0463], [-120.8084, 41.0466], [-120.8084, 41.0463], [-120.8088, 41.0463]], [[-120.8195, 41.046], [-120.8191, 41.0462], [-120.8191, 41.046], [-120.8195, 41.046]], [[-120.8102, 41.0457], [-120.8098, 41.046], [-120.8098, 41.0458], [-120.8102, 41.0457]], [[-120.8123, 41.0455], [-120.8109, 41.0455], [-120.812, 41.0449], [-120.8123, 41.0455]]], [[[-120.8063, 41.045], [-120.8063, 41.0444], [-120.8055, 41.0447], [-120.8048, 41.0436], [-120.8045, 41.0444], [-120.8063, 41.045]]], [[[-120.7999, 41.0458], [-120.7995, 41.0453], [-120.8016, 41.0447], [-120.8016, 41.0442], [-120.8013, 41.0436], [-120.7998, 41.0439], [-120.8002, 41.0431], [-120.7984, 41.0431], [-120.7984, 41.0458], [-120.7999, 41.0458]], [[-120.7995, 41.045], [-120.7991, 41.0453], [-120.7991, 41.045], [-120.7995, 41.045]], [[-120.7998, 41.0447], [-120.7995, 41.045], [-120.7995, 41.0447], [-120.7998, 41.0447]], [[-120.8009, 41.0442], [-120.8002, 41.0445], [-120.8002, 41.0442], [-120.8009, 41.0442]]], [[[-120.7656, 41.0463], [-120.7674, 41.0436], [-120.767, 41.043], [-120.7663, 41.0439], [-120.7649, 41.0433], [-120.7631, 41.0439], [-120.7635, 41.0455], [-120.7642, 41.0455], [-120.7638, 41.0463], [-120.7656, 41.0463]], [[-120.7649, 41.0455], [-120.7646, 41.0458], [-120.7645, 41.0455], [-120.7649, 41.0455]], [[-120.7652, 41.0439], [-120.7649, 41.0444], [-120.7645, 41.0439], [-120.7652, 41.0439]]], [[[-120.7599, 41.0436], [-120.7613, 41.0444], [-120.7617, 41.0431], [-120.7599, 41.0436]]], [[[-120.8412, 41.0428], [-120.8412, 41.0423], [-120.8401, 41.042], [-120.8398, 41.0429], [-120.8412, 41.0428]]], [[[-120.8159, 41.0446], [-120.8155, 41.043], [-120.8169, 41.0433], [-120.8176, 41.0422], [-120.8159, 41.0419], [-120.8148, 41.0433], [-120.8137, 41.043], [-120.8148, 41.0436], [-120.8138, 41.0446], [-120.8159, 41.0446]]], [[[-120.8051, 41.0404], [-120.8059, 41.0401], [-120.8058, 41.0396], [-120.8048, 41.0398], [-120.8051, 41.0404]]], [[[-120.8087, 41.0401], [-120.8087, 41.0393], [-120.808, 41.0393], [-120.8076, 41.0401], [-120.8087, 41.0401]]], [[[-120.8123, 41.0436], [-120.8127, 41.0428], [-120.8116, 41.0422], [-120.8112, 41.0403], [-120.8091, 41.039], [-120.8091, 41.0406], [-120.8109, 41.042], [-120.8105, 41.0428], [-120.8123, 41.0436]]], [[[-120.8023, 41.0396], [-120.8019, 41.0388], [-120.8001, 41.0391], [-120.8005, 41.0396], [-120.8023, 41.0396]]], [[[-120.8165, 41.0395], [-120.8162, 41.0379], [-120.8133, 41.039], [-120.8137, 41.0395], [-120.8155, 41.039], [-120.8165, 41.0395]], [[-120.8155, 41.0387], [-120.8151, 41.039], [-120.8151, 41.0387], [-120.8155, 41.0387]]], [[[-120.8005, 41.0385], [-120.8019, 41.038], [-120.8008, 41.0377], [-120.8005, 41.0385]]], [[[-120.8051, 41.0379], [-120.8051, 41.0374], [-120.8058, 41.0377], [-120.8058, 41.0371], [-120.8048, 41.0371], [-120.8051, 41.0379]]], [[[-120.73, 41.0195], [-120.73, 41.0189], [-120.7293, 41.0184], [-120.729, 41.0195], [-120.73, 41.0195]]], [[[-120.7317, 41.0084], [-120.7317, 41.0076], [-120.7303, 41.0079], [-120.7303, 41.0084], [-120.7317, 41.0084]]]]}, "properties": {"layer": "high_severity"}}, {"type": "Feature", "geometry": {"type": "MultiPolygon", "coordinates": [[[[-120.8095, 41.0809], [-120.8095, 41.0804], [-120.8084, 41.0804], [-120.8084, 41.0806], [-120.8095, 41.0809]]], [[[-120.817, 41.0822], [-120.8167, 41.0817], [-120.8181, 41.0803], [-120.8159, 41.08], [-120.8152, 41.0809], [-120.817, 41.0822]]], [[[-120.8127, 41.0817], [-120.8142, 41.0806], [-120.8141, 41.0792], [-120.8163, 41.0792], [-120.8159, 41.0779], [-120.8163, 41.0773], [-120.818, 41.0773], [-120.818, 41.0762], [-120.8127, 41.0757], [-120.8124, 41.0798], [-120.8113, 41.0806], [-120.8106, 41.0803], [-120.8106, 41.0809], [-120.8099, 41.0806], [-120.811, 41.0817], [-120.8127, 41.0817]]], [[[-120.7969, 41.0729], [-120.7959, 41.0713], [-120.7941, 41.0723], [-120.7948, 41.0729], [-120.7969, 41.0729]]], [[[-120.798, 41.0715], [-120.7984, 41.071], [-120.7962, 41.0712], [-120.7962, 41.0715], [-120.798, 41.0715]]], [[[-120.8066, 41.0736], [-120.8094, 41.0733], [-120.8101, 41.072], [-120.8126, 41.0706], [-120.8126, 41.0695], [-120.8105, 41.0701], [-120.8098, 41.0712], [-120.8083, 41.0712], [-120.808, 41.0723], [-120.8066, 41.0723], [-120.8066, 41.0736]]], [[[-120.8165, 41.0687], [-120.8162, 41.0679], [-120.8151, 41.0679], [-120.8158, 41.0687], [-120.8165, 41.0687]]], [[[-120.7826, 41.0635], [-120.7829, 41.063], [-120.7818, 41.0619], [-120.7801, 41.0619], [-120.7797, 41.0627], [-120.7808, 41.0635], [-120.7826, 41.0635]]], [[[-120.8281, 41.0556], [-120.8296, 41.0548], [-120.8288, 41.0535], [-120.8281, 41.0535], [-120.8285, 41.0551], [-120.8274, 41.0554], [-120.8281, 41.0556]]], [[[-120.8049, 41.0525], [-120.8049, 41.0509], [-120.8045, 41.0509], [-120.8042, 41.052], [-120.8049, 41.0525]]], [[[-120.8256, 41.0508], [-120.8256, 41.0502], [-120.8249, 41.0502], [-120.8249, 41.0505], [-120.8256, 41.0508]]], [[[-120.8124, 41.0482], [-120.8131, 41.0471], [-120.8106, 41.0466], [-120.8113, 41.0468], [-120.8124, 41.0482]]], [[[-120.8195, 41.0476], [-120.8195, 41.047], [-120.8177, 41.046], [-120.8177, 41.0473], [-120.8195, 41.0476]]]]}, "properties": {"layer": "interior"}}, {"type": "Feature", "geometry": {"type": "MultiPolygon", "coordinates": [[[[-120.817, 41.0822], [-120.8167, 41.0817], [-120.8181, 41.0806], [-120.8152, 41.0806], [-120.816, 41.0819], [-120.817, 41.0822]]], [[[-120.8095, 41.0809], [-120.8095, 41.0804], [-120.8084, 41.0804], [-120.8084, 41.0806], [-120.8095, 41.0809]]], [[[-120.8127, 41.0817], [-120.8142, 41.0806], [-120.8138, 41.0798], [-120.8099, 41.0806], [-120.811, 41.0817], [-120.8127, 41.0817]]]]}, "properties": {"layer": "cell", "cell_id": "732_5000", "seed_zone": "732", "elevation_band": "5000–5500 ft"}}, {"type": "Feature", "geometry": {"type": "MultiPolygon", "coordinates": [[[[-120.8159, 41.08], [-120.8163, 41.0803], [-120.8166, 41.08], [-120.8159, 41.08]]], [[[-120.8141, 41.0798], [-120.8149, 41.079], [-120.8163, 41.0792], [-120.8159, 41.0779], [-120.8163, 41.0773], [-120.818, 41.0773], [-120.818, 41.0762], [-120.8127, 41.0757], [-120.8124, 41.0798], [-120.8141, 41.0798]]], [[[-120.7969, 41.0729], [-120.7959, 41.0713], [-120.7941, 41.0723], [-120.7948, 41.0729], [-120.7969, 41.0729]]], [[[-120.798, 41.0715], [-120.7984, 41.071], [-120.7962, 41.0712], [-120.7962, 41.0715], [-120.798, 41.0715]]], [[[-120.8066, 41.0736], [-120.8094, 41.0733], [-120.8101, 41.072], [-120.8126, 41.0706], [-120.8126, 41.0695], [-120.8105, 41.0701], [-120.8098, 41.0712], [-120.8083, 41.0712], [-120.808, 41.0723], [-120.8066, 41.0723], [-120.8066, 41.0736]]], [[[-120.7826, 41.0635], [-120.7829, 41.063], [-120.7818, 41.0619], [-120.7801, 41.0619], [-120.7797, 41.0627], [-120.7808, 41.0635], [-120.7826, 41.0635]]], [[[-120.8281, 41.0556], [-120.8296, 41.0548], [-120.8288, 41.0535], [-120.8281, 41.0535], [-120.8285, 41.0551], [-120.8274, 41.0554], [-120.8281, 41.0556]]], [[[-120.8256, 41.0508], [-120.8256, 41.0502], [-120.8249, 41.0502], [-120.8249, 41.0505], [-120.8256, 41.0508]]], [[[-120.8116, 41.0476], [-120.8127, 41.0479], [-120.8127, 41.0474], [-120.8116, 41.0476]]], [[[-120.8177, 41.0473], [-120.8184, 41.047], [-120.8177, 41.0468], [-120.8177, 41.0473]]]]}, "properties": {"layer": "cell", "cell_id": "732_5500", "seed_zone": "732", "elevation_band": "5500–6000 ft"}}, {"type": "Feature", "geometry": {"type": "MultiPolygon", "coordinates": [[[[-120.8165, 41.0687], [-120.8162, 41.0679], [-120.8151, 41.0679], [-120.8158, 41.0687], [-120.8165, 41.0687]]], [[[-120.8049, 41.0525], [-120.8049, 41.0509], [-120.8045, 41.0509], [-120.8042, 41.052], [-120.8049, 41.0525]]], [[[-120.812, 41.0476], [-120.8131, 41.0471], [-120.8106, 41.0466], [-120.8106, 41.0468], [-120.812, 41.0476]]], [[[-120.8195, 41.0476], [-120.8195, 41.047], [-120.8177, 41.046], [-120.8173, 41.0465], [-120.8195, 41.0476]]]]}, "properties": {"layer": "cell", "cell_id": "732_6000", "seed_zone": "732", "elevation_band": "6000–6500 ft"}}]}
