{"type": "FeatureCollection", "features": [{"type": "Feature", "geometry": {"type": "Polygon", "coordinates": [[[-119.1725, 36.5644], [-119.1723, 36.5674], [-119.1676, 36.5691], [-119.1656, 36.5689], [-119.1641, 36.5675], [-119.1615, 36.5626], [-119.1622, 36.5613], [-119.1618, 36.5569], [-119.1626, 36.5535], [-119.1639, 36.5519], [-119.1636, 36.5505], [-119.1652, 36.5503], [-119.1661, 36.5484], [-119.1672, 36.5485], [-119.1686, 36.5474], [-119.1692, 36.5452], [-119.1676, 36.5439], [-119.1697, 36.5438], [-119.1721, 36.5445], [-119.1735, 36.5442], [-119.1724, 36.5408], [-119.1749, 36.5361], [-119.1763, 36.5355], [-119.1776, 36.5369], [-119.1786, 36.5404], [-119.1805, 36.5411], [-119.183, 36.5405], [-119.1836, 36.5414], [-119.1807, 36.5462], [-119.1804, 36.5486], [-119.1826, 36.5539], [-119.1827, 36.5573], [-119.182, 36.5594], [-119.1791, 36.5603], [-119.1798, 36.5609], [-119.1793, 36.5616], [-119.1754, 36.5625], [-119.1743, 36.5638], [-119.1725, 36.5644]]]}, "properties": {"layer": "perimeter"}}, {"type": "Feature", "geometry": {"type": "Polygon", "coordinates": [[[-119.1725, 36.5645], [-119.1723, 36.5674], [-119.1676, 36.5691], [-119.1656, 36.5689], [-119.1641, 36.5675], [-119.1615, 36.5626], [-119.1622, 36.5613], [-119.1618, 36.5569], [-119.1626, 36.5535], [-119.1639, 36.5519], [-119.1636, 36.5505], [-119.1652, 36.5503], [-119.1661, 36.5484], [-119.1672, 36.5485], [-119.1686, 36.5474], [-119.1692, 36.5452], [-119.1676, 36.5439], [-119.1697, 36.5438], [-119.1721, 36.5445], [-119.1735, 36.5442], [-119.1724, 36.5408], [-119.1749, 36.5361], [-119.1763, 36.5355], [-119.1776, 36.5369], [-119.1786, 36.5404], [-119.1805, 36.5411], [-119.183, 36.5405], [-119.1836, 36.5414], [-119.1807, 36.5462], [-119.1804, 36.5486], [-119.1826, 36.5539], [-119.1827, 36.5573], [-119.182, 36.5594], [-119.1791, 36.5603], [-119.1798, 36.5609], [-119.1793, 36.5616], [-119.1754, 36.5625], [-119.1743, 36.5638], [-119.1725, 36.5645]], [[-119.17, 36.5579], [-119.1742, 36.5581], [-119.1742, 36.5544], [-119.17, 36.5542], [-119.17, 36.5579]]]}, "properties": {"layer": "retained"}}]}
