{"type": "FeatureCollection", "features": [{"type": "Feature", "geometry": {"type": "Polygon", "coordinates": [[[-121.492, 40.9925], [-121.4939, 40.9909], [-121.4966, 40.9902], [-121.4971, 40.9905], [-121.4958, 40.9914], [-121.5013, 40.9943], [-121.5043, 40.9924], [-121.509, 40.9915], [-121.5096, 40.9906], [-121.514, 40.9889], [-121.5162, 40.9869], [-121.5187, 40.9867], [-121.5214, 40.9907], [-121.5232, 40.9911], [-121.525, 40.9909], [-121.5287, 40.9885], [-121.5301, 40.9883], [-121.5237, 40.9937], [-121.5232, 40.9956], [-121.5203, 40.9964], [-121.52, 40.9971], [-121.518, 40.9972], [-121.5171, 40.998], [-121.5109, 40.9977], [-121.5073, 41.0016], [-121.5054, 41.001], [-121.5039, 41.002], [-121.502, 41.001], [-121.4981, 41.0023], [-121.4963, 41.004], [-121.4924, 41.005], [-121.4879, 41.0056], [-121.489, 41.0048], [-121.4828, 41.0068], [-121.4811, 41.0059], [-121.4801, 41.0065], [-121.4801, 41.0061], [-121.4778, 41.0065], [-121.4773, 41.006], [-121.4756, 41.0067], [-121.4722, 41.0069], [-121.4694, 41.0065], [-121.4684, 41.0076], [-121.4663, 41.0077], [-121.4644, 41.0088], [-121.4614, 41.0084], [-121.4607, 41.009], [-121.459, 41.0089], [-121.4572, 41.0082], [-121.4516, 41.0098], [-121.4482, 41.0074], [-121.4501, 41.0053], [-121.4509, 41.0057], [-121.452, 41.0048], [-121.4492, 41.0024], [-121.4503, 41.0028], [-121.4543, 41.0007], [-121.4593, 40.9999], [-121.4591, 40.9989], [-121.4608, 40.9983], [-121.4646, 40.9981], [-121.4697, 40.9951], [-121.4738, 40.9938], [-121.475, 40.9941], [-121.4771, 40.9929], [-121.479, 40.9948], [-121.4817, 40.9933], [-121.4839, 40.994], [-121.4849, 40.9932], [-121.4868, 40.9942], [-121.4873, 40.9936], [-121.4893, 40.9938], [-121.491, 40.9946], [-121.492, 40.9925]], [[-121.4931, 40.9921], [-121.4929, 40.9922], [-121.4931, 40.9921], [-121.4931, 40.9921]], [[-121.4729, 41.0068], [-121.4729, 41.0067], [-121.4728, 41.0067], [-121.4729, 41.0068]], [[-121.491, 40.9946], [-121.4909, 40.9947], [-121.491, 40.9946], [-121.491, 40.9946]]]}, "properties": {"layer": "perimeter"}}, {"type": "Feature", "geometry": {"type": "MultiPolygon", "coordinates": [[[[-121.492, 40.9925], [-121.4939, 40.9909], [-121.4966, 40.9902], [-121.4971, 40.9905], [-121.4958, 40.9914], [-121.4995, 40.993], [-121.5009, 40.9943], [-121.5037, 40.9929], [-121.5037, 41.0001], [-121.4989, 41.0001], [-121.4989, 41.0021], [-121.4965, 41.0038], [-121.4847, 41.0038], [-121.4847, 41.0002], [-121.4799, 41.0002], [-121.4799, 41.0038], [-121.4751, 41.0039], [-121.4751, 41.0067], [-121.4722, 41.0069], [-121.4694, 41.0065], [-121.4684, 41.0076], [-121.4663, 41.0077], [-121.4644, 41.0088], [-121.4559, 41.0076], [-121.4492, 41.0024], [-121.4503, 41.0028], [-121.4543, 41.0007], [-121.4593, 40.9999], [-121.4591, 40.9989], [-121.4608, 40.9983], [-121.4646, 40.9981], [-121.4669, 40.9967], [-121.4704, 40.9967], [-121.4704, 40.9951], [-121.4738, 40.9938], [-121.475, 40.9941], [-121.4771, 40.9929], [-121.479, 40.9948], [-121.4817, 40.9933], [-121.4839, 40.994], [-121.4849, 40.9932], [-121.4868, 40.9942], [-121.4873, 40.9936], [-121.4893, 40.9938], [-121.491, 40.9946], [-121.492, 40.9925]], [[-121.4729, 41.0067], [-121.4728, 41.0067], [-121.4729, 41.0068], [-121.4729, 41.0067]], [[-121.4909, 40.9947], [-121.491, 40.9946], [-121.491, 40.9946], [-121.4909, 40.9947]], [[-121.4929, 40.9922], [-121.4931, 40.9921], [-121.4931, 40.9921], [-121.4929, 40.9922]], [[-121.4942, 40.9965], [-121.4957, 40.9963], [-121.4942, 40.9949], [-121.4942, 40.9965]], [[-121.4942, 40.9945], [-121.4963, 40.9965], [-121.4989, 40.9965], [-121.4989, 40.9929], [-121.4942, 40.9929], [-121.4942, 40.9945]]], [[[-121.5036, 40.9929], [-121.5037, 40.9929], [-121.5037, 40.9929], [-121.5036, 40.9929]]], [[[-121.5037, 40.9928], [-121.5062, 40.9922], [-121.5064, 40.9921], [-121.5063, 40.9928], [-121.5037, 40.9928]]], [[[-121.5115, 40.99], [-121.514, 40.9889], [-121.5162, 40.9869], [-121.5187, 40.9867], [-121.5214, 40.9907], [-121.5232, 40.9911], [-121.525, 40.9909], [-121.5287, 40.9885], [-121.5301, 40.9883], [-121.5249, 40.9929], [-121.5111, 40.9929], [-121.5115, 40.99]]]]}, "properties": {"layer": "retained"}}, {"type": "Feature", "geometry": {"type": "MultiPolygon", "coordinates": [[[[-121.4741, 41.0062], [-121.4741, 41.0051], [-121.4745, 41.0048], [-121.473, 41.0051], [-121.4731, 41.0059], [-121.4741, 41.0062]]], [[[-121.4832, 40.9971], [-121.4839, 40.9966], [-121.4835, 40.9958], [-121.4828, 40.9961], [-121.4832, 40.9971]]]]}, "properties": {"layer": "high_severity"}}, {"type": "Feature", "geometry": {"type": "Polygon", "coordinates": [[[-121.4787, 41.0037], [-121.4787, 41.0031], [-121.478, 41.0031], [-121.478, 41.0034], [-121.4787, 41.0037]]]}, "properties": {"layer": "interior"}}, {"type": "Feature", "geometry": {"type": "Polygon", "coordinates": [[[-121.4787, 41.0037], [-121.4787, 41.0031], [-121.478, 41.0031], [-121.478, 41.0034], [-121.4787, 41.0037]]]}, "properties": {"layer": "cell", "cell_id": "732_4000", "seed_zone": "732", "elevation_band": "4000–4500 ft"}}]}
