{"type": "FeatureCollection", "features": [{"type": "Feature", "geometry": {"type": "MultiPolygon", "coordinates": [[[[-122.9933, 41.7463], [-122.9926, 41.7446], [-122.9936, 41.7449], [-122.9933, 41.7463]]], [[[-123.0302, 41.7459], [-123.0312, 41.7462], [-123.0314, 41.7476], [-123.0331, 41.7476], [-123.0318, 41.7479], [-123.0319, 41.7489], [-123.0343, 41.7488], [-123.032, 41.7495], [-123.0315, 41.7506], [-123.0323, 41.7518], [-123.0312, 41.7533], [-123.032, 41.7531], [-123.0317, 41.7538], [-123.0325, 41.7539], [-123.0322, 41.7545], [-123.0332, 41.7551], [-123.0329, 41.7558], [-123.0337, 41.7565], [-123.0331, 41.757], [-123.0358, 41.758], [-123.0357, 41.7573], [-123.0372, 41.7572], [-123.0382, 41.7547], [-123.0408, 41.7554], [-123.0412, 41.7581], [-123.0405, 41.7575], [-123.0399, 41.7582], [-123.0407, 41.7592], [-123.042, 41.7593], [-123.0412, 41.7598], [-123.0412, 41.7599], [-123.0432, 41.7594], [-123.0432, 41.7564], [-123.0448, 41.7567], [-123.0449, 41.756], [-123.0449, 41.7571], [-123.0458, 41.7571], [-123.0457, 41.7562], [-123.046, 41.756], [-123.047, 41.7585], [-123.0477, 41.7565], [-123.0488, 41.7563], [-123.0489, 41.7579], [-123.05, 41.7573], [-123.0491, 41.7587], [-123.0506, 41.7595], [-123.0508, 41.7579], [-123.0532, 41.7593], [-123.0536, 41.7567], [-123.0549, 41.7577], [-123.0548, 41.7606], [-123.0535, 41.7616], [-123.0567, 41.7617], [-123.0579, 41.7628], [-123.0591, 41.7623], [-123.0614, 41.7627], [-123.0614, 41.764], [-123.0599, 41.764], [-123.0599, 41.7649], [-123.059, 41.765], [-123.0595, 41.7667], [-123.0571, 41.7675], [-123.0533, 41.775], [-123.0545, 41.7761], [-123.056, 41.7724], [-123.0578, 41.7722], [-123.0594, 41.774], [-123.0593, 41.7749], [-123.0604, 41.775], [-123.0602, 41.776], [-123.0592, 41.7756], [-123.0584, 41.7765], [-123.0602, 41.777], [-123.061, 41.7766], [-123.0618, 41.7794], [-123.0614, 41.7809], [-123.0606, 41.782], [-123.0581, 41.7812], [-123.058, 41.7824], [-123.0534, 41.7845], [-123.053, 41.7834], [-123.0551, 41.783], [-123.0537, 41.7824], [-123.0512, 41.7829], [-123.0503, 41.784], [-123.0513, 41.7848], [-123.0492, 41.7862], [-123.0496, 41.7874], [-123.0486, 41.788], [-123.05, 41.7878], [-123.0505, 41.789], [-123.0534, 41.7888], [-123.0547, 41.7875], [-123.0553, 41.788], [-123.059, 41.7864], [-123.061, 41.7862], [-123.0615, 41.7874], [-123.0649, 41.789], [-123.0636, 41.7919], [-123.0617, 41.7918], [-123.0631, 41.7955], [-123.0614, 41.7957], [-123.0609, 41.7948], [-123.0588, 41.7956], [-123.0576, 41.7954], [-123.0571, 41.7996], [-123.056, 41.7984], [-123.0553, 41.7993], [-123.0536, 41.7981], [-123.0489, 41.7974], [-123.0482, 41.7959], [-123.0469, 41.7956], [-123.0473, 41.7948], [-123.0459, 41.7943], [-123.0465, 41.7936], [-123.0458, 41.7925], [-123.0438, 41.7934], [-123.0447, 41.7953], [-123.044, 41.7961], [-123.0419, 41.7957], [-123.0388, 41.7975], [-123.0375, 41.7972], [-123.0373, 41.7978], [-123.0386, 41.7985], [-123.0374, 41.7985], [-123.0376, 41.7999], [-123.0352, 41.8003], [-123.0344, 41.8016], [-123.0336, 41.801], [-123.0341, 41.8005], [-123.0321, 41.7994], [-123.0328, 41.7974], [-123.0318, 41.7972], [-123.0308, 41.7986], [-123.0291, 41.7963], [-123.0308, 41.7951], [-123.0334, 41.7956], [-123.0332, 41.7943], [-123.0348, 41.7934], [-123.0367, 41.789], [-123.036, 41.7877], [-123.0334, 41.7871], [-123.0332, 41.7886], [-123.0318, 41.7883], [-123.0314, 41.7833], [-123.0298, 41.7839], [-123.0306, 41.7855], [-123.0293, 41.7869], [-123.0277, 41.7871], [-123.0273, 41.7881], [-123.0242, 41.7887], [-123.0231, 41.7898], [-123.0195, 41.7909], [-123.0171, 41.7898], [-123.0166, 41.7883], [-123.0159, 41.7891], [-123.0146, 41.7888], [-123.0136, 41.7904], [-123.0114, 41.787], [-123.0094, 41.788], [-123.0065, 41.7875], [-123.0057, 41.7882], [-123.0014, 41.7889], [-122.9961, 41.7876], [-122.9904, 41.7887], [-122.9869, 41.7868], [-122.988, 41.7862], [-122.9884, 41.7867], [-122.9888, 41.7856], [-122.9902, 41.7851], [-122.9897, 41.7841], [-122.9865, 41.7847], [-122.9863, 41.7842], [-122.9843, 41.7843], [-122.9828, 41.7831], [-122.9791, 41.7837], [-122.9774, 41.7833], [-122.975, 41.7839], [-122.9763, 41.7816], [-122.978, 41.7821], [-122.9786, 41.7816], [-122.9769, 41.7808], [-122.9765, 41.7795], [-122.9787, 41.7797], [-122.98, 41.7786], [-122.9825, 41.7789], [-122.9828, 41.7784], [-122.983, 41.7766], [-122.9825, 41.7769], [-122.9814, 41.7761], [-122.9797, 41.7767], [-122.9792, 41.7759], [-122.9808, 41.774], [-122.9806, 41.7724], [-122.983, 41.7731], [-122.9822, 41.7703], [-122.9853, 41.7687], [-122.9829, 41.7673], [-122.9842, 41.7634], [-122.9835, 41.7619], [-122.9853, 41.7611], [-122.9866, 41.7615], [-122.9882, 41.7606], [-122.9862, 41.7599], [-122.9862, 41.7579], [-122.9844, 41.7579], [-122.982, 41.7547], [-122.9832, 41.7536], [-122.9836, 41.755], [-122.9865, 41.7556], [-122.9862, 41.753], [-122.9835, 41.7533], [-122.9856, 41.7521], [-122.9894, 41.752], [-122.9883, 41.749], [-122.99, 41.7475], [-122.9908, 41.749], [-122.9924, 41.7479], [-122.9905, 41.7461], [-122.9921, 41.7458], [-122.9926, 41.7476], [-122.9948, 41.7479], [-122.992, 41.749], [-122.9928, 41.7497], [-122.994, 41.7497], [-122.9946, 41.7488], [-122.9951, 41.7494], [-122.9973, 41.7492], [-122.9956, 41.7478], [-122.9974, 41.7458], [-122.9979, 41.7437], [-122.9988, 41.7436], [-123.0016, 41.7445], [-123.0012, 41.7469], [-123.0029, 41.7471], [-123.0054, 41.7484], [-123.0061, 41.7498], [-123.007, 41.7501], [-123.0072, 41.7494], [-123.0089, 41.7489], [-123.0096, 41.7505], [-123.0066, 41.7526], [-123.0078, 41.7528], [-123.008, 41.7546], [-123.0099, 41.7549], [-123.0102, 41.7557], [-123.0128, 41.757], [-123.0131, 41.7581], [-123.0118, 41.7593], [-123.0134, 41.7598], [-123.0148, 41.7624], [-123.0162, 41.7629], [-123.0163, 41.7608], [-123.015, 41.7604], [-123.0149, 41.7596], [-123.0172, 41.7596], [-123.0187, 41.7581], [-123.0166, 41.7578], [-123.0145, 41.7549], [-123.0152, 41.7543], [-123.0164, 41.7544], [-123.018, 41.7529], [-123.0191, 41.7532], [-123.0192, 41.7521], [-123.0177, 41.7514], [-123.0156, 41.7519], [-123.0151, 41.7532], [-123.0126, 41.7526], [-123.01, 41.7532], [-123.0099, 41.7481], [-123.0111, 41.7468], [-123.0122, 41.7466], [-123.0122, 41.7473], [-123.0134, 41.7469], [-123.0136, 41.7447], [-123.0168, 41.7435], [-123.0172, 41.7439], [-123.0189, 41.742], [-123.0208, 41.7416], [-123.0218, 41.7425], [-123.0206, 41.7429], [-123.0226, 41.7445], [-123.0269, 41.7439], [-123.0263, 41.7421], [-123.0247, 41.742], [-123.0258, 41.7409], [-123.0281, 41.7416], [-123.0269, 41.7422], [-123.0281, 41.7439], [-123.0278, 41.7452], [-123.0304, 41.7452], [-123.0302, 41.7459]]], [[[-123.053, 41.7873], [-123.053, 41.7877], [-123.0527, 41.7877], [-123.053, 41.7873]]], [[[-123.0521, 41.7879], [-123.0519, 41.7881], [-123.0518, 41.7879], [-123.0521, 41.7879]]], [[[-123.0303, 41.7987], [-123.0303, 41.8002], [-123.0298, 41.8002], [-123.0303, 41.7987]]], [[[-123.0244, 41.8033], [-123.0214, 41.8025], [-123.0199, 41.8013], [-123.0235, 41.8016], [-123.0229, 41.8007], [-123.0235, 41.7999], [-123.0271, 41.7999], [-123.0279, 41.8014], [-123.0271, 41.8036], [-123.0249, 41.8041], [-123.0244, 41.8033]]], [[[-122.9875, 41.8062], [-122.9838, 41.8056], [-122.9842, 41.8037], [-122.9883, 41.8041], [-122.9875, 41.8062]]]]}, "properties": {"layer": "perimeter"}}, {"type": "Feature", "geometry": {"type": "MultiPolygon", "coordinates": [[[[-123.0588, 41.7813], [-123.0581, 41.7812], [-123.058, 41.7824], [-123.0534, 41.7845], [-123.053, 41.7834], [-123.0551, 41.783], [-123.0537, 41.7824], [-123.0512, 41.7829], [-123.0503, 41.784], [-123.0513, 41.7848], [-123.0492, 41.7862], [-123.0495, 41.7872], [-123.0408, 41.7871], [-123.0405, 41.7801], [-123.0588, 41.7801], [-123.0588, 41.7813]]], [[[-123.0571, 41.7872], [-123.061, 41.7862], [-123.0614, 41.7873], [-123.0591, 41.7873], [-123.0571, 41.7872]]], [[[-123.062, 41.7873], [-123.062, 41.7873], [-123.0619, 41.7873], [-123.062, 41.7873]]], [[[-123.041, 41.7962], [-123.0388, 41.7975], [-123.0372, 41.7974], [-123.0386, 41.7985], [-123.0374, 41.7985], [-123.0376, 41.7999], [-123.0352, 41.8003], [-123.0344, 41.8016], [-123.0336, 41.801], [-123.0341, 41.8005], [-123.0321, 41.7994], [-123.0328, 41.7974], [-123.0318, 41.7972], [-123.0308, 41.7986], [-123.0291, 41.7959], [-123.031, 41.7951], [-123.0334, 41.7956], [-123.0333, 41.7942], [-123.041, 41.7942], [-123.041, 41.7962]]], [[[-123.0223, 41.79], [-123.0195, 41.7909], [-123.0171, 41.7898], [-123.0166, 41.7883], [-123.0159, 41.7891], [-123.0146, 41.7888], [-123.0136, 41.7904], [-123.0114, 41.787], [-123.0094, 41.788], [-123.0065, 41.7875], [-123.0043, 41.7884], [-123.0041, 41.7801], [-123.0223, 41.7801], [-123.0223, 41.79]]], [[[-122.9849, 41.7842], [-122.9828, 41.7831], [-122.9791, 41.7837], [-122.9774, 41.7833], [-122.975, 41.7839], [-122.9763, 41.7816], [-122.978, 41.7821], [-122.9786, 41.7816], [-122.9769, 41.7808], [-122.9765, 41.7795], [-122.9787, 41.7797], [-122.9809, 41.7784], [-122.9826, 41.7789], [-122.983, 41.7766], [-122.9825, 41.7769], [-122.9814, 41.7761], [-122.9797, 41.7767], [-122.9792, 41.7759], [-122.9808, 41.774], [-122.9806, 41.7724], [-122.983, 41.7731], [-122.9822, 41.7705], [-122.9924, 41.7705], [-122.9931, 41.78], [-122.985, 41.7799], [-122.9849, 41.7842]]], [[[-122.9837, 41.7564], [-122.982, 41.7545], [-122.9832, 41.7536], [-122.9836, 41.755], [-122.9865, 41.7556], [-122.9862, 41.753], [-122.9835, 41.7533], [-122.9856, 41.7521], [-122.9894, 41.752], [-122.9883, 41.749], [-122.99, 41.7475], [-122.9906, 41.7489], [-122.9915, 41.7488], [-122.9917, 41.7565], [-122.9837, 41.7564]]], [[[-122.9914, 41.7467], [-122.9904, 41.7463], [-122.9914, 41.7456], [-122.9914, 41.7467]]], [[[-122.9978, 41.744], [-122.9988, 41.7436], [-123.0011, 41.7442], [-123.0017, 41.746], [-123.0012, 41.7469], [-123.0029, 41.7471], [-123.0054, 41.7484], [-123.0004, 41.7487], [-123.0014, 41.7517], [-123.0024, 41.7487], [-123.0044, 41.7494], [-123.003, 41.7535], [-122.9991, 41.7523], [-122.9992, 41.7469], [-122.998, 41.7464], [-122.9986, 41.7443], [-122.9978, 41.744]]], [[[-123.007, 41.7501], [-123.0082, 41.7489], [-123.0094, 41.7493], [-123.0096, 41.7505], [-123.0069, 41.7523], [-123.007, 41.7501]]], [[[-123.0069, 41.7529], [-123.0074, 41.7525], [-123.0079, 41.753], [-123.0069, 41.7529]]], [[[-123.0109, 41.753], [-123.01, 41.7532], [-123.0097, 41.7525], [-123.0103, 41.7479], [-123.0109, 41.753]]], [[[-123.0304, 41.7988], [-123.0298, 41.8002], [-123.0303, 41.7987], [-123.0304, 41.7988]]], [[[-123.0249, 41.8041], [-123.023, 41.8031], [-123.0229, 41.8016], [-123.0238, 41.8011], [-123.0231, 41.8003], [-123.0271, 41.7999], [-123.0279, 41.8014], [-123.0271, 41.8036], [-123.0249, 41.8041]]], [[[-122.986, 41.8037], [-122.9878, 41.8038], [-122.9886, 41.8047], [-122.9869, 41.8064], [-122.986, 41.8037]]], [[[-123.0276, 41.7698], [-123.0252, 41.7698], [-123.0252, 41.768], [-123.0276, 41.7679], [-123.0276, 41.7698]]], [[[-123.0338, 41.7742], [-123.0306, 41.774], [-123.0291, 41.7727], [-123.0292, 41.77], [-123.0352, 41.7701], [-123.0353, 41.7744], [-123.0338, 41.7742]]], [[[-123.0299, 41.7736], [-123.0291, 41.7736], [-123.0291, 41.7729], [-123.0294, 41.7731], [-123.0299, 41.7736]]], [[[-123.0304, 41.774], [-123.0328, 41.7744], [-123.0328, 41.7745], [-123.0304, 41.7745], [-123.0304, 41.774]]], [[[-123.0341, 41.7744], [-123.0342, 41.7744], [-123.0343, 41.7744], [-123.0341, 41.7744]]], [[[-123.036, 41.776], [-123.0364, 41.7769], [-123.0361, 41.7757], [-123.0396, 41.7758], [-123.0397, 41.7784], [-123.0384, 41.7787], [-123.0396, 41.7801], [-123.038, 41.7793], [-123.036, 41.7793], [-123.036, 41.776]]], [[[-123.0358, 41.7791], [-123.0336, 41.7862], [-123.0327, 41.786], [-123.0351, 41.7787], [-123.0358, 41.7791]]], [[[-123.019, 41.7624], [-123.0191, 41.7642], [-123.0203, 41.7642], [-123.0203, 41.7633], [-123.0231, 41.7616], [-123.0262, 41.7617], [-123.0302, 41.7664], [-123.0269, 41.7678], [-123.0226, 41.7652], [-123.0178, 41.7652], [-123.0177, 41.7624], [-123.019, 41.7624]]]]}, "properties": {"layer": "retained"}}, {"type": "Feature", "geometry": {"type": "MultiPolygon", "coordinates": [[[[-123.0334, 41.8], [-123.0345, 41.7997], [-123.0334, 41.7997], [-123.0334, 41.8]]], [[[-123.0345, 41.7997], [-123.0352, 41.7994], [-123.0345, 41.7994], [-123.0345, 41.7997]]], [[[-123.0334, 41.7994], [-123.0338, 41.7991], [-123.0334, 41.7992], [-123.0334, 41.7994]]], [[[-123.0338, 41.7986], [-123.0341, 41.7989], [-123.0348, 41.7986], [-123.0338, 41.7986]]], [[[-123.033, 41.7989], [-123.0334, 41.7986], [-123.033, 41.7986], [-123.033, 41.7989]]], [[[-123.0359, 41.7988], [-123.0363, 41.798], [-123.0355, 41.7975], [-123.0352, 41.7986], [-123.0359, 41.7988]]], [[[-123.0337, 41.7975], [-123.0341, 41.7972], [-123.0337, 41.7973], [-123.0337, 41.7975]]], [[[-123.0344, 41.7972], [-123.0348, 41.797], [-123.0344, 41.797], [-123.0344, 41.7972]]], [[[-123.0383, 41.7963], [-123.0387, 41.796], [-123.0383, 41.7961], [-123.0383, 41.7963]]], [[[-123.0304, 41.7965], [-123.0308, 41.7962], [-123.0304, 41.7962], [-123.0304, 41.7965]]], [[[-123.0167, 41.7882], [-123.0171, 41.7879], [-123.0167, 41.7879], [-123.0167, 41.7882]]], [[[-123.0098, 41.787], [-123.0102, 41.7867], [-123.0098, 41.7867], [-123.0098, 41.787]]], [[[-123.0084, 41.787], [-123.0091, 41.7867], [-123.0084, 41.7868], [-123.0084, 41.787]]], [[[-123.0127, 41.7867], [-123.013, 41.7864], [-123.0127, 41.7864], [-123.0127, 41.7867]]], [[[-123.0156, 41.7863], [-123.0159, 41.786], [-123.0156, 41.786], [-123.0156, 41.7863]]], [[[-123.0152, 41.7855], [-123.0155, 41.7852], [-123.0152, 41.7852], [-123.0152, 41.7855]]], [[[-123.0144, 41.7855], [-123.0144, 41.785], [-123.013, 41.785], [-123.013, 41.7856], [-123.0144, 41.7855]]], [[[-123.018, 41.7852], [-123.0184, 41.7849], [-123.018, 41.7849], [-123.018, 41.7852]]], [[[-123.0126, 41.785], [-123.013, 41.7848], [-123.0126, 41.7848], [-123.0126, 41.785]]], [[[-123.0119, 41.7851], [-123.0122, 41.7845], [-123.0119, 41.7845], [-123.0119, 41.7851]]], [[[-123.0461, 41.7834], [-123.0464, 41.7831], [-123.0461, 41.7831], [-123.0461, 41.7834]]], [[[-123.0151, 41.7842], [-123.0155, 41.7839], [-123.0151, 41.7839], [-123.0151, 41.7842]]], [[[-123.0223, 41.784], [-123.0223, 41.7829], [-123.0208, 41.7827], [-123.0205, 41.7832], [-123.0223, 41.784]]], [[[-123.0197, 41.7827], [-123.0204, 41.7824], [-123.0197, 41.7824], [-123.0197, 41.7827]]], [[[-123.005, 41.7831], [-123.0053, 41.7828], [-123.005, 41.7828], [-123.005, 41.7831]]], [[[-123.0489, 41.7817], [-123.0492, 41.7814], [-123.0489, 41.7815], [-123.0489, 41.7817]]], [[[-123.0212, 41.7821], [-123.0215, 41.7818], [-123.0211, 41.7819], [-123.0212, 41.7821]]], [[[-123.0057, 41.7825], [-123.006, 41.7822], [-123.0057, 41.7822], [-123.0057, 41.7825]]], [[[-123.0539, 41.7808], [-123.0542, 41.7805], [-123.0539, 41.7805], [-123.0539, 41.7808]]], [[[-123.0042, 41.782], [-123.0046, 41.7817], [-123.0042, 41.7817], [-123.0042, 41.782]]], [[[-123.046, 41.7807], [-123.0467, 41.7804], [-123.0459, 41.7802], [-123.046, 41.7807]]], [[[-123.0222, 41.781], [-123.0225, 41.7807], [-123.0222, 41.7807], [-123.0222, 41.781]]], [[[-122.9844, 41.7819], [-122.9847, 41.7816], [-122.9844, 41.7816], [-122.9844, 41.7819]]], [[[-123.0445, 41.7802], [-123.0449, 41.7799], [-123.0445, 41.7799], [-123.0445, 41.7802]]], [[[-123.0222, 41.7805], [-123.0225, 41.7802], [-123.0222, 41.7802], [-123.0222, 41.7805]]], [[[-123.0103, 41.7808], [-123.0106, 41.7805], [-123.0103, 41.7805], [-123.0103, 41.7808]]], [[[-123.0117, 41.7807], [-123.0121, 41.7802], [-123.0117, 41.7802], [-123.0117, 41.7807]]], [[[-122.9822, 41.7814], [-122.9829, 41.7809], [-122.9825, 41.7809], [-122.9822, 41.7814]]], [[[-123.0224, 41.7862], [-123.0223, 41.7845], [-123.0212, 41.7843], [-123.0201, 41.783], [-123.019, 41.7833], [-123.0197, 41.7824], [-123.019, 41.7816], [-123.0208, 41.7819], [-123.0218, 41.7813], [-123.0222, 41.7824], [-123.0222, 41.781], [-123.0218, 41.7799], [-123.0189, 41.78], [-123.019, 41.7814], [-123.0172, 41.7814], [-123.0175, 41.7819], [-123.0161, 41.7814], [-123.0158, 41.7825], [-123.0154, 41.782], [-123.0143, 41.7826], [-123.0135, 41.7807], [-123.0121, 41.7813], [-123.0103, 41.781], [-123.0103, 41.7808], [-123.0096, 41.7805], [-123.0089, 41.7816], [-123.0064, 41.7822], [-123.0064, 41.7833], [-123.0097, 41.7832], [-123.0108, 41.7848], [-123.0122, 41.7837], [-123.0115, 41.7837], [-123.0118, 41.7826], [-123.0103, 41.7813], [-123.0117, 41.7813], [-123.0144, 41.7839], [-123.0147, 41.7836], [-123.0154, 41.7836], [-123.0158, 41.7839], [-123.0159, 41.7855], [-123.0181, 41.7854], [-123.018, 41.7852], [-123.0177, 41.7849], [-123.0187, 41.7843], [-123.0184, 41.7849], [-123.0195, 41.7851], [-123.0195, 41.7857], [-123.0206, 41.7854], [-123.021, 41.7862], [-123.0224, 41.7862]], [[-123.022, 41.7854], [-123.0213, 41.7859], [-123.0209, 41.7854], [-123.022, 41.7854]], [[-123.0202, 41.7846], [-123.0195, 41.7851], [-123.0191, 41.7841], [-123.0198, 41.7841], [-123.0202, 41.7846]], [[-123.022, 41.7845], [-123.0213, 41.7848], [-123.0213, 41.7846], [-123.022, 41.7845]], [[-123.0176, 41.7844], [-123.0173, 41.7849], [-123.0173, 41.7844], [-123.0176, 41.7844]], [[-123.0205, 41.7843], [-123.0202, 41.7846], [-123.0202, 41.7843], [-123.0205, 41.7843]], [[-123.0173, 41.7841], [-123.0162, 41.7847], [-123.0162, 41.7839], [-123.0173, 41.7841]], [[-123.0191, 41.7838], [-123.0184, 41.7841], [-123.0183, 41.7838], [-123.0191, 41.7838]], [[-123.018, 41.7836], [-123.0176, 41.7838], [-123.0176, 41.7836], [-123.018, 41.7836]], [[-123.0173, 41.7836], [-123.0169, 41.7838], [-123.0169, 41.7836], [-123.0173, 41.7836]], [[-123.0201, 41.7832], [-123.0198, 41.7835], [-123.0198, 41.7832], [-123.0201, 41.7832]], [[-123.0183, 41.7833], [-123.018, 41.7836], [-123.018, 41.7833], [-123.0183, 41.7833]], [[-123.0176, 41.783], [-123.0173, 41.7836], [-123.0172, 41.783], [-123.0176, 41.783]], [[-123.0165, 41.7833], [-123.0151, 41.7831], [-123.0165, 41.7828], [-123.0165, 41.7833]], [[-123.0186, 41.7825], [-123.0183, 41.783], [-123.0183, 41.7825], [-123.0186, 41.7825]], [[-123.0111, 41.7826], [-123.0107, 41.7832], [-123.0107, 41.7826], [-123.0111, 41.7826]], [[-123.0096, 41.7827], [-123.0089, 41.783], [-123.0089, 41.7827], [-123.0096, 41.7827]], [[-123.0186, 41.7819], [-123.0172, 41.7825], [-123.0172, 41.7822], [-123.0186, 41.7819]], [[-123.0107, 41.7824], [-123.0104, 41.7827], [-123.0104, 41.7824], [-123.0107, 41.7824]], [[-123.0103, 41.7816], [-123.01, 41.7818], [-123.01, 41.7816], [-123.0103, 41.7816]], [[-123.0096, 41.7813], [-123.0092, 41.7816], [-123.0092, 41.7813], [-123.0096, 41.7813]], [[-123.0099, 41.781], [-123.0096, 41.7813], [-123.0096, 41.781], [-123.0099, 41.781]], [[-123.0214, 41.7805], [-123.0211, 41.7808], [-123.0211, 41.7805], [-123.0214, 41.7805]], [[-123.0211, 41.7802], [-123.0207, 41.7805], [-123.0207, 41.7802], [-123.0211, 41.7802]]], [[[-122.9804, 41.7812], [-122.9807, 41.7809], [-122.9804, 41.7809], [-122.9804, 41.7812]]], [[[-122.9815, 41.7812], [-122.9818, 41.7806], [-122.9814, 41.7806], [-122.9815, 41.7812]]], [[[-123.0049, 41.782], [-123.0082, 41.7816], [-123.0088, 41.7805], [-123.0102, 41.7799], [-123.0041, 41.7801], [-123.0049, 41.782]], [[-123.0063, 41.7814], [-123.0053, 41.7814], [-123.0052, 41.7809], [-123.0059, 41.7806], [-123.0063, 41.7814]], [[-123.007, 41.7803], [-123.0067, 41.7806], [-123.0067, 41.7803], [-123.007, 41.7803]]], [[[-122.9807, 41.7809], [-122.9811, 41.7806], [-122.9807, 41.7806], [-122.9807, 41.7809]]], [[[-123.0347, 41.7794], [-123.0354, 41.7791], [-123.0347, 41.7791], [-123.0347, 41.7794]]], [[[-122.9798, 41.7834], [-122.9801, 41.7828], [-122.9812, 41.7831], [-122.9811, 41.7817], [-122.9804, 41.7817], [-122.9804, 41.7812], [-122.98, 41.7812], [-122.9804, 41.7807], [-122.9796, 41.7807], [-122.98, 41.7799], [-122.9792, 41.7796], [-122.9793, 41.7815], [-122.9772, 41.7818], [-122.9765, 41.7832], [-122.9776, 41.7826], [-122.9798, 41.7834]]], [[[-122.9933, 41.7801], [-122.9929, 41.7787], [-122.9882, 41.7797], [-122.9883, 41.7799], [-122.9933, 41.7801]]], [[[-122.9835, 41.779], [-122.9842, 41.7787], [-122.9835, 41.7787], [-122.9835, 41.779]]], [[[-122.9915, 41.7788], [-122.9922, 41.7782], [-122.9914, 41.7782], [-122.9915, 41.7788]]], [[[-122.9922, 41.7782], [-122.9925, 41.7779], [-122.9921, 41.7779], [-122.9922, 41.7782]]], [[[-122.9882, 41.7778], [-122.9885, 41.7775], [-122.9882, 41.7775], [-122.9882, 41.7778]]], [[[-122.9849, 41.7776], [-122.9849, 41.7768], [-122.9838, 41.7771], [-122.9838, 41.7776], [-122.9849, 41.7776]]], [[[-122.9881, 41.7767], [-122.9885, 41.7764], [-122.9881, 41.7764], [-122.9881, 41.7767]]], [[[-122.9867, 41.7767], [-122.987, 41.7764], [-122.9867, 41.7764], [-122.9867, 41.7767]]], [[[-122.9859, 41.7762], [-122.9863, 41.7756], [-122.9859, 41.7757], [-122.9859, 41.7762]]], [[[-122.9866, 41.7756], [-122.9877, 41.7759], [-122.9877, 41.7753], [-122.9866, 41.7756]]], [[[-122.9845, 41.7757], [-122.9848, 41.7754], [-122.9845, 41.7754], [-122.9845, 41.7757]]], [[[-122.9868, 41.78], [-122.9868, 41.7792], [-122.9857, 41.7786], [-122.9868, 41.7783], [-122.9879, 41.7794], [-122.9893, 41.7786], [-122.9907, 41.7788], [-122.9911, 41.778], [-122.9928, 41.7774], [-122.9924, 41.775], [-122.9906, 41.7753], [-122.9888, 41.7767], [-122.9889, 41.7772], [-122.9907, 41.7772], [-122.9903, 41.7777], [-122.9889, 41.7775], [-122.9885, 41.778], [-122.9878, 41.778], [-122.9863, 41.777], [-122.9853, 41.7784], [-122.9842, 41.7784], [-122.9853, 41.7789], [-122.9854, 41.78], [-122.9868, 41.78]], [[-122.9889, 41.778], [-122.9886, 41.7783], [-122.9885, 41.778], [-122.9889, 41.778]], [[-122.9903, 41.7764], [-122.9899, 41.7766], [-122.9899, 41.7764], [-122.9903, 41.7764]]], [[[-123.0345, 41.7742], [-123.0349, 41.7739], [-123.0345, 41.774], [-123.0345, 41.7742]]], [[[-122.9866, 41.7754], [-122.987, 41.7751], [-122.9866, 41.7751], [-122.9866, 41.7754]]], [[[-123.032, 41.774], [-123.0323, 41.7737], [-123.032, 41.7737], [-123.032, 41.774]]], [[[-123.0313, 41.7738], [-123.0316, 41.7735], [-123.0312, 41.7735], [-123.0313, 41.7738]]], [[[-123.0352, 41.7739], [-123.0352, 41.7734], [-123.0341, 41.7732], [-123.0341, 41.7734], [-123.0352, 41.7739]]], [[[-123.0338, 41.7742], [-123.0341, 41.7734], [-123.0327, 41.7732], [-123.0323, 41.7737], [-123.0338, 41.7742]]], [[[-123.0309, 41.7735], [-123.0312, 41.7732], [-123.0309, 41.7732], [-123.0309, 41.7735]]], [[[-122.9848, 41.7746], [-122.9851, 41.7743], [-122.9848, 41.7743], [-122.9848, 41.7746]]], [[[-122.9873, 41.7751], [-122.9877, 41.7743], [-122.9866, 41.774], [-122.9862, 41.7748], [-122.9873, 41.7751]]], [[[-123.0348, 41.7731], [-123.0352, 41.7729], [-123.0348, 41.7729], [-123.0348, 41.7731]]], [[[-123.0312, 41.7732], [-123.0316, 41.7729], [-123.0312, 41.773], [-123.0312, 41.7732]]], [[[-123.0301, 41.7732], [-123.0305, 41.773], [-123.0301, 41.773], [-123.0301, 41.7732]]], [[[-122.9923, 41.7741], [-122.9927, 41.7739], [-122.9923, 41.7739], [-122.9923, 41.7741]]], [[[-123.0341, 41.7729], [-123.0348, 41.7726], [-123.0341, 41.7726], [-123.0341, 41.7729]]], [[[-122.9862, 41.774], [-122.9866, 41.7737], [-122.9862, 41.7738], [-122.9862, 41.774]]], [[[-123.0323, 41.7727], [-123.0326, 41.7724], [-123.0323, 41.7724], [-123.0323, 41.7727]]], [[[-123.0309, 41.773], [-123.0312, 41.7724], [-123.0301, 41.7724], [-123.0301, 41.7727], [-123.0309, 41.773]]], [[[-122.9905, 41.7734], [-122.9912, 41.7731], [-122.9905, 41.7731], [-122.9905, 41.7734]]], [[[-122.9927, 41.7736], [-122.9926, 41.7728], [-122.9919, 41.7728], [-122.9919, 41.7733], [-122.9927, 41.7736]]], [[[-123.033, 41.7729], [-123.0337, 41.7723], [-123.0341, 41.7718], [-123.033, 41.7721], [-123.033, 41.7729]]], [[[-123.0294, 41.7725], [-123.0301, 41.7722], [-123.0294, 41.7719], [-123.0294, 41.7725]]], [[[-122.9869, 41.7735], [-122.9862, 41.7727], [-122.9851, 41.7727], [-122.9851, 41.7735], [-122.9869, 41.7735]]], [[[-123.0341, 41.7718], [-123.0344, 41.7715], [-123.034, 41.7715], [-123.0341, 41.7718]]], [[[-122.9912, 41.7731], [-122.9919, 41.7725], [-122.9912, 41.7723], [-122.9912, 41.7731]]], [[[-123.0301, 41.7716], [-123.0308, 41.7713], [-123.0301, 41.7714], [-123.0301, 41.7716]]], [[[-122.9923, 41.7725], [-122.9926, 41.7722], [-122.9923, 41.7723], [-122.9923, 41.7725]]], [[[-123.033, 41.7721], [-123.034, 41.7713], [-123.0351, 41.7712], [-123.0351, 41.7707], [-123.0336, 41.7707], [-123.0337, 41.7713], [-123.0329, 41.7707], [-123.0323, 41.7718], [-123.033, 41.7721]], [[-123.0333, 41.7713], [-123.033, 41.7716], [-123.0329, 41.7713], [-123.0333, 41.7713]]], [[[-123.0322, 41.771], [-123.0326, 41.7708], [-123.0322, 41.7708], [-123.0322, 41.771]]], [[[-123.0304, 41.7705], [-123.0308, 41.7708], [-123.0315, 41.7705], [-123.0304, 41.7705]]], [[[-123.0333, 41.7702], [-123.0336, 41.7705], [-123.0343, 41.7702], [-123.0333, 41.7702]]], [[[-122.9919, 41.7723], [-122.9922, 41.7714], [-122.9904, 41.7709], [-122.9905, 41.772], [-122.9919, 41.7723]]], [[[-123.0315, 41.7705], [-123.0318, 41.77], [-123.0315, 41.77], [-123.0315, 41.7705]]], [[[-123.0293, 41.7706], [-123.0296, 41.77], [-123.0293, 41.77], [-123.0293, 41.7706]]], [[[-123.03, 41.77], [-123.0304, 41.7703], [-123.0307, 41.77], [-123.03, 41.77]]], [[[-122.9922, 41.7714], [-122.9926, 41.7706], [-122.9922, 41.7706], [-122.9922, 41.7714]]], [[[-122.9861, 41.7708], [-122.9864, 41.7705], [-122.9861, 41.7705], [-122.9861, 41.7708]]], [[[-123.0277, 41.7668], [-123.0284, 41.7671], [-123.0292, 41.7668], [-123.0277, 41.7668]]], [[[-123.0252, 41.7669], [-123.0255, 41.7666], [-123.0252, 41.7666], [-123.0252, 41.7669]]], [[[-123.0244, 41.7663], [-123.0248, 41.7661], [-123.0244, 41.7661], [-123.0244, 41.7663]]], [[[-123.0299, 41.7668], [-123.0295, 41.7654], [-123.0284, 41.7654], [-123.0288, 41.7662], [-123.0299, 41.7668]]], [[[-123.0273, 41.7657], [-123.0277, 41.7655], [-123.0273, 41.7655], [-123.0273, 41.7657]]], [[[-123.0259, 41.7666], [-123.0269, 41.7652], [-123.0244, 41.765], [-123.0248, 41.7658], [-123.0255, 41.7655], [-123.0259, 41.7666]]], [[[-123.0251, 41.7647], [-123.0254, 41.7644], [-123.0251, 41.7644], [-123.0251, 41.7647]]], [[[-123.0254, 41.7644], [-123.0258, 41.7641], [-123.0254, 41.7642], [-123.0254, 41.7644]]], [[[-123.0236, 41.7642], [-123.0251, 41.7642], [-123.0258, 41.7639], [-123.0254, 41.7633], [-123.0236, 41.7642]]], [[[-123.0287, 41.7652], [-123.0276, 41.763], [-123.0265, 41.763], [-123.0262, 41.7644], [-123.0276, 41.7641], [-123.0276, 41.7649], [-123.0287, 41.7652]]], [[[-123.0247, 41.7634], [-123.025, 41.7631], [-123.0247, 41.7631], [-123.0247, 41.7634]]], [[[-123.0215, 41.7648], [-123.024, 41.7639], [-123.0236, 41.7626], [-123.0221, 41.7626], [-123.0215, 41.7637], [-123.0222, 41.764], [-123.0215, 41.7648]], [[-123.0232, 41.7631], [-123.0229, 41.7634], [-123.0229, 41.7631], [-123.0232, 41.7631]]], [[[-123.0265, 41.7628], [-123.0268, 41.7625], [-123.0264, 41.7625], [-123.0265, 41.7628]]], [[[-123.0239, 41.7628], [-123.0243, 41.7626], [-123.0239, 41.7626], [-123.0239, 41.7628]]], [[[-123.0261, 41.7625], [-123.0264, 41.7622], [-123.0261, 41.7622], [-123.0261, 41.7625]]], [[[-123.0236, 41.7626], [-123.0239, 41.7623], [-123.0236, 41.7623], [-123.0236, 41.7626]]], [[[-123.0228, 41.7621], [-123.0232, 41.7618], [-123.0228, 41.7618], [-123.0228, 41.7621]]], [[[-122.9847, 41.7562], [-122.9851, 41.7559], [-122.9847, 41.7559], [-122.9847, 41.7562]]], [[[-122.9876, 41.7561], [-122.9883, 41.7556], [-122.988, 41.7556], [-122.9876, 41.7561]]], [[[-122.9872, 41.7559], [-122.9876, 41.7556], [-122.9872, 41.7556], [-122.9872, 41.7559]]], [[[-123.0023, 41.7533], [-123.0026, 41.7528], [-123.0023, 41.7528], [-123.0023, 41.7533]]], [[[-123.0069, 41.753], [-123.0073, 41.7527], [-123.0069, 41.7527], [-123.0069, 41.753]]], [[[-122.9911, 41.7533], [-122.9915, 41.7531], [-122.9911, 41.7531], [-122.9911, 41.7533]]], [[[-122.9897, 41.7534], [-122.9893, 41.7528], [-122.9886, 41.7529], [-122.9886, 41.7534], [-122.9897, 41.7534]]], [[[-122.9875, 41.7532], [-122.9878, 41.7529], [-122.9875, 41.7529], [-122.9875, 41.7532]]], [[[-122.9907, 41.7533], [-122.9904, 41.7525], [-122.99, 41.7526], [-122.99, 41.7534], [-122.9907, 41.7533]]], [[[-123.0019, 41.7528], [-123.0022, 41.7523], [-123.0019, 41.7523], [-123.0019, 41.7528]]], [[[-122.9878, 41.7529], [-122.9886, 41.7526], [-122.9878, 41.7526], [-122.9878, 41.7529]]], [[[-122.986, 41.7529], [-122.9868, 41.7526], [-122.986, 41.7526], [-122.986, 41.7529]]], [[[-122.9904, 41.7525], [-122.9907, 41.7523], [-122.9903, 41.7523], [-122.9904, 41.7525]]], [[[-123.0011, 41.752], [-123.0015, 41.7517], [-123.0011, 41.7517], [-123.0011, 41.752]]], [[[-122.9892, 41.752], [-122.9896, 41.7523], [-122.9903, 41.752], [-122.9892, 41.752]]], [[[-123.0008, 41.7518], [-123.0011, 41.7512], [-123.0007, 41.7512], [-123.0008, 41.7518]]], [[[-122.9918, 41.7528], [-122.9914, 41.7514], [-122.9907, 41.7515], [-122.9907, 41.7523], [-122.9918, 41.7528]]], [[[-122.9997, 41.7523], [-122.9997, 41.7515], [-122.9989, 41.751], [-122.999, 41.7523], [-122.9997, 41.7523]]], [[[-123.0018, 41.7517], [-123.0018, 41.7512], [-123.0025, 41.7509], [-123.0015, 41.7509], [-123.0018, 41.7517]]], [[[-122.9914, 41.7514], [-122.9917, 41.7512], [-122.9914, 41.7512], [-122.9914, 41.7514]]], [[[-122.9889, 41.7512], [-122.9896, 41.7515], [-122.9907, 41.7512], [-122.9889, 41.7512]]], [[[-123.0, 41.7507], [-123.0004, 41.751], [-123.0007, 41.7507], [-123.0, 41.7507]]], [[[-122.9885, 41.7512], [-122.9888, 41.751], [-122.9885, 41.751], [-122.9885, 41.7512]]], [[[-122.9899, 41.7509], [-122.9906, 41.7506], [-122.9899, 41.7507], [-122.9899, 41.7509]]], [[[-122.9913, 41.7504], [-122.9917, 41.7501], [-122.9913, 41.7501], [-122.9913, 41.7504]]], [[[-122.9903, 41.7501], [-122.9906, 41.7496], [-122.9902, 41.7496], [-122.9903, 41.7501]]], [[[-123.0032, 41.7495], [-123.0039, 41.7492], [-123.0032, 41.7493], [-123.0032, 41.7495]]], [[[-122.9913, 41.7498], [-122.9917, 41.7493], [-122.9913, 41.7493], [-122.9913, 41.7498]]], [[[-123.0028, 41.7493], [-123.0032, 41.749], [-123.0028, 41.749], [-123.0028, 41.7493]]], [[[-123.0003, 41.7499], [-123.0007, 41.749], [-122.9996, 41.7488], [-122.9992, 41.7494], [-123.0003, 41.7499]]], [[[-123.001, 41.7488], [-123.0014, 41.7485], [-123.001, 41.7485], [-123.001, 41.7488]]], [[[-123.0006, 41.7485], [-123.001, 41.7482], [-123.0006, 41.7482], [-123.0006, 41.7485]]], [[[-122.9999, 41.7477], [-123.0002, 41.7474], [-122.9999, 41.7474], [-122.9999, 41.7477]]]]}, "properties": {"layer": "high_severity"}}, {"type": "Feature", "geometry": {"type": "MultiPolygon", "coordinates": [[[[-123.0224, 41.7853], [-123.0223, 41.7845], [-123.0213, 41.7848], [-123.0217, 41.7854], [-123.0224, 41.7853]]], [[[-123.0162, 41.7849], [-123.0166, 41.7847], [-123.0162, 41.7847], [-123.0162, 41.7849]]], [[[-123.0169, 41.7849], [-123.0173, 41.7844], [-123.0169, 41.7844], [-123.0169, 41.7849]]], [[[-123.022, 41.784], [-123.0223, 41.7837], [-123.0219, 41.7837], [-123.022, 41.784]]], [[[-123.0212, 41.7837], [-123.0219, 41.7835], [-123.0212, 41.7835], [-123.0212, 41.7837]]], [[[-123.0104, 41.7832], [-123.0107, 41.7826], [-123.0104, 41.7827], [-123.0104, 41.7832]]], [[[-123.0143, 41.7828], [-123.015, 41.7825], [-123.0143, 41.7826], [-123.0143, 41.7828]]], [[[-123.0213, 41.7848], [-123.022, 41.7843], [-123.0212, 41.7843], [-123.0201, 41.783], [-123.019, 41.7833], [-123.019, 41.7822], [-123.0187, 41.783], [-123.0172, 41.7822], [-123.0151, 41.7828], [-123.0165, 41.7828], [-123.0158, 41.7836], [-123.0173, 41.7841], [-123.0177, 41.7846], [-123.0198, 41.7841], [-123.0198, 41.7846], [-123.0213, 41.7848]], [[-123.0191, 41.7838], [-123.0184, 41.7841], [-123.0183, 41.7838], [-123.0191, 41.7838]], [[-123.018, 41.7836], [-123.0176, 41.7838], [-123.0176, 41.7836], [-123.018, 41.7836]], [[-123.0173, 41.7836], [-123.0169, 41.7838], [-123.0169, 41.7836], [-123.0173, 41.7836]], [[-123.0201, 41.7832], [-123.0198, 41.7835], [-123.0198, 41.7832], [-123.0201, 41.7832]], [[-123.0183, 41.7833], [-123.018, 41.7836], [-123.018, 41.7833], [-123.0183, 41.7833]], [[-123.0176, 41.783], [-123.0173, 41.7836], [-123.0172, 41.783], [-123.0176, 41.783]]], [[[-123.0104, 41.7827], [-123.011, 41.7818], [-123.0096, 41.7816], [-123.0096, 41.7821], [-123.0104, 41.7827]]], [[[-123.0118, 41.7815], [-123.0125, 41.7812], [-123.0117, 41.7813], [-123.0118, 41.7815]]], [[[-123.011, 41.7816], [-123.0114, 41.7813], [-123.011, 41.7813], [-123.011, 41.7816]]], [[[-122.9793, 41.7823], [-122.9797, 41.782], [-122.9793, 41.782], [-122.9793, 41.7823]]], [[[-123.0222, 41.7805], [-123.0225, 41.7802], [-123.0222, 41.7802], [-123.0222, 41.7805]]], [[[-123.0211, 41.7805], [-123.0218, 41.7799], [-123.0214, 41.78], [-123.0211, 41.7805]]], [[[-123.0196, 41.78], [-123.0211, 41.7808], [-123.0211, 41.7805], [-123.0207, 41.7805], [-123.0211, 41.78], [-123.0196, 41.78]]], [[[-123.0071, 41.7811], [-123.0081, 41.78], [-123.0041, 41.7801], [-123.0042, 41.7812], [-123.0056, 41.7806], [-123.0071, 41.7811]], [[-123.007, 41.7803], [-123.0067, 41.7806], [-123.0067, 41.7803], [-123.007, 41.7803]]], [[[-122.99, 41.778], [-122.9903, 41.7777], [-122.99, 41.7777], [-122.99, 41.778]]], [[[-122.991, 41.7777], [-122.9921, 41.7769], [-122.9924, 41.7758], [-122.9899, 41.7769], [-122.991, 41.7777]]], [[[-123.03, 41.77], [-123.0304, 41.7703], [-123.0307, 41.77], [-123.03, 41.77]]], [[[-123.0293, 41.7703], [-123.0296, 41.77], [-123.0293, 41.77], [-123.0293, 41.7703]]], [[[-123.0255, 41.7655], [-123.0258, 41.7652], [-123.0255, 41.7652], [-123.0255, 41.7655]]], [[[-123.0276, 41.7641], [-123.0279, 41.7636], [-123.0276, 41.7636], [-123.0276, 41.7641]]], [[[-122.9904, 41.7525], [-122.9907, 41.7523], [-122.9903, 41.7523], [-122.9904, 41.7525]]], [[[-122.99, 41.7523], [-122.9903, 41.752], [-122.99, 41.752], [-122.99, 41.7523]]], [[[-122.9918, 41.7528], [-122.9914, 41.7514], [-122.9907, 41.7515], [-122.9907, 41.7523], [-122.9918, 41.7528]]], [[[-122.9914, 41.7514], [-122.9917, 41.7512], [-122.9914, 41.7512], [-122.9914, 41.7514]]]]}, "properties": {"layer": "interior"}}, {"type": "Feature", "geometry": {"type": "MultiPolygon", "coordinates": [[[[-123.03, 41.77], [-123.0304, 41.7703], [-123.0307, 41.77], [-123.03, 41.77]]], [[[-123.0293, 41.7703], [-123.0296, 41.77], [-123.0293, 41.77], [-123.0293, 41.7703]]], [[[-123.0255, 41.7655], [-123.0258, 41.7652], [-123.0255, 41.7652], [-123.0255, 41.7655]]]]}, "properties": {"layer": "cell", "cell_id": "321_1500", "seed_zone": "321", "elevation_band": "1500–2000 ft"}}, {"type": "Feature", "geometry": {"type": "MultiPolygon", "coordinates": [[[[-123.0224, 41.7853], [-123.0223, 41.7845], [-123.0213, 41.7848], [-123.0217, 41.7854], [-123.0224, 41.7853]]], [[[-123.0162, 41.7849], [-123.0166, 41.7847], [-123.0162, 41.7847], [-123.0162, 41.7849]]], [[[-123.0205, 41.7848], [-123.0212, 41.7843], [-123.0205, 41.7843], [-123.0205, 41.7848]]], [[[-123.0169, 41.7849], [-123.0173, 41.7844], [-123.0169, 41.7844], [-123.0169, 41.7849]]], [[[-123.0198, 41.7841], [-123.0202, 41.7843], [-123.0205, 41.784], [-123.0198, 41.7841]]], [[[-123.018, 41.7846], [-123.0191, 41.7841], [-123.0165, 41.7839], [-123.0166, 41.7841], [-123.0173, 41.7841], [-123.018, 41.7846]]], [[[-123.0191, 41.7841], [-123.0198, 41.7838], [-123.0191, 41.7838], [-123.0191, 41.7841]]], [[[-123.0276, 41.7641], [-123.0279, 41.7636], [-123.0276, 41.7636], [-123.0276, 41.7641]]]]}, "properties": {"layer": "cell", "cell_id": "321_2000", "seed_zone": "321", "elevation_band": "2000–2500 ft"}}, {"type": "Feature", "geometry": {"type": "MultiPolygon", "coordinates": [[[[-123.0213, 41.7846], [-123.022, 41.7843], [-123.0212, 41.7843], [-123.0213, 41.7846]]], [[[-123.022, 41.784], [-123.0223, 41.7837], [-123.0219, 41.7837], [-123.022, 41.784]]], [[[-123.0176, 41.7841], [-123.018, 41.7838], [-123.0176, 41.7838], [-123.0176, 41.7841]]], [[[-123.0212, 41.7837], [-123.0219, 41.7835], [-123.0212, 41.7835], [-123.0212, 41.7837]]], [[[-123.0173, 41.7838], [-123.0176, 41.7836], [-123.0173, 41.7836], [-123.0173, 41.7838]]], [[[-123.0143, 41.7828], [-123.015, 41.7825], [-123.0143, 41.7826], [-123.0143, 41.7828]]], [[[-123.0212, 41.7843], [-123.0201, 41.783], [-123.019, 41.7833], [-123.019, 41.7822], [-123.0187, 41.783], [-123.0172, 41.7822], [-123.0151, 41.7828], [-123.0165, 41.7828], [-123.0162, 41.7839], [-123.0176, 41.783], [-123.0176, 41.7836], [-123.018, 41.7836], [-123.018, 41.7838], [-123.0212, 41.7843]], [[-123.0201, 41.7832], [-123.0198, 41.7835], [-123.0198, 41.7832], [-123.0201, 41.7832]], [[-123.0183, 41.7833], [-123.018, 41.7836], [-123.018, 41.7833], [-123.0183, 41.7833]]], [[[-123.0222, 41.7805], [-123.0225, 41.7802], [-123.0222, 41.7802], [-123.0222, 41.7805]]], [[[-123.0211, 41.7805], [-123.0218, 41.7799], [-123.0214, 41.78], [-123.0211, 41.7805]]], [[[-123.0196, 41.78], [-123.0211, 41.7808], [-123.0211, 41.7805], [-123.0207, 41.7805], [-123.0211, 41.78], [-123.0196, 41.78]]], [[[-122.9904, 41.7525], [-122.9907, 41.7523], [-122.9903, 41.7523], [-122.9904, 41.7525]]], [[[-122.99, 41.7523], [-122.9903, 41.752], [-122.99, 41.752], [-122.99, 41.7523]]], [[[-122.9918, 41.7528], [-122.9914, 41.7514], [-122.9907, 41.7515], [-122.9907, 41.7523], [-122.9918, 41.7528]]], [[[-122.9914, 41.7514], [-122.9917, 41.7512], [-122.9914, 41.7512], [-122.9914, 41.7514]]]]}, "properties": {"layer": "cell", "cell_id": "321_2500", "seed_zone": "321", "elevation_band": "2500–3000 ft"}}, {"type": "Feature", "geometry": {"type": "MultiPolygon", "coordinates": [[[[-123.0104, 41.7832], [-123.0107, 41.7826], [-123.0104, 41.7827], [-123.0104, 41.7832]]], [[[-123.0104, 41.7827], [-123.011, 41.7818], [-123.0096, 41.7816], [-123.0096, 41.7821], [-123.0104, 41.7827]]], [[[-123.0118, 41.7815], [-123.0125, 41.7812], [-123.0117, 41.7813], [-123.0118, 41.7815]]], [[[-123.011, 41.7816], [-123.0114, 41.7813], [-123.011, 41.7813], [-123.011, 41.7816]]], [[[-123.0071, 41.7811], [-123.0081, 41.78], [-123.0041, 41.7801], [-123.0042, 41.7812], [-123.0056, 41.7806], [-123.0071, 41.7811]], [[-123.007, 41.7803], [-123.0067, 41.7806], [-123.0067, 41.7803], [-123.007, 41.7803]]]]}, "properties": {"layer": "cell", "cell_id": "321_3000", "seed_zone": "321", "elevation_band": "3000–3500 ft"}}, {"type": "Feature", "geometry": {"type": "MultiPolygon", "coordinates": [[[[-122.99, 41.778], [-122.9903, 41.7777], [-122.99, 41.7777], [-122.99, 41.778]]], [[[-122.991, 41.7777], [-122.9921, 41.7769], [-122.9924, 41.7758], [-122.9899, 41.7769], [-122.991, 41.7777]]]]}, "properties": {"layer": "cell", "cell_id": "321_3500", "seed_zone": "321", "elevation_band": "3500–4000 ft"}}, {"type": "Feature", "geometry": {"type": "Polygon", "coordinates": [[[-122.9793, 41.7823], [-122.9797, 41.782], [-122.9793, 41.782], [-122.9793, 41.7823]]]}, "properties": {"layer": "cell", "cell_id": "321_4000", "seed_zone": "321", "elevation_band": "4000–4500 ft"}}]}
