{"type": "FeatureCollection", "features": [{"type": "Feature", "geometry": {"type": "Polygon", "coordinates": [[[-122.2851, 40.8871], [-122.2903, 40.8878], [-122.2912, 40.8895], [-122.2969, 40.8904], [-122.2991, 40.8893], [-122.2997, 40.8902], [-122.3013, 40.8904], [-122.3025, 40.8923], [-122.3031, 40.8919], [-122.3051, 40.8927], [-122.3055, 40.892], [-122.3086, 40.8916], [-122.3099, 40.8904], [-122.3087, 40.8864], [-122.3126, 40.8886], [-122.3166, 40.8882], [-122.321, 40.8897], [-122.3227, 40.8912], [-122.3247, 40.8916], [-122.3281, 40.8952], [-122.3273, 40.8976], [-122.3286, 40.9017], [-122.328, 40.9059], [-122.3257, 40.9109], [-122.3257, 40.9132], [-122.3365, 40.913], [-122.3401, 40.9161], [-122.3483, 40.9204], [-122.3504, 40.9236], [-122.3616, 40.9279], [-122.3617, 40.9288], [-122.3602, 40.9289], [-122.359, 40.9305], [-122.3542, 40.9313], [-122.3507, 40.9346], [-122.348, 40.9359], [-122.3468, 40.9376], [-122.3446, 40.9375], [-122.3422, 40.9399], [-122.3423, 40.9408], [-122.3408, 40.9411], [-122.3401, 40.9421], [-122.3371, 40.9426], [-122.3374, 40.9438], [-122.335, 40.947], [-122.3358, 40.9496], [-122.3355, 40.9516], [-122.3275, 40.9579], [-122.3245, 40.9622], [-122.3218, 40.9642], [-122.3204, 40.967], [-122.3237, 40.9681], [-122.3265, 40.9713], [-122.3315, 40.9722], [-122.3369, 40.975], [-122.3367, 40.9741], [-122.3384, 40.9737], [-122.3375, 40.9751], [-122.3449, 40.9753], [-122.3469, 40.9771], [-122.3495, 40.9783], [-122.3515, 40.9783], [-122.3546, 40.9799], [-122.3556, 40.981], [-122.3565, 40.9852], [-122.3599, 40.9886], [-122.3601, 40.9913], [-122.3633, 40.9935], [-122.3633, 40.9986], [-122.3605, 40.998], [-122.3602, 40.9985], [-122.3618, 40.9987], [-122.3618, 40.9995], [-122.3605, 41.0009], [-122.3584, 41.0015], [-122.3594, 41.0039], [-122.3586, 41.0051], [-122.3594, 41.0065], [-122.3591, 41.0086], [-122.3541, 41.0095], [-122.349, 41.0073], [-122.345, 41.0084], [-122.3423, 41.0099], [-122.3417, 41.0114], [-122.3421, 41.0144], [-122.3395, 41.016], [-122.337, 41.0169], [-122.3285, 41.0166], [-122.3247, 41.0228], [-122.3216, 41.0246], [-122.324, 41.0246], [-122.3238, 41.0251], [-122.3153, 41.0237], [-122.3113, 41.0242], [-122.3079, 41.0256], [-122.3065, 41.0255], [-122.3012, 41.0285], [-122.2957, 41.0305], [-122.2931, 41.0304], [-122.2917, 41.0292], [-122.2887, 41.0306], [-122.2847, 41.0308], [-122.2847, 41.0315], [-122.2812, 41.0306], [-122.2788, 41.0322], [-122.2796, 41.0338], [-122.2772, 41.0335], [-122.2763, 41.0352], [-122.2734, 41.0362], [-122.2726, 41.0375], [-122.2707, 41.0371], [-122.2678, 41.0383], [-122.2684, 41.0392], [-122.2711, 41.0398], [-122.2725, 41.0429], [-122.2702, 41.0436], [-122.2697, 41.0444], [-122.268, 41.0446], [-122.2699, 41.0453], [-122.2701, 41.0466], [-122.2723, 41.0461], [-122.2733, 41.0466], [-122.2743, 41.045], [-122.2774, 41.0434], [-122.2789, 41.0436], [-122.2788, 41.0452], [-122.2807, 41.0452], [-122.2779, 41.0469], [-122.2764, 41.0503], [-122.271, 41.0514], [-122.27, 41.0511], [-122.2692, 41.054], [-122.268, 41.0545], [-122.2668, 41.0575], [-122.2647, 41.0594], [-122.2647, 41.061], [-122.2616, 41.0648], [-122.2596, 41.0669], [-122.2572, 41.0679], [-122.2523, 41.0717], [-122.2549, 41.0803], [-122.2544, 41.0853], [-122.2557, 41.0879], [-122.2535, 41.0917], [-122.2491, 41.0928], [-122.2439, 41.0872], [-122.2398, 41.0852], [-122.2384, 41.0864], [-122.2313, 41.0892], [-122.2262, 41.092], [-122.2198, 41.0931], [-122.2161, 41.0927], [-122.2112, 41.0938], [-122.2105, 41.0948], [-122.2052, 41.0954], [-122.2032, 41.0947], [-122.2031, 41.0927], [-122.2013, 41.0937], [-122.2006, 41.0932], [-122.2045, 41.0912], [-122.2056, 41.0917], [-122.2058, 41.0903], [-122.2047, 41.0907], [-122.2038, 41.0901], [-122.2038, 41.0863], [-122.2062, 41.083], [-122.2035, 41.0806], [-122.2028, 41.0765], [-122.1998, 41.0729], [-122.1999, 41.0699], [-122.1986, 41.0673], [-122.1994, 41.0661], [-122.1985, 41.0648], [-122.1999, 41.0639], [-122.198, 41.0624], [-122.196, 41.0629], [-122.1952, 41.062], [-122.1967, 41.0612], [-122.1968, 41.059], [-122.1982, 41.0578], [-122.199, 41.0529], [-122.2009, 41.0513], [-122.2016, 41.048], [-122.2066, 41.047], [-122.207, 41.0462], [-122.206, 41.0449], [-122.2074, 41.0439], [-122.2074, 41.0412], [-122.2097, 41.0423], [-122.2093, 41.0407], [-122.2119, 41.04], [-122.2107, 41.0396], [-122.2104, 41.0388], [-122.2164, 41.0346], [-122.2175, 41.0304], [-122.2158, 41.0281], [-122.2185, 41.0279], [-122.2177, 41.0267], [-122.2224, 41.0206], [-122.2194, 41.0168], [-122.2196, 41.0148], [-122.2185, 41.0134], [-122.2201, 41.0124], [-122.2171, 41.0112], [-122.2182, 41.0109], [-122.2158, 41.0103], [-122.2169, 41.0091], [-122.2151, 41.008], [-122.2166, 41.0061], [-122.2159, 41.0054], [-122.2165, 41.0045], [-122.2156, 41.0017], [-122.2111, 41.0004], [-122.2094, 40.9988], [-122.2109, 40.9973], [-122.2113, 40.9956], [-122.2134, 40.9957], [-122.2121, 40.9945], [-122.2155, 40.992], [-122.2154, 40.9905], [-122.2111, 40.9881], [-122.2127, 40.9867], [-122.2097, 40.9864], [-122.2089, 40.9854], [-122.2095, 40.9841], [-122.2083, 40.984], [-122.2086, 40.982], [-122.2075, 40.9809], [-122.2073, 40.9786], [-122.2085, 40.9778], [-122.2079, 40.9769], [-122.2086, 40.9759], [-122.2071, 40.9755], [-122.2071, 40.9737], [-122.2091, 40.9736], [-122.2118, 40.9706], [-122.2146, 40.9713], [-122.2146, 40.9695], [-122.2155, 40.9688], [-122.2148, 40.9682], [-122.2141, 40.9689], [-122.2109, 40.9674], [-122.2109, 40.9656], [-122.2134, 40.9636], [-122.2181, 40.9651], [-122.2189, 40.9613], [-122.221, 40.9601], [-122.2219, 40.9587], [-122.2242, 40.959], [-122.2245, 40.9579], [-122.226, 40.9572], [-122.2272, 40.9577], [-122.2312, 40.9574], [-122.2353, 40.9552], [-122.2376, 40.955], [-122.2368, 40.9541], [-122.237, 40.952], [-122.2398, 40.9498], [-122.2398, 40.9491], [-122.2411, 40.9476], [-122.2406, 40.9517], [-122.2481, 40.9541], [-122.2501, 40.9564], [-122.2551, 40.9597], [-122.2563, 40.9631], [-122.2642, 40.9598], [-122.2697, 40.9599], [-122.2739, 40.9588], [-122.2757, 40.956], [-122.2758, 40.9524], [-122.277, 40.9497], [-122.2809, 40.9473], [-122.2822, 40.9439], [-122.2856, 40.9409], [-122.2877, 40.9413], [-122.2907, 40.9387], [-122.2925, 40.9383], [-122.2965, 40.9358], [-122.2986, 40.9325], [-122.3014, 40.931], [-122.3013, 40.9284], [-122.303, 40.9278], [-122.3022, 40.9262], [-122.2976, 40.9236], [-122.295, 40.921], [-122.2936, 40.9159], [-122.2916, 40.9146], [-122.2884, 40.9147], [-122.2859, 40.9123], [-122.2849, 40.9087], [-122.2853, 40.9042], [-122.2874, 40.9024], [-122.2827, 40.9025], [-122.2811, 40.9004], [-122.2778, 40.9001], [-122.2736, 40.9013], [-122.2704, 40.9001], [-122.2659, 40.9], [-122.2635, 40.899], [-122.2629, 40.898], [-122.2616, 40.8987], [-122.2591, 40.9025], [-122.2564, 40.9036], [-122.2533, 40.9067], [-122.2507, 40.9079], [-122.2483, 40.9082], [-122.2424, 40.9113], [-122.2397, 40.9117], [-122.238, 40.9108], [-122.2368, 40.9109], [-122.2358, 40.91], [-122.2375, 40.9064], [-122.236, 40.9058], [-122.2345, 40.9029], [-122.2328, 40.9024], [-122.2322, 40.9013], [-122.2299, 40.9016], [-122.2279, 40.9011], [-122.2315, 40.8981], [-122.2303, 40.894], [-122.2278, 40.8923], [-122.2284, 40.891], [-122.2269, 40.8903], [-122.2264, 40.8886], [-122.2282, 40.8872], [-122.2311, 40.8871], [-122.2311, 40.8854], [-122.2339, 40.8846], [-122.2324, 40.8823], [-122.2327, 40.8803], [-122.2347, 40.8784], [-122.2355, 40.8758], [-122.2386, 40.8759], [-122.24, 40.8768], [-122.2409, 40.8763], [-122.2406, 40.8751], [-122.2437, 40.8728], [-122.2456, 40.8738], [-122.2467, 40.8754], [-122.2483, 40.8733], [-122.2493, 40.8733], [-122.2497, 40.8742], [-122.2519, 40.8729], [-122.2531, 40.8732], [-122.2536, 40.8743], [-122.2551, 40.8739], [-122.2572, 40.8746], [-122.2579, 40.8737], [-122.2604, 40.8734], [-122.2611, 40.8722], [-122.2633, 40.8733], [-122.2632, 40.8747], [-122.2658, 40.8742], [-122.2649, 40.8768], [-122.2676, 40.8771], [-122.2715, 40.8824], [-122.2732, 40.8826], [-122.2734, 40.8838], [-122.2758, 40.8829], [-122.2783, 40.8859], [-122.2804, 40.887], [-122.2809, 40.883], [-122.2851, 40.8871]], [[-122.2851, 40.8871], [-122.2851, 40.8871], [-122.2851, 40.8872], [-122.2851, 40.8871]], [[-122.2364, 41.08], [-122.2352, 41.0832], [-122.2342, 41.0836], [-122.2356, 41.0846], [-122.234, 41.0865], [-122.2346, 41.0875], [-122.2389, 41.0847], [-122.2393, 41.0832], [-122.2383, 41.0812], [-122.2366, 41.0815], [-122.2371, 41.0808], [-122.2364, 41.08]], [[-122.2557, 41.0464], [-122.2537, 41.0461], [-122.2536, 41.0467], [-122.2551, 41.0468], [-122.2564, 41.0462], [-122.2569, 41.0449], [-122.2556, 41.0457], [-122.2557, 41.0464]], [[-122.261, 41.0453], [-122.2569, 41.0468], [-122.2564, 41.0485], [-122.2596, 41.0483], [-122.2617, 41.0465], [-122.261, 41.0453]], [[-122.2877, 40.9585], [-122.2854, 40.9587], [-122.2848, 40.9603], [-122.2831, 40.9601], [-122.2816, 40.9608], [-122.2846, 40.9607], [-122.2841, 40.9626], [-122.2851, 40.9634], [-122.288, 40.9605], [-122.2877, 40.9585]], [[-122.2915, 40.9817], [-122.2885, 40.9829], [-122.2888, 40.9841], [-122.2923, 40.9849], [-122.2931, 40.9856], [-122.295, 40.9849], [-122.2955, 40.9834], [-122.2973, 40.9838], [-122.2967, 40.983], [-122.2934, 40.982], [-122.2922, 40.9829], [-122.2906, 40.9829], [-122.2915, 40.9817]], [[-122.3026, 40.9803], [-122.3001, 40.9805], [-122.2998, 40.9812], [-122.3021, 40.9816], [-122.302, 40.9807], [-122.303, 40.9814], [-122.3026, 40.9803]], [[-122.306, 40.9808], [-122.3049, 40.9784], [-122.3058, 40.9778], [-122.3052, 40.977], [-122.3036, 40.9764], [-122.3021, 40.9747], [-122.3006, 40.9746], [-122.3004, 40.976], [-122.2996, 40.9763], [-122.3007, 40.9766], [-122.3008, 40.978], [-122.3012, 40.9784], [-122.3019, 40.9774], [-122.3039, 40.9781], [-122.305, 40.9811], [-122.306, 40.9808]], [[-122.326, 40.973], [-122.3254, 40.973], [-122.3263, 40.9741], [-122.3257, 40.9748], [-122.325, 40.9744], [-122.3249, 40.9756], [-122.3235, 40.9755], [-122.3239, 40.9775], [-122.3255, 40.9783], [-122.3239, 40.9792], [-122.3227, 40.9788], [-122.3229, 40.9796], [-122.325, 40.9804], [-122.3262, 40.9789], [-122.3287, 40.9784], [-122.3287, 40.9767], [-122.3313, 40.9741], [-122.3313, 40.9734], [-122.3268, 40.9725], [-122.3266, 40.972], [-122.3258, 40.9721], [-122.326, 40.973]]]}, "properties": {"layer": "perimeter"}}, {"type": "Feature", "geometry": {"type": "MultiPolygon", "coordinates": [[[[-122.2888, 40.8876], [-122.2904, 40.8878], [-122.2918, 40.8896], [-122.2972, 40.8904], [-122.2991, 40.8893], [-122.2997, 40.8902], [-122.3013, 40.8904], [-122.3025, 40.8923], [-122.3031, 40.8919], [-122.3051, 40.8927], [-122.3055, 40.892], [-122.3086, 40.8916], [-122.3099, 40.8904], [-122.3087, 40.8864], [-122.3126, 40.8886], [-122.316, 40.8881], [-122.3194, 40.889], [-122.3227, 40.8912], [-122.325, 40.8918], [-122.3283, 40.8958], [-122.3273, 40.8976], [-122.3286, 40.9017], [-122.3283, 40.9047], [-122.3264, 40.9097], [-122.3171, 40.9097], [-122.3171, 40.8952], [-122.2982, 40.8952], [-122.2981, 40.9097], [-122.2853, 40.9097], [-122.2853, 40.9042], [-122.2874, 40.9024], [-122.2827, 40.9025], [-122.2811, 40.9004], [-122.2792, 40.9005], [-122.2792, 40.8952], [-122.2887, 40.8952], [-122.2888, 40.8876]]], [[[-122.3361, 40.9132], [-122.3483, 40.9204], [-122.3504, 40.9236], [-122.3548, 40.9255], [-122.3547, 40.9312], [-122.3514, 40.9333], [-122.3507, 40.9346], [-122.348, 40.9359], [-122.3468, 40.9376], [-122.3446, 40.9375], [-122.3428, 40.9385], [-122.3423, 40.9408], [-122.3408, 40.9411], [-122.3401, 40.9421], [-122.3371, 40.9426], [-122.3374, 40.9438], [-122.335, 40.947], [-122.3358, 40.9496], [-122.3355, 40.9516], [-122.3275, 40.9579], [-122.3241, 40.9627], [-122.324, 40.9598], [-122.3048, 40.96], [-122.3047, 40.9458], [-122.3238, 40.9457], [-122.3236, 40.9315], [-122.336, 40.9315], [-122.3361, 40.9132]]], [[[-122.3245, 40.9686], [-122.3265, 40.9713], [-122.3315, 40.9722], [-122.3369, 40.975], [-122.3367, 40.9741], [-122.3384, 40.9737], [-122.3375, 40.9751], [-122.3449, 40.9753], [-122.3469, 40.9771], [-122.3495, 40.9783], [-122.3515, 40.9783], [-122.3546, 40.9799], [-122.3556, 40.981], [-122.3565, 40.9852], [-122.3599, 40.9886], [-122.3601, 40.9913], [-122.3633, 40.9935], [-122.3633, 40.9986], [-122.3605, 40.998], [-122.3602, 40.9985], [-122.3618, 40.9987], [-122.3618, 40.9995], [-122.3605, 41.0009], [-122.3584, 41.0015], [-122.3594, 41.0039], [-122.3586, 41.0048], [-122.3594, 41.0065], [-122.3587, 41.0088], [-122.3541, 41.0095], [-122.349, 41.0073], [-122.3446, 41.009], [-122.3445, 41.0071], [-122.3323, 41.0073], [-122.3322, 41.0055], [-122.3298, 41.0055], [-122.3297, 41.0038], [-122.3249, 41.0039], [-122.3249, 40.9881], [-122.3054, 40.9883], [-122.3052, 40.981], [-122.306, 40.9807], [-122.3051, 40.9789], [-122.3058, 40.9778], [-122.3049, 40.9741], [-122.3242, 40.9739], [-122.3245, 40.9686]], [[-122.3261, 40.9731], [-122.3254, 40.973], [-122.3263, 40.9741], [-122.3257, 40.9748], [-122.325, 40.9744], [-122.3249, 40.9756], [-122.3235, 40.9755], [-122.3239, 40.9775], [-122.3255, 40.9783], [-122.3251, 40.979], [-122.3227, 40.9788], [-122.3229, 40.9796], [-122.325, 40.9804], [-122.3262, 40.9789], [-122.3287, 40.9784], [-122.3287, 40.9767], [-122.3313, 40.9741], [-122.3313, 40.9734], [-122.3268, 40.9725], [-122.3266, 40.972], [-122.3258, 40.9721], [-122.3261, 40.9731]], [[-122.3309, 41.0038], [-122.3334, 41.0037], [-122.3334, 41.0055], [-122.3395, 41.0054], [-122.3394, 41.0019], [-122.3309, 41.002], [-122.3309, 41.0038]]], [[[-122.3395, 41.016], [-122.337, 41.0169], [-122.3285, 41.0166], [-122.3254, 41.0219], [-122.3253, 41.0162], [-122.3395, 41.016]]], [[[-122.2847, 41.0313], [-122.2831, 41.0314], [-122.283, 41.0313], [-122.2847, 41.0313]]], [[[-122.2805, 41.0315], [-122.2788, 41.0322], [-122.2796, 41.0338], [-122.2772, 41.0335], [-122.2763, 41.0352], [-122.2734, 41.0362], [-122.2726, 41.0375], [-122.2707, 41.0371], [-122.2678, 41.0383], [-122.2684, 41.0392], [-122.2711, 41.0398], [-122.2725, 41.0429], [-122.2702, 41.0436], [-122.2697, 41.0444], [-122.268, 41.0446], [-122.2699, 41.0453], [-122.2701, 41.0466], [-122.2723, 41.0461], [-122.2733, 41.0466], [-122.2743, 41.045], [-122.2774, 41.0434], [-122.2789, 41.0436], [-122.2788, 41.0452], [-122.2807, 41.0452], [-122.2779, 41.0469], [-122.2758, 41.0506], [-122.2729, 41.0507], [-122.2728, 41.0493], [-122.2679, 41.0494], [-122.2671, 41.0316], [-122.2805, 41.0315]]], [[[-122.1967, 41.0598], [-122.1968, 41.059], [-122.1978, 41.0584], [-122.1978, 41.0598], [-122.1967, 41.0598]]], [[[-122.1995, 41.0523], [-122.2009, 41.0513], [-122.202, 41.0476], [-122.2066, 41.047], [-122.207, 41.0462], [-122.206, 41.0449], [-122.2074, 41.0439], [-122.2074, 41.0412], [-122.2097, 41.0423], [-122.2093, 41.0407], [-122.2119, 41.04], [-122.2107, 41.0396], [-122.2104, 41.0388], [-122.2164, 41.0346], [-122.2175, 41.0304], [-122.2158, 41.0281], [-122.2185, 41.0279], [-122.2177, 41.0267], [-122.2224, 41.0206], [-122.2194, 41.0168], [-122.2196, 41.0148], [-122.2185, 41.0134], [-122.2201, 41.0124], [-122.2171, 41.0112], [-122.2182, 41.0109], [-122.2158, 41.0103], [-122.2167, 41.0094], [-122.2211, 41.0094], [-122.2211, 41.0171], [-122.2259, 41.0171], [-122.2258, 41.0307], [-122.2212, 41.0307], [-122.2213, 41.0342], [-122.2166, 41.0343], [-122.217, 41.0454], [-122.2075, 41.0456], [-122.2074, 41.0527], [-122.1995, 41.0523]]], [[[-122.2164, 41.0087], [-122.2152, 41.0074], [-122.2163, 41.0065], [-122.2164, 41.0087]]], [[[-122.2163, 41.0059], [-122.2159, 41.0054], [-122.2163, 41.0049], [-122.2163, 41.0059]]], [[[-122.2162, 41.0044], [-122.2156, 41.0017], [-122.2111, 41.0004], [-122.2094, 40.9989], [-122.2113, 40.9956], [-122.2134, 40.9957], [-122.2121, 40.9945], [-122.2155, 40.992], [-122.2155, 40.9905], [-122.2111, 40.9881], [-122.2127, 40.9867], [-122.2097, 40.9864], [-122.2089, 40.9854], [-122.2095, 40.9841], [-122.2083, 40.984], [-122.2086, 40.982], [-122.2075, 40.9809], [-122.2073, 40.9786], [-122.2085, 40.9778], [-122.2079, 40.9769], [-122.2086, 40.9759], [-122.2071, 40.9755], [-122.2068, 40.9742], [-122.2091, 40.9736], [-122.2118, 40.9706], [-122.2146, 40.9713], [-122.2154, 40.9684], [-122.2141, 40.9689], [-122.2109, 40.9674], [-122.2109, 40.9656], [-122.2134, 40.9636], [-122.2181, 40.9651], [-122.2189, 40.9613], [-122.221, 40.9601], [-122.2219, 40.9587], [-122.2242, 40.959], [-122.2245, 40.9579], [-122.226, 40.9572], [-122.2272, 40.9577], [-122.2312, 40.9574], [-122.2353, 40.9552], [-122.2376, 40.955], [-122.2368, 40.9541], [-122.237, 40.952], [-122.2398, 40.9498], [-122.2398, 40.9491], [-122.2411, 40.9476], [-122.2406, 40.9517], [-122.2437, 40.9525], [-122.2438, 40.96], [-122.2249, 40.9601], [-122.2252, 40.9741], [-122.2442, 40.9743], [-122.2445, 40.9885], [-122.2255, 40.9882], [-122.2257, 41.0023], [-122.2163, 41.0024], [-122.2162, 41.0044]]], [[[-122.2666, 40.9602], [-122.2712, 40.9597], [-122.2739, 40.9588], [-122.2757, 40.956], [-122.2758, 40.9524], [-122.277, 40.9497], [-122.2809, 40.9473], [-122.2822, 40.9439], [-122.2856, 40.9409], [-122.2877, 40.9413], [-122.2907, 40.9387], [-122.2948, 40.937], [-122.2965, 40.9358], [-122.2986, 40.9325], [-122.3014, 40.931], [-122.3013, 40.9284], [-122.303, 40.9278], [-122.3022, 40.9262], [-122.2981, 40.9238], [-122.2981, 40.9097], [-122.3171, 40.9097], [-122.3171, 40.9316], [-122.3044, 40.9317], [-122.3047, 40.9458], [-122.2856, 40.9459], [-122.2857, 40.9587], [-122.2846, 40.9593], [-122.2849, 40.9601], [-122.2666, 40.9602]]], [[[-122.229, 40.8998], [-122.2313, 40.8983], [-122.2311, 40.8964], [-122.232, 40.8964], [-122.2319, 40.8998], [-122.229, 40.8998]]], [[[-122.2602, 40.8735], [-122.2633, 40.8734], [-122.263, 40.8746], [-122.2641, 40.8749], [-122.2658, 40.8742], [-122.2649, 40.8768], [-122.2676, 40.8771], [-122.2715, 40.8824], [-122.2731, 40.8825], [-122.2738, 40.8839], [-122.2753, 40.8828], [-122.277, 40.8838], [-122.2793, 40.8865], [-122.2792, 40.8952], [-122.2602, 40.8953], [-122.2602, 40.8735]]], [[[-122.286, 40.9885], [-122.3054, 40.9883], [-122.3053, 41.0025], [-122.2859, 41.0027], [-122.286, 40.9885]]], [[[-122.2445, 41.0028], [-122.2436, 41.0172], [-122.2259, 41.0171], [-122.2257, 41.0023], [-122.2445, 41.0028]]], [[[-122.2354, 41.031], [-122.2346, 41.0241], [-122.2443, 41.0243], [-122.2449, 41.0314], [-122.2354, 41.031]]], [[[-122.2072, 41.0598], [-122.2264, 41.0598], [-122.2261, 41.0743], [-122.2073, 41.0744], [-122.2072, 41.0598]]]]}, "properties": {"layer": "retained"}}, {"type": "Feature", "geometry": {"type": "MultiPolygon", "coordinates": [[[[-122.2084, 41.0743], [-122.2088, 41.074], [-122.2084, 41.074], [-122.2084, 41.0743]]], [[[-122.2098, 41.0735], [-122.2105, 41.0732], [-122.2098, 41.0732], [-122.2098, 41.0735]]], [[[-122.2251, 41.0713], [-122.2254, 41.071], [-122.2251, 41.071], [-122.2251, 41.0713]]], [[[-122.2161, 41.0696], [-122.2161, 41.0688], [-122.2157, 41.0688], [-122.2154, 41.0696], [-122.2161, 41.0696]]], [[[-122.2079, 41.0689], [-122.2082, 41.0686], [-122.2079, 41.0686], [-122.2079, 41.0689]]], [[[-122.2213, 41.0657], [-122.2221, 41.0654], [-122.2213, 41.0654], [-122.2213, 41.0657]]], [[[-122.2224, 41.0651], [-122.2228, 41.0654], [-122.2231, 41.0651], [-122.2224, 41.0651]]], [[[-122.2249, 41.0648], [-122.2252, 41.0645], [-122.2249, 41.0645], [-122.2249, 41.0648]]], [[[-122.217, 41.065], [-122.2177, 41.0647], [-122.217, 41.0647], [-122.217, 41.065]]], [[[-122.223, 41.0619], [-122.2234, 41.0613], [-122.223, 41.0613], [-122.223, 41.0619]]], [[[-122.2045, 41.0519], [-122.2049, 41.0516], [-122.2045, 41.0517], [-122.2045, 41.0519]]], [[[-122.2019, 41.0487], [-122.2026, 41.0484], [-122.2019, 41.0485], [-122.2019, 41.0487]]], [[[-122.2026, 41.0484], [-122.203, 41.0482], [-122.2026, 41.0482], [-122.2026, 41.0484]]], [[[-122.2692, 41.0437], [-122.2699, 41.0432], [-122.2692, 41.0429], [-122.2692, 41.0437]]], [[[-122.2699, 41.0432], [-122.2702, 41.0429], [-122.2699, 41.0429], [-122.2699, 41.0432]]], [[[-122.2698, 41.0424], [-122.2702, 41.0421], [-122.2698, 41.0421], [-122.2698, 41.0424]]], [[[-122.2688, 41.0424], [-122.2691, 41.0421], [-122.2688, 41.0421], [-122.2688, 41.0424]]], [[[-122.2081, 41.0424], [-122.2085, 41.0421], [-122.2081, 41.0421], [-122.2081, 41.0424]]], [[[-122.2141, 41.0385], [-122.2148, 41.0382], [-122.2141, 41.0382], [-122.2141, 41.0385]]], [[[-122.2725, 41.0375], [-122.2732, 41.0366], [-122.2722, 41.0364], [-122.2725, 41.0375]]], [[[-122.2739, 41.0361], [-122.2743, 41.0358], [-122.2739, 41.0358], [-122.2739, 41.0361]]], [[[-122.2729, 41.0361], [-122.2732, 41.035], [-122.2718, 41.0353], [-122.2718, 41.0361], [-122.2729, 41.0361]]], [[[-122.2735, 41.0353], [-122.2739, 41.035], [-122.2735, 41.035], [-122.2735, 41.0353]]], [[[-122.2718, 41.0353], [-122.2714, 41.0348], [-122.2707, 41.0351], [-122.2707, 41.0353], [-122.2718, 41.0353]]], [[[-122.2714, 41.0342], [-122.2717, 41.0345], [-122.2721, 41.0342], [-122.2714, 41.0342]]], [[[-122.2699, 41.0343], [-122.2703, 41.034], [-122.2699, 41.034], [-122.2699, 41.0343]]], [[[-122.2714, 41.034], [-122.2717, 41.0337], [-122.2714, 41.0337], [-122.2714, 41.034]]], [[[-122.2756, 41.0342], [-122.276, 41.0336], [-122.2746, 41.0334], [-122.2746, 41.0336], [-122.2756, 41.0342]]], [[[-122.2771, 41.0336], [-122.2774, 41.0333], [-122.277, 41.0333], [-122.2771, 41.0336]]], [[[-122.2767, 41.0333], [-122.2774, 41.0322], [-122.2756, 41.032], [-122.2756, 41.0333], [-122.2767, 41.0333]]], [[[-122.2777, 41.032], [-122.2781, 41.0314], [-122.2777, 41.0314], [-122.2777, 41.032]]], [[[-122.2363, 41.0311], [-122.2363, 41.0303], [-122.2356, 41.0303], [-122.2353, 41.0311], [-122.2363, 41.0311]]], [[[-122.2235, 41.0308], [-122.2231, 41.03], [-122.222, 41.03], [-122.2224, 41.0308], [-122.2235, 41.0308]]], [[[-122.2209, 41.0295], [-122.2213, 41.0292], [-122.2209, 41.0292], [-122.2209, 41.0295]]], [[[-122.2253, 41.0307], [-122.2249, 41.0291], [-122.2234, 41.0289], [-122.2238, 41.0302], [-122.2249, 41.0299], [-122.2253, 41.0307]]], [[[-122.2188, 41.0292], [-122.2191, 41.0287], [-122.2188, 41.0287], [-122.2188, 41.0292]]], [[[-122.2248, 41.028], [-122.2252, 41.0278], [-122.2248, 41.0278], [-122.2248, 41.028]]], [[[-122.2237, 41.0281], [-122.2241, 41.0278], [-122.2237, 41.0278], [-122.2237, 41.0281]]], [[[-122.2387, 41.0273], [-122.2398, 41.027], [-122.2387, 41.027], [-122.2387, 41.0273]]], [[[-122.2366, 41.0273], [-122.2369, 41.027], [-122.2366, 41.027], [-122.2366, 41.0273]]], [[[-122.2255, 41.0275], [-122.2259, 41.0272], [-122.2255, 41.0272], [-122.2255, 41.0275]]], [[[-122.2227, 41.0273], [-122.2241, 41.0275], [-122.2241, 41.0267], [-122.2227, 41.0273]]], [[[-122.2398, 41.0267], [-122.2401, 41.0264], [-122.2397, 41.0264], [-122.2398, 41.0267]]], [[[-122.2351, 41.0265], [-122.2355, 41.0268], [-122.2358, 41.0265], [-122.2351, 41.0265]]], [[[-122.2212, 41.0268], [-122.2216, 41.0265], [-122.2212, 41.0265], [-122.2212, 41.0268]]], [[[-122.2376, 41.0262], [-122.2379, 41.0259], [-122.2376, 41.0259], [-122.2376, 41.0262]]], [[[-122.2208, 41.0265], [-122.2212, 41.0262], [-122.2208, 41.0262], [-122.2208, 41.0265]]], [[[-122.2223, 41.0275], [-122.2223, 41.0267], [-122.2233, 41.0264], [-122.2212, 41.0259], [-122.2219, 41.0265], [-122.2223, 41.0275]]], [[[-122.2208, 41.0259], [-122.2212, 41.0257], [-122.2208, 41.0257], [-122.2208, 41.0259]]], [[[-122.2205, 41.0257], [-122.2208, 41.0254], [-122.2205, 41.0254], [-122.2205, 41.0257]]], [[[-122.2369, 41.0265], [-122.2379, 41.0248], [-122.2347, 41.0252], [-122.2348, 41.0265], [-122.2351, 41.0262], [-122.2369, 41.0265]]], [[[-122.2197, 41.0254], [-122.2201, 41.0249], [-122.2197, 41.0249], [-122.2197, 41.0254]]], [[[-122.2347, 41.0249], [-122.2354, 41.0246], [-122.2365, 41.0243], [-122.235, 41.0241], [-122.2347, 41.0249]]], [[[-122.3259, 41.0211], [-122.3262, 41.0205], [-122.3259, 41.0205], [-122.3259, 41.0211]]], [[[-122.335, 41.0168], [-122.3354, 41.0166], [-122.335, 41.0166], [-122.335, 41.0168]]], [[[-122.2412, 41.0169], [-122.2416, 41.0167], [-122.2412, 41.0167], [-122.2412, 41.0169]]], [[[-122.2436, 41.0142], [-122.244, 41.0139], [-122.2436, 41.0139], [-122.2436, 41.0142]]], [[[-122.2429, 41.0134], [-122.2433, 41.0131], [-122.2429, 41.0131], [-122.2429, 41.0134]]], [[[-122.2297, 41.0115], [-122.2303, 41.0109], [-122.23, 41.0109], [-122.2297, 41.0115]]], [[[-122.3568, 41.0089], [-122.3576, 41.0086], [-122.3568, 41.0086], [-122.3568, 41.0089]]], [[[-122.359, 41.0085], [-122.3593, 41.0083], [-122.359, 41.0083], [-122.359, 41.0085]]], [[[-122.3447, 41.0088], [-122.3451, 41.0085], [-122.3447, 41.0085], [-122.3447, 41.0088]]], [[[-122.2257, 41.0105], [-122.226, 41.0102], [-122.2257, 41.0102], [-122.2257, 41.0105]]], [[[-122.3554, 41.0086], [-122.3554, 41.0078], [-122.3547, 41.0075], [-122.3543, 41.0084], [-122.3554, 41.0086]]], [[[-122.2325, 41.0103], [-122.2328, 41.0098], [-122.2325, 41.0098], [-122.2325, 41.0103]]], [[[-122.3557, 41.0078], [-122.3561, 41.0075], [-122.3557, 41.0075], [-122.3557, 41.0078]]], [[[-122.3536, 41.0078], [-122.3543, 41.0076], [-122.3536, 41.0076], [-122.3536, 41.0078]]], [[[-122.3522, 41.0079], [-122.3525, 41.0076], [-122.3522, 41.0076], [-122.3522, 41.0079]]], [[[-122.2328, 41.0098], [-122.2332, 41.0095], [-122.2328, 41.0095], [-122.2328, 41.0098]]], [[[-122.2296, 41.0101], [-122.2292, 41.0093], [-122.2289, 41.0093], [-122.2285, 41.0101], [-122.2296, 41.0101]]], [[[-122.3525, 41.0076], [-122.3532, 41.007], [-122.3529, 41.007], [-122.3525, 41.0076]]], [[[-122.2275, 41.0099], [-122.2271, 41.0091], [-122.2257, 41.0091], [-122.2257, 41.0099], [-122.2275, 41.0099]], [[-122.2264, 41.0094], [-122.226, 41.0096], [-122.226, 41.0094], [-122.2264, 41.0094]]], [[[-122.3518, 41.0071], [-122.3532, 41.0065], [-122.3514, 41.0065], [-122.3518, 41.0071]]], [[[-122.2385, 41.0083], [-122.2388, 41.0081], [-122.2385, 41.0081], [-122.2385, 41.0083]]], [[[-122.3579, 41.0072], [-122.3589, 41.0058], [-122.3578, 41.0056], [-122.3579, 41.0072]]], [[[-122.2388, 41.0081], [-122.2395, 41.0078], [-122.2388, 41.0078], [-122.2388, 41.0081]]], [[[-122.2303, 41.0082], [-122.2306, 41.0079], [-122.2303, 41.0079], [-122.2303, 41.0082]]], [[[-122.2267, 41.0083], [-122.2267, 41.0077], [-122.2256, 41.008], [-122.2256, 41.0083], [-122.2267, 41.0083]]], [[[-122.2295, 41.0079], [-122.2302, 41.0077], [-122.2295, 41.0077], [-122.2295, 41.0079]]], [[[-122.3365, 41.0065], [-122.3361, 41.0055], [-122.3339, 41.0055], [-122.3354, 41.0066], [-122.3365, 41.0065]]], [[[-122.2289, 41.009], [-122.2296, 41.0088], [-122.2288, 41.0085], [-122.2292, 41.0077], [-122.2281, 41.008], [-122.2277, 41.0074], [-122.2274, 41.0088], [-122.2285, 41.0085], [-122.2289, 41.009]]], [[[-122.3393, 41.0057], [-122.3396, 41.0054], [-122.3393, 41.0054], [-122.3393, 41.0057]]], [[[-122.3386, 41.0057], [-122.3389, 41.0054], [-122.3386, 41.0054], [-122.3386, 41.0057]]], [[[-122.2292, 41.0077], [-122.2295, 41.0074], [-122.2292, 41.0074], [-122.2292, 41.0077]]], [[[-122.2363, 41.0073], [-122.2366, 41.007], [-122.2363, 41.007], [-122.2363, 41.0073]]], [[[-122.2295, 41.0074], [-122.2299, 41.0071], [-122.2295, 41.0071], [-122.2295, 41.0074]]], [[[-122.2267, 41.0075], [-122.227, 41.0072], [-122.2267, 41.0072], [-122.2267, 41.0075]]], [[[-122.3332, 41.0052], [-122.3335, 41.005], [-122.3332, 41.005], [-122.3332, 41.0052]]], [[[-122.2356, 41.007], [-122.2359, 41.0068], [-122.2356, 41.0068], [-122.2356, 41.007]]], [[[-122.2359, 41.0068], [-122.2363, 41.0065], [-122.2359, 41.0065], [-122.2359, 41.0068]]], [[[-122.2328, 41.0092], [-122.2328, 41.0087], [-122.2338, 41.0087], [-122.2335, 41.0076], [-122.2342, 41.0073], [-122.2334, 41.0063], [-122.2309, 41.0071], [-122.2306, 41.0082], [-122.2328, 41.0092]], [[-122.2331, 41.0082], [-122.2324, 41.0084], [-122.2324, 41.0082], [-122.2331, 41.0082]]], [[[-122.3314, 41.0055], [-122.3328, 41.005], [-122.3317, 41.0045], [-122.3314, 41.0055]]], [[[-122.3418, 41.0056], [-122.3421, 41.0051], [-122.3432, 41.0053], [-122.3439, 41.0048], [-122.3421, 41.004], [-122.3414, 41.0043], [-122.3418, 41.0056]]], [[[-122.2256, 41.0061], [-122.2263, 41.0067], [-122.2263, 41.0061], [-122.2256, 41.0061]]], [[[-122.2366, 41.0059], [-122.237, 41.0067], [-122.2377, 41.0059], [-122.2366, 41.0059]]], [[[-122.3328, 41.0044], [-122.3335, 41.0047], [-122.3335, 41.0039], [-122.3328, 41.0044]]], [[[-122.3563, 41.004], [-122.3567, 41.0035], [-122.3563, 41.0035], [-122.3563, 41.004]]], [[[-122.341, 41.0043], [-122.3414, 41.0037], [-122.341, 41.0037], [-122.341, 41.0043]]], [[[-122.3446, 41.0048], [-122.3446, 41.0037], [-122.3431, 41.004], [-122.3432, 41.0042], [-122.3446, 41.0048]]], [[[-122.3417, 41.004], [-122.3421, 41.0037], [-122.3417, 41.0037], [-122.3417, 41.004]]], [[[-122.331, 41.0042], [-122.3321, 41.0036], [-122.331, 41.0037], [-122.331, 41.0042]]], [[[-122.2266, 41.0058], [-122.227, 41.0056], [-122.2266, 41.0056], [-122.2266, 41.0058]]], [[[-122.3296, 41.0034], [-122.3299, 41.0031], [-122.3296, 41.0032], [-122.3296, 41.0034]]], [[[-122.2319, 41.0049], [-122.2326, 41.0046], [-122.2319, 41.0044], [-122.2319, 41.0049]]], [[[-122.2326, 41.0046], [-122.233, 41.0044], [-122.2326, 41.0044], [-122.2326, 41.0046]]], [[[-122.2288, 41.0074], [-122.2288, 41.0069], [-122.2306, 41.0071], [-122.2302, 41.0063], [-122.2313, 41.006], [-122.2309, 41.005], [-122.2316, 41.0049], [-122.2312, 41.0039], [-122.2294, 41.0044], [-122.2295, 41.0055], [-122.2302, 41.0055], [-122.2295, 41.0066], [-122.2284, 41.0063], [-122.2291, 41.0058], [-122.2287, 41.005], [-122.2273, 41.0047], [-122.2269, 41.0039], [-122.2259, 41.0045], [-122.2277, 41.0058], [-122.2266, 41.0064], [-122.2288, 41.0074]], [[-122.228, 41.005], [-122.2277, 41.0053], [-122.2277, 41.005], [-122.228, 41.005]], [[-122.2312, 41.0044], [-122.2309, 41.0047], [-122.2309, 41.0044], [-122.2312, 41.0044]]], [[[-122.3484, 41.0017], [-122.3488, 41.0014], [-122.3484, 41.0014], [-122.3484, 41.0017]]], [[[-122.3042, 41.0025], [-122.3046, 41.0023], [-122.3042, 41.0023], [-122.3042, 41.0025]]], [[[-122.2992, 41.0026], [-122.2996, 41.0024], [-122.2992, 41.0024], [-122.2992, 41.0026]]], [[[-122.2312, 41.0039], [-122.2315, 41.0036], [-122.2312, 41.0036], [-122.2312, 41.0039]]], [[[-122.3452, 41.0018], [-122.3455, 41.0012], [-122.3452, 41.0012], [-122.3452, 41.0018]]], [[[-122.3477, 41.0015], [-122.348, 41.0012], [-122.3477, 41.0012], [-122.3477, 41.0015]]], [[[-122.3463, 41.0012], [-122.3466, 41.0015], [-122.347, 41.0012], [-122.3463, 41.0012]]], [[[-122.2893, 41.0025], [-122.2896, 41.0023], [-122.2893, 41.0023], [-122.2893, 41.0025]]], [[[-122.2928, 41.0027], [-122.2925, 41.0019], [-122.29, 41.0023], [-122.29, 41.0025], [-122.2928, 41.0027]]], [[[-122.3288, 41.0021], [-122.3292, 41.0013], [-122.3274, 41.0018], [-122.3274, 41.0021], [-122.3288, 41.0021]]], [[[-122.3545, 41.0011], [-122.3548, 41.0008], [-122.3544, 41.0008], [-122.3545, 41.0011]]], [[[-122.3602, 41.001], [-122.3605, 41.0004], [-122.3601, 41.0004], [-122.3602, 41.001]]], [[[-122.3534, 41.0008], [-122.3537, 41.0005], [-122.3534, 41.0005], [-122.3534, 41.0008]]], [[[-122.3046, 41.0017], [-122.3049, 41.0014], [-122.3046, 41.0015], [-122.3046, 41.0017]]], [[[-122.2917, 41.002], [-122.2921, 41.0017], [-122.2917, 41.0017], [-122.2917, 41.002]]], [[[-122.2896, 41.002], [-122.29, 41.0017], [-122.2896, 41.0017], [-122.2896, 41.002]]], [[[-122.2322, 41.003], [-122.2326, 41.0028], [-122.2322, 41.0028], [-122.2322, 41.003]]], [[[-122.348, 41.0006], [-122.3484, 41.0004], [-122.348, 41.0004], [-122.348, 41.0006]]], [[[-122.3459, 41.0007], [-122.3466, 41.0004], [-122.3459, 41.0004], [-122.3459, 41.0007]]], [[[-122.3384, 41.0008], [-122.3388, 41.0005], [-122.3384, 41.0006], [-122.3384, 41.0008]]], [[[-122.3313, 41.001], [-122.3316, 41.0007], [-122.3313, 41.0007], [-122.3313, 41.001]]], [[[-122.29, 41.0017], [-122.2903, 41.0014], [-122.2899, 41.0015], [-122.29, 41.0017]]], [[[-122.2319, 41.0028], [-122.2322, 41.0025], [-122.2319, 41.0025], [-122.2319, 41.0028]]], [[[-122.3537, 41.0], [-122.3541, 41.0003], [-122.3544, 41.0], [-122.3537, 41.0]]], [[[-122.3484, 41.0004], [-122.3487, 41.0001], [-122.3484, 41.0001], [-122.3484, 41.0004]]], [[[-122.2985, 41.0013], [-122.2988, 41.001], [-122.2985, 41.001], [-122.2985, 41.0013]]], [[[-122.2272, 41.0026], [-122.2287, 41.0023], [-122.2272, 41.0023], [-122.2272, 41.0026]]], [[[-122.3551, 41.0], [-122.3559, 41.0002], [-122.3558, 40.9997], [-122.3551, 41.0]]], [[[-122.2892, 41.0015], [-122.2896, 41.0009], [-122.2892, 41.0009], [-122.2892, 41.0015]]], [[[-122.3543, 41.0067], [-122.3539, 41.0062], [-122.355, 41.0062], [-122.3571, 41.0045], [-122.3581, 41.0045], [-122.3585, 41.0056], [-122.3595, 41.0039], [-122.3574, 41.0034], [-122.3574, 41.004], [-122.356, 41.0045], [-122.3556, 41.0037], [-122.3588, 41.0021], [-122.358, 41.0015], [-122.357, 41.0021], [-122.3573, 41.0013], [-122.3555, 41.0016], [-122.3555, 41.001], [-122.3541, 41.0022], [-122.3545, 41.0011], [-122.3537, 41.0008], [-122.3523, 41.0014], [-122.3523, 41.0], [-122.3516, 40.9998], [-122.3512, 41.0003], [-122.3505, 41.0003], [-122.3508, 40.9998], [-122.3487, 41.0004], [-122.3502, 41.0006], [-122.3498, 41.0017], [-122.3488, 41.0017], [-122.3488, 41.0031], [-122.3477, 41.0031], [-122.3485, 41.0036], [-122.3467, 41.0039], [-122.346, 41.0034], [-122.3449, 41.0039], [-122.3453, 41.0047], [-122.3464, 41.0042], [-122.3457, 41.0056], [-122.3467, 41.0053], [-122.3475, 41.0055], [-122.3471, 41.0061], [-122.3482, 41.006], [-122.3478, 41.0055], [-122.3485, 41.0055], [-122.3492, 41.0044], [-122.3499, 41.0047], [-122.3499, 41.0039], [-122.3506, 41.0038], [-122.3514, 41.0054], [-122.3528, 41.0049], [-122.3532, 41.0065], [-122.3543, 41.0067]], [[-122.356, 41.0048], [-122.3553, 41.0048], [-122.3553, 41.0043], [-122.3556, 41.0043], [-122.356, 41.0048]], [[-122.3485, 41.0041], [-122.3474, 41.0044], [-122.3474, 41.0042], [-122.3485, 41.0041]], [[-122.3552, 41.0035], [-122.3546, 41.004], [-122.3545, 41.0035], [-122.3552, 41.0035]], [[-122.3496, 41.0039], [-122.3492, 41.0041], [-122.3492, 41.0039], [-122.3496, 41.0039]], [[-122.351, 41.0036], [-122.3506, 41.0038], [-122.3506, 41.0036], [-122.351, 41.0036]], [[-122.3499, 41.0033], [-122.3496, 41.0039], [-122.3495, 41.0033], [-122.3499, 41.0033]], [[-122.3488, 41.0036], [-122.3485, 41.0039], [-122.3485, 41.0036], [-122.3488, 41.0036]], [[-122.3545, 41.0024], [-122.3538, 41.003], [-122.3538, 41.0024], [-122.3545, 41.0024]], [[-122.3524, 41.0025], [-122.352, 41.0027], [-122.352, 41.0025], [-122.3524, 41.0025]], [[-122.3552, 41.0021], [-122.3545, 41.0024], [-122.3545, 41.0021], [-122.3552, 41.0021]], [[-122.3506, 41.0017], [-122.3498, 41.002], [-122.3498, 41.0017], [-122.3506, 41.0017]], [[-122.3516, 41.0008], [-122.3513, 41.0014], [-122.3512, 41.0009], [-122.3516, 41.0008]], [[-122.3516, 41.0003], [-122.3512, 41.0006], [-122.3512, 41.0003], [-122.3516, 41.0003]]], [[[-122.3412, 41.0002], [-122.3416, 41.0], [-122.3412, 41.0], [-122.3412, 41.0002]]], [[[-122.3605, 40.9999], [-122.3612, 40.9993], [-122.3605, 40.9993], [-122.3605, 40.9999]]], [[[-122.3366, 41.0], [-122.3369, 40.9998], [-122.3366, 40.9998], [-122.3366, 41.0]]], [[[-122.3248, 41.0003], [-122.3252, 41.0], [-122.3248, 41.0], [-122.3248, 41.0003]]], [[[-122.3584, 41.0007], [-122.3601, 41.0004], [-122.3591, 40.9999], [-122.3587, 40.9991], [-122.3584, 41.0007]]], [[[-122.3431, 41.0018], [-122.3423, 41.001], [-122.3409, 41.0013], [-122.3398, 41.0005], [-122.3402, 41.0], [-122.3384, 40.9995], [-122.3391, 40.9997], [-122.3388, 41.0005], [-122.3398, 41.0008], [-122.3384, 41.0019], [-122.3399, 41.0019], [-122.3398, 41.0013], [-122.3406, 41.0019], [-122.3431, 41.0018]]], [[[-122.2924, 41.0006], [-122.2928, 41.0003], [-122.2924, 41.0003], [-122.2924, 41.0006]]], [[[-122.3598, 40.9999], [-122.3597, 40.9991], [-122.359, 40.9988], [-122.359, 40.9994], [-122.3598, 40.9999]]], [[[-122.3604, 40.9991], [-122.3608, 40.9988], [-122.3604, 40.9988], [-122.3604, 40.9991]]], [[[-122.3576, 40.9991], [-122.3579, 40.9986], [-122.3576, 40.9986], [-122.3576, 40.9991]]], [[[-122.3608, 40.9988], [-122.3611, 40.9985], [-122.3608, 40.9985], [-122.3608, 40.9988]]], [[[-122.3444, 40.9991], [-122.3448, 40.9988], [-122.3444, 40.9988], [-122.3444, 40.9991]]], [[[-122.3548, 40.9997], [-122.3569, 40.9991], [-122.3576, 40.9983], [-122.3544, 40.9986], [-122.3551, 40.9989], [-122.3548, 40.9997]]], [[[-122.344, 40.9988], [-122.3444, 40.9985], [-122.344, 40.9986], [-122.344, 40.9988]]], [[[-122.291, 40.9998], [-122.2913, 40.9995], [-122.291, 40.9995], [-122.291, 40.9998]]], [[[-122.286, 40.9996], [-122.2863, 41.0002], [-122.287, 40.9996], [-122.286, 40.9996]]], [[[-122.2244, 41.0024], [-122.225, 41.0007], [-122.2226, 41.0019], [-122.2222, 41.0008], [-122.2204, 41.0005], [-122.2226, 41.0024], [-122.2244, 41.0024]]], [[[-122.3437, 40.9986], [-122.344, 40.9983], [-122.3437, 40.9983], [-122.3437, 40.9986]]], [[[-122.338, 40.9987], [-122.3383, 40.9984], [-122.338, 40.9984], [-122.338, 40.9987]]], [[[-122.2888, 40.9996], [-122.2892, 40.9993], [-122.2888, 40.9993], [-122.2888, 40.9996]]], [[[-122.3441, 41.0015], [-122.3438, 41.001], [-122.3455, 41.001], [-122.3458, 40.9993], [-122.3444, 40.9994], [-122.3444, 40.9991], [-122.3441, 40.9991], [-122.344, 40.9988], [-122.3437, 40.9988], [-122.3437, 40.9986], [-122.3433, 40.9986], [-122.3433, 40.998], [-122.3429, 40.998], [-122.3423, 40.9991], [-122.3426, 40.9997], [-122.3437, 40.9994], [-122.3437, 40.9999], [-122.3419, 41.0002], [-122.342, 41.0008], [-122.3441, 41.0015]], [[-122.3437, 40.9988], [-122.3433, 40.9991], [-122.3433, 40.9988], [-122.3437, 40.9988]]], [[[-122.3041, 40.9993], [-122.3048, 40.9987], [-122.3041, 40.9988], [-122.3041, 40.9993]]], [[[-122.2938, 40.9992], [-122.2945, 40.9989], [-122.2938, 40.9989], [-122.2938, 40.9992]]], [[[-122.2927, 40.9992], [-122.2931, 40.999], [-122.2927, 40.999], [-122.2927, 40.9992]]], [[[-122.3473, 40.999], [-122.3472, 40.9977], [-122.3469, 40.9977], [-122.3458, 40.9991], [-122.3473, 40.999]]], [[[-122.3561, 40.9981], [-122.3565, 40.9975], [-122.3561, 40.9975], [-122.3561, 40.9981]]], [[[-122.359, 40.9977], [-122.3593, 40.9975], [-122.359, 40.9975], [-122.359, 40.9977]]], [[[-122.3426, 40.998], [-122.3429, 40.9978], [-122.3426, 40.9978], [-122.3426, 40.998]]], [[[-122.3034, 40.9985], [-122.3037, 40.9982], [-122.3034, 40.9982], [-122.3034, 40.9985]]], [[[-122.2931, 40.9987], [-122.2934, 40.9984], [-122.2931, 40.9984], [-122.2931, 40.9987]]], [[[-122.2243, 40.9999], [-122.2247, 40.9997], [-122.2243, 40.9997], [-122.2243, 40.9999]]], [[[-122.2236, 40.9999], [-122.2239, 40.9997], [-122.2236, 40.9997], [-122.2236, 40.9999]]], [[[-122.2207, 41.0], [-122.2211, 40.9997], [-122.2207, 40.9997], [-122.2207, 41.0]]], [[[-122.3429, 40.9975], [-122.3433, 40.9972], [-122.3429, 40.9972], [-122.3429, 40.9975]]], [[[-122.2948, 40.9984], [-122.2959, 40.9981], [-122.2948, 40.9981], [-122.2948, 40.9984]]], [[[-122.3622, 40.9971], [-122.3625, 40.9966], [-122.3621, 40.9966], [-122.3622, 40.9971]]], [[[-122.2218, 41.0], [-122.2229, 40.9991], [-122.2207, 40.9992], [-122.2218, 41.0]]], [[[-122.3629, 40.9974], [-122.3632, 40.9963], [-122.3629, 40.9963], [-122.3629, 40.9974]]], [[[-122.2927, 40.9979], [-122.293, 40.9976], [-122.2927, 40.9976], [-122.2927, 40.9979]]], [[[-122.3451, 40.998], [-122.3465, 40.9972], [-122.3461, 40.9964], [-122.3436, 40.9975], [-122.3451, 40.998]]], [[[-122.3628, 40.996], [-122.3632, 40.9958], [-122.3628, 40.9958], [-122.3628, 40.996]]], [[[-122.3614, 40.9961], [-122.3618, 40.9958], [-122.3614, 40.9958], [-122.3614, 40.9961]]], [[[-122.2895, 40.9974], [-122.2898, 40.9971], [-122.2894, 40.9971], [-122.2895, 40.9974]]], [[[-122.2197, 40.9995], [-122.2207, 40.9992], [-122.22, 40.9989], [-122.2203, 40.9984], [-122.2196, 40.9984], [-122.2197, 40.9995]]], [[[-122.2866, 40.9977], [-122.2869, 40.9969], [-122.2866, 40.9969], [-122.2866, 40.9977]]], [[[-122.3041, 40.9969], [-122.3044, 40.9966], [-122.304, 40.9966], [-122.3041, 40.9969]]], [[[-122.2984, 40.997], [-122.2987, 40.9967], [-122.2983, 40.9967], [-122.2984, 40.997]]], [[[-122.3322, 40.9977], [-122.3329, 40.9971], [-122.3325, 40.9958], [-122.3308, 40.9972], [-122.3322, 40.9977]]], [[[-122.3377, 41.0019], [-122.338, 40.9987], [-122.3366, 40.9987], [-122.3362, 40.9992], [-122.3358, 40.9982], [-122.3365, 40.9976], [-122.3376, 40.9981], [-122.338, 40.9979], [-122.3387, 40.9978], [-122.3394, 40.9981], [-122.3387, 40.9989], [-122.3405, 40.9986], [-122.3402, 40.9997], [-122.3409, 41.0005], [-122.3408, 40.9992], [-122.3416, 40.9991], [-122.3408, 40.9983], [-122.3415, 40.9983], [-122.3422, 40.9967], [-122.3443, 40.9964], [-122.3436, 40.9956], [-122.3418, 40.9962], [-122.3415, 40.997], [-122.3365, 40.996], [-122.334, 40.9963], [-122.3355, 40.9979], [-122.3348, 40.9982], [-122.3344, 40.9974], [-122.3333, 40.9971], [-122.334, 40.9977], [-122.3334, 40.9998], [-122.3341, 40.9996], [-122.3341, 41.0006], [-122.3363, 41.0006], [-122.3359, 40.9995], [-122.3373, 40.9995], [-122.337, 41.0014], [-122.3377, 41.0019]], [[-122.339, 40.9976], [-122.3387, 40.9978], [-122.3387, 40.9976], [-122.339, 40.9976]], [[-122.3394, 40.9973], [-122.339, 40.9976], [-122.339, 40.9973], [-122.3394, 40.9973]], [[-122.3397, 40.997], [-122.3394, 40.9973], [-122.3394, 40.997], [-122.3397, 40.997]]], [[[-122.345, 40.9958], [-122.3454, 40.9956], [-122.345, 40.9956], [-122.345, 40.9958]]], [[[-122.3407, 40.9959], [-122.3411, 40.9956], [-122.3407, 40.9956], [-122.3407, 40.9959]]], [[[-122.2987, 40.9967], [-122.2991, 40.9964], [-122.2987, 40.9964], [-122.2987, 40.9967]]], [[[-122.2888, 40.9977], [-122.2894, 40.9971], [-122.2894, 40.9963], [-122.2873, 40.9972], [-122.2888, 40.9977]]], [[[-122.3044, 40.9966], [-122.3055, 40.9963], [-122.3044, 40.996], [-122.3044, 40.9966]]], [[[-122.3446, 40.9956], [-122.345, 40.9953], [-122.3446, 40.9953], [-122.3446, 40.9956]]], [[[-122.2228, 40.9983], [-122.2228, 40.9975], [-122.2221, 40.9973], [-122.2218, 40.9981], [-122.2228, 40.9983]]], [[[-122.3628, 40.995], [-122.3632, 40.9947], [-122.3628, 40.9947], [-122.3628, 40.995]]], [[[-122.3575, 40.9948], [-122.3578, 40.9945], [-122.3574, 40.9945], [-122.3575, 40.9948]]], [[[-122.3535, 40.9949], [-122.3539, 40.9946], [-122.3535, 40.9946], [-122.3535, 40.9949]]], [[[-122.3307, 40.9953], [-122.3311, 40.9947], [-122.3307, 40.9947], [-122.3307, 40.9953]]], [[[-122.304, 40.9955], [-122.304, 40.995], [-122.3033, 40.995], [-122.3033, 40.9953], [-122.304, 40.9955]]], [[[-122.3496, 40.9944], [-122.351, 40.9941], [-122.3496, 40.9941], [-122.3496, 40.9944]]], [[[-122.3019, 40.9953], [-122.3022, 40.995], [-122.3019, 40.995], [-122.3019, 40.9953]]], [[[-122.3293, 40.9948], [-122.33, 40.9942], [-122.3296, 40.9942], [-122.3293, 40.9948]]], [[[-122.3528, 40.9941], [-122.3531, 40.9938], [-122.3528, 40.9938], [-122.3528, 40.9941]]], [[[-122.3311, 40.9945], [-122.3314, 40.9942], [-122.3311, 40.9942], [-122.3311, 40.9945]]], [[[-122.3492, 40.9941], [-122.3496, 40.9936], [-122.3492, 40.9936], [-122.3492, 40.9941]]], [[[-122.2944, 40.9952], [-122.2947, 40.9943], [-122.2944, 40.9943], [-122.2944, 40.9952]]], [[[-122.3482, 40.9936], [-122.3485, 40.9933], [-122.3481, 40.9933], [-122.3482, 40.9936]]], [[[-122.3537, 41.0], [-122.354, 40.9986], [-122.3551, 40.9983], [-122.354, 40.9978], [-122.3547, 40.9967], [-122.3533, 40.9973], [-122.3539, 40.9962], [-122.3532, 40.9957], [-122.3535, 40.9951], [-122.3535, 40.9949], [-122.3532, 40.9949], [-122.3535, 40.9941], [-122.3528, 40.9949], [-122.3514, 40.9944], [-122.3511, 40.9954], [-122.3493, 40.9955], [-122.3489, 40.9947], [-122.3496, 40.9944], [-122.3492, 40.9944], [-122.3492, 40.9941], [-122.3489, 40.9939], [-122.3478, 40.9939], [-122.3478, 40.9933], [-122.3467, 40.9936], [-122.346, 40.9931], [-122.3464, 40.9942], [-122.3471, 40.9942], [-122.3468, 40.9947], [-122.3471, 40.9947], [-122.3471, 40.995], [-122.3475, 40.995], [-122.3478, 40.9952], [-122.3464, 40.9958], [-122.3476, 40.9974], [-122.3479, 40.9971], [-122.3483, 40.9971], [-122.3483, 40.9974], [-122.3493, 40.9974], [-122.3518, 40.9968], [-122.3536, 40.9978], [-122.3537, 40.9984], [-122.3515, 40.9992], [-122.3498, 40.9993], [-122.3494, 40.9987], [-122.3494, 40.9995], [-122.3523, 40.9995], [-122.3523, 41.0], [-122.3533, 40.9995], [-122.353, 41.0], [-122.3537, 41.0]], [[-122.3486, 40.9968], [-122.3483, 40.9971], [-122.3483, 40.9969], [-122.3486, 40.9968]], [[-122.3529, 40.9965], [-122.3525, 40.9968], [-122.3525, 40.9965], [-122.3529, 40.9965]], [[-122.3482, 40.9947], [-122.3475, 40.995], [-122.3475, 40.9947], [-122.3482, 40.9947]]], [[[-122.3492, 40.9933], [-122.3496, 40.993], [-122.3492, 40.9931], [-122.3492, 40.9933]]], [[[-122.33, 40.9937], [-122.3303, 40.9934], [-122.33, 40.9934], [-122.33, 40.9937]]], [[[-122.3257, 40.994], [-122.3271, 40.9935], [-122.3257, 40.9938], [-122.3257, 40.994]]], [[[-122.2933, 40.9944], [-122.294, 40.9941], [-122.2933, 40.9941], [-122.2933, 40.9944]]], [[[-122.3489, 40.9933], [-122.3488, 40.9928], [-122.3478, 40.9928], [-122.3478, 40.9933], [-122.3481, 40.9931], [-122.3489, 40.9933]]], [[[-122.3403, 40.9943], [-122.3407, 40.9932], [-122.3399, 40.993], [-122.3396, 40.9935], [-122.3403, 40.9943]]], [[[-122.3271, 40.9935], [-122.3275, 40.9932], [-122.3271, 40.9932], [-122.3271, 40.9935]]], [[[-122.3403, 40.9929], [-122.341, 40.9927], [-122.3403, 40.9927], [-122.3403, 40.9929]]], [[[-122.3364, 40.9925], [-122.3367, 40.9922], [-122.3363, 40.9922], [-122.3364, 40.9925]]], [[[-122.2897, 40.9942], [-122.2897, 40.9936], [-122.2879, 40.9928], [-122.2876, 40.9939], [-122.2897, 40.9942]]], [[[-122.3502, 40.9919], [-122.3506, 40.9917], [-122.3502, 40.9917], [-122.3502, 40.9919]]], [[[-122.3607, 40.9958], [-122.3607, 40.9947], [-122.3592, 40.9939], [-122.3595, 40.9931], [-122.3588, 40.9929], [-122.3595, 40.9918], [-122.3584, 40.9913], [-122.3585, 40.9926], [-122.3574, 40.9929], [-122.3582, 40.9948], [-122.3596, 40.995], [-122.3607, 40.9958]]], [[[-122.3463, 40.992], [-122.3467, 40.9915], [-122.3463, 40.9915], [-122.3463, 40.992]]], [[[-122.3292, 40.9929], [-122.3292, 40.9918], [-122.3278, 40.9913], [-122.3278, 40.9926], [-122.3292, 40.9929]]], [[[-122.2932, 40.9922], [-122.2936, 40.9919], [-122.2932, 40.9919], [-122.2932, 40.9922]]], [[[-122.2939, 40.9922], [-122.2946, 40.9919], [-122.2939, 40.9916], [-122.2939, 40.9922]]], [[[-122.2188, 40.9933], [-122.2177, 40.9925], [-122.217, 40.9928], [-122.217, 40.9933], [-122.2188, 40.9933]]], [[[-122.2871, 40.9912], [-122.2875, 40.991], [-122.2871, 40.991], [-122.2871, 40.9912]]], [[[-122.3363, 40.99], [-122.3366, 40.9898], [-122.3363, 40.9898], [-122.3363, 40.99]]], [[[-122.2907, 40.9906], [-122.2906, 40.9898], [-122.2903, 40.9898], [-122.29, 40.9906], [-122.2907, 40.9906]]], [[[-122.3006, 40.9899], [-122.301, 40.9896], [-122.3006, 40.9896], [-122.3006, 40.9899]]], [[[-122.3409, 40.9894], [-122.3412, 40.9889], [-122.3394, 40.9884], [-122.3394, 40.9886], [-122.3409, 40.9894]]], [[[-122.3404, 40.9959], [-122.3407, 40.9954], [-122.3418, 40.9956], [-122.3418, 40.9951], [-122.3461, 40.995], [-122.3464, 40.9942], [-122.3446, 40.9945], [-122.3446, 40.9939], [-122.3457, 40.9939], [-122.3456, 40.9931], [-122.3463, 40.9928], [-122.3456, 40.992], [-122.3459, 40.9904], [-122.3445, 40.9907], [-122.3445, 40.9921], [-122.3438, 40.9923], [-122.3431, 40.9921], [-122.3434, 40.9905], [-122.342, 40.9908], [-122.342, 40.9905], [-122.3394, 40.9889], [-122.338, 40.9892], [-122.3384, 40.9887], [-122.3376, 40.9884], [-122.337, 40.9898], [-122.3395, 40.9894], [-122.3406, 40.9908], [-122.3391, 40.9897], [-122.3373, 40.9903], [-122.3384, 40.9908], [-122.3385, 40.9916], [-122.3378, 40.9925], [-122.3367, 40.9925], [-122.3364, 40.9946], [-122.3375, 40.9954], [-122.3393, 40.9949], [-122.3404, 40.9959]], [[-122.3407, 40.9951], [-122.3404, 40.9954], [-122.3404, 40.9951], [-122.3407, 40.9951]], [[-122.3403, 40.9948], [-122.3382, 40.9938], [-122.3374, 40.9927], [-122.3385, 40.9933], [-122.3409, 40.991], [-122.3417, 40.9927], [-122.3403, 40.9948]], [[-122.3375, 40.9946], [-122.3368, 40.9944], [-122.3371, 40.9938], [-122.3378, 40.9941], [-122.3375, 40.9946]], [[-122.3446, 40.9934], [-122.3439, 40.994], [-122.3439, 40.9937], [-122.3446, 40.9934]], [[-122.3431, 40.9929], [-122.3425, 40.9937], [-122.3421, 40.9924], [-122.3431, 40.9929]], [[-122.3456, 40.9923], [-122.3449, 40.9926], [-122.3449, 40.9923], [-122.3456, 40.9923]], [[-122.3413, 40.9902], [-122.3409, 40.9905], [-122.3409, 40.9902], [-122.3413, 40.9902]]], [[[-122.3409, 40.9886], [-122.3416, 40.9883], [-122.3408, 40.9883], [-122.3409, 40.9886]]], [[[-122.3444, 40.9883], [-122.3448, 40.988], [-122.3444, 40.988], [-122.3444, 40.9883]]], [[[-122.2215, 40.9905], [-122.2219, 40.9902], [-122.2215, 40.9902], [-122.2215, 40.9905]]], [[[-122.2208, 40.9905], [-122.2212, 40.9903], [-122.2208, 40.9903], [-122.2208, 40.9905]]], [[[-122.2197, 40.9906], [-122.2204, 40.9903], [-122.2197, 40.9903], [-122.2197, 40.9906]]], [[[-122.3469, 40.988], [-122.3472, 40.9877], [-122.3469, 40.9877], [-122.3469, 40.988]]], [[[-122.3202, 40.9882], [-122.3205, 40.9879], [-122.3202, 40.9879], [-122.3202, 40.9882]]], [[[-122.3016, 40.9885], [-122.302, 40.9883], [-122.3016, 40.9883], [-122.3016, 40.9885]]], [[[-122.3383, 40.9876], [-122.3387, 40.9873], [-122.3383, 40.9873], [-122.3383, 40.9876]]], [[[-122.3198, 40.9879], [-122.3202, 40.9876], [-122.3198, 40.9877], [-122.3198, 40.9879]]], [[[-122.3387, 40.9873], [-122.339, 40.987], [-122.3387, 40.987], [-122.3387, 40.9873]]], [[[-122.3504, 40.9868], [-122.3508, 40.9865], [-122.3504, 40.9865], [-122.3504, 40.9868]]], [[[-122.3493, 40.9866], [-122.3497, 40.9863], [-122.3493, 40.9863], [-122.3493, 40.9866]]], [[[-122.3383, 40.9868], [-122.3387, 40.9865], [-122.3383, 40.9865], [-122.3383, 40.9868]]], [[[-122.2411, 40.9885], [-122.2414, 40.9883], [-122.2411, 40.9883], [-122.2411, 40.9885]]], [[[-122.3372, 40.9865], [-122.3376, 40.9862], [-122.3372, 40.9862], [-122.3372, 40.9865]]], [[[-122.3394, 40.9862], [-122.3397, 40.9859], [-122.3393, 40.9859], [-122.3394, 40.9862]]], [[[-122.2236, 40.988], [-122.2239, 40.9878], [-122.2236, 40.9878], [-122.2236, 40.988]]], [[[-122.2125, 40.9882], [-122.2136, 40.988], [-122.2125, 40.9877], [-122.2125, 40.9882]]], [[[-122.3393, 40.9857], [-122.3397, 40.9854], [-122.3393, 40.9854], [-122.3393, 40.9857]]], [[[-122.2239, 40.9878], [-122.2243, 40.9875], [-122.2239, 40.9875], [-122.2239, 40.9878]]], [[[-122.3507, 40.9855], [-122.3511, 40.9849], [-122.3507, 40.9849], [-122.3507, 40.9855]]], [[[-122.3336, 40.9855], [-122.3343, 40.9852], [-122.3336, 40.9852], [-122.3336, 40.9855]]], [[[-122.3608, 40.998], [-122.3611, 40.9966], [-122.3596, 40.9953], [-122.3586, 40.9956], [-122.3585, 40.9953], [-122.3578, 40.9953], [-122.3578, 40.9951], [-122.3575, 40.9951], [-122.3575, 40.9948], [-122.3564, 40.9943], [-122.3567, 40.9929], [-122.3581, 40.9923], [-122.3574, 40.9921], [-122.3573, 40.9905], [-122.3559, 40.9905], [-122.3562, 40.9894], [-122.3552, 40.9897], [-122.3565, 40.9878], [-122.3551, 40.9875], [-122.3523, 40.9884], [-122.3533, 40.9862], [-122.3504, 40.9873], [-122.3494, 40.9871], [-122.3493, 40.9866], [-122.349, 40.9866], [-122.349, 40.9863], [-122.35, 40.9857], [-122.3479, 40.9863], [-122.3479, 40.9852], [-122.3471, 40.9847], [-122.3447, 40.9848], [-122.344, 40.9877], [-122.3448, 40.9877], [-122.3455, 40.9883], [-122.3469, 40.9874], [-122.348, 40.9879], [-122.3497, 40.9876], [-122.3491, 40.9885], [-122.348, 40.9882], [-122.348, 40.989], [-122.3495, 40.9898], [-122.3505, 40.9895], [-122.3509, 40.99], [-122.3502, 40.9903], [-122.3509, 40.9906], [-122.3519, 40.9889], [-122.3526, 40.9889], [-122.3523, 40.9906], [-122.3538, 40.9908], [-122.3534, 40.9913], [-122.3516, 40.9914], [-122.352, 40.9925], [-122.3531, 40.9927], [-122.3528, 40.9935], [-122.3553, 40.9935], [-122.3553, 40.9943], [-122.3542, 40.9946], [-122.356, 40.9951], [-122.355, 40.9951], [-122.355, 40.9956], [-122.3572, 40.9967], [-122.3572, 40.9975], [-122.3593, 40.9969], [-122.3608, 40.998]], [[-122.3563, 40.9929], [-122.356, 40.9932], [-122.356, 40.9929], [-122.3563, 40.9929]], [[-122.3553, 40.9929], [-122.3549, 40.9932], [-122.3549, 40.9929], [-122.3553, 40.9929]], [[-122.3538, 40.9919], [-122.3535, 40.9924], [-122.3531, 40.9919], [-122.3538, 40.9919]], [[-122.3563, 40.9916], [-122.3559, 40.9921], [-122.3556, 40.9916], [-122.3563, 40.9916]], [[-122.3556, 40.9918], [-122.3552, 40.9921], [-122.3552, 40.9919], [-122.3556, 40.9918]], [[-122.3549, 40.9919], [-122.3542, 40.9921], [-122.3542, 40.9919], [-122.3549, 40.9919]], [[-122.3527, 40.9916], [-122.3524, 40.9919], [-122.3524, 40.9916], [-122.3527, 40.9916]], [[-122.3541, 40.9903], [-122.3538, 40.9905], [-122.3537, 40.9903], [-122.3541, 40.9903]], [[-122.3483, 40.9871], [-122.3479, 40.9874], [-122.3479, 40.9871], [-122.3483, 40.9871]], [[-122.3475, 40.9855], [-122.3472, 40.9858], [-122.3472, 40.9855], [-122.3475, 40.9855]]], [[[-122.3343, 40.9852], [-122.3347, 40.9849], [-122.3343, 40.9849], [-122.3343, 40.9852]]], [[[-122.3326, 40.9853], [-122.3329, 40.985], [-122.3325, 40.985], [-122.3326, 40.9853]]], [[[-122.3511, 40.9846], [-122.3514, 40.9844], [-122.3511, 40.9844], [-122.3511, 40.9846]]], [[[-122.3389, 40.9846], [-122.3393, 40.9843], [-122.3389, 40.9843], [-122.3389, 40.9846]]], [[[-122.3504, 40.9849], [-122.35, 40.9844], [-122.3485, 40.9839], [-122.3486, 40.9847], [-122.3504, 40.9849]]], [[[-122.3439, 40.9842], [-122.3443, 40.984], [-122.3439, 40.984], [-122.3439, 40.9842]]], [[[-122.3393, 40.9843], [-122.34, 40.984], [-122.3393, 40.984], [-122.3393, 40.9843]]], [[[-122.3461, 40.9845], [-122.3468, 40.9842], [-122.3464, 40.9836], [-122.3457, 40.9837], [-122.3461, 40.9845]]], [[[-122.2403, 40.9861], [-122.241, 40.9856], [-122.2406, 40.9856], [-122.2403, 40.9861]]], [[[-122.3443, 40.984], [-122.3446, 40.9837], [-122.3443, 40.9837], [-122.3443, 40.984]]], [[[-122.3404, 40.984], [-122.3407, 40.9837], [-122.3403, 40.9838], [-122.3404, 40.984]]], [[[-122.3553, 40.9835], [-122.3557, 40.9832], [-122.3553, 40.9832], [-122.3553, 40.9835]]], [[[-122.3542, 40.9835], [-122.3546, 40.9832], [-122.3542, 40.9832], [-122.3542, 40.9835]]], [[[-122.3517, 40.9835], [-122.3521, 40.9833], [-122.3517, 40.9833], [-122.3517, 40.9835]]], [[[-122.3325, 40.9839], [-122.3329, 40.9836], [-122.3325, 40.9836], [-122.3325, 40.9839]]], [[[-122.3361, 40.9838], [-122.3364, 40.9833], [-122.3361, 40.9833], [-122.3361, 40.9838]]], [[[-122.2413, 40.9856], [-122.242, 40.9853], [-122.2413, 40.985], [-122.2413, 40.9856]]], [[[-122.3546, 40.9832], [-122.3549, 40.9829], [-122.3546, 40.9829], [-122.3546, 40.9832]]], [[[-122.3443, 40.9834], [-122.3453, 40.9831], [-122.3442, 40.9831], [-122.3443, 40.9834]]], [[[-122.3353, 40.9836], [-122.3357, 40.9833], [-122.3353, 40.9833], [-122.3353, 40.9836]]], [[[-122.3118, 40.984], [-122.3125, 40.9837], [-122.3118, 40.9837], [-122.3118, 40.984]]], [[[-122.3464, 40.9836], [-122.3471, 40.9831], [-122.346, 40.9828], [-122.3464, 40.9836]]], [[[-122.3161, 40.9837], [-122.3168, 40.9831], [-122.3164, 40.9831], [-122.3161, 40.9837]]], [[[-122.3143, 40.9834], [-122.315, 40.9837], [-122.315, 40.9831], [-122.3143, 40.9834]]], [[[-122.3449, 40.9829], [-122.346, 40.9826], [-122.3449, 40.9826], [-122.3449, 40.9829]]], [[[-122.3517, 40.9833], [-122.3514, 40.9827], [-122.3521, 40.9825], [-122.3485, 40.9825], [-122.3517, 40.9833]]], [[[-122.3464, 40.9826], [-122.3467, 40.9823], [-122.3464, 40.9823], [-122.3464, 40.9826]]], [[[-122.315, 40.9831], [-122.3154, 40.9829], [-122.315, 40.9829], [-122.315, 40.9831]]], [[[-122.3143, 40.9832], [-122.3147, 40.9829], [-122.3143, 40.9829], [-122.3143, 40.9832]]], [[[-122.3414, 40.9832], [-122.341, 40.9821], [-122.3399, 40.9821], [-122.34, 40.9827], [-122.3396, 40.9821], [-122.3385, 40.9824], [-122.3389, 40.9832], [-122.3414, 40.9832]]], [[[-122.3104, 40.9832], [-122.3111, 40.9829], [-122.3104, 40.9827], [-122.3104, 40.9832]]], [[[-122.3239, 40.9827], [-122.3243, 40.9824], [-122.3239, 40.9824], [-122.3239, 40.9827]]], [[[-122.3175, 40.9828], [-122.3182, 40.9825], [-122.3175, 40.9826], [-122.3175, 40.9828]]], [[[-122.3136, 40.9829], [-122.3139, 40.9826], [-122.3136, 40.9826], [-122.3136, 40.9829]]], [[[-122.3207, 40.9828], [-122.321, 40.9822], [-122.3207, 40.9822], [-122.3207, 40.9828]]], [[[-122.2431, 40.9842], [-122.2427, 40.9837], [-122.242, 40.9839], [-122.242, 40.9842], [-122.2431, 40.9842]]], [[[-122.3435, 40.9821], [-122.3438, 40.9818], [-122.3435, 40.9818], [-122.3435, 40.9821]]], [[[-122.3314, 40.9839], [-122.3314, 40.9834], [-122.3325, 40.9836], [-122.3328, 40.9825], [-122.3317, 40.982], [-122.3318, 40.9831], [-122.33, 40.9834], [-122.3296, 40.9826], [-122.3307, 40.9829], [-122.3307, 40.9818], [-122.3289, 40.9818], [-122.3289, 40.984], [-122.3307, 40.9834], [-122.3314, 40.9839]]], [[[-122.3396, 40.9821], [-122.3399, 40.9816], [-122.3396, 40.9816], [-122.3396, 40.9821]]], [[[-122.331, 40.982], [-122.3314, 40.9818], [-122.331, 40.9818], [-122.331, 40.982]]], [[[-122.3132, 40.9824], [-122.3136, 40.9821], [-122.3132, 40.9821], [-122.3132, 40.9824]]], [[[-122.31, 40.9824], [-122.3104, 40.9821], [-122.31, 40.9822], [-122.31, 40.9824]]], [[[-122.2427, 40.9837], [-122.243, 40.9834], [-122.2427, 40.9834], [-122.2427, 40.9837]]], [[[-122.321, 40.9822], [-122.3214, 40.9817], [-122.321, 40.9817], [-122.321, 40.9822]]], [[[-122.3488, 40.9812], [-122.3492, 40.9814], [-122.3495, 40.9811], [-122.3488, 40.9812]]], [[[-122.3406, 40.9816], [-122.341, 40.9813], [-122.3406, 40.9813], [-122.3406, 40.9816]]], [[[-122.3128, 40.9821], [-122.3132, 40.9818], [-122.3128, 40.9818], [-122.3128, 40.9821]]], [[[-122.3175, 40.982], [-122.3178, 40.9815], [-122.3175, 40.9815], [-122.3175, 40.982]]], [[[-122.3552, 40.981], [-122.3556, 40.9808], [-122.3552, 40.9808], [-122.3552, 40.981]]], [[[-122.3349, 40.9814], [-122.3353, 40.9809], [-122.3349, 40.9809], [-122.3349, 40.9814]]], [[[-122.3346, 40.9814], [-122.3345, 40.9809], [-122.3338, 40.9809], [-122.3338, 40.9812], [-122.3346, 40.9814]]], [[[-122.331, 40.9812], [-122.3313, 40.9809], [-122.331, 40.981], [-122.331, 40.9812]]], [[[-122.2352, 40.983], [-122.2355, 40.9827], [-122.2352, 40.9827], [-122.2352, 40.983]]], [[[-122.3485, 40.9814], [-122.3484, 40.9804], [-122.3481, 40.9804], [-122.3477, 40.9812], [-122.3485, 40.9814]]], [[[-122.3264, 40.9821], [-122.3267, 40.9813], [-122.3278, 40.9813], [-122.3274, 40.9808], [-122.326, 40.981], [-122.3264, 40.9821]]], [[[-122.3118, 40.9813], [-122.3121, 40.981], [-122.3117, 40.981], [-122.3118, 40.9813]]], [[[-122.2355, 40.9827], [-122.2359, 40.9824], [-122.2355, 40.9824], [-122.2355, 40.9827]]], [[[-122.2384, 40.9837], [-122.2395, 40.9829], [-122.2398, 40.9834], [-122.2416, 40.9831], [-122.2416, 40.9826], [-122.2409, 40.9821], [-122.2402, 40.9826], [-122.2373, 40.9824], [-122.237, 40.9829], [-122.2384, 40.9837]]], [[[-122.3136, 40.9818], [-122.3139, 40.981], [-122.3132, 40.9807], [-122.3128, 40.9813], [-122.3136, 40.9818]]], [[[-122.2362, 40.9827], [-122.2369, 40.9821], [-122.2362, 40.9821], [-122.2362, 40.9827]]], [[[-122.3128, 40.981], [-122.3128, 40.9805], [-122.3121, 40.9805], [-122.3121, 40.9808], [-122.3128, 40.981]]], [[[-122.3538, 40.98], [-122.3541, 40.9797], [-122.3538, 40.9797], [-122.3538, 40.98]]], [[[-122.3274, 40.9805], [-122.3278, 40.9802], [-122.3274, 40.9802], [-122.3274, 40.9805]]], [[[-122.342, 40.9802], [-122.3423, 40.9797], [-122.342, 40.9797], [-122.342, 40.9802]]], [[[-122.3082, 40.9808], [-122.3078, 40.98], [-122.3064, 40.9803], [-122.3068, 40.9809], [-122.3082, 40.9808]]], [[[-122.3146, 40.9826], [-122.315, 40.9818], [-122.3143, 40.9815], [-122.315, 40.9815], [-122.3153, 40.9799], [-122.3136, 40.9818], [-122.3146, 40.9826]]], [[[-122.3416, 40.9797], [-122.342, 40.9794], [-122.3416, 40.9794], [-122.3416, 40.9797]]], [[[-122.3096, 40.9803], [-122.3099, 40.98], [-122.3096, 40.98], [-122.3096, 40.9803]]], [[[-122.2351, 40.9816], [-122.2355, 40.9811], [-122.2351, 40.9811], [-122.2351, 40.9816]]], [[[-122.3459, 40.9793], [-122.3462, 40.979], [-122.3459, 40.9791], [-122.3459, 40.9793]]], [[[-122.2369, 40.9813], [-122.2373, 40.981], [-122.2369, 40.9811], [-122.2369, 40.9813]]], [[[-122.3203, 40.9801], [-122.3202, 40.9793], [-122.3192, 40.9793], [-122.3192, 40.9798], [-122.3203, 40.9801]]], [[[-122.2326, 40.9817], [-122.2326, 40.9811], [-122.2319, 40.9809], [-122.2316, 40.9814], [-122.2326, 40.9817]]], [[[-122.3188, 40.9798], [-122.3188, 40.9793], [-122.3181, 40.9793], [-122.3181, 40.9796], [-122.3188, 40.9798]]], [[[-122.3131, 40.9802], [-122.3142, 40.9796], [-122.3131, 40.9794], [-122.3131, 40.9802]]], [[[-122.3495, 40.979], [-122.3498, 40.9787], [-122.3494, 40.9787], [-122.3495, 40.979]]], [[[-122.3053, 40.9798], [-122.3056, 40.9795], [-122.3053, 40.9795], [-122.3053, 40.9798]]], [[[-122.238, 40.981], [-122.2383, 40.9808], [-122.238, 40.9808], [-122.238, 40.981]]], [[[-122.3374, 40.9816], [-122.3374, 40.9808], [-122.3367, 40.9806], [-122.3374, 40.9806], [-122.3377, 40.9795], [-122.3366, 40.9787], [-122.3366, 40.9795], [-122.3352, 40.9801], [-122.3374, 40.9816]], [[-122.337, 40.9795], [-122.3367, 40.9798], [-122.3366, 40.9795], [-122.337, 40.9795]]], [[[-122.3484, 40.9793], [-122.3484, 40.9787], [-122.3477, 40.9785], [-122.3477, 40.979], [-122.3484, 40.9793]]], [[[-122.3484, 40.9787], [-122.3487, 40.9785], [-122.3484, 40.9785], [-122.3484, 40.9787]]], [[[-122.3188, 40.9793], [-122.3192, 40.979], [-122.3188, 40.979], [-122.3188, 40.9793]]], [[[-122.2326, 40.9809], [-122.233, 40.9806], [-122.2326, 40.9806], [-122.2326, 40.9809]]], [[[-122.3391, 40.9789], [-122.3395, 40.9784], [-122.3391, 40.9784], [-122.3391, 40.9789]]], [[[-122.348, 40.9785], [-122.3484, 40.9782], [-122.348, 40.9782], [-122.348, 40.9785]]], [[[-122.3384, 40.9795], [-122.3384, 40.9787], [-122.3387, 40.9784], [-122.338, 40.9784], [-122.3377, 40.9792], [-122.3384, 40.9795]]], [[[-122.2301, 40.9806], [-122.2305, 40.9804], [-122.2301, 40.9804], [-122.2301, 40.9806]]], [[[-122.342, 40.9789], [-122.3419, 40.978], [-122.3412, 40.9781], [-122.3412, 40.9786], [-122.342, 40.9789]]], [[[-122.3174, 40.9785], [-122.3181, 40.9782], [-122.3174, 40.9782], [-122.3174, 40.9785]]], [[[-122.307, 40.9787], [-122.3074, 40.9784], [-122.307, 40.9784], [-122.307, 40.9787]]], [[[-122.2123, 40.9804], [-122.2126, 40.9801], [-122.2123, 40.9801], [-122.2123, 40.9804]]], [[[-122.2308, 40.9801], [-122.2312, 40.9795], [-122.2308, 40.9795], [-122.2308, 40.9801]]], [[[-122.3405, 40.9778], [-122.3409, 40.9775], [-122.3405, 40.9775], [-122.3405, 40.9778]]], [[[-122.3369, 40.9779], [-122.3373, 40.9776], [-122.3369, 40.9776], [-122.3369, 40.9779]]], [[[-122.3188, 40.9782], [-122.3195, 40.9779], [-122.3188, 40.9779], [-122.3188, 40.9782]]], [[[-122.3127, 40.9783], [-122.3131, 40.978], [-122.3127, 40.978], [-122.3127, 40.9783]]], [[[-122.3402, 40.9781], [-122.3401, 40.9775], [-122.338, 40.9773], [-122.3384, 40.9781], [-122.3402, 40.9781]]], [[[-122.2102, 40.9802], [-122.2112, 40.9799], [-122.2101, 40.9796], [-122.2102, 40.9802]]], [[[-122.3088, 40.9781], [-122.3091, 40.9778], [-122.3088, 40.9779], [-122.3088, 40.9781]]], [[[-122.2341, 40.9814], [-122.234, 40.9808], [-122.238, 40.9805], [-122.2379, 40.9797], [-122.2354, 40.9789], [-122.2351, 40.9797], [-122.2333, 40.98], [-122.2322, 40.9792], [-122.2323, 40.9806], [-122.2337, 40.9803], [-122.233, 40.9814], [-122.2341, 40.9814]]], [[[-122.2215, 40.9794], [-122.2219, 40.9792], [-122.2215, 40.9792], [-122.2215, 40.9794]]], [[[-122.3369, 40.9776], [-122.3362, 40.9768], [-122.3355, 40.9771], [-122.3359, 40.9776], [-122.3369, 40.9776]]], [[[-122.2304, 40.979], [-122.2311, 40.9793], [-122.2311, 40.9787], [-122.2304, 40.979]]], [[[-122.338, 40.977], [-122.3383, 40.9768], [-122.338, 40.9768], [-122.338, 40.977]]], [[[-122.318, 40.9774], [-122.3184, 40.9771], [-122.318, 40.9771], [-122.318, 40.9774]]], [[[-122.2301, 40.979], [-122.2304, 40.9787], [-122.2301, 40.9787], [-122.2301, 40.979]]], [[[-122.3458, 40.9772], [-122.3462, 40.9763], [-122.3447, 40.9764], [-122.3447, 40.9766], [-122.3458, 40.9772]]], [[[-122.3376, 40.9768], [-122.338, 40.9765], [-122.3376, 40.9765], [-122.3376, 40.9768]]], [[[-122.3152, 40.9772], [-122.3159, 40.9772], [-122.3162, 40.9769], [-122.3152, 40.9772]]], [[[-122.3426, 40.9772], [-122.3426, 40.9767], [-122.3419, 40.9762], [-122.3419, 40.977], [-122.3426, 40.9772]]], [[[-122.3426, 40.9767], [-122.3429, 40.9761], [-122.3426, 40.9761], [-122.3426, 40.9767]]], [[[-122.3412, 40.977], [-122.3415, 40.9764], [-122.3405, 40.9762], [-122.3405, 40.9767], [-122.3412, 40.977]]], [[[-122.3398, 40.9765], [-122.3401, 40.9762], [-122.3397, 40.9762], [-122.3398, 40.9765]]], [[[-122.338, 40.9765], [-122.3387, 40.9762], [-122.338, 40.9762], [-122.338, 40.9765]]], [[[-122.3373, 40.9765], [-122.3376, 40.9762], [-122.3372, 40.9762], [-122.3373, 40.9765]]], [[[-122.3429, 40.9761], [-122.3437, 40.9759], [-122.3429, 40.9759], [-122.3429, 40.9761]]], [[[-122.3422, 40.9761], [-122.3426, 40.9759], [-122.3422, 40.9759], [-122.3422, 40.9761]]], [[[-122.3415, 40.9762], [-122.3419, 40.9759], [-122.3415, 40.9759], [-122.3415, 40.9762]]], [[[-122.3394, 40.9762], [-122.3397, 40.9759], [-122.3394, 40.9759], [-122.3394, 40.9762]]], [[[-122.3401, 40.9762], [-122.3404, 40.9756], [-122.3401, 40.9756], [-122.3401, 40.9762]]], [[[-122.3376, 40.9754], [-122.3379, 40.9751], [-122.3376, 40.9752], [-122.3376, 40.9754]]], [[[-122.3351, 40.9755], [-122.3354, 40.9752], [-122.3351, 40.9752], [-122.3351, 40.9755]]], [[[-122.2404, 40.9772], [-122.2407, 40.9769], [-122.2403, 40.9769], [-122.2404, 40.9772]]], [[[-122.3354, 40.9752], [-122.3358, 40.9749], [-122.3354, 40.9749], [-122.3354, 40.9752]]], [[[-122.2293, 40.9769], [-122.2296, 40.9766], [-122.2293, 40.9766], [-122.2293, 40.9769]]], [[[-122.3375, 40.9743], [-122.3379, 40.9741], [-122.3375, 40.9741], [-122.3375, 40.9743]]], [[[-122.2428, 40.9761], [-122.2432, 40.9758], [-122.2428, 40.9758], [-122.2428, 40.9761]]], [[[-122.2421, 40.9761], [-122.2424, 40.9758], [-122.2421, 40.9758], [-122.2421, 40.9761]]], [[[-122.2303, 40.9763], [-122.2307, 40.9758], [-122.2303, 40.9758], [-122.2303, 40.9763]]], [[[-122.3379, 40.9741], [-122.3386, 40.9738], [-122.3379, 40.9738], [-122.3379, 40.9741]]], [[[-122.2314, 40.976], [-122.2318, 40.9757], [-122.2314, 40.9757], [-122.2314, 40.976]]], [[[-122.2417, 40.9756], [-122.2421, 40.9753], [-122.2417, 40.9753], [-122.2417, 40.9756]]], [[[-122.2421, 40.9753], [-122.2424, 40.975], [-122.2421, 40.975], [-122.2421, 40.9753]]], [[[-122.23, 40.9755], [-122.2303, 40.9752], [-122.23, 40.9752], [-122.23, 40.9755]]], [[[-122.2307, 40.9752], [-122.2314, 40.9749], [-122.2307, 40.9749], [-122.2307, 40.9752]]], [[[-122.2669, 40.9602], [-122.2672, 40.96], [-122.2669, 40.96], [-122.2669, 40.9602]]], [[[-122.2776, 40.9598], [-122.2783, 40.9595], [-122.2776, 40.9595], [-122.2776, 40.9598]]], [[[-122.2765, 40.9598], [-122.2769, 40.9595], [-122.2765, 40.9595], [-122.2765, 40.9598]]], [[[-122.2769, 40.9595], [-122.2772, 40.9592], [-122.2768, 40.9592], [-122.2769, 40.9595]]], [[[-122.2783, 40.9592], [-122.279, 40.9589], [-122.2783, 40.9589], [-122.2783, 40.9592]]], [[[-122.2764, 40.9563], [-122.2767, 40.956], [-122.2764, 40.956], [-122.2764, 40.9563]]], [[[-122.2757, 40.9557], [-122.276, 40.9555], [-122.2757, 40.9555], [-122.2757, 40.9557]]], [[[-122.334, 40.9528], [-122.3343, 40.9525], [-122.334, 40.9525], [-122.334, 40.9528]]], [[[-122.2766, 40.9506], [-122.2769, 40.9503], [-122.2766, 40.9503], [-122.2766, 40.9506]]], [[[-122.3349, 40.9471], [-122.3352, 40.9468], [-122.3349, 40.9468], [-122.3349, 40.9471]]], [[[-122.2811, 40.9478], [-122.2818, 40.9475], [-122.2811, 40.9475], [-122.2811, 40.9478]]], [[[-122.2797, 40.9476], [-122.2811, 40.9475], [-122.2811, 40.947], [-122.2797, 40.9476]]], [[[-122.2811, 40.9465], [-122.2818, 40.9462], [-122.2811, 40.9462], [-122.2811, 40.9465]]], [[[-122.2946, 40.9459], [-122.2949, 40.9457], [-122.2946, 40.9457], [-122.2946, 40.9459]]], [[[-122.3366, 40.9449], [-122.3369, 40.9446], [-122.3366, 40.9446], [-122.3366, 40.9449]]], [[[-122.2974, 40.9456], [-122.2981, 40.9453], [-122.2974, 40.9453], [-122.2974, 40.9456]]], [[[-122.2818, 40.9459], [-122.2821, 40.9456], [-122.2818, 40.9456], [-122.2818, 40.9459]]], [[[-122.2971, 40.9454], [-122.2974, 40.9451], [-122.2971, 40.9451], [-122.2971, 40.9454]]], [[[-122.2956, 40.9451], [-122.2963, 40.9448], [-122.2956, 40.9448], [-122.2956, 40.9451]]], [[[-122.2817, 40.9454], [-122.2821, 40.9451], [-122.2817, 40.9451], [-122.2817, 40.9454]]], [[[-122.291, 40.9447], [-122.2913, 40.9444], [-122.291, 40.9444], [-122.291, 40.9447]]], [[[-122.2824, 40.9445], [-122.2828, 40.9443], [-122.2824, 40.9443], [-122.2824, 40.9445]]], [[[-122.2906, 40.9447], [-122.2902, 40.9439], [-122.2899, 40.9439], [-122.2899, 40.9447], [-122.2906, 40.9447]]], [[[-122.2892, 40.9441], [-122.2895, 40.9439], [-122.2892, 40.9439], [-122.2892, 40.9441]]], [[[-122.2853, 40.9437], [-122.2859, 40.9431], [-122.2852, 40.9431], [-122.2853, 40.9437]]], [[[-122.2859, 40.9431], [-122.2863, 40.9428], [-122.2859, 40.9429], [-122.2859, 40.9431]]], [[[-122.2831, 40.944], [-122.2842, 40.9434], [-122.2845, 40.9423], [-122.2824, 40.9435], [-122.2831, 40.944]]], [[[-122.2888, 40.9442], [-122.2888, 40.9436], [-122.2899, 40.9439], [-122.2902, 40.9433], [-122.2877, 40.9417], [-122.2874, 40.9426], [-122.2888, 40.9442]], [[-122.2888, 40.9428], [-122.2884, 40.9431], [-122.2884, 40.9428], [-122.2888, 40.9428]]], [[[-122.2849, 40.9423], [-122.2852, 40.9418], [-122.2848, 40.9418], [-122.2849, 40.9423]]], [[[-122.2873, 40.942], [-122.2877, 40.9415], [-122.2866, 40.9415], [-122.2866, 40.9418], [-122.2873, 40.942]]], [[[-122.2859, 40.9423], [-122.2866, 40.9415], [-122.2862, 40.941], [-122.2852, 40.9412], [-122.2859, 40.9423]]], [[[-122.34, 40.9397], [-122.3403, 40.9394], [-122.34, 40.9394], [-122.34, 40.9397]]], [[[-122.3354, 40.9398], [-122.3357, 40.9395], [-122.3353, 40.9395], [-122.3354, 40.9398]]], [[[-122.3414, 40.9394], [-122.3414, 40.9389], [-122.3403, 40.9391], [-122.3403, 40.9394], [-122.3414, 40.9394]]], [[[-122.2912, 40.939], [-122.2922, 40.9387], [-122.2912, 40.9387], [-122.2912, 40.939]]], [[[-122.2957, 40.9365], [-122.2961, 40.9362], [-122.2957, 40.9362], [-122.2957, 40.9365]]], [[[-122.3529, 40.9313], [-122.3532, 40.9311], [-122.3529, 40.9311], [-122.3529, 40.9313]]], [[[-122.3532, 40.9311], [-122.3539, 40.9308], [-122.3532, 40.9308], [-122.3532, 40.9311]]], [[[-122.302, 40.9315], [-122.3023, 40.9312], [-122.302, 40.9312], [-122.302, 40.9315]]], [[[-122.3005, 40.9315], [-122.3009, 40.9312], [-122.3005, 40.9312], [-122.3005, 40.9315]]], [[[-122.3098, 40.9316], [-122.3098, 40.9311], [-122.3087, 40.9314], [-122.3069, 40.9314], [-122.3069, 40.9308], [-122.3062, 40.9309], [-122.3059, 40.9314], [-122.3044, 40.9312], [-122.3048, 40.9317], [-122.3098, 40.9316]], [[-122.3066, 40.9311], [-122.3062, 40.9314], [-122.3062, 40.9311], [-122.3066, 40.9311]]], [[[-122.3087, 40.9308], [-122.3091, 40.9305], [-122.3087, 40.9305], [-122.3087, 40.9308]]], [[[-122.3027, 40.9309], [-122.3034, 40.9306], [-122.3026, 40.9304], [-122.3027, 40.9309]]], [[[-122.3041, 40.9312], [-122.3041, 40.9301], [-122.3037, 40.9301], [-122.3034, 40.9312], [-122.3041, 40.9312]]], [[[-122.339, 40.93], [-122.3393, 40.9294], [-122.3389, 40.9294], [-122.339, 40.93]]], [[[-122.303, 40.9304], [-122.3033, 40.9301], [-122.303, 40.9301], [-122.303, 40.9304]]], [[[-122.3101, 40.9297], [-122.3104, 40.9294], [-122.3101, 40.9294], [-122.3101, 40.9297]]], [[[-122.3389, 40.9289], [-122.3393, 40.9286], [-122.3389, 40.9286], [-122.3389, 40.9289]]], [[[-122.3083, 40.9295], [-122.3087, 40.9292], [-122.3083, 40.9292], [-122.3083, 40.9295]]], [[[-122.3012, 40.9296], [-122.3015, 40.9293], [-122.3012, 40.9293], [-122.3012, 40.9296]]], [[[-122.3542, 40.9286], [-122.3549, 40.9281], [-122.3542, 40.9281], [-122.3542, 40.9286]]], [[[-122.3015, 40.9293], [-122.3019, 40.929], [-122.3015, 40.9291], [-122.3015, 40.9293]]], [[[-122.3538, 40.9273], [-122.3542, 40.9267], [-122.3538, 40.9267], [-122.3538, 40.9273]]], [[[-122.3025, 40.9271], [-122.3029, 40.9269], [-122.3025, 40.9269], [-122.3025, 40.9271]]], [[[-122.3036, 40.9269], [-122.3039, 40.9258], [-122.3021, 40.9255], [-122.3022, 40.9266], [-122.3036, 40.9269]]], [[[-122.3089, 40.9254], [-122.3092, 40.9251], [-122.3089, 40.9251], [-122.3089, 40.9254]]], [[[-122.3018, 40.9255], [-122.3021, 40.9253], [-122.3018, 40.9253], [-122.3018, 40.9255]]], [[[-122.3092, 40.9249], [-122.3099, 40.9246], [-122.3092, 40.9246], [-122.3092, 40.9249]]], [[[-122.3057, 40.9252], [-122.3057, 40.9244], [-122.3039, 40.9241], [-122.3043, 40.9252], [-122.3057, 40.9252]]], [[[-122.3064, 40.9241], [-122.3067, 40.9238], [-122.3063, 40.9238], [-122.3064, 40.9241]]], [[[-122.3074, 40.9238], [-122.3081, 40.9235], [-122.3074, 40.9233], [-122.3074, 40.9238]]], [[[-122.343, 40.9218], [-122.3433, 40.9215], [-122.3429, 40.9215], [-122.343, 40.9218]]], [[[-122.302, 40.922], [-122.3024, 40.9217], [-122.302, 40.9217], [-122.302, 40.922]]], [[[-122.3098, 40.9219], [-122.3098, 40.9213], [-122.3091, 40.9213], [-122.3091, 40.9216], [-122.3098, 40.9219]]], [[[-122.3116, 40.9216], [-122.312, 40.9213], [-122.3116, 40.9213], [-122.3116, 40.9216]]], [[[-122.3091, 40.9213], [-122.3095, 40.9208], [-122.3084, 40.9205], [-122.3084, 40.9211], [-122.3091, 40.9213]]], [[[-122.3468, 40.9201], [-122.3472, 40.9198], [-122.3468, 40.9198], [-122.3468, 40.9201]]], [[[-122.3465, 40.9198], [-122.3468, 40.9196], [-122.3464, 40.9196], [-122.3465, 40.9198]]], [[[-122.3169, 40.9204], [-122.3169, 40.9198], [-122.3158, 40.9201], [-122.3159, 40.9204], [-122.3169, 40.9204]]], [[[-122.3461, 40.9196], [-122.3464, 40.9193], [-122.3461, 40.9193], [-122.3461, 40.9196]]], [[[-122.3454, 40.9196], [-122.3457, 40.9193], [-122.3454, 40.9193], [-122.3454, 40.9196]]], [[[-122.344, 40.9196], [-122.345, 40.9193], [-122.3439, 40.9193], [-122.344, 40.9196]]], [[[-122.3457, 40.9193], [-122.3461, 40.919], [-122.3457, 40.919], [-122.3457, 40.9193]]], [[[-122.3436, 40.9193], [-122.3439, 40.9191], [-122.3436, 40.9191], [-122.3436, 40.9193]]], [[[-122.3162, 40.9199], [-122.3165, 40.9196], [-122.3162, 40.9196], [-122.3162, 40.9199]]], [[[-122.3113, 40.9216], [-122.3116, 40.9208], [-122.3127, 40.9207], [-122.3126, 40.9197], [-122.3109, 40.9205], [-122.3098, 40.9202], [-122.3105, 40.9216], [-122.3113, 40.9216]], [[-122.3112, 40.921], [-122.3109, 40.9213], [-122.3109, 40.921], [-122.3112, 40.921]]], [[[-122.3112, 40.92], [-122.3116, 40.9197], [-122.3112, 40.9197], [-122.3112, 40.92]]], [[[-122.3137, 40.9196], [-122.314, 40.9194], [-122.3137, 40.9194], [-122.3137, 40.9196]]], [[[-122.3439, 40.9191], [-122.3446, 40.9188], [-122.3439, 40.9185], [-122.3439, 40.9191]]], [[[-122.3432, 40.9185], [-122.3436, 40.9183], [-122.3432, 40.9183], [-122.3432, 40.9185]]], [[[-122.3056, 40.9238], [-122.3067, 40.9233], [-122.3063, 40.9217], [-122.3038, 40.9206], [-122.3033, 40.919], [-122.3012, 40.9191], [-122.3008, 40.9185], [-122.3002, 40.9196], [-122.2984, 40.9196], [-122.2995, 40.9204], [-122.2991, 40.921], [-122.3009, 40.9199], [-122.3009, 40.9207], [-122.3016, 40.9204], [-122.3031, 40.9223], [-122.3042, 40.9222], [-122.3038, 40.9231], [-122.3049, 40.9225], [-122.3056, 40.9238]], [[-122.3052, 40.9214], [-122.3049, 40.9217], [-122.3048, 40.9214], [-122.3052, 40.9214]], [[-122.3038, 40.9212], [-122.3031, 40.9215], [-122.3031, 40.9212], [-122.3038, 40.9212]], [[-122.303, 40.9209], [-122.3027, 40.9212], [-122.3027, 40.9209], [-122.303, 40.9209]], [[-122.3034, 40.9206], [-122.303, 40.9209], [-122.303, 40.9206], [-122.3034, 40.9206]], [[-122.3034, 40.9198], [-122.3023, 40.9198], [-122.3023, 40.9193], [-122.303, 40.9193], [-122.3034, 40.9198]], [[-122.3019, 40.9196], [-122.3012, 40.9199], [-122.3012, 40.9196], [-122.3019, 40.9196]]], [[[-122.3119, 40.9189], [-122.3126, 40.9183], [-122.3122, 40.9172], [-122.3122, 40.918], [-122.3111, 40.9181], [-122.3119, 40.9189]]], [[[-122.3029, 40.9177], [-122.3029, 40.9171], [-122.3033, 40.9169], [-122.3026, 40.9169], [-122.3029, 40.9177]]], [[[-122.3001, 40.9166], [-122.3004, 40.9164], [-122.3001, 40.9164], [-122.3001, 40.9166]]], [[[-122.3008, 40.9177], [-122.3008, 40.9166], [-122.2997, 40.9169], [-122.2993, 40.9153], [-122.2982, 40.9153], [-122.2993, 40.9161], [-122.2983, 40.9172], [-122.3008, 40.9177]]], [[[-122.31, 40.9151], [-122.3103, 40.9148], [-122.31, 40.9148], [-122.31, 40.9151]]], [[[-122.2982, 40.9151], [-122.2989, 40.9148], [-122.2982, 40.9145], [-122.2982, 40.9151]]], [[[-122.3077, 40.9108], [-122.3084, 40.9105], [-122.3077, 40.9103], [-122.3077, 40.9108]]], [[[-122.3066, 40.9106], [-122.307, 40.91], [-122.3066, 40.91], [-122.3066, 40.9106]]], [[[-122.3073, 40.9103], [-122.3077, 40.91], [-122.3073, 40.91], [-122.3073, 40.9103]]], [[[-122.3194, 40.9098], [-122.3194, 40.9093], [-122.3183, 40.9093], [-122.3183, 40.9095], [-122.3194, 40.9098]]], [[[-122.2902, 40.9098], [-122.2906, 40.9095], [-122.2902, 40.9095], [-122.2902, 40.9098]]], [[[-122.287, 40.9099], [-122.2874, 40.9096], [-122.287, 40.9096], [-122.287, 40.9099]]], [[[-122.2885, 40.9098], [-122.2891, 40.9093], [-122.2888, 40.9093], [-122.2885, 40.9098]]], [[[-122.2863, 40.9099], [-122.2867, 40.9093], [-122.2863, 40.9093], [-122.2863, 40.9099]]], [[[-122.3183, 40.9087], [-122.319, 40.9085], [-122.3183, 40.9085], [-122.3183, 40.9087]]], [[[-122.2856, 40.9093], [-122.2859, 40.9091], [-122.2856, 40.9091], [-122.2856, 40.9093]]], [[[-122.2888, 40.9093], [-122.2877, 40.9085], [-122.287, 40.9085], [-122.2874, 40.9093], [-122.2888, 40.9093]]], [[[-122.2938, 40.9097], [-122.2941, 40.9092], [-122.2923, 40.9081], [-122.292, 40.9087], [-122.2938, 40.9097]]], [[[-122.2898, 40.9084], [-122.2902, 40.9082], [-122.2898, 40.9082], [-122.2898, 40.9084]]], [[[-122.293, 40.9084], [-122.2934, 40.9076], [-122.293, 40.9076], [-122.293, 40.9084]]], [[[-122.288, 40.9079], [-122.2887, 40.9077], [-122.288, 40.9077], [-122.288, 40.9079]]], [[[-122.2873, 40.9077], [-122.2877, 40.9071], [-122.2873, 40.9071], [-122.2873, 40.9077]]], [[[-122.287, 40.9074], [-122.2869, 40.9069], [-122.2862, 40.9069], [-122.2862, 40.9072], [-122.287, 40.9074]]], [[[-122.2887, 40.9071], [-122.2891, 40.9068], [-122.2887, 40.9068], [-122.2887, 40.9071]]], [[[-122.2894, 40.9068], [-122.2898, 40.9066], [-122.2894, 40.9066], [-122.2894, 40.9068]]], [[[-122.2884, 40.9069], [-122.2887, 40.9066], [-122.2883, 40.9066], [-122.2884, 40.9069]]], [[[-122.2855, 40.9064], [-122.2858, 40.9061], [-122.2855, 40.9061], [-122.2855, 40.9064]]], [[[-122.2855, 40.9053], [-122.2869, 40.905], [-122.2855, 40.905], [-122.2855, 40.9053]]], [[[-122.2897, 40.9047], [-122.2901, 40.9044], [-122.2897, 40.9044], [-122.2897, 40.9047]]], [[[-122.2872, 40.9044], [-122.2876, 40.9047], [-122.2879, 40.9044], [-122.2872, 40.9044]]], [[[-122.2893, 40.9044], [-122.2897, 40.9041], [-122.2893, 40.9041], [-122.2893, 40.9044]]], [[[-122.2869, 40.9044], [-122.2876, 40.9039], [-122.2865, 40.9034], [-122.2858, 40.9042], [-122.2869, 40.9044]]], [[[-122.2868, 40.9026], [-122.2875, 40.9031], [-122.2875, 40.9025], [-122.2868, 40.9026]]], [[[-122.3273, 40.901], [-122.3277, 40.9007], [-122.3273, 40.9007], [-122.3273, 40.901]]], [[[-122.2907, 40.9014], [-122.291, 40.9011], [-122.2907, 40.9011], [-122.2907, 40.9014]]], [[[-122.2903, 40.9014], [-122.2899, 40.9006], [-122.2892, 40.9012], [-122.2889, 40.9006], [-122.2882, 40.9009], [-122.2885, 40.9014], [-122.2903, 40.9014]]], [[[-122.2889, 40.9022], [-122.2889, 40.9017], [-122.2886, 40.9017], [-122.2882, 40.9012], [-122.2875, 40.9012], [-122.2878, 40.9001], [-122.2867, 40.9004], [-122.2868, 40.9012], [-122.2846, 40.9015], [-122.285, 40.902], [-122.2889, 40.9022]], [[-122.2882, 40.9015], [-122.2878, 40.9017], [-122.2878, 40.9015], [-122.2882, 40.9015]]], [[[-122.2931, 40.8997], [-122.2935, 40.8995], [-122.2931, 40.8995], [-122.2931, 40.8997]]], [[[-122.2305, 40.8998], [-122.2308, 40.8992], [-122.2304, 40.8993], [-122.2305, 40.8998]]], [[[-122.2966, 40.8978], [-122.2966, 40.8972], [-122.2955, 40.8975], [-122.2955, 40.8978], [-122.2966, 40.8978]]], [[[-122.3146, 40.8937], [-122.315, 40.8931], [-122.3146, 40.8931], [-122.3146, 40.8937]]], [[[-122.3199, 40.8925], [-122.3203, 40.8922], [-122.3199, 40.8922], [-122.3199, 40.8925]]], [[[-122.2915, 40.8922], [-122.2918, 40.8919], [-122.2914, 40.8919], [-122.2915, 40.8922]]], [[[-122.2651, 40.8921], [-122.2655, 40.8919], [-122.2651, 40.8919], [-122.2651, 40.8921]]], [[[-122.2907, 40.8906], [-122.2907, 40.8895], [-122.2896, 40.8895], [-122.2899, 40.889], [-122.2888, 40.8887], [-122.2889, 40.8898], [-122.2907, 40.8906]]], [[[-122.2771, 40.8871], [-122.277, 40.8862], [-122.2774, 40.886], [-122.2767, 40.886], [-122.2771, 40.8871]]], [[[-122.276, 40.886], [-122.277, 40.8854], [-122.2752, 40.8852], [-122.276, 40.886]]], [[[-122.2774, 40.8854], [-122.2777, 40.8849], [-122.2773, 40.8849], [-122.2774, 40.8854]]], [[[-122.2695, 40.8856], [-122.2699, 40.8848], [-122.2695, 40.8848], [-122.2695, 40.8856]]], [[[-122.2688, 40.8845], [-122.2691, 40.8842], [-122.2688, 40.8842], [-122.2688, 40.8845]]], [[[-122.2695, 40.8842], [-122.2695, 40.8831], [-122.2684, 40.8834], [-122.2684, 40.884], [-122.2695, 40.8842]]], [[[-122.2695, 40.8831], [-122.2698, 40.8829], [-122.2694, 40.8829], [-122.2695, 40.8831]]], [[[-122.2652, 40.8821], [-122.2655, 40.8819], [-122.2651, 40.8819], [-122.2652, 40.8821]]], [[[-122.2677, 40.8834], [-122.268, 40.8824], [-122.269, 40.8815], [-122.2669, 40.8816], [-122.2676, 40.8821], [-122.267, 40.8832], [-122.2677, 40.8834]]], [[[-122.269, 40.8813], [-122.2694, 40.8807], [-122.269, 40.8807], [-122.269, 40.8813]]], [[[-122.268, 40.881], [-122.2683, 40.8807], [-122.268, 40.8807], [-122.268, 40.881]]], [[[-122.2651, 40.8794], [-122.2654, 40.8792], [-122.2651, 40.8792], [-122.2651, 40.8794]]], [[[-122.2601, 40.8784], [-122.2604, 40.8782], [-122.26, 40.8782], [-122.2601, 40.8784]]], [[[-122.2668, 40.8778], [-122.2671, 40.8775], [-122.2668, 40.8775], [-122.2668, 40.8778]]]]}, "properties": {"layer": "high_severity"}}, {"type": "Feature", "geometry": {"type": "MultiPolygon", "coordinates": [[[[-122.2354, 41.0257], [-122.2358, 41.0254], [-122.2354, 41.0254], [-122.2354, 41.0257]]], [[[-122.2347, 41.0254], [-122.2351, 41.0252], [-122.2347, 41.0252], [-122.2347, 41.0254]]], [[[-122.3478, 41.0052], [-122.3485, 41.005], [-122.3478, 41.005], [-122.3478, 41.0052]]], [[[-122.3485, 41.0039], [-122.3492, 41.0047], [-122.3495, 41.0036], [-122.3485, 41.0039]]], [[[-122.3556, 41.0027], [-122.3559, 41.0024], [-122.3556, 41.0024], [-122.3556, 41.0027]]], [[[-122.3495, 41.0028], [-122.3499, 41.0025], [-122.3495, 41.0025], [-122.3495, 41.0028]]], [[[-122.3559, 41.0024], [-122.3563, 41.0021], [-122.3559, 41.0021], [-122.3559, 41.0024]]], [[[-122.3542, 41.0054], [-122.3531, 41.0019], [-122.3495, 41.003], [-122.3513, 41.0033], [-122.3517, 41.0044], [-122.3542, 41.0054]], [[-122.3524, 41.0025], [-122.352, 41.0027], [-122.352, 41.0025], [-122.3524, 41.0025]]], [[[-122.3445, 41.0004], [-122.3452, 41.0002], [-122.3444, 41.0002], [-122.3445, 41.0004]]], [[[-122.3348, 40.9995], [-122.3351, 40.999], [-122.3348, 40.999], [-122.3348, 40.9995]]], [[[-122.3401, 40.9978], [-122.3408, 40.9975], [-122.3401, 40.9975], [-122.3401, 40.9978]]], [[[-122.3369, 40.9973], [-122.3379, 40.997], [-122.3369, 40.9971], [-122.3369, 40.9973]]], [[[-122.3361, 40.9971], [-122.3368, 40.9968], [-122.3361, 40.9968], [-122.3361, 40.9971]]], [[[-122.3579, 40.9964], [-122.3586, 40.9961], [-122.3579, 40.9961], [-122.3579, 40.9964]]], [[[-122.3575, 40.9961], [-122.3578, 40.9959], [-122.3575, 40.9959], [-122.3575, 40.9961]]], [[[-122.3511, 40.9963], [-122.3514, 40.996], [-122.3511, 40.996], [-122.3511, 40.9963]]], [[[-122.3504, 40.9963], [-122.3507, 40.996], [-122.3504, 40.996], [-122.3504, 40.9963]]], [[[-122.3486, 40.9963], [-122.3493, 40.996], [-122.3486, 40.996], [-122.3486, 40.9963]]], [[[-122.3568, 40.9959], [-122.3571, 40.9956], [-122.3568, 40.9956], [-122.3568, 40.9959]]], [[[-122.3518, 40.996], [-122.3525, 40.9957], [-122.3518, 40.9957], [-122.3518, 40.996]]], [[[-122.3428, 40.9945], [-122.3432, 40.9942], [-122.3428, 40.9943], [-122.3428, 40.9945]]], [[[-122.3421, 40.9945], [-122.3425, 40.9943], [-122.3421, 40.9943], [-122.3421, 40.9945]]], [[[-122.3392, 40.9913], [-122.3395, 40.9911], [-122.3392, 40.9911], [-122.3392, 40.9913]]], [[[-122.3548, 40.9911], [-122.3555, 40.9905], [-122.3548, 40.9905], [-122.3548, 40.9911]]], [[[-122.3534, 40.9892], [-122.3537, 40.9895], [-122.3544, 40.9886], [-122.3537, 40.9886], [-122.3534, 40.9892]]], [[[-122.3498, 40.989], [-122.3501, 40.9887], [-122.3498, 40.9887], [-122.3498, 40.989]]], [[[-122.3512, 40.989], [-122.3512, 40.9876], [-122.3508, 40.9876], [-122.3505, 40.989], [-122.3512, 40.989]]], [[[-122.3455, 40.9874], [-122.3479, 40.9869], [-122.3454, 40.9856], [-122.3455, 40.9874]]], [[[-122.3042, 40.922], [-122.3049, 40.9217], [-122.3041, 40.9217], [-122.3042, 40.922]]], [[[-122.3038, 40.9217], [-122.3041, 40.9214], [-122.3038, 40.9214], [-122.3038, 40.9217]]], [[[-122.3023, 40.9201], [-122.3027, 40.9198], [-122.3023, 40.9198], [-122.3023, 40.9201]]], [[[-122.3009, 40.9199], [-122.3012, 40.9196], [-122.3009, 40.9196], [-122.3009, 40.9199]]]]}, "properties": {"layer": "interior"}}, {"type": "Feature", "geometry": {"type": "MultiPolygon", "coordinates": [[[[-122.3478, 41.0052], [-122.3485, 41.005], [-122.3478, 41.005], [-122.3478, 41.0052]]], [[[-122.3485, 41.005], [-122.3489, 41.0047], [-122.3485, 41.0047], [-122.3485, 41.005]]], [[[-122.3556, 41.0027], [-122.3559, 41.0024], [-122.3556, 41.0024], [-122.3556, 41.0027]]], [[[-122.3559, 41.0024], [-122.3563, 41.0021], [-122.3559, 41.0021], [-122.3559, 41.0024]]], [[[-122.3579, 40.9964], [-122.3586, 40.9961], [-122.3579, 40.9961], [-122.3579, 40.9964]]], [[[-122.3575, 40.9961], [-122.3578, 40.9959], [-122.3575, 40.9959], [-122.3575, 40.9961]]], [[[-122.3568, 40.9959], [-122.3571, 40.9956], [-122.3568, 40.9956], [-122.3568, 40.9959]]], [[[-122.3518, 40.996], [-122.3525, 40.9957], [-122.3518, 40.9957], [-122.3518, 40.996]]]]}, "properties": {"layer": "cell", "cell_id": "521_1500", "seed_zone": "521", "elevation_band": "1500–2000 ft"}}, {"type": "Feature", "geometry": {"type": "MultiPolygon", "coordinates": [[[[-122.3492, 41.0047], [-122.3492, 41.0039], [-122.3495, 41.0036], [-122.3485, 41.0039], [-122.3485, 41.0047], [-122.3492, 41.0047]]], [[[-122.3495, 41.0028], [-122.3499, 41.0025], [-122.3495, 41.0025], [-122.3495, 41.0028]]], [[[-122.3542, 41.0054], [-122.3531, 41.0019], [-122.3495, 41.003], [-122.3513, 41.0033], [-122.3517, 41.0044], [-122.3542, 41.0054]], [[-122.3524, 41.0025], [-122.352, 41.0027], [-122.352, 41.0025], [-122.3524, 41.0025]]], [[[-122.3445, 41.0004], [-122.3452, 41.0002], [-122.3444, 41.0002], [-122.3445, 41.0004]]], [[[-122.3348, 40.9995], [-122.3351, 40.999], [-122.3348, 40.999], [-122.3348, 40.9995]]], [[[-122.3369, 40.9973], [-122.3376, 40.9971], [-122.3369, 40.9971], [-122.3369, 40.9973]]], [[[-122.3361, 40.9971], [-122.3365, 40.9968], [-122.3361, 40.9968], [-122.3361, 40.9971]]], [[[-122.3511, 40.9963], [-122.3514, 40.996], [-122.3511, 40.996], [-122.3511, 40.9963]]], [[[-122.3504, 40.9963], [-122.3507, 40.996], [-122.3504, 40.996], [-122.3504, 40.9963]]], [[[-122.3486, 40.9963], [-122.3493, 40.996], [-122.3486, 40.996], [-122.3486, 40.9963]]], [[[-122.3392, 40.9913], [-122.3395, 40.9911], [-122.3392, 40.9911], [-122.3392, 40.9913]]], [[[-122.3548, 40.9911], [-122.3555, 40.9905], [-122.3548, 40.9905], [-122.3548, 40.9911]]], [[[-122.3534, 40.9892], [-122.3537, 40.9895], [-122.3544, 40.9886], [-122.3537, 40.9886], [-122.3534, 40.9892]]], [[[-122.3498, 40.989], [-122.3501, 40.9887], [-122.3498, 40.9887], [-122.3498, 40.989]]], [[[-122.3512, 40.989], [-122.3512, 40.9876], [-122.3508, 40.9876], [-122.3505, 40.989], [-122.3512, 40.989]]], [[[-122.3455, 40.9874], [-122.3479, 40.9869], [-122.3454, 40.9856], [-122.3455, 40.9874]]]]}, "properties": {"layer": "cell", "cell_id": "521_2000", "seed_zone": "521", "elevation_band": "2000–2500 ft"}}, {"type": "Feature", "geometry": {"type": "MultiPolygon", "coordinates": [[[[-122.2354, 41.0257], [-122.2358, 41.0254], [-122.2354, 41.0254], [-122.2354, 41.0257]]], [[[-122.2347, 41.0254], [-122.2351, 41.0252], [-122.2347, 41.0252], [-122.2347, 41.0254]]], [[[-122.3401, 40.9978], [-122.3408, 40.9975], [-122.3401, 40.9975], [-122.3401, 40.9978]]], [[[-122.3376, 40.9973], [-122.3379, 40.997], [-122.3376, 40.9971], [-122.3376, 40.9973]]], [[[-122.3365, 40.9971], [-122.3368, 40.9968], [-122.3365, 40.9968], [-122.3365, 40.9971]]], [[[-122.3428, 40.9945], [-122.3432, 40.9942], [-122.3428, 40.9943], [-122.3428, 40.9945]]], [[[-122.3421, 40.9945], [-122.3425, 40.9943], [-122.3421, 40.9943], [-122.3421, 40.9945]]]]}, "properties": {"layer": "cell", "cell_id": "521_2500", "seed_zone": "521", "elevation_band": "2500–3000 ft"}}, {"type": "Feature", "geometry": {"type": "Polygon", "coordinates": [[[-122.3009, 40.9199], [-122.3012, 40.9196], [-122.3009, 40.9196], [-122.3009, 40.9199]]]}, "properties": {"layer": "cell", "cell_id": "521_3000", "seed_zone": "521", "elevation_band": "3000–3500 ft"}}, {"type": "Feature", "geometry": {"type": "MultiPolygon", "coordinates": [[[[-122.3042, 40.922], [-122.3049, 40.9217], [-122.3041, 40.9217], [-122.3042, 40.922]]], [[[-122.3038, 40.9217], [-122.3041, 40.9214], [-122.3038, 40.9214], [-122.3038, 40.9217]]], [[[-122.3023, 40.9201], [-122.3027, 40.9198], [-122.3023, 40.9198], [-122.3023, 40.9201]]]]}, "properties": {"layer": "cell", "cell_id": "521_3500", "seed_zone": "521", "elevation_band": "3500–4000 ft"}}]}
