{"type": "FeatureCollection", "features": [{"type": "Feature", "geometry": {"type": "MultiPolygon", "coordinates": [[[[-120.8168, 40.3871], [-120.8166, 40.3873], [-120.8166, 40.3871], [-120.8168, 40.3871]]], [[[-120.8161, 40.3873], [-120.8163, 40.3884], [-120.8157, 40.3883], [-120.8161, 40.3873]]], [[[-120.8126, 40.3917], [-120.8126, 40.3913], [-120.8128, 40.3916], [-120.8126, 40.3917]]], [[[-120.8378, 40.4048], [-120.8375, 40.4045], [-120.8377, 40.4044], [-120.8378, 40.4048]]], [[[-120.786, 40.435], [-120.7872, 40.4346], [-120.7864, 40.4332], [-120.7876, 40.4311], [-120.785, 40.4306], [-120.7855, 40.4293], [-120.7829, 40.4303], [-120.7824, 40.4291], [-120.7812, 40.4297], [-120.781, 40.4282], [-120.7796, 40.4292], [-120.7778, 40.4289], [-120.776, 40.43], [-120.7741, 40.4299], [-120.7738, 40.4285], [-120.7758, 40.4289], [-120.7755, 40.4274], [-120.7733, 40.4269], [-120.7726, 40.4277], [-120.7717, 40.4274], [-120.7709, 40.4242], [-120.7698, 40.4239], [-120.7706, 40.4229], [-120.7692, 40.4218], [-120.7698, 40.4209], [-120.7685, 40.4189], [-120.7712, 40.4186], [-120.7733, 40.4171], [-120.772, 40.4168], [-120.7698, 40.4137], [-120.7619, 40.41], [-120.7671, 40.4079], [-120.7699, 40.4052], [-120.7712, 40.4024], [-120.7767, 40.3981], [-120.779, 40.3969], [-120.7834, 40.3968], [-120.7809, 40.395], [-120.7819, 40.3942], [-120.7799, 40.3935], [-120.7793, 40.3912], [-120.7807, 40.3886], [-120.7818, 40.3882], [-120.7824, 40.3888], [-120.7841, 40.3866], [-120.7856, 40.3859], [-120.7849, 40.3845], [-120.7855, 40.3831], [-120.7868, 40.3836], [-120.7884, 40.3822], [-120.7908, 40.3836], [-120.7924, 40.3855], [-120.7919, 40.3876], [-120.7941, 40.3866], [-120.7941, 40.3882], [-120.7949, 40.3886], [-120.7941, 40.3895], [-120.7975, 40.3901], [-120.797, 40.3922], [-120.7977, 40.3926], [-120.8005, 40.3928], [-120.8074, 40.3904], [-120.8091, 40.3907], [-120.8094, 40.3919], [-120.8085, 40.3918], [-120.8085, 40.3928], [-120.8063, 40.3924], [-120.8062, 40.3916], [-120.8051, 40.3923], [-120.8066, 40.3938], [-120.8084, 40.3937], [-120.8089, 40.3953], [-120.8109, 40.3919], [-120.8122, 40.3923], [-120.8141, 40.3915], [-120.8142, 40.3903], [-120.8153, 40.3902], [-120.8157, 40.3892], [-120.8177, 40.3887], [-120.8184, 40.3874], [-120.8239, 40.385], [-120.8272, 40.3874], [-120.8288, 40.3868], [-120.8298, 40.3877], [-120.8305, 40.387], [-120.8351, 40.3882], [-120.8354, 40.3889], [-120.8378, 40.3889], [-120.8381, 40.3909], [-120.8367, 40.3931], [-120.8369, 40.3972], [-120.8352, 40.3985], [-120.8368, 40.399], [-120.8369, 40.4002], [-120.8379, 40.4005], [-120.8372, 40.4012], [-120.8383, 40.4016], [-120.8379, 40.4028], [-120.8362, 40.4034], [-120.8363, 40.4039], [-120.8371, 40.4035], [-120.8376, 40.404], [-120.8371, 40.4052], [-120.8392, 40.4053], [-120.8383, 40.4061], [-120.8395, 40.407], [-120.8401, 40.4088], [-120.8391, 40.4109], [-120.8392, 40.4129], [-120.8404, 40.4133], [-120.8407, 40.4142], [-120.8404, 40.4169], [-120.8434, 40.4174], [-120.8417, 40.4187], [-120.8437, 40.4176], [-120.8455, 40.4176], [-120.8489, 40.4198], [-120.8521, 40.4199], [-120.8565, 40.4217], [-120.8636, 40.4206], [-120.8612, 40.4247], [-120.8591, 40.4251], [-120.8581, 40.4272], [-120.8557, 40.429], [-120.8539, 40.4287], [-120.8526, 40.4293], [-120.8513, 40.4286], [-120.8514, 40.4297], [-120.8476, 40.4315], [-120.8434, 40.4309], [-120.8426, 40.4327], [-120.8457, 40.4319], [-120.8454, 40.434], [-120.8442, 40.4347], [-120.8387, 40.4344], [-120.8377, 40.4332], [-120.8365, 40.4337], [-120.8362, 40.4325], [-120.8378, 40.431], [-120.837, 40.43], [-120.8358, 40.4319], [-120.8348, 40.4316], [-120.8352, 40.4319], [-120.8333, 40.4337], [-120.8261, 40.4351], [-120.8262, 40.4356], [-120.8239, 40.437], [-120.8226, 40.4365], [-120.821, 40.4379], [-120.819, 40.4378], [-120.8181, 40.4386], [-120.8145, 40.439], [-120.8082, 40.4413], [-120.8046, 40.442], [-120.8061, 40.4433], [-120.8077, 40.4434], [-120.8074, 40.4443], [-120.8103, 40.4478], [-120.8104, 40.4489], [-120.812, 40.4489], [-120.8117, 40.4505], [-120.8103, 40.4517], [-120.811, 40.4534], [-120.8087, 40.4521], [-120.8074, 40.4527], [-120.8069, 40.4522], [-120.8074, 40.4532], [-120.8067, 40.4536], [-120.808, 40.4539], [-120.8084, 40.4554], [-120.8054, 40.4555], [-120.8056, 40.4534], [-120.8049, 40.4531], [-120.8043, 40.4544], [-120.8029, 40.454], [-120.8025, 40.4545], [-120.801, 40.4536], [-120.8004, 40.4539], [-120.8012, 40.4555], [-120.8003, 40.4565], [-120.7993, 40.4568], [-120.7979, 40.4557], [-120.7964, 40.4586], [-120.7957, 40.4586], [-120.7954, 40.4575], [-120.7935, 40.457], [-120.7925, 40.458], [-120.7931, 40.4584], [-120.7921, 40.4585], [-120.7921, 40.4577], [-120.7911, 40.4579], [-120.792, 40.4574], [-120.7916, 40.4557], [-120.7897, 40.4548], [-120.7893, 40.4561], [-120.7881, 40.4557], [-120.7876, 40.4561], [-120.7874, 40.4574], [-120.7857, 40.4571], [-120.7844, 40.4597], [-120.785, 40.4611], [-120.7831, 40.4606], [-120.7829, 40.4598], [-120.7817, 40.4603], [-120.7809, 40.4593], [-120.7812, 40.4603], [-120.7804, 40.4606], [-120.7827, 40.461], [-120.7816, 40.4619], [-120.7825, 40.4621], [-120.7818, 40.4625], [-120.7823, 40.4628], [-120.7813, 40.4633], [-120.779, 40.4625], [-120.7803, 40.4633], [-120.7786, 40.465], [-120.7772, 40.4654], [-120.7769, 40.4647], [-120.776, 40.4653], [-120.7737, 40.4648], [-120.7717, 40.4627], [-120.7707, 40.4631], [-120.7703, 40.4621], [-120.7691, 40.4624], [-120.7692, 40.4618], [-120.7681, 40.4618], [-120.7678, 40.4632], [-120.7668, 40.4616], [-120.7663, 40.462], [-120.7664, 40.4608], [-120.765, 40.4607], [-120.7651, 40.4596], [-120.7658, 40.4603], [-120.7669, 40.46], [-120.7654, 40.4589], [-120.7663, 40.4587], [-120.7659, 40.4582], [-120.7669, 40.4586], [-120.7655, 40.4577], [-120.7659, 40.4566], [-120.7653, 40.4558], [-120.7663, 40.4557], [-120.7663, 40.4545], [-120.7716, 40.45], [-120.7764, 40.448], [-120.7775, 40.4466], [-120.7771, 40.4454], [-120.7779, 40.4449], [-120.778, 40.4423], [-120.7809, 40.4421], [-120.7816, 40.443], [-120.7834, 40.4428], [-120.7841, 40.4445], [-120.7833, 40.4418], [-120.7843, 40.4412], [-120.7836, 40.4406], [-120.7807, 40.4408], [-120.7799, 40.4385], [-120.7813, 40.4396], [-120.7833, 40.4401], [-120.783, 40.4384], [-120.7836, 40.4373], [-120.7861, 40.436], [-120.786, 40.435]]], [[[-120.81, 40.4464], [-120.81, 40.4462], [-120.8101, 40.4463], [-120.81, 40.4464]]], [[[-120.8105, 40.4466], [-120.8101, 40.4471], [-120.8101, 40.4467], [-120.8105, 40.4466]]], [[[-120.8093, 40.4541], [-120.8089, 40.4542], [-120.809, 40.454], [-120.8093, 40.4541]]], [[[-120.8011, 40.4572], [-120.8009, 40.4569], [-120.8011, 40.457], [-120.8011, 40.4572]]], [[[-120.7986, 40.4574], [-120.7987, 40.457], [-120.7988, 40.4573], [-120.7986, 40.4574]]], [[[-120.8007, 40.4574], [-120.8001, 40.4573], [-120.8005, 40.4572], [-120.8007, 40.4574]]], [[[-120.7933, 40.4575], [-120.7933, 40.4573], [-120.7934, 40.4575], [-120.7933, 40.4575]]], [[[-120.7941, 40.4575], [-120.7939, 40.4573], [-120.7941, 40.4574], [-120.7941, 40.4575]]], [[[-120.7939, 40.4578], [-120.7936, 40.4577], [-120.7938, 40.4577], [-120.7939, 40.4578]]], [[[-120.8002, 40.4579], [-120.8002, 40.4576], [-120.8005, 40.4578], [-120.8002, 40.4579]]], [[[-120.795, 40.458], [-120.7948, 40.4578], [-120.795, 40.4578], [-120.795, 40.458]]], [[[-120.7979, 40.4582], [-120.7979, 40.4579], [-120.798, 40.4581], [-120.7979, 40.4582]]], [[[-120.7954, 40.4588], [-120.7954, 40.4586], [-120.7955, 40.4586], [-120.7954, 40.4588]]], [[[-120.792, 40.4589], [-120.7916, 40.4587], [-120.792, 40.4588], [-120.792, 40.4589]]], [[[-120.7871, 40.3823], [-120.7869, 40.3821], [-120.7871, 40.3821], [-120.7871, 40.3823]]], [[[-120.7862, 40.3826], [-120.786, 40.3824], [-120.7861, 40.3824], [-120.7862, 40.3826]]], [[[-120.7846, 40.3852], [-120.7843, 40.3855], [-120.7844, 40.3851], [-120.7846, 40.3852]]], [[[-120.789, 40.4565], [-120.7886, 40.4565], [-120.7886, 40.4563], [-120.789, 40.4565]]], [[[-120.7886, 40.4571], [-120.7882, 40.4572], [-120.7883, 40.4568], [-120.7886, 40.4571]]], [[[-120.7867, 40.4582], [-120.7866, 40.4581], [-120.7867, 40.4582], [-120.7867, 40.4582]]], [[[-120.786, 40.4607], [-120.786, 40.4605], [-120.7861, 40.4606], [-120.786, 40.4607]]], [[[-120.7915, 40.4608], [-120.7914, 40.4607], [-120.7916, 40.4607], [-120.7915, 40.4608]]], [[[-120.7854, 40.4611], [-120.7853, 40.4609], [-120.7854, 40.461], [-120.7854, 40.4611]]], [[[-120.7862, 40.4611], [-120.786, 40.4609], [-120.7862, 40.461], [-120.7862, 40.4611]]], [[[-120.7895, 40.4613], [-120.7897, 40.4612], [-120.7897, 40.4613], [-120.7895, 40.4613]]], [[[-120.7856, 40.4615], [-120.7856, 40.4612], [-120.7858, 40.4612], [-120.7856, 40.4615]]], [[[-120.7863, 40.4619], [-120.7865, 40.4619], [-120.7863, 40.462], [-120.7863, 40.4619]]], [[[-120.7858, 40.4621], [-120.7858, 40.4618], [-120.7859, 40.462], [-120.7858, 40.4621]]], [[[-120.7868, 40.4628], [-120.787, 40.4626], [-120.787, 40.4628], [-120.7868, 40.4628]]], [[[-120.7839, 40.4645], [-120.7837, 40.4642], [-120.7839, 40.4643], [-120.7839, 40.4645]]], [[[-120.784, 40.4651], [-120.7838, 40.4647], [-120.7842, 40.4648], [-120.784, 40.4651]]], [[[-120.7837, 40.4654], [-120.7831, 40.4653], [-120.7833, 40.4652], [-120.7837, 40.4654]]], [[[-120.7847, 40.4665], [-120.7849, 40.4664], [-120.785, 40.4665], [-120.7847, 40.4665]]], [[[-120.7773, 40.3867], [-120.7759, 40.3883], [-120.7735, 40.3875], [-120.7749, 40.3862], [-120.7773, 40.3867]]], [[[-120.7736, 40.4314], [-120.7734, 40.4306], [-120.7755, 40.4308], [-120.7764, 40.4318], [-120.7736, 40.4314]]], [[[-120.771, 40.44], [-120.7731, 40.4402], [-120.7736, 40.4416], [-120.7717, 40.4417], [-120.771, 40.44]]], [[[-120.7648, 40.4561], [-120.7646, 40.4558], [-120.7648, 40.4558], [-120.7648, 40.4561]]], [[[-120.7646, 40.4589], [-120.7644, 40.4597], [-120.764, 40.4598], [-120.7633, 40.4586], [-120.7646, 40.4589]]], [[[-120.7637, 40.4601], [-120.7634, 40.4599], [-120.7637, 40.4598], [-120.7637, 40.4601]]], [[[-120.7631, 40.4615], [-120.7632, 40.4613], [-120.7633, 40.4615], [-120.7631, 40.4615]]], [[[-120.7662, 40.4625], [-120.7655, 40.4625], [-120.7654, 40.4622], [-120.766, 40.4619], [-120.7662, 40.4625]]], [[[-120.7703, 40.4626], [-120.7699, 40.4624], [-120.7702, 40.4624], [-120.7703, 40.4626]]], [[[-120.782, 40.4637], [-120.7827, 40.4637], [-120.7825, 40.4639], [-120.782, 40.4637]]], [[[-120.7721, 40.4639], [-120.7719, 40.4637], [-120.772, 40.4637], [-120.7721, 40.4639]]], [[[-120.7683, 40.464], [-120.7681, 40.464], [-120.7681, 40.4639], [-120.7683, 40.464]]], [[[-120.771, 40.4641], [-120.7716, 40.464], [-120.7714, 40.4643], [-120.771, 40.4641]]], [[[-120.7819, 40.464], [-120.7814, 40.4643], [-120.7818, 40.4639], [-120.7819, 40.464]]], [[[-120.7834, 40.4643], [-120.7829, 40.4643], [-120.783, 40.4642], [-120.7834, 40.4643]]], [[[-120.7779, 40.4656], [-120.7797, 40.4645], [-120.7807, 40.4644], [-120.7797, 40.4654], [-120.7779, 40.4656]]], [[[-120.7779, 40.4666], [-120.7778, 40.4663], [-120.7781, 40.4664], [-120.7779, 40.4666]]], [[[-120.7741, 40.4693], [-120.7744, 40.4692], [-120.7743, 40.4694], [-120.7741, 40.4693]]]]}, "properties": {"layer": "perimeter"}}, {"type": "Feature", "geometry": {"type": "MultiPolygon", "coordinates": [[[[-120.786, 40.4347], [-120.7872, 40.4346], [-120.7864, 40.4332], [-120.7876, 40.4311], [-120.785, 40.4306], [-120.7855, 40.4293], [-120.7829, 40.4303], [-120.7824, 40.4291], [-120.7812, 40.4297], [-120.781, 40.4282], [-120.7796, 40.4292], [-120.7778, 40.4289], [-120.776, 40.43], [-120.7741, 40.4299], [-120.7738, 40.4285], [-120.7758, 40.4289], [-120.7755, 40.4274], [-120.7733, 40.4269], [-120.7726, 40.4277], [-120.7717, 40.4274], [-120.7709, 40.4242], [-120.7698, 40.4239], [-120.7706, 40.4229], [-120.7692, 40.4218], [-120.7698, 40.4209], [-120.7685, 40.4189], [-120.7712, 40.4186], [-120.7733, 40.4171], [-120.772, 40.4168], [-120.7698, 40.4137], [-120.7619, 40.4101], [-120.7671, 40.4079], [-120.7699, 40.4052], [-120.7712, 40.4024], [-120.7747, 40.3994], [-120.7807, 40.3994], [-120.7806, 40.3972], [-120.7863, 40.397], [-120.7905, 40.3997], [-120.7908, 40.3992], [-120.7982, 40.4008], [-120.8066, 40.4065], [-120.8142, 40.4064], [-120.8141, 40.4245], [-120.8519, 40.4245], [-120.8514, 40.4297], [-120.8476, 40.4315], [-120.8435, 40.4309], [-120.8427, 40.4317], [-120.8426, 40.4327], [-120.8457, 40.4319], [-120.8454, 40.434], [-120.8442, 40.4347], [-120.8387, 40.4344], [-120.8377, 40.4332], [-120.8365, 40.4337], [-120.8362, 40.4325], [-120.8378, 40.431], [-120.837, 40.43], [-120.8358, 40.4319], [-120.8348, 40.4316], [-120.8352, 40.4319], [-120.8333, 40.4337], [-120.8261, 40.4351], [-120.8262, 40.4356], [-120.8239, 40.437], [-120.8226, 40.4365], [-120.821, 40.4379], [-120.819, 40.4378], [-120.8181, 40.4386], [-120.8145, 40.439], [-120.8082, 40.4413], [-120.8046, 40.442], [-120.8061, 40.4433], [-120.8077, 40.4434], [-120.8074, 40.4443], [-120.8103, 40.4478], [-120.8104, 40.4489], [-120.812, 40.4489], [-120.8117, 40.4505], [-120.8103, 40.4517], [-120.811, 40.4534], [-120.8087, 40.4521], [-120.8074, 40.4527], [-120.8069, 40.4522], [-120.8074, 40.4532], [-120.8067, 40.4536], [-120.808, 40.4539], [-120.8084, 40.4554], [-120.8054, 40.4555], [-120.8056, 40.4534], [-120.8049, 40.4531], [-120.8043, 40.4544], [-120.8029, 40.454], [-120.8025, 40.4545], [-120.801, 40.4536], [-120.8004, 40.4539], [-120.8012, 40.4555], [-120.8003, 40.4565], [-120.7993, 40.4568], [-120.7979, 40.4557], [-120.7964, 40.4586], [-120.7957, 40.4586], [-120.7954, 40.4575], [-120.7935, 40.457], [-120.7925, 40.458], [-120.7931, 40.4584], [-120.7921, 40.4585], [-120.7921, 40.4577], [-120.7911, 40.4579], [-120.792, 40.4574], [-120.7916, 40.4557], [-120.7897, 40.4548], [-120.7893, 40.4561], [-120.7881, 40.4557], [-120.7876, 40.4561], [-120.7874, 40.4574], [-120.7857, 40.4571], [-120.7844, 40.4597], [-120.785, 40.4611], [-120.7831, 40.4606], [-120.7829, 40.4598], [-120.7817, 40.4603], [-120.7809, 40.4593], [-120.7812, 40.4603], [-120.7804, 40.4606], [-120.7827, 40.461], [-120.7816, 40.4619], [-120.7825, 40.4621], [-120.7818, 40.4625], [-120.7823, 40.4628], [-120.7813, 40.4633], [-120.779, 40.4625], [-120.7803, 40.4633], [-120.7786, 40.465], [-120.7772, 40.4654], [-120.7769, 40.4647], [-120.776, 40.4653], [-120.7737, 40.4648], [-120.7717, 40.4627], [-120.7707, 40.4631], [-120.7703, 40.4621], [-120.7691, 40.4624], [-120.7692, 40.4618], [-120.7681, 40.4618], [-120.7678, 40.4632], [-120.7668, 40.4616], [-120.7663, 40.462], [-120.7664, 40.4608], [-120.765, 40.4607], [-120.7651, 40.4596], [-120.7658, 40.4603], [-120.7669, 40.46], [-120.7654, 40.4589], [-120.7663, 40.4587], [-120.7659, 40.4582], [-120.7669, 40.4586], [-120.7655, 40.4577], [-120.7659, 40.4566], [-120.7653, 40.4558], [-120.7663, 40.4557], [-120.7663, 40.4545], [-120.7716, 40.45], [-120.7764, 40.448], [-120.7775, 40.4466], [-120.7771, 40.4454], [-120.7779, 40.4449], [-120.778, 40.4423], [-120.7809, 40.4421], [-120.7816, 40.443], [-120.7834, 40.4428], [-120.7841, 40.4445], [-120.7833, 40.4418], [-120.7843, 40.4412], [-120.7836, 40.4406], [-120.7807, 40.4408], [-120.7799, 40.4385], [-120.7813, 40.4396], [-120.7833, 40.4401], [-120.783, 40.4384], [-120.7836, 40.4373], [-120.7861, 40.436], [-120.786, 40.4347]]], [[[-120.7821, 40.3957], [-120.7809, 40.395], [-120.7819, 40.3942], [-120.7798, 40.3934], [-120.7793, 40.3912], [-120.7807, 40.3886], [-120.7818, 40.3882], [-120.7824, 40.3888], [-120.7841, 40.3866], [-120.7856, 40.3859], [-120.7849, 40.3845], [-120.7855, 40.3831], [-120.7868, 40.3836], [-120.7884, 40.3822], [-120.7908, 40.3836], [-120.7924, 40.3855], [-120.7919, 40.3876], [-120.7941, 40.3866], [-120.7941, 40.3882], [-120.7949, 40.3886], [-120.7941, 40.3895], [-120.7955, 40.3897], [-120.7954, 40.3938], [-120.799, 40.3938], [-120.799, 40.3956], [-120.7904, 40.3957], [-120.7904, 40.3981], [-120.7855, 40.3957], [-120.7821, 40.3957]]], [[[-120.8099, 40.4463], [-120.8101, 40.4463], [-120.81, 40.4464], [-120.8099, 40.4463]]], [[[-120.8106, 40.4473], [-120.81, 40.447], [-120.8102, 40.4466], [-120.8107, 40.4468], [-120.8106, 40.4473]]], [[[-120.8093, 40.4542], [-120.809, 40.454], [-120.8092, 40.454], [-120.8093, 40.4542]]], [[[-120.8007, 40.4571], [-120.8011, 40.457], [-120.8011, 40.4572], [-120.8007, 40.4571]]], [[[-120.7984, 40.4573], [-120.7987, 40.457], [-120.7988, 40.4573], [-120.7984, 40.4573]]], [[[-120.8003, 40.4574], [-120.8003, 40.4571], [-120.8007, 40.4574], [-120.8003, 40.4574]]], [[[-120.7932, 40.4574], [-120.7934, 40.4573], [-120.7933, 40.4575], [-120.7932, 40.4574]]], [[[-120.794, 40.4575], [-120.7939, 40.4573], [-120.7941, 40.4574], [-120.794, 40.4575]]], [[[-120.7936, 40.4578], [-120.7938, 40.4577], [-120.7939, 40.4578], [-120.7936, 40.4578]]], [[[-120.8001, 40.4577], [-120.8005, 40.4578], [-120.8002, 40.4579], [-120.8001, 40.4577]]], [[[-120.7948, 40.4579], [-120.795, 40.4578], [-120.795, 40.458], [-120.7948, 40.4579]]], [[[-120.7978, 40.458], [-120.7981, 40.458], [-120.7979, 40.4582], [-120.7978, 40.458]]], [[[-120.7954, 40.4588], [-120.7955, 40.4586], [-120.7955, 40.4588], [-120.7954, 40.4588]]], [[[-120.7916, 40.4589], [-120.7917, 40.4587], [-120.792, 40.4588], [-120.7916, 40.4589]]], [[[-120.7869, 40.3822], [-120.7871, 40.3821], [-120.7871, 40.3823], [-120.7869, 40.3822]]], [[[-120.7861, 40.3826], [-120.7861, 40.3824], [-120.7862, 40.3826], [-120.7861, 40.3826]]], [[[-120.7846, 40.3853], [-120.7843, 40.3854], [-120.7844, 40.3851], [-120.7846, 40.3853]]], [[[-120.7889, 40.4567], [-120.7886, 40.4563], [-120.789, 40.4566], [-120.7889, 40.4567]]], [[[-120.7886, 40.4572], [-120.7882, 40.4569], [-120.7885, 40.4568], [-120.7886, 40.4572]]], [[[-120.7865, 40.4582], [-120.7867, 40.4581], [-120.7867, 40.4582], [-120.7865, 40.4582]]], [[[-120.7858, 40.4606], [-120.7861, 40.4606], [-120.786, 40.4607], [-120.7858, 40.4606]]], [[[-120.7915, 40.4609], [-120.7916, 40.4607], [-120.7916, 40.4608], [-120.7915, 40.4609]]], [[[-120.7852, 40.461], [-120.7854, 40.461], [-120.7854, 40.4611], [-120.7852, 40.461]]], [[[-120.7859, 40.4611], [-120.7862, 40.461], [-120.7862, 40.4611], [-120.7859, 40.4611]]], [[[-120.7895, 40.4613], [-120.7897, 40.4613], [-120.7896, 40.4613], [-120.7895, 40.4613]]], [[[-120.7855, 40.4614], [-120.7858, 40.4612], [-120.7856, 40.4615], [-120.7855, 40.4614]]], [[[-120.7863, 40.4619], [-120.7865, 40.462], [-120.7863, 40.462], [-120.7863, 40.4619]]], [[[-120.7856, 40.4621], [-120.7858, 40.4618], [-120.7859, 40.462], [-120.7856, 40.4621]]], [[[-120.7868, 40.4627], [-120.787, 40.4628], [-120.7868, 40.4628], [-120.7868, 40.4627]]], [[[-120.7836, 40.4644], [-120.7839, 40.4643], [-120.7839, 40.4645], [-120.7836, 40.4644]]], [[[-120.784, 40.4651], [-120.7838, 40.4647], [-120.7842, 40.4648], [-120.784, 40.4651]]], [[[-120.7838, 40.4656], [-120.7831, 40.4653], [-120.7833, 40.4652], [-120.7838, 40.4656]]], [[[-120.7848, 40.4664], [-120.785, 40.4665], [-120.7847, 40.4665], [-120.7848, 40.4664]]], [[[-120.7773, 40.3865], [-120.7759, 40.3883], [-120.7735, 40.3875], [-120.7749, 40.3862], [-120.7773, 40.3865]]], [[[-120.7732, 40.4311], [-120.7734, 40.4306], [-120.7755, 40.4308], [-120.7764, 40.4318], [-120.7732, 40.4311]]], [[[-120.7709, 40.4403], [-120.7731, 40.4402], [-120.7736, 40.4416], [-120.7717, 40.4417], [-120.7709, 40.4403]]], [[[-120.7648, 40.4561], [-120.7646, 40.4558], [-120.7648, 40.4558], [-120.7648, 40.4561]]], [[[-120.7643, 40.4588], [-120.764, 40.4598], [-120.7633, 40.4586], [-120.7643, 40.4588]]], [[[-120.7635, 40.46], [-120.7637, 40.4598], [-120.7637, 40.4601], [-120.7635, 40.46]]], [[[-120.7631, 40.4615], [-120.7633, 40.4613], [-120.7633, 40.4615], [-120.7631, 40.4615]]], [[[-120.7662, 40.4626], [-120.7655, 40.4625], [-120.7654, 40.4622], [-120.766, 40.4619], [-120.7662, 40.4626]]], [[[-120.7702, 40.4627], [-120.7699, 40.4624], [-120.7702, 40.4624], [-120.7702, 40.4627]]], [[[-120.7824, 40.4634], [-120.7825, 40.4639], [-120.782, 40.4637], [-120.7824, 40.4634]]], [[[-120.772, 40.4639], [-120.7719, 40.4637], [-120.7721, 40.4638], [-120.772, 40.4639]]], [[[-120.7682, 40.4641], [-120.7681, 40.4639], [-120.7683, 40.464], [-120.7682, 40.4641]]], [[[-120.771, 40.464], [-120.7716, 40.4641], [-120.7714, 40.4643], [-120.771, 40.464]]], [[[-120.7818, 40.4647], [-120.7814, 40.4643], [-120.7818, 40.4639], [-120.7819, 40.464], [-120.7818, 40.4647]]], [[[-120.7834, 40.4645], [-120.783, 40.4642], [-120.7834, 40.4643], [-120.7834, 40.4645]]], [[[-120.7779, 40.4656], [-120.7797, 40.4645], [-120.7807, 40.4644], [-120.7797, 40.4654], [-120.7779, 40.4656]]], [[[-120.7779, 40.4666], [-120.7778, 40.4663], [-120.7781, 40.4664], [-120.7779, 40.4666]]], [[[-120.7741, 40.4693], [-120.7744, 40.4692], [-120.7743, 40.4694], [-120.7741, 40.4693]]], [[[-120.8059, 40.4055], [-120.7991, 40.4002], [-120.7916, 40.3992], [-120.8048, 40.3992], [-120.8048, 40.4028], [-120.8095, 40.4028], [-120.8095, 40.4057], [-120.8059, 40.4055]]]]}, "properties": {"layer": "retained"}}, {"type": "Feature", "geometry": {"type": "MultiPolygon", "coordinates": [[[[-120.7768, 40.4639], [-120.7775, 40.4641], [-120.7782, 40.4639], [-120.7768, 40.4639]]], [[[-120.7764, 40.4636], [-120.7768, 40.4633], [-120.7764, 40.4633], [-120.7764, 40.4636]]], [[[-120.7757, 40.4636], [-120.7761, 40.4633], [-120.7757, 40.4633], [-120.7757, 40.4636]]], [[[-120.7733, 40.4636], [-120.7736, 40.4634], [-120.7733, 40.4634], [-120.7733, 40.4636]]], [[[-120.7817, 40.463], [-120.7821, 40.4628], [-120.7817, 40.4628], [-120.7817, 40.463]]], [[[-120.7743, 40.4623], [-120.7747, 40.462], [-120.7743, 40.462], [-120.7743, 40.4623]]], [[[-120.775, 40.4639], [-120.7754, 40.4628], [-120.7747, 40.4628], [-120.7747, 40.4625], [-120.7743, 40.4625], [-120.7743, 40.4623], [-120.774, 40.4623], [-120.774, 40.4617], [-120.7722, 40.4617], [-120.775, 40.4639]]], [[[-120.7778, 40.4617], [-120.7782, 40.4614], [-120.7778, 40.4614], [-120.7778, 40.4617]]], [[[-120.7817, 40.4625], [-120.7817, 40.462], [-120.781, 40.462], [-120.7814, 40.4611], [-120.7789, 40.4609], [-120.7793, 40.4614], [-120.7782, 40.4617], [-120.7817, 40.4625]]], [[[-120.7725, 40.4612], [-120.7729, 40.4609], [-120.7725, 40.4609], [-120.7725, 40.4612]]], [[[-120.7849, 40.4611], [-120.7849, 40.4603], [-120.7835, 40.4603], [-120.7845, 40.4606], [-120.7849, 40.4611]]], [[[-120.7779, 40.4631], [-120.7782, 40.4622], [-120.7771, 40.4623], [-120.7771, 40.4609], [-120.7757, 40.4604], [-120.7754, 40.4615], [-120.7761, 40.4617], [-120.775, 40.4617], [-120.7754, 40.4625], [-120.7779, 40.4631]]], [[[-120.7768, 40.4606], [-120.7775, 40.4604], [-120.7768, 40.4604], [-120.7768, 40.4606]]], [[[-120.7842, 40.4598], [-120.7845, 40.4595], [-120.7842, 40.4595], [-120.7842, 40.4598]]], [[[-120.776, 40.4596], [-120.7764, 40.4593], [-120.776, 40.4593], [-120.776, 40.4596]]], [[[-120.7697, 40.4596], [-120.77, 40.4593], [-120.7697, 40.4593], [-120.7697, 40.4596]]], [[[-120.7725, 40.4585], [-120.7729, 40.4582], [-120.7725, 40.4582], [-120.7725, 40.4585]]], [[[-120.7803, 40.4582], [-120.7806, 40.4576], [-120.7803, 40.4576], [-120.7803, 40.4582]]], [[[-120.7746, 40.4593], [-120.7757, 40.4587], [-120.7757, 40.4579], [-120.7743, 40.4579], [-120.7746, 40.4574], [-120.7728, 40.4577], [-120.7729, 40.4582], [-120.7746, 40.4585], [-120.7746, 40.4593]], [[-120.7753, 40.4582], [-120.7746, 40.4585], [-120.7746, 40.4582], [-120.7753, 40.4582]]], [[[-120.7768, 40.4598], [-120.7782, 40.4595], [-120.7785, 40.4582], [-120.7799, 40.4582], [-120.7796, 40.4571], [-120.7789, 40.4571], [-120.7792, 40.4579], [-120.7771, 40.4577], [-120.7771, 40.4579], [-120.776, 40.4585], [-120.776, 40.459], [-120.7771, 40.459], [-120.7768, 40.4598]], [[-120.7778, 40.459], [-120.7775, 40.4593], [-120.7775, 40.459], [-120.7778, 40.459]]], [[[-120.7955, 40.457], [-120.7958, 40.4573], [-120.7962, 40.457], [-120.7955, 40.457]]], [[[-120.7799, 40.4568], [-120.7806, 40.4574], [-120.7806, 40.4568], [-120.7799, 40.4568]]], [[[-120.7704, 40.4566], [-120.7707, 40.4563], [-120.7704, 40.4563], [-120.7704, 40.4566]]], [[[-120.7841, 40.4563], [-120.7849, 40.456], [-120.7841, 40.456], [-120.7841, 40.4563]]], [[[-120.7997, 40.4559], [-120.8008, 40.4553], [-120.7997, 40.4551], [-120.7997, 40.4559]]], [[[-120.7994, 40.4556], [-120.7993, 40.4551], [-120.7986, 40.4551], [-120.7986, 40.4554], [-120.7994, 40.4556]]], [[[-120.7679, 40.4556], [-120.7682, 40.4553], [-120.7679, 40.4553], [-120.7679, 40.4556]]], [[[-120.7824, 40.4552], [-120.7827, 40.4549], [-120.7824, 40.4549], [-120.7824, 40.4552]]], [[[-120.7828, 40.459], [-120.7831, 40.4584], [-120.7849, 40.4584], [-120.7856, 40.4565], [-120.7838, 40.4565], [-120.7834, 40.4552], [-120.7827, 40.4552], [-120.7831, 40.4563], [-120.782, 40.4563], [-120.7824, 40.4555], [-120.7813, 40.4547], [-120.7802, 40.4552], [-120.7803, 40.4566], [-120.7824, 40.4565], [-120.7817, 40.4582], [-120.7828, 40.459]], [[-120.7835, 40.4579], [-120.7831, 40.4582], [-120.7831, 40.4579], [-120.7835, 40.4579]], [[-120.7838, 40.4573], [-120.7835, 40.4576], [-120.7835, 40.4573], [-120.7838, 40.4573]], [[-120.7849, 40.4571], [-120.7845, 40.4573], [-120.7845, 40.4571], [-120.7849, 40.4571]]], [[[-120.7841, 40.4549], [-120.7845, 40.4546], [-120.7841, 40.4546], [-120.7841, 40.4549]]], [[[-120.7679, 40.455], [-120.7682, 40.4547], [-120.7679, 40.4547], [-120.7679, 40.455]]], [[[-120.7834, 40.4546], [-120.7838, 40.4544], [-120.7834, 40.4544], [-120.7834, 40.4546]]], [[[-120.7831, 40.4544], [-120.7834, 40.4541], [-120.7831, 40.4541], [-120.7831, 40.4544]]], [[[-120.7955, 40.457], [-120.7951, 40.4548], [-120.7926, 40.4538], [-120.793, 40.4559], [-120.7955, 40.457]]], [[[-120.7827, 40.4541], [-120.7831, 40.4538], [-120.7827, 40.4538], [-120.7827, 40.4541]]], [[[-120.7923, 40.4535], [-120.793, 40.4532], [-120.7922, 40.453], [-120.7923, 40.4535]]], [[[-120.7841, 40.4533], [-120.7845, 40.453], [-120.7841, 40.453], [-120.7841, 40.4533]]], [[[-120.8099, 40.4526], [-120.8103, 40.4523], [-120.8099, 40.4523], [-120.8099, 40.4526]]], [[[-120.7958, 40.4527], [-120.7961, 40.4524], [-120.7958, 40.4524], [-120.7958, 40.4527]]], [[[-120.7915, 40.4524], [-120.7919, 40.4522], [-120.7915, 40.4522], [-120.7915, 40.4524]]], [[[-120.7915, 40.4516], [-120.7919, 40.4514], [-120.7915, 40.4514], [-120.7915, 40.4516]]], [[[-120.7891, 40.4525], [-120.789, 40.4514], [-120.7883, 40.4514], [-120.788, 40.4525], [-120.7891, 40.4525]]], [[[-120.783, 40.4514], [-120.7834, 40.4517], [-120.7837, 40.4514], [-120.783, 40.4514]]], [[[-120.7873, 40.4522], [-120.7873, 40.4514], [-120.7862, 40.4511], [-120.7862, 40.4517], [-120.7873, 40.4522]]], [[[-120.7972, 40.4508], [-120.7975, 40.4505], [-120.7972, 40.4505], [-120.7972, 40.4508]]], [[[-120.7862, 40.4508], [-120.7866, 40.4506], [-120.7862, 40.4506], [-120.7862, 40.4508]]], [[[-120.7897, 40.4508], [-120.7894, 40.4503], [-120.7887, 40.4506], [-120.7887, 40.4508], [-120.7897, 40.4508]]], [[[-120.7897, 40.4506], [-120.7905, 40.4503], [-120.7897, 40.4503], [-120.7897, 40.4506]]], [[[-120.7742, 40.4507], [-120.7745, 40.4504], [-120.7742, 40.4504], [-120.7742, 40.4507]]], [[[-120.8057, 40.4502], [-120.806, 40.4499], [-120.8057, 40.4499], [-120.8057, 40.4502]]], [[[-120.7894, 40.4503], [-120.7897, 40.45], [-120.7894, 40.45], [-120.7894, 40.4503]]], [[[-120.7873, 40.4498], [-120.7876, 40.4495], [-120.7873, 40.4495], [-120.7873, 40.4498]]], [[[-120.7774, 40.4493], [-120.7781, 40.449], [-120.7774, 40.449], [-120.7774, 40.4493]]], [[[-120.7715, 40.4599], [-120.7714, 40.4572], [-120.7721, 40.4574], [-120.7728, 40.4561], [-120.7732, 40.4561], [-120.7739, 40.4569], [-120.775, 40.4566], [-120.775, 40.4577], [-120.7757, 40.4577], [-120.7764, 40.4582], [-120.7767, 40.4571], [-120.7753, 40.4555], [-120.7756, 40.455], [-120.7764, 40.455], [-120.7767, 40.4555], [-120.7778, 40.455], [-120.7778, 40.4539], [-120.7788, 40.4539], [-120.7781, 40.4522], [-120.7792, 40.4525], [-120.7795, 40.4514], [-120.7781, 40.4517], [-120.7788, 40.4504], [-120.7774, 40.4493], [-120.7766, 40.4493], [-120.7763, 40.4487], [-120.7749, 40.4493], [-120.7756, 40.4506], [-120.7752, 40.4504], [-120.7745, 40.4509], [-120.7742, 40.4507], [-120.7735, 40.4507], [-120.7731, 40.4517], [-120.7721, 40.4512], [-120.7707, 40.452], [-120.7707, 40.4528], [-120.77, 40.4526], [-120.77, 40.4531], [-120.7686, 40.4534], [-120.7693, 40.4547], [-120.77, 40.4545], [-120.7703, 40.4547], [-120.7703, 40.4553], [-120.7714, 40.455], [-120.7721, 40.4555], [-120.7714, 40.4561], [-120.7718, 40.4569], [-120.7704, 40.4569], [-120.7704, 40.4566], [-120.77, 40.4564], [-120.7686, 40.4564], [-120.77, 40.4574], [-120.769, 40.4582], [-120.7715, 40.4599]], [[-120.7735, 40.4558], [-120.7732, 40.4561], [-120.7732, 40.4558], [-120.7735, 40.4558]], [[-120.7739, 40.4552], [-120.7728, 40.4553], [-120.7725, 40.4544], [-120.7735, 40.4544], [-120.7739, 40.4552]], [[-120.7771, 40.4544], [-120.7764, 40.455], [-120.7763, 40.4544], [-120.7771, 40.4544]], [[-120.7756, 40.4542], [-120.7753, 40.4547], [-120.7753, 40.4542], [-120.7756, 40.4542]], [[-120.7707, 40.4545], [-120.7703, 40.4547], [-120.7703, 40.4545], [-120.7707, 40.4545]], [[-120.7721, 40.4539], [-120.771, 40.4545], [-120.771, 40.4539], [-120.7721, 40.4539]], [[-120.7756, 40.4539], [-120.7749, 40.4536], [-120.7749, 40.4531], [-120.7756, 40.4533], [-120.7756, 40.4539]], [[-120.7739, 40.4539], [-120.7724, 40.4534], [-120.7731, 40.4523], [-120.7742, 40.4525], [-120.7735, 40.4528], [-120.7742, 40.4531], [-120.7739, 40.4539]], [[-120.7752, 40.4509], [-120.7749, 40.4512], [-120.7749, 40.4509], [-120.7752, 40.4509]], [[-120.777, 40.4506], [-120.7767, 40.4509], [-120.7767, 40.4506], [-120.777, 40.4506]], [[-120.7767, 40.4504], [-120.7763, 40.4506], [-120.7763, 40.4504], [-120.7767, 40.4504]]], [[[-120.7766, 40.449], [-120.7773, 40.4487], [-120.7766, 40.4487], [-120.7766, 40.449]]], [[[-120.8067, 40.4499], [-120.8071, 40.4488], [-120.8056, 40.448], [-120.8057, 40.4496], [-120.8067, 40.4499]]], [[[-120.7964, 40.4484], [-120.7968, 40.4481], [-120.7964, 40.4481], [-120.7964, 40.4484]]], [[[-120.7837, 40.4484], [-120.7841, 40.4482], [-120.7837, 40.4482], [-120.7837, 40.4484]]], [[[-120.777, 40.4485], [-120.7773, 40.4482], [-120.777, 40.4482], [-120.777, 40.4485]]], [[[-120.7851, 40.4487], [-120.7851, 40.4479], [-120.7844, 40.4479], [-120.7844, 40.4484], [-120.7851, 40.4487]]], [[[-120.801, 40.4489], [-120.8003, 40.4486], [-120.8007, 40.4478], [-120.8, 40.4478], [-120.7996, 40.4489], [-120.801, 40.4489]]], [[[-120.7812, 40.4484], [-120.7816, 40.4479], [-120.7812, 40.4479], [-120.7812, 40.4484]]], [[[-120.7975, 40.4478], [-120.7978, 40.4473], [-120.7975, 40.4473], [-120.7975, 40.4478]]], [[[-120.7968, 40.4473], [-120.7971, 40.447], [-120.7968, 40.447], [-120.7968, 40.4473]]], [[[-120.7826, 40.4474], [-120.783, 40.4471], [-120.7826, 40.4471], [-120.7826, 40.4474]]], [[[-120.7816, 40.4474], [-120.7819, 40.4471], [-120.7816, 40.4471], [-120.7816, 40.4474]]], [[[-120.7851, 40.4473], [-120.7855, 40.4468], [-120.7851, 40.4468], [-120.7851, 40.4473]]], [[[-120.8035, 40.447], [-120.8039, 40.4467], [-120.8035, 40.4467], [-120.8035, 40.447]]], [[[-120.7915, 40.447], [-120.7918, 40.4468], [-120.7915, 40.4468], [-120.7915, 40.447]]], [[[-120.783, 40.4471], [-120.7833, 40.4468], [-120.783, 40.4468], [-120.783, 40.4471]]], [[[-120.8067, 40.4467], [-120.807, 40.4464], [-120.8067, 40.4464], [-120.8067, 40.4467]]], [[[-120.7901, 40.4476], [-120.7904, 40.4468], [-120.7893, 40.4462], [-120.7886, 40.447], [-120.7901, 40.4476]]], [[[-120.8038, 40.4461], [-120.8042, 40.4464], [-120.8053, 40.4461], [-120.8038, 40.4461]]], [[[-120.8, 40.4464], [-120.8003, 40.4462], [-120.8, 40.4462], [-120.8, 40.4464]]], [[[-120.7961, 40.4502], [-120.7961, 40.4489], [-120.7972, 40.4489], [-120.7971, 40.4483], [-120.7968, 40.4486], [-120.7964, 40.4486], [-120.7964, 40.4484], [-120.7961, 40.4484], [-120.795, 40.4473], [-120.7961, 40.4462], [-120.795, 40.4462], [-120.7954, 40.4467], [-120.7943, 40.4467], [-120.7947, 40.4489], [-120.7936, 40.4489], [-120.7936, 40.4494], [-120.7961, 40.4502]]], [[[-120.7922, 40.4465], [-120.7925, 40.4462], [-120.7922, 40.4462], [-120.7922, 40.4465]]], [[[-120.7971, 40.4467], [-120.7971, 40.4459], [-120.7964, 40.4459], [-120.7964, 40.4467], [-120.7971, 40.4467]]], [[[-120.7806, 40.4506], [-120.7812, 40.4498], [-120.7805, 40.4485], [-120.7812, 40.4466], [-120.7798, 40.446], [-120.7798, 40.4471], [-120.7787, 40.4474], [-120.7788, 40.4482], [-120.7795, 40.4482], [-120.7795, 40.4495], [-120.7806, 40.4506]], [[-120.7802, 40.4474], [-120.7795, 40.4479], [-120.7791, 40.4474], [-120.7802, 40.4474]]], [[[-120.8035, 40.4461], [-120.8038, 40.4459], [-120.8035, 40.4459], [-120.8035, 40.4461]]], [[[-120.7996, 40.4462], [-120.8, 40.4459], [-120.7996, 40.4459], [-120.7996, 40.4462]]], [[[-120.7936, 40.4462], [-120.7939, 40.4459], [-120.7936, 40.4459], [-120.7936, 40.4462]]], [[[-120.7978, 40.4465], [-120.7993, 40.4464], [-120.7989, 40.4456], [-120.7978, 40.4465]]], [[[-120.7943, 40.4457], [-120.7946, 40.4459], [-120.795, 40.4457], [-120.7943, 40.4457]]], [[[-120.7886, 40.446], [-120.7897, 40.4457], [-120.7886, 40.4457], [-120.7886, 40.446]]], [[[-120.8025, 40.448], [-120.8035, 40.4475], [-120.8028, 40.4453], [-120.8, 40.4467], [-120.8003, 40.4475], [-120.8025, 40.448]], [[-120.8017, 40.447], [-120.801, 40.4472], [-120.801, 40.447], [-120.8017, 40.447]], [[-120.801, 40.4467], [-120.8007, 40.447], [-120.8007, 40.4467], [-120.801, 40.4467]], [[-120.8017, 40.4464], [-120.8014, 40.4467], [-120.8014, 40.4464], [-120.8017, 40.4464]]], [[[-120.8042, 40.4456], [-120.8045, 40.4453], [-120.8042, 40.4453], [-120.8042, 40.4456]]], [[[-120.7897, 40.4457], [-120.79, 40.4454], [-120.7897, 40.4454], [-120.7897, 40.4457]]], [[[-120.8017, 40.4453], [-120.8021, 40.4451], [-120.8017, 40.4451], [-120.8017, 40.4453]]], [[[-120.7961, 40.4454], [-120.7964, 40.4451], [-120.7961, 40.4451], [-120.7961, 40.4454]]], [[[-120.7964, 40.4451], [-120.7968, 40.4448], [-120.7964, 40.4448], [-120.7964, 40.4451]]], [[[-120.7844, 40.4471], [-120.7844, 40.4465], [-120.7851, 40.4468], [-120.7851, 40.4452], [-120.7833, 40.4455], [-120.783, 40.4444], [-120.783, 40.4457], [-120.7816, 40.446], [-120.7816, 40.4466], [-120.7833, 40.446], [-120.7844, 40.4471]]], [[[-120.7957, 40.4448], [-120.7964, 40.4443], [-120.796, 40.4443], [-120.7957, 40.4448]]], [[[-120.7943, 40.4449], [-120.7946, 40.4443], [-120.7943, 40.4443], [-120.7943, 40.4449]]], [[[-120.8049, 40.4442], [-120.8052, 40.444], [-120.8049, 40.444], [-120.8049, 40.4442]]], [[[-120.8031, 40.4451], [-120.8042, 40.4453], [-120.8042, 40.4437], [-120.8038, 40.4451], [-120.8031, 40.4451]]], [[[-120.7886, 40.4441], [-120.7893, 40.4438], [-120.7886, 40.4438], [-120.7886, 40.4441]]], [[[-120.7883, 40.4438], [-120.7886, 40.4435], [-120.7883, 40.4435], [-120.7883, 40.4438]]], [[[-120.7936, 40.4435], [-120.7939, 40.4432], [-120.7936, 40.4432], [-120.7936, 40.4435]]], [[[-120.7971, 40.4424], [-120.7974, 40.4421], [-120.7971, 40.4421], [-120.7971, 40.4424]]], [[[-120.7957, 40.4419], [-120.796, 40.4421], [-120.7964, 40.4419], [-120.7957, 40.4419]]], [[[-120.7928, 40.4422], [-120.7942, 40.4419], [-120.7928, 40.4416], [-120.7928, 40.4422]]], [[[-120.7879, 40.4414], [-120.7882, 40.4411], [-120.7879, 40.4411], [-120.7879, 40.4414]]], [[[-120.8041, 40.441], [-120.8045, 40.4407], [-120.8041, 40.4407], [-120.8041, 40.441]]], [[[-120.7946, 40.4405], [-120.7949, 40.4403], [-120.7946, 40.4403], [-120.7946, 40.4405]]], [[[-120.8041, 40.4399], [-120.8045, 40.4397], [-120.8041, 40.4397], [-120.8041, 40.4399]]], [[[-120.8116, 40.4396], [-120.8119, 40.4393], [-120.8115, 40.4393], [-120.8116, 40.4396]]], [[[-120.8059, 40.4396], [-120.8062, 40.4394], [-120.8059, 40.4394], [-120.8059, 40.4396]]], [[[-120.7956, 40.4397], [-120.796, 40.4394], [-120.7956, 40.4394], [-120.7956, 40.4397]]], [[[-120.7921, 40.4397], [-120.7925, 40.4395], [-120.7921, 40.4395], [-120.7921, 40.4397]]], [[[-120.7907, 40.4422], [-120.7914, 40.4414], [-120.7921, 40.4419], [-120.7925, 40.4411], [-120.7925, 40.44], [-120.7911, 40.4406], [-120.7918, 40.4397], [-120.791, 40.4392], [-120.7882, 40.4414], [-120.7896, 40.4414], [-120.7907, 40.4422]], [[-120.7907, 40.4403], [-120.7903, 40.4406], [-120.7903, 40.4403], [-120.7907, 40.4403]]], [[[-120.8031, 40.4386], [-120.8034, 40.4383], [-120.8031, 40.4383], [-120.8031, 40.4386]]], [[[-120.7967, 40.4394], [-120.7977, 40.4386], [-120.797, 40.4384], [-120.7974, 40.4378], [-120.796, 40.4381], [-120.7967, 40.4394]]], [[[-120.8182, 40.4377], [-120.8186, 40.4374], [-120.8182, 40.4374], [-120.8182, 40.4377]]], [[[-120.796, 40.4378], [-120.7963, 40.4375], [-120.796, 40.4375], [-120.796, 40.4378]]], [[[-120.7945, 40.4367], [-120.7949, 40.4365], [-120.7945, 40.4365], [-120.7945, 40.4367]]], [[[-120.8091, 40.4404], [-120.8091, 40.4399], [-120.8101, 40.4402], [-120.8108, 40.4391], [-120.8119, 40.4391], [-120.8126, 40.4364], [-120.8105, 40.4361], [-120.8105, 40.4393], [-120.8077, 40.4394], [-120.8077, 40.4402], [-120.8091, 40.4404]]], [[[-120.7974, 40.4375], [-120.7974, 40.4356], [-120.7959, 40.4354], [-120.7953, 40.4365], [-120.7974, 40.4375]]], [[[-120.8232, 40.4355], [-120.8235, 40.4352], [-120.8232, 40.4352], [-120.8232, 40.4355]]], [[[-120.8055, 40.4356], [-120.8055, 40.4351], [-120.8044, 40.4351], [-120.8044, 40.4353], [-120.8055, 40.4356]]], [[[-120.8034, 40.4353], [-120.8037, 40.4351], [-120.8034, 40.4351], [-120.8034, 40.4353]]], [[[-120.7956, 40.4354], [-120.7959, 40.4351], [-120.7956, 40.4351], [-120.7956, 40.4354]]], [[[-120.8058, 40.4351], [-120.8062, 40.4348], [-120.8058, 40.4348], [-120.8058, 40.4351]]], [[[-120.8242, 40.4366], [-120.8242, 40.4357], [-120.8257, 40.436], [-120.8246, 40.4344], [-120.8239, 40.4349], [-120.8242, 40.4366]], [[-120.8249, 40.4352], [-120.8246, 40.4355], [-120.8246, 40.4352], [-120.8249, 40.4352]]], [[[-120.8044, 40.4348], [-120.8048, 40.4345], [-120.8044, 40.4345], [-120.8044, 40.4348]]], [[[-120.8125, 40.4339], [-120.8129, 40.4337], [-120.8125, 40.4337], [-120.8125, 40.4339]]], [[[-120.832, 40.4335], [-120.8323, 40.4333], [-120.832, 40.4333], [-120.832, 40.4335]]], [[[-120.8003, 40.4421], [-120.8017, 40.441], [-120.8038, 40.4407], [-120.8031, 40.4402], [-120.802, 40.4405], [-120.802, 40.4402], [-120.8013, 40.4399], [-120.8016, 40.4391], [-120.8002, 40.4389], [-120.8009, 40.4354], [-120.803, 40.4367], [-120.8038, 40.4383], [-120.8034, 40.4397], [-120.8041, 40.4394], [-120.8048, 40.4397], [-120.8059, 40.4388], [-120.8055, 40.4378], [-120.8045, 40.4378], [-120.8055, 40.4375], [-120.8052, 40.4364], [-120.8041, 40.4353], [-120.803, 40.4362], [-120.8023, 40.4351], [-120.8034, 40.4348], [-120.8009, 40.4345], [-120.8009, 40.4332], [-120.7998, 40.434], [-120.8005, 40.4351], [-120.7988, 40.4375], [-120.7988, 40.4391], [-120.7974, 40.4392], [-120.7964, 40.4411], [-120.7964, 40.4416], [-120.7988, 40.4413], [-120.8003, 40.4421]], [[-120.7985, 40.441], [-120.7978, 40.4413], [-120.7978, 40.441], [-120.7985, 40.441]], [[-120.8031, 40.4405], [-120.8027, 40.4407], [-120.8027, 40.4405], [-120.8031, 40.4405]], [[-120.8017, 40.4402], [-120.8013, 40.4408], [-120.8013, 40.4402], [-120.8017, 40.4402]], [[-120.8002, 40.44], [-120.7999, 40.4402], [-120.7999, 40.44], [-120.8002, 40.44]], [[-120.8002, 40.4389], [-120.7999, 40.4394], [-120.7999, 40.4389], [-120.8002, 40.4389]], [[-120.8041, 40.4372], [-120.8037, 40.4375], [-120.8037, 40.4372], [-120.8041, 40.4372]]], [[[-120.8412, 40.4332], [-120.8415, 40.4329], [-120.8412, 40.4329], [-120.8412, 40.4332]]], [[[-120.8419, 40.4329], [-120.8422, 40.4326], [-120.8419, 40.4327], [-120.8419, 40.4329]]], [[[-120.8394, 40.4337], [-120.8408, 40.4329], [-120.8394, 40.4321], [-120.8394, 40.4337]]], [[[-120.8334, 40.4338], [-120.8334, 40.4332], [-120.8345, 40.4322], [-120.8323, 40.4324], [-120.8323, 40.4333], [-120.8334, 40.4338]]], [[[-120.8398, 40.4321], [-120.8401, 40.4319], [-120.8398, 40.4319], [-120.8398, 40.4321]]], [[[-120.8415, 40.4321], [-120.8419, 40.4316], [-120.8415, 40.4316], [-120.8415, 40.4321]]], [[[-120.8345, 40.4322], [-120.8348, 40.4316], [-120.8344, 40.4316], [-120.8345, 40.4322]]], [[[-120.804, 40.4318], [-120.8044, 40.4315], [-120.804, 40.4316], [-120.804, 40.4318]]], [[[-120.8415, 40.4316], [-120.8415, 40.4308], [-120.8401, 40.4313], [-120.8401, 40.4316], [-120.8415, 40.4316]]], [[[-120.833, 40.4311], [-120.8334, 40.4308], [-120.833, 40.4308], [-120.833, 40.4311]]], [[[-120.8284, 40.4311], [-120.8291, 40.4308], [-120.8284, 40.4309], [-120.8284, 40.4311]]], [[[-120.832, 40.4327], [-120.8323, 40.4314], [-120.8316, 40.4306], [-120.8305, 40.4306], [-120.8302, 40.4311], [-120.8316, 40.4311], [-120.832, 40.4327]]], [[[-120.8351, 40.4311], [-120.8355, 40.4305], [-120.8351, 40.4305], [-120.8351, 40.4311]]], [[[-120.8401, 40.4308], [-120.8404, 40.4305], [-120.8401, 40.4305], [-120.8401, 40.4308]]], [[[-120.8083, 40.4356], [-120.809, 40.4353], [-120.809, 40.434], [-120.8065, 40.4326], [-120.8069, 40.4318], [-120.8062, 40.4315], [-120.8069, 40.4307], [-120.8051, 40.4305], [-120.8051, 40.4318], [-120.8037, 40.4329], [-120.8062, 40.4329], [-120.8058, 40.4345], [-120.8083, 40.4356]], [[-120.8065, 40.434], [-120.8062, 40.4342], [-120.8062, 40.434], [-120.8065, 40.434]]], [[[-120.8447, 40.4307], [-120.8454, 40.4305], [-120.8447, 40.4302], [-120.8447, 40.4307]]], [[[-120.8316, 40.4306], [-120.832, 40.4303], [-120.8316, 40.4303], [-120.8316, 40.4306]]], [[[-120.8302, 40.4308], [-120.8305, 40.43], [-120.8295, 40.4298], [-120.8291, 40.4308], [-120.8302, 40.4308]]], [[[-120.8197, 40.4377], [-120.8207, 40.4368], [-120.8204, 40.4363], [-120.8228, 40.436], [-120.8225, 40.4352], [-120.8221, 40.4358], [-120.8193, 40.4355], [-120.82, 40.4339], [-120.821, 40.4339], [-120.8214, 40.4328], [-120.8235, 40.4325], [-120.8238, 40.4317], [-120.8221, 40.4312], [-120.8214, 40.4322], [-120.821, 40.4312], [-120.821, 40.432], [-120.8192, 40.4317], [-120.8185, 40.4323], [-120.8185, 40.4317], [-120.8161, 40.4317], [-120.8164, 40.4307], [-120.8178, 40.4307], [-120.8175, 40.4296], [-120.816, 40.4296], [-120.8164, 40.4304], [-120.8125, 40.4299], [-120.8104, 40.4304], [-120.8104, 40.4299], [-120.8093, 40.4302], [-120.809, 40.4296], [-120.8086, 40.4307], [-120.8107, 40.4307], [-120.8104, 40.4315], [-120.8111, 40.4315], [-120.8112, 40.4358], [-120.8126, 40.4361], [-120.8122, 40.4358], [-120.8126, 40.4353], [-120.8125, 40.4339], [-120.8122, 40.4339], [-120.8125, 40.4323], [-120.814, 40.4328], [-120.8143, 40.432], [-120.8143, 40.4328], [-120.8168, 40.4328], [-120.8168, 40.4334], [-120.8157, 40.4334], [-120.8161, 40.4347], [-120.8154, 40.4342], [-120.8154, 40.4355], [-120.8172, 40.4369], [-120.8168, 40.4377], [-120.8182, 40.4371], [-120.8197, 40.4377]], [[-120.8186, 40.4366], [-120.8179, 40.4369], [-120.8179, 40.4366], [-120.8186, 40.4366]], [[-120.8193, 40.436], [-120.8189, 40.4363], [-120.8189, 40.436], [-120.8193, 40.436]], [[-120.8171, 40.4342], [-120.8168, 40.4344], [-120.8168, 40.4342], [-120.8171, 40.4342]], [[-120.82, 40.4333], [-120.8196, 40.4336], [-120.8196, 40.4333], [-120.82, 40.4333]], [[-120.821, 40.4328], [-120.8207, 40.4331], [-120.8207, 40.4328], [-120.821, 40.4328]], [[-120.821, 40.4323], [-120.8207, 40.4325], [-120.8207, 40.4323], [-120.821, 40.4323]], [[-120.8175, 40.4323], [-120.8171, 40.4325], [-120.8171, 40.4323], [-120.8175, 40.4323]], [[-120.8154, 40.4326], [-120.8147, 40.4326], [-120.8147, 40.4323], [-120.815, 40.4323], [-120.815, 40.432], [-120.8154, 40.432], [-120.8154, 40.4326]], [[-120.8224, 40.432], [-120.8221, 40.4322], [-120.8221, 40.432], [-120.8224, 40.432]], [[-120.8157, 40.4317], [-120.8154, 40.432], [-120.8154, 40.4317], [-120.8157, 40.4317]]], [[[-120.8507, 40.4296], [-120.851, 40.4293], [-120.8507, 40.4293], [-120.8507, 40.4296]]], [[[-120.8507, 40.4291], [-120.851, 40.4288], [-120.8507, 40.4288], [-120.8507, 40.4291]]], [[[-120.8008, 40.4294], [-120.8015, 40.4291], [-120.8008, 40.4291], [-120.8008, 40.4294]]], [[[-120.8249, 40.4295], [-120.8273, 40.4295], [-120.8273, 40.429], [-120.8249, 40.4287], [-120.8249, 40.4295]]], [[[-120.851, 40.4288], [-120.8514, 40.4285], [-120.851, 40.4285], [-120.851, 40.4288]]], [[[-120.8496, 40.4291], [-120.85, 40.4285], [-120.8489, 40.4286], [-120.8489, 40.4288], [-120.8496, 40.4291]]], [[[-120.8157, 40.429], [-120.8164, 40.4285], [-120.8157, 40.4285], [-120.8157, 40.429]]], [[[-120.81, 40.4296], [-120.81, 40.4288], [-120.809, 40.4285], [-120.809, 40.4294], [-120.81, 40.4296]]], [[[-120.8397, 40.4286], [-120.8401, 40.4283], [-120.8397, 40.4283], [-120.8397, 40.4286]]], [[[-120.8394, 40.4283], [-120.8397, 40.4281], [-120.8394, 40.4281], [-120.8394, 40.4283]]], [[[-120.85, 40.428], [-120.8507, 40.4277], [-120.85, 40.4277], [-120.85, 40.428]]], [[[-120.8493, 40.428], [-120.8496, 40.4277], [-120.8493, 40.4277], [-120.8493, 40.428]]], [[[-120.844, 40.428], [-120.8443, 40.4278], [-120.8439, 40.4278], [-120.844, 40.428]]], [[[-120.8351, 40.4281], [-120.8355, 40.4278], [-120.8351, 40.4278], [-120.8351, 40.4281]]], [[[-120.8252, 40.4282], [-120.8259, 40.4279], [-120.8252, 40.4279], [-120.8252, 40.4282]]], [[[-120.8485, 40.4277], [-120.8489, 40.4275], [-120.8485, 40.4275], [-120.8485, 40.4277]]], [[[-120.8454, 40.4278], [-120.8457, 40.4275], [-120.8454, 40.4275], [-120.8454, 40.4278]]], [[[-120.8355, 40.4278], [-120.8358, 40.4276], [-120.8355, 40.4276], [-120.8355, 40.4278]]], [[[-120.8259, 40.4279], [-120.8263, 40.4276], [-120.8259, 40.4276], [-120.8259, 40.4279]]], [[[-120.8348, 40.4281], [-120.8347, 40.4273], [-120.8344, 40.4273], [-120.8341, 40.4281], [-120.8348, 40.4281]]], [[[-120.8277, 40.4276], [-120.828, 40.4273], [-120.8277, 40.4273], [-120.8277, 40.4276]]], [[[-120.8263, 40.4276], [-120.8266, 40.4274], [-120.8263, 40.4274], [-120.8263, 40.4276]]], [[[-120.8241, 40.4276], [-120.8245, 40.4274], [-120.8241, 40.4274], [-120.8241, 40.4276]]], [[[-120.7998, 40.4337], [-120.7998, 40.4327], [-120.8009, 40.4329], [-120.7998, 40.4324], [-120.8009, 40.4318], [-120.8008, 40.431], [-120.8047, 40.4305], [-120.8044, 40.4297], [-120.803, 40.4299], [-120.8033, 40.4289], [-120.8047, 40.4291], [-120.804, 40.4272], [-120.8033, 40.428], [-120.8029, 40.4272], [-120.8012, 40.4278], [-120.8019, 40.4294], [-120.8005, 40.43], [-120.7994, 40.4319], [-120.7984, 40.4321], [-120.7984, 40.4329], [-120.7998, 40.4337]], [[-120.8019, 40.4297], [-120.8015, 40.4299], [-120.8015, 40.4297], [-120.8019, 40.4297]], [[-120.8029, 40.4289], [-120.8026, 40.4291], [-120.8026, 40.4289], [-120.8029, 40.4289]], [[-120.804, 40.428], [-120.8036, 40.4286], [-120.8036, 40.428], [-120.804, 40.428]], [[-120.8026, 40.4278], [-120.8022, 40.4281], [-120.8022, 40.4278], [-120.8026, 40.4278]]], [[[-120.8185, 40.4277], [-120.8188, 40.4271], [-120.8185, 40.4271], [-120.8185, 40.4277]]], [[[-120.8082, 40.4272], [-120.8089, 40.4277], [-120.8089, 40.4272], [-120.8082, 40.4272]]], [[[-120.8266, 40.4274], [-120.8273, 40.4271], [-120.8266, 40.4271], [-120.8266, 40.4274]]], [[[-120.8178, 40.4274], [-120.8181, 40.4271], [-120.8178, 40.4271], [-120.8178, 40.4274]]], [[[-120.8302, 40.4271], [-120.8309, 40.4268], [-120.8301, 40.4268], [-120.8302, 40.4271]]], [[[-120.8273, 40.4271], [-120.828, 40.4268], [-120.8273, 40.4268], [-120.8273, 40.4271]]], [[[-120.833, 40.427], [-120.8326, 40.4265], [-120.8319, 40.4268], [-120.8319, 40.427], [-120.833, 40.427]]], [[[-120.8408, 40.4267], [-120.8411, 40.4264], [-120.8408, 40.4264], [-120.8408, 40.4267]]], [[[-120.8298, 40.4268], [-120.8301, 40.4265], [-120.8298, 40.4265], [-120.8298, 40.4268]]], [[[-120.8517, 40.4283], [-120.8517, 40.4261], [-120.851, 40.4261], [-120.851, 40.4283], [-120.8517, 40.4283]]], [[[-120.8301, 40.4265], [-120.8305, 40.4262], [-120.8301, 40.4262], [-120.8301, 40.4265]]], [[[-120.8347, 40.4265], [-120.8351, 40.4259], [-120.834, 40.426], [-120.834, 40.4262], [-120.8347, 40.4265]]], [[[-120.844, 40.4302], [-120.8436, 40.4291], [-120.8422, 40.4283], [-120.8425, 40.427], [-120.8439, 40.4264], [-120.8414, 40.4256], [-120.8415, 40.427], [-120.8404, 40.4273], [-120.8401, 40.4283], [-120.8411, 40.4283], [-120.8408, 40.4291], [-120.8422, 40.4291], [-120.844, 40.4302]], [[-120.8418, 40.4272], [-120.8415, 40.4275], [-120.8415, 40.4273], [-120.8418, 40.4272]], [[-120.8425, 40.4267], [-120.8422, 40.427], [-120.8422, 40.4267], [-120.8425, 40.4267]]], [[[-120.8393, 40.4262], [-120.8393, 40.4256], [-120.8379, 40.4257], [-120.8383, 40.4262], [-120.8393, 40.4262]]], [[[-120.8407, 40.4259], [-120.8411, 40.4256], [-120.8407, 40.4256], [-120.8407, 40.4259]]], [[[-120.8333, 40.426], [-120.8337, 40.4257], [-120.8333, 40.4257], [-120.8333, 40.426]]], [[[-120.8273, 40.426], [-120.828, 40.4255], [-120.8277, 40.4255], [-120.8273, 40.426]]], [[[-120.8496, 40.4256], [-120.8499, 40.4253], [-120.8496, 40.4253], [-120.8496, 40.4256]]], [[[-120.8411, 40.4256], [-120.8414, 40.4254], [-120.8411, 40.4254], [-120.8411, 40.4256]]], [[[-120.8393, 40.4254], [-120.8397, 40.4251], [-120.8393, 40.4251], [-120.8393, 40.4254]]], [[[-120.804, 40.4256], [-120.8043, 40.4253], [-120.804, 40.4253], [-120.804, 40.4256]]], [[[-120.8422, 40.4256], [-120.8429, 40.4251], [-120.8421, 40.4248], [-120.8422, 40.4256]]], [[[-120.8344, 40.4257], [-120.8333, 40.4246], [-120.8319, 40.4249], [-120.8319, 40.4254], [-120.8344, 40.4257]]], [[[-120.8489, 40.4286], [-120.8489, 40.428], [-120.8485, 40.428], [-120.8485, 40.4277], [-120.8482, 40.4277], [-120.8478, 40.4269], [-120.8496, 40.425], [-120.8485, 40.4245], [-120.8485, 40.4259], [-120.8471, 40.4259], [-120.8471, 40.4269], [-120.8461, 40.4278], [-120.8489, 40.4286]]], [[[-120.8506, 40.4258], [-120.8513, 40.4256], [-120.8513, 40.4245], [-120.8503, 40.4245], [-120.8506, 40.4258]]], [[[-120.8439, 40.4248], [-120.8443, 40.4245], [-120.8439, 40.4245], [-120.8439, 40.4248]]], [[[-120.8043, 40.4251], [-120.8047, 40.4248], [-120.8043, 40.4248], [-120.8043, 40.4251]]], [[[-120.822, 40.4255], [-120.8227, 40.4249], [-120.8234, 40.4252], [-120.8238, 40.4244], [-120.8216, 40.4244], [-120.822, 40.4255]]], [[[-120.8163, 40.425], [-120.8167, 40.4244], [-120.8163, 40.4244], [-120.8163, 40.425]]], [[[-120.8266, 40.4246], [-120.8269, 40.4244], [-120.8266, 40.4244], [-120.8266, 40.4246]]], [[[-120.8206, 40.4247], [-120.8213, 40.4244], [-120.8206, 40.4244], [-120.8206, 40.4247]]], [[[-120.8047, 40.4248], [-120.805, 40.4245], [-120.8047, 40.4245], [-120.8047, 40.4248]]], [[[-120.8043, 40.4245], [-120.8047, 40.4243], [-120.8043, 40.4243], [-120.8043, 40.4245]]], [[[-120.7916, 40.4246], [-120.7919, 40.4243], [-120.7916, 40.4243], [-120.7916, 40.4246]]], [[[-120.8047, 40.4243], [-120.805, 40.424], [-120.8047, 40.424], [-120.8047, 40.4243]]], [[[-120.8121, 40.4237], [-120.8124, 40.4234], [-120.8121, 40.4234], [-120.8121, 40.4237]]], [[[-120.8047, 40.4234], [-120.805, 40.4232], [-120.8047, 40.4232], [-120.8047, 40.4234]]], [[[-120.8142, 40.4258], [-120.8142, 40.425], [-120.816, 40.4253], [-120.816, 40.4247], [-120.8142, 40.4245], [-120.8142, 40.4234], [-120.8128, 40.4226], [-120.8132, 40.4245], [-120.8125, 40.4256], [-120.8142, 40.4258]], [[-120.8142, 40.4245], [-120.8135, 40.4247], [-120.8135, 40.4245], [-120.8142, 40.4245]]], [[[-120.8128, 40.4223], [-120.8131, 40.4218], [-120.8128, 40.4218], [-120.8128, 40.4223]]], [[[-120.8089, 40.4221], [-120.8096, 40.4221], [-120.8099, 40.4218], [-120.8089, 40.4221]]], [[[-120.7792, 40.4223], [-120.7795, 40.422], [-120.7792, 40.422], [-120.7792, 40.4223]]], [[[-120.7994, 40.4237], [-120.7993, 40.4232], [-120.8001, 40.4235], [-120.8011, 40.4227], [-120.8, 40.4219], [-120.7979, 40.4216], [-120.7986, 40.4229], [-120.7976, 40.4238], [-120.7994, 40.4237]]], [[[-120.7947, 40.4219], [-120.7951, 40.4216], [-120.7947, 40.4216], [-120.7947, 40.4219]]], [[[-120.8096, 40.4215], [-120.8099, 40.421], [-120.8096, 40.421], [-120.8096, 40.4215]]], [[[-120.7947, 40.4208], [-120.7951, 40.4205], [-120.7947, 40.4205], [-120.7947, 40.4208]]], [[[-120.8138, 40.4201], [-120.8142, 40.4199], [-120.8138, 40.4199], [-120.8138, 40.4201]]], [[[-120.8107, 40.4253], [-120.8103, 40.4239], [-120.8093, 40.424], [-120.8089, 40.4229], [-120.8075, 40.4229], [-120.8074, 40.4205], [-120.8081, 40.4199], [-120.8064, 40.4202], [-120.8064, 40.4218], [-120.8057, 40.4205], [-120.805, 40.421], [-120.8021, 40.4208], [-120.8022, 40.4221], [-120.8011, 40.4224], [-120.8022, 40.4229], [-120.8022, 40.4237], [-120.8039, 40.4237], [-120.8039, 40.4229], [-120.8054, 40.4229], [-120.8057, 40.4218], [-120.8064, 40.4242], [-120.8075, 40.4242], [-120.8079, 40.425], [-120.8107, 40.4253]], [[-120.8025, 40.4221], [-120.8022, 40.4224], [-120.8022, 40.4221], [-120.8025, 40.4221]]], [[[-120.7958, 40.4213], [-120.7961, 40.4203], [-120.7951, 40.4195], [-120.7951, 40.4205], [-120.7958, 40.4213]]], [[[-120.7947, 40.4205], [-120.7944, 40.4195], [-120.794, 40.4195], [-120.7933, 40.4205], [-120.7947, 40.4205]]], [[[-120.8138, 40.4191], [-120.8141, 40.4188], [-120.8138, 40.4188], [-120.8138, 40.4191]]], [[[-120.7951, 40.4192], [-120.7954, 40.4189], [-120.7951, 40.4189], [-120.7951, 40.4192]]], [[[-120.7933, 40.4192], [-120.7936, 40.4187], [-120.7933, 40.4187], [-120.7933, 40.4192]]], [[[-120.7947, 40.4192], [-120.7951, 40.4186], [-120.794, 40.4186], [-120.794, 40.4189], [-120.7947, 40.4192]]], [[[-120.7869, 40.419], [-120.7873, 40.4187], [-120.7869, 40.4187], [-120.7869, 40.419]]], [[[-120.7993, 40.4186], [-120.7996, 40.4183], [-120.7993, 40.4183], [-120.7993, 40.4186]]], [[[-120.7954, 40.4186], [-120.7958, 40.4184], [-120.7954, 40.4184], [-120.7954, 40.4186]]], [[[-120.8106, 40.4204], [-120.8138, 40.4207], [-120.8138, 40.4201], [-120.8135, 40.4201], [-120.8138, 40.4193], [-120.8124, 40.4193], [-120.8117, 40.418], [-120.8099, 40.4196], [-120.8081, 40.4196], [-120.8089, 40.421], [-120.8106, 40.4204]], [[-120.8103, 40.4196], [-120.8099, 40.4199], [-120.8099, 40.4196], [-120.8103, 40.4196]]], [[[-120.7862, 40.4187], [-120.7862, 40.4182], [-120.7855, 40.4182], [-120.7855, 40.4184], [-120.7862, 40.4187]]], [[[-120.7989, 40.4183], [-120.7993, 40.4181], [-120.7989, 40.4181], [-120.7989, 40.4183]]], [[[-120.795, 40.4181], [-120.7954, 40.4176], [-120.795, 40.4176], [-120.795, 40.4181]]], [[[-120.8, 40.4175], [-120.8003, 40.4178], [-120.8007, 40.4175], [-120.8, 40.4175]]], [[[-120.7993, 40.42], [-120.8, 40.4189], [-120.7993, 40.4186], [-120.7989, 40.4186], [-120.7986, 40.4189], [-120.7979, 40.4173], [-120.7972, 40.4181], [-120.7961, 40.4176], [-120.7961, 40.4189], [-120.7972, 40.4197], [-120.7993, 40.42]]], [[[-120.8092, 40.4175], [-120.8095, 40.4172], [-120.8092, 40.4172], [-120.8092, 40.4175]]], [[[-120.7954, 40.4176], [-120.7957, 40.4173], [-120.7954, 40.4173], [-120.7954, 40.4176]]], [[[-120.794, 40.4176], [-120.7947, 40.4173], [-120.794, 40.4173], [-120.794, 40.4176]]], [[[-120.806, 40.418], [-120.8063, 40.4169], [-120.8049, 40.4172], [-120.8049, 40.4178], [-120.806, 40.418]]], [[[-120.7972, 40.4175], [-120.7972, 40.417], [-120.7965, 40.417], [-120.7965, 40.4173], [-120.7972, 40.4175]]], [[[-120.8046, 40.4172], [-120.8049, 40.417], [-120.8046, 40.417], [-120.8046, 40.4172]]], [[[-120.7982, 40.4173], [-120.7986, 40.417], [-120.7982, 40.417], [-120.7982, 40.4173]]], [[[-120.7947, 40.4173], [-120.795, 40.4168], [-120.7947, 40.4168], [-120.7947, 40.4173]]], [[[-120.8134, 40.4183], [-120.8141, 40.4177], [-120.8141, 40.4164], [-120.8127, 40.4166], [-120.8124, 40.418], [-120.8134, 40.4183]]], [[[-120.8, 40.4173], [-120.8, 40.4164], [-120.7989, 40.4165], [-120.7989, 40.417], [-120.8, 40.4173]]], [[[-120.794, 40.4168], [-120.7943, 40.4165], [-120.794, 40.4165], [-120.794, 40.4168]]], [[[-120.7855, 40.4168], [-120.7858, 40.4165], [-120.7855, 40.4165], [-120.7855, 40.4168]]], [[[-120.8081, 40.4164], [-120.8088, 40.4161], [-120.8081, 40.4161], [-120.8081, 40.4164]]], [[[-120.788, 40.4208], [-120.788, 40.42], [-120.7905, 40.4198], [-120.7894, 40.4179], [-120.7905, 40.4179], [-120.7908, 40.417], [-120.7933, 40.4173], [-120.794, 40.4162], [-120.7915, 40.4162], [-120.7915, 40.4168], [-120.7887, 40.4168], [-120.7862, 40.4176], [-120.7866, 40.4184], [-120.789, 40.4181], [-120.7873, 40.4195], [-120.788, 40.4208]], [[-120.7891, 40.4192], [-120.7887, 40.4195], [-120.7887, 40.4192], [-120.7891, 40.4192]]], [[[-120.7908, 40.4165], [-120.7911, 40.4162], [-120.7908, 40.4162], [-120.7908, 40.4165]]], [[[-120.7834, 40.4166], [-120.7837, 40.4163], [-120.7834, 40.4163], [-120.7834, 40.4166]]], [[[-120.7979, 40.4162], [-120.7989, 40.4159], [-120.7979, 40.4159], [-120.7979, 40.4162]]], [[[-120.7911, 40.4162], [-120.7915, 40.416], [-120.7911, 40.416], [-120.7911, 40.4162]]], [[[-120.7894, 40.4162], [-120.7897, 40.416], [-120.7894, 40.416], [-120.7894, 40.4162]]], [[[-120.7876, 40.4163], [-120.788, 40.416], [-120.7876, 40.416], [-120.7876, 40.4163]]], [[[-120.8109, 40.4158], [-120.8113, 40.4156], [-120.8109, 40.4156], [-120.8109, 40.4158]]], [[[-120.8102, 40.4161], [-120.8102, 40.4153], [-120.8088, 40.4156], [-120.8088, 40.4161], [-120.8102, 40.4161]]], [[[-120.7901, 40.416], [-120.7901, 40.4154], [-120.7894, 40.4154], [-120.7894, 40.4157], [-120.7901, 40.416]]], [[[-120.8077, 40.4156], [-120.8081, 40.4153], [-120.8077, 40.4153], [-120.8077, 40.4156]]], [[[-120.8049, 40.4156], [-120.8056, 40.4153], [-120.8049, 40.4153], [-120.8049, 40.4156]]], [[[-120.7954, 40.4157], [-120.7957, 40.4154], [-120.7954, 40.4154], [-120.7954, 40.4157]]], [[[-120.7841, 40.4157], [-120.7844, 40.4155], [-120.7841, 40.4155], [-120.7841, 40.4157]]], [[[-120.8095, 40.4153], [-120.8099, 40.415], [-120.8095, 40.415], [-120.8095, 40.4153]]], [[[-120.8067, 40.4153], [-120.807, 40.4151], [-120.8067, 40.4151], [-120.8067, 40.4153]]], [[[-120.795, 40.4154], [-120.7954, 40.4151], [-120.795, 40.4151], [-120.795, 40.4154]]], [[[-120.8018, 40.4186], [-120.8035, 40.418], [-120.8046, 40.4148], [-120.8028, 40.4148], [-120.8017, 40.4164], [-120.8003, 40.4164], [-120.8003, 40.4173], [-120.8025, 40.4172], [-120.8004, 40.4181], [-120.8018, 40.4186]], [[-120.8032, 40.4172], [-120.8025, 40.4172], [-120.8025, 40.4167], [-120.8028, 40.4167], [-120.8032, 40.4172]], [[-120.801, 40.4167], [-120.8007, 40.417], [-120.8007, 40.4167], [-120.801, 40.4167]]], [[[-120.7943, 40.4151], [-120.7947, 40.4149], [-120.7943, 40.4149], [-120.7943, 40.4151]]], [[[-120.806, 40.4151], [-120.8067, 40.4145], [-120.806, 40.4145], [-120.806, 40.4151]]], [[[-120.7925, 40.4151], [-120.7929, 40.4146], [-120.7925, 40.4146], [-120.7925, 40.4151]]], [[[-120.7894, 40.4152], [-120.7897, 40.4146], [-120.7894, 40.4146], [-120.7894, 40.4152]]], [[[-120.8053, 40.4148], [-120.8056, 40.4145], [-120.8053, 40.4145], [-120.8053, 40.4148]]], [[[-120.7904, 40.4149], [-120.7911, 40.4146], [-120.7904, 40.4146], [-120.7904, 40.4149]]], [[[-120.7802, 40.4171], [-120.783, 40.4168], [-120.7827, 40.416], [-120.7834, 40.4155], [-120.7819, 40.4152], [-120.7812, 40.4158], [-120.7819, 40.4147], [-120.7805, 40.4152], [-120.7798, 40.4144], [-120.7781, 40.4158], [-120.7781, 40.4166], [-120.7802, 40.4171]]], [[[-120.807, 40.4145], [-120.8074, 40.4142], [-120.807, 40.4142], [-120.807, 40.4145]]], [[[-120.7837, 40.4147], [-120.784, 40.4144], [-120.7837, 40.4144], [-120.7837, 40.4147]]], [[[-120.7805, 40.4144], [-120.7809, 40.4147], [-120.7812, 40.4144], [-120.7805, 40.4144]]], [[[-120.7901, 40.4146], [-120.7904, 40.4141], [-120.7901, 40.4141], [-120.7901, 40.4146]]], [[[-120.7851, 40.4144], [-120.7855, 40.4141], [-120.7851, 40.4141], [-120.7851, 40.4144]]], [[[-120.7812, 40.4141], [-120.7816, 40.4139], [-120.7812, 40.4139], [-120.7812, 40.4141]]], [[[-120.7862, 40.4165], [-120.7876, 40.416], [-120.7872, 40.4136], [-120.7851, 40.4149], [-120.7862, 40.4152], [-120.7855, 40.4157], [-120.7862, 40.4165]]], [[[-120.7823, 40.4144], [-120.7833, 40.4139], [-120.7826, 40.4136], [-120.7823, 40.4144]]], [[[-120.7904, 40.4138], [-120.7908, 40.4135], [-120.7904, 40.4135], [-120.7904, 40.4138]]], [[[-120.7858, 40.4133], [-120.7869, 40.413], [-120.7858, 40.413], [-120.7858, 40.4133]]], [[[-120.7826, 40.4136], [-120.7819, 40.412], [-120.7805, 40.4123], [-120.7809, 40.4131], [-120.7826, 40.4136]]], [[[-120.8042, 40.414], [-120.8049, 40.4118], [-120.8038, 40.4126], [-120.7989, 40.4127], [-120.7982, 40.4135], [-120.7964, 40.4135], [-120.8042, 40.414]]], [[[-120.8095, 40.411], [-120.8098, 40.4107], [-120.8095, 40.4107], [-120.8095, 40.411]]], [[[-120.7837, 40.4112], [-120.784, 40.4109], [-120.7837, 40.4109], [-120.7837, 40.4112]]], [[[-120.7798, 40.4109], [-120.7801, 40.4112], [-120.7805, 40.4109], [-120.7798, 40.4109]]], [[[-120.8077, 40.4107], [-120.8084, 40.411], [-120.8084, 40.4105], [-120.8077, 40.4107]]], [[[-120.8137, 40.4107], [-120.8141, 40.4104], [-120.8137, 40.4104], [-120.8137, 40.4107]]], [[[-120.7794, 40.4117], [-120.7794, 40.4109], [-120.7798, 40.4106], [-120.7791, 40.4106], [-120.7794, 40.4117]]], [[[-120.813, 40.4099], [-120.8133, 40.4096], [-120.813, 40.4096], [-120.813, 40.4099]]], [[[-120.8084, 40.4099], [-120.8087, 40.4096], [-120.8084, 40.4096], [-120.8084, 40.4099]]], [[[-120.7822, 40.4101], [-120.7826, 40.4098], [-120.7822, 40.4098], [-120.7822, 40.4101]]], [[[-120.8091, 40.4099], [-120.8094, 40.4094], [-120.8091, 40.4094], [-120.8091, 40.4099]]], [[[-120.8073, 40.4096], [-120.808, 40.4099], [-120.808, 40.4094], [-120.8073, 40.4096]]], [[[-120.807, 40.4097], [-120.8073, 40.4094], [-120.807, 40.4094], [-120.807, 40.4097]]], [[[-120.7918, 40.4097], [-120.7921, 40.4095], [-120.7918, 40.4095], [-120.7918, 40.4097]]], [[[-120.7851, 40.4098], [-120.7854, 40.4095], [-120.7851, 40.4095], [-120.7851, 40.4098]]], [[[-120.808, 40.4094], [-120.8084, 40.4091], [-120.808, 40.4091], [-120.808, 40.4094]]], [[[-120.8063, 40.4094], [-120.807, 40.4091], [-120.8063, 40.4091], [-120.8063, 40.4094]]], [[[-120.8084, 40.4091], [-120.8087, 40.4088], [-120.8084, 40.4088], [-120.8084, 40.4091]]], [[[-120.8073, 40.4091], [-120.8077, 40.4088], [-120.8073, 40.4088], [-120.8073, 40.4091]]], [[[-120.7925, 40.4092], [-120.7928, 40.4089], [-120.7925, 40.4089], [-120.7925, 40.4092]]], [[[-120.7822, 40.4076], [-120.7826, 40.4074], [-120.7822, 40.4074], [-120.7822, 40.4076]]], [[[-120.7907, 40.4079], [-120.7921, 40.4073], [-120.7907, 40.4071], [-120.7907, 40.4079]]], [[[-120.79, 40.4073], [-120.7903, 40.4071], [-120.79, 40.4071], [-120.79, 40.4073]]], [[[-120.7903, 40.4071], [-120.7907, 40.4068], [-120.7903, 40.4068], [-120.7903, 40.4071]]], [[[-120.8059, 40.4067], [-120.8066, 40.4064], [-120.8059, 40.4064], [-120.8059, 40.4067]]], [[[-120.79, 40.4068], [-120.7903, 40.4062], [-120.79, 40.4062], [-120.79, 40.4068]]], [[[-120.8055, 40.4064], [-120.8059, 40.4061], [-120.8055, 40.4061], [-120.8055, 40.4064]]], [[[-120.7854, 40.406], [-120.7857, 40.4057], [-120.7854, 40.4057], [-120.7854, 40.406]]], [[[-120.8041, 40.4056], [-120.8048, 40.4053], [-120.8041, 40.4053], [-120.8041, 40.4056]]], [[[-120.7896, 40.406], [-120.7896, 40.4052], [-120.7893, 40.4052], [-120.7889, 40.406], [-120.7896, 40.406]]], [[[-120.8087, 40.4053], [-120.809, 40.405], [-120.8087, 40.405], [-120.8087, 40.4053]]], [[[-120.8073, 40.4059], [-120.8094, 40.4056], [-120.8087, 40.4056], [-120.8087, 40.4053], [-120.8083, 40.4053], [-120.8083, 40.4048], [-120.8076, 40.4045], [-120.8062, 40.4048], [-120.8073, 40.4059]]], [[[-120.7843, 40.4047], [-120.7846, 40.4044], [-120.7843, 40.4044], [-120.7843, 40.4047]]], [[[-120.8062, 40.4048], [-120.8062, 40.4043], [-120.8051, 40.404], [-120.8052, 40.4045], [-120.8062, 40.4048]]], [[[-120.7914, 40.4041], [-120.7917, 40.4038], [-120.7914, 40.4038], [-120.7914, 40.4041]]], [[[-120.7903, 40.4035], [-120.7906, 40.4033], [-120.7903, 40.4033], [-120.7903, 40.4035]]], [[[-120.809, 40.4032], [-120.8094, 40.4029], [-120.809, 40.4029], [-120.809, 40.4032]]], [[[-120.8044, 40.4013], [-120.8048, 40.4007], [-120.8044, 40.4008], [-120.8044, 40.4013]]], [[[-120.8016, 40.4008], [-120.8026, 40.401], [-120.8026, 40.4005], [-120.8016, 40.4008]]], [[[-120.8037, 40.4008], [-120.8044, 40.4005], [-120.8037, 40.4005], [-120.8037, 40.4008]]], [[[-120.8019, 40.4005], [-120.8023, 40.4002], [-120.8019, 40.4002], [-120.8019, 40.4005]]], [[[-120.8026, 40.4002], [-120.8033, 40.3999], [-120.8026, 40.4], [-120.8026, 40.4002]]], [[[-120.7867, 40.4006], [-120.7871, 40.4001], [-120.7864, 40.3998], [-120.7842, 40.4001], [-120.7867, 40.4006]]], [[[-120.7895, 40.3976], [-120.7902, 40.3971], [-120.7895, 40.3971], [-120.7895, 40.3976]]], [[[-120.7987, 40.3954], [-120.799, 40.3951], [-120.7987, 40.3951], [-120.7987, 40.3954]]], [[[-120.7941, 40.3933], [-120.7937, 40.3927], [-120.793, 40.3927], [-120.7934, 40.3933], [-120.7941, 40.3933]]], [[[-120.7941, 40.393], [-120.7944, 40.3927], [-120.7941, 40.3927], [-120.7941, 40.393]]], [[[-120.7838, 40.3893], [-120.7845, 40.389], [-120.7838, 40.389], [-120.7838, 40.3893]]], [[[-120.7887, 40.3873], [-120.7891, 40.3868], [-120.7887, 40.3868], [-120.7887, 40.3873]]], [[[-120.788, 40.3865], [-120.7883, 40.3863], [-120.788, 40.3863], [-120.788, 40.3865]]], [[[-120.789, 40.3852], [-120.7894, 40.3854], [-120.7897, 40.3852], [-120.789, 40.3852]]], [[[-120.7901, 40.3849], [-120.7904, 40.3846], [-120.7901, 40.3846], [-120.7901, 40.3849]]], [[[-120.7897, 40.3846], [-120.7901, 40.3844], [-120.7897, 40.3844], [-120.7897, 40.3846]]], [[[-120.7894, 40.3838], [-120.7897, 40.3836], [-120.7894, 40.3836], [-120.7894, 40.3838]]]]}, "properties": {"layer": "high_severity"}}, {"type": "Feature", "geometry": {"type": "MultiPolygon", "coordinates": [[[[-120.77, 40.4539], [-120.7703, 40.4536], [-120.77, 40.4537], [-120.77, 40.4539]]], [[[-120.7742, 40.452], [-120.7749, 40.4517], [-120.7742, 40.4517], [-120.7742, 40.452]]], [[[-120.777, 40.4536], [-120.7774, 40.4517], [-120.7753, 40.4517], [-120.7749, 40.4523], [-120.777, 40.4536]]], [[[-120.8003, 40.441], [-120.8006, 40.4408], [-120.8002, 40.4408], [-120.8003, 40.441]]], [[[-120.7992, 40.4405], [-120.7988, 40.44], [-120.7981, 40.44], [-120.7985, 40.4405], [-120.7992, 40.4405]]], [[[-120.7988, 40.44], [-120.7992, 40.4397], [-120.7988, 40.4397], [-120.7988, 40.44]]], [[[-120.8073, 40.4345], [-120.8076, 40.4342], [-120.8072, 40.4342], [-120.8073, 40.4345]]], [[[-120.8179, 40.4361], [-120.8189, 40.4347], [-120.8185, 40.4328], [-120.8175, 40.4334], [-120.8182, 40.4344], [-120.8172, 40.435], [-120.8172, 40.4358], [-120.8179, 40.4361]]], [[[-120.8118, 40.4315], [-120.8146, 40.4315], [-120.8146, 40.4309], [-120.8122, 40.4307], [-120.8118, 40.4315]]], [[[-120.8039, 40.4224], [-120.8043, 40.4216], [-120.8032, 40.4216], [-120.8032, 40.4221], [-120.8039, 40.4224]]], [[[-120.8117, 40.4199], [-120.8117, 40.4193], [-120.811, 40.4193], [-120.811, 40.4196], [-120.8117, 40.4199]]], [[[-120.7791, 40.4163], [-120.7805, 40.4158], [-120.7791, 40.416], [-120.7791, 40.4163]]]]}, "properties": {"layer": "interior"}}, {"type": "Feature", "geometry": {"type": "MultiPolygon", "coordinates": [[[[-120.8039, 40.4224], [-120.8043, 40.4216], [-120.8032, 40.4216], [-120.8032, 40.4221], [-120.8039, 40.4224]]], [[[-120.8117, 40.4199], [-120.8117, 40.4193], [-120.811, 40.4193], [-120.811, 40.4196], [-120.8117, 40.4199]]], [[[-120.7791, 40.4163], [-120.7805, 40.4158], [-120.7791, 40.416], [-120.7791, 40.4163]]]]}, "properties": {"layer": "cell", "cell_id": "732_5000", "seed_zone": "732", "elevation_band": "5000–5500 ft"}}, {"type": "Feature", "geometry": {"type": "MultiPolygon", "coordinates": [[[[-120.77, 40.4539], [-120.7703, 40.4536], [-120.77, 40.4537], [-120.77, 40.4539]]], [[[-120.7742, 40.452], [-120.7746, 40.4517], [-120.7742, 40.4517], [-120.7742, 40.452]]], [[[-120.776, 40.4517], [-120.7767, 40.4514], [-120.776, 40.4515], [-120.776, 40.4517]]], [[[-120.7992, 40.4405], [-120.7988, 40.44], [-120.7981, 40.44], [-120.7985, 40.4405], [-120.7992, 40.4405]]], [[[-120.7988, 40.44], [-120.7992, 40.4397], [-120.7988, 40.4397], [-120.7988, 40.44]]], [[[-120.8073, 40.4345], [-120.8076, 40.4342], [-120.8072, 40.4342], [-120.8073, 40.4345]]], [[[-120.8179, 40.4361], [-120.8189, 40.4347], [-120.8185, 40.4328], [-120.8175, 40.4334], [-120.8182, 40.4344], [-120.8172, 40.435], [-120.8172, 40.4358], [-120.8179, 40.4361]]], [[[-120.8118, 40.4315], [-120.8146, 40.4315], [-120.8146, 40.4309], [-120.8122, 40.4307], [-120.8118, 40.4315]]]]}, "properties": {"layer": "cell", "cell_id": "732_5500", "seed_zone": "732", "elevation_band": "5500–6000 ft"}}, {"type": "Feature", "geometry": {"type": "MultiPolygon", "coordinates": [[[[-120.777, 40.4536], [-120.7774, 40.4517], [-120.7753, 40.4517], [-120.7749, 40.4523], [-120.777, 40.4536]]], [[[-120.7746, 40.452], [-120.7749, 40.4517], [-120.7746, 40.4517], [-120.7746, 40.452]]], [[[-120.8003, 40.441], [-120.8006, 40.4408], [-120.8002, 40.4408], [-120.8003, 40.441]]]]}, "properties": {"layer": "cell", "cell_id": "732_6000", "seed_zone": "732", "elevation_band": "6000–6500 ft"}}]}
