{"type": "FeatureCollection", "features": [{"type": "Feature", "geometry": {"type": "Polygon", "coordinates": [[[-118.7482, 34.4404], [-118.7458, 34.4473], [-118.7465, 34.449], [-118.7423, 34.4531], [-118.7432, 34.4541], [-118.7468, 34.4544], [-118.7481, 34.4556], [-118.7499, 34.4607], [-118.7496, 34.4628], [-118.7459, 34.4627], [-118.7457, 34.4631], [-118.7488, 34.4652], [-118.7478, 34.4672], [-118.7451, 34.4672], [-118.7427, 34.4688], [-118.7407, 34.4683], [-118.738, 34.4695], [-118.7361, 34.4691], [-118.7356, 34.4683], [-118.7318, 34.4679], [-118.7309, 34.4681], [-118.7356, 34.4708], [-118.7343, 34.4732], [-118.729, 34.4757], [-118.7261, 34.4746], [-118.7225, 34.4765], [-118.7196, 34.4759], [-118.716, 34.4737], [-118.7187, 34.466], [-118.7173, 34.464], [-118.7175, 34.4624], [-118.7158, 34.4607], [-118.7172, 34.4595], [-118.7166, 34.459], [-118.7186, 34.4562], [-118.7185, 34.455], [-118.7199, 34.4545], [-118.7189, 34.4519], [-118.7206, 34.4484], [-118.7245, 34.4467], [-118.7261, 34.4436], [-118.7309, 34.4413], [-118.7312, 34.4404], [-118.7338, 34.4407], [-118.7349, 34.4399], [-118.7367, 34.4421], [-118.7361, 34.4394], [-118.7368, 34.4387], [-118.7394, 34.4384], [-118.7419, 34.4397], [-118.7482, 34.4404]]]}, "properties": {"layer": "perimeter"}}, {"type": "Feature", "geometry": {"type": "Polygon", "coordinates": [[[-118.7482, 34.4404], [-118.7458, 34.4473], [-118.7465, 34.449], [-118.7423, 34.4531], [-118.7432, 34.4541], [-118.7468, 34.4544], [-118.7481, 34.4556], [-118.7499, 34.4607], [-118.7496, 34.4628], [-118.7459, 34.4627], [-118.7457, 34.4631], [-118.7488, 34.4652], [-118.7478, 34.4672], [-118.7451, 34.4672], [-118.7427, 34.4688], [-118.7407, 34.4683], [-118.738, 34.4695], [-118.7361, 34.4691], [-118.7356, 34.4683], [-118.7318, 34.4679], [-118.7309, 34.4681], [-118.7356, 34.4708], [-118.7343, 34.4732], [-118.729, 34.4757], [-118.7261, 34.4746], [-118.7225, 34.4765], [-118.7196, 34.4759], [-118.716, 34.4737], [-118.7187, 34.466], [-118.7173, 34.464], [-118.7175, 34.4624], [-118.7158, 34.4607], [-118.7172, 34.4595], [-118.7166, 34.459], [-118.7186, 34.4562], [-118.7185, 34.455], [-118.7199, 34.4545], [-118.7189, 34.4519], [-118.7206, 34.4484], [-118.7245, 34.4467], [-118.7261, 34.4436], [-118.7309, 34.4413], [-118.7312, 34.4404], [-118.7338, 34.4407], [-118.7349, 34.4399], [-118.7367, 34.4421], [-118.7361, 34.4394], [-118.738, 34.4384], [-118.7406, 34.4388], [-118.7419, 34.4397], [-118.7482, 34.4404]], [[-118.7295, 34.4562], [-118.7295, 34.4569], [-118.7295, 34.4594], [-118.7322, 34.4562], [-118.7295, 34.4562]]]}, "properties": {"layer": "retained"}}]}
