{"type": "FeatureCollection", "features": [{"type": "Feature", "geometry": {"type": "MultiPolygon", "coordinates": [[[[-123.9613, 41.8108], [-123.9623, 41.8107], [-123.9614, 41.8111], [-123.9613, 41.8108]]], [[[-123.7645, 41.8794], [-123.7667, 41.8808], [-123.7676, 41.8806], [-123.768, 41.8791], [-123.7692, 41.8793], [-123.7696, 41.8784], [-123.7715, 41.878], [-123.7728, 41.8795], [-123.7756, 41.8807], [-123.7752, 41.8818], [-123.7769, 41.8813], [-123.7781, 41.8828], [-123.7823, 41.882], [-123.7825, 41.8839], [-123.7858, 41.8789], [-123.7898, 41.8764], [-123.7932, 41.8764], [-123.7952, 41.8753], [-123.7987, 41.8775], [-123.8039, 41.878], [-123.8045, 41.8771], [-123.8031, 41.8762], [-123.8008, 41.8765], [-123.7957, 41.8741], [-123.7935, 41.8739], [-123.7925, 41.8746], [-123.7898, 41.874], [-123.7891, 41.8725], [-123.7883, 41.8723], [-123.7882, 41.8707], [-123.7864, 41.8703], [-123.7857, 41.8676], [-123.7827, 41.8679], [-123.7798, 41.8661], [-123.776, 41.8658], [-123.7759, 41.8652], [-123.7706, 41.8634], [-123.7714, 41.8648], [-123.7704, 41.865], [-123.7702, 41.8641], [-123.7681, 41.8641], [-123.7683, 41.8634], [-123.7662, 41.8624], [-123.765, 41.8632], [-123.7662, 41.8641], [-123.7664, 41.8654], [-123.765, 41.8653], [-123.7618, 41.8676], [-123.7601, 41.864], [-123.7586, 41.8644], [-123.7572, 41.8631], [-123.7547, 41.8633], [-123.7542, 41.8622], [-123.7555, 41.8622], [-123.7563, 41.8608], [-123.7542, 41.8601], [-123.758, 41.8584], [-123.7578, 41.856], [-123.7569, 41.8551], [-123.7556, 41.8566], [-123.7546, 41.8565], [-123.7541, 41.8555], [-123.7517, 41.8562], [-123.7503, 41.8537], [-123.7478, 41.8528], [-123.747, 41.8533], [-123.7457, 41.8529], [-123.7454, 41.8516], [-123.7438, 41.8516], [-123.7438, 41.8507], [-123.7425, 41.8503], [-123.7402, 41.8478], [-123.7387, 41.847], [-123.7382, 41.8475], [-123.7374, 41.8441], [-123.7366, 41.8462], [-123.7346, 41.8461], [-123.7338, 41.8444], [-123.7328, 41.8443], [-123.7326, 41.8422], [-123.7341, 41.8396], [-123.7355, 41.8388], [-123.7344, 41.8388], [-123.7327, 41.8377], [-123.7357, 41.8371], [-123.7363, 41.8358], [-123.7379, 41.8354], [-123.7412, 41.8365], [-123.7418, 41.8355], [-123.7403, 41.8352], [-123.7402, 41.8344], [-123.7412, 41.8343], [-123.7433, 41.8321], [-123.7435, 41.8338], [-123.7443, 41.8327], [-123.7463, 41.8328], [-123.7454, 41.8341], [-123.7471, 41.8337], [-123.7484, 41.8348], [-123.7466, 41.8364], [-123.7462, 41.8397], [-123.7504, 41.8411], [-123.7502, 41.843], [-123.7526, 41.8462], [-123.7535, 41.8459], [-123.754, 41.8434], [-123.7556, 41.8435], [-123.7563, 41.8442], [-123.7585, 41.8435], [-123.7571, 41.8413], [-123.7524, 41.8395], [-123.7537, 41.8391], [-123.755, 41.8361], [-123.7594, 41.8342], [-123.7576, 41.8364], [-123.7568, 41.8396], [-123.7613, 41.84], [-123.764, 41.8411], [-123.7654, 41.8424], [-123.7648, 41.843], [-123.766, 41.843], [-123.7658, 41.844], [-123.7685, 41.8438], [-123.7693, 41.8448], [-123.7703, 41.8434], [-123.7735, 41.8429], [-123.7748, 41.8433], [-123.7769, 41.8425], [-123.7771, 41.8417], [-123.7776, 41.8425], [-123.7788, 41.8425], [-123.7784, 41.8381], [-123.7844, 41.8385], [-123.7836, 41.8356], [-123.7854, 41.8352], [-123.7851, 41.8346], [-123.7841, 41.8347], [-123.7849, 41.8334], [-123.7833, 41.8307], [-123.785, 41.8298], [-123.7843, 41.8291], [-123.7819, 41.8291], [-123.7821, 41.8279], [-123.7831, 41.8277], [-123.7814, 41.8246], [-123.7856, 41.8244], [-123.7881, 41.8225], [-123.7907, 41.817], [-123.7901, 41.8153], [-123.7924, 41.8143], [-123.794, 41.8167], [-123.7979, 41.8179], [-123.7999, 41.8156], [-123.7996, 41.818], [-123.8019, 41.819], [-123.8051, 41.8169], [-123.808, 41.8166], [-123.808, 41.8193], [-123.8089, 41.8193], [-123.8119, 41.8174], [-123.8149, 41.8175], [-123.816, 41.8164], [-123.8183, 41.816], [-123.8219, 41.8178], [-123.824, 41.8202], [-123.8253, 41.8203], [-123.827, 41.8192], [-123.8283, 41.8194], [-123.8316, 41.8216], [-123.8319, 41.8227], [-123.8331, 41.8224], [-123.8329, 41.8212], [-123.8343, 41.8198], [-123.8389, 41.8202], [-123.8398, 41.8193], [-123.8389, 41.8189], [-123.8392, 41.8178], [-123.8363, 41.8181], [-123.8359, 41.8159], [-123.8373, 41.815], [-123.8407, 41.815], [-123.8396, 41.8132], [-123.8437, 41.8124], [-123.8478, 41.8086], [-123.8518, 41.8087], [-123.8523, 41.8092], [-123.8575, 41.8086], [-123.8594, 41.81], [-123.8594, 41.8112], [-123.863, 41.8098], [-123.8627, 41.8079], [-123.864, 41.8074], [-123.8627, 41.8064], [-123.8637, 41.8045], [-123.8654, 41.8038], [-123.8635, 41.8021], [-123.861, 41.8015], [-123.8611, 41.8], [-123.8597, 41.7999], [-123.86, 41.7993], [-123.8614, 41.7989], [-123.8619, 41.7997], [-123.865, 41.7989], [-123.8661, 41.7966], [-123.8675, 41.7961], [-123.8667, 41.795], [-123.8672, 41.7939], [-123.869, 41.7939], [-123.8688, 41.7923], [-123.8719, 41.7901], [-123.8725, 41.7863], [-123.8748, 41.7819], [-123.8785, 41.7783], [-123.8807, 41.775], [-123.8851, 41.7717], [-123.8872, 41.7691], [-123.8944, 41.7671], [-123.8971, 41.7681], [-123.8977, 41.7676], [-123.9002, 41.7679], [-123.9, 41.7667], [-123.8995, 41.767], [-123.8984, 41.7658], [-123.898, 41.763], [-123.9072, 41.7627], [-123.9084, 41.7635], [-123.909, 41.7605], [-123.9105, 41.7607], [-123.9105, 41.7619], [-123.9134, 41.7625], [-123.9141, 41.765], [-123.9151, 41.7656], [-123.9145, 41.7648], [-123.9161, 41.7626], [-123.9181, 41.7626], [-123.9176, 41.7613], [-123.9196, 41.7612], [-123.9219, 41.7585], [-123.9237, 41.758], [-123.9245, 41.759], [-123.9234, 41.7605], [-123.9244, 41.7626], [-123.9234, 41.764], [-123.924, 41.7647], [-123.9202, 41.7663], [-123.9203, 41.7686], [-123.9223, 41.7701], [-123.9221, 41.7723], [-123.9234, 41.7752], [-123.9217, 41.7768], [-123.9218, 41.778], [-123.9205, 41.778], [-123.9166, 41.78], [-123.9163, 41.7808], [-123.9132, 41.7803], [-123.9152, 41.782], [-123.9142, 41.7848], [-123.918, 41.7835], [-123.9183, 41.7824], [-123.9219, 41.7799], [-123.9263, 41.7795], [-123.9263, 41.7776], [-123.9279, 41.7769], [-123.9299, 41.7773], [-123.9286, 41.7798], [-123.9309, 41.7831], [-123.9327, 41.784], [-123.935, 41.7833], [-123.9383, 41.7838], [-123.9399, 41.7824], [-123.9465, 41.7816], [-123.9468, 41.7823], [-123.9445, 41.785], [-123.9444, 41.7867], [-123.9463, 41.7873], [-123.9489, 41.7895], [-123.9535, 41.791], [-123.9522, 41.7909], [-123.9533, 41.7916], [-123.9529, 41.7929], [-123.9497, 41.7925], [-123.9507, 41.7948], [-123.9517, 41.795], [-123.9539, 41.794], [-123.9553, 41.7942], [-123.9566, 41.7959], [-123.9578, 41.7953], [-123.9595, 41.7961], [-123.9586, 41.7968], [-123.9596, 41.797], [-123.9577, 41.7976], [-123.9592, 41.7987], [-123.9573, 41.8003], [-123.9575, 41.8011], [-123.9588, 41.8012], [-123.9605, 41.7991], [-123.9621, 41.7996], [-123.9619, 41.8004], [-123.9646, 41.8028], [-123.9624, 41.8026], [-123.9594, 41.8091], [-123.9606, 41.8132], [-123.9617, 41.8134], [-123.9628, 41.8158], [-123.9612, 41.8179], [-123.9549, 41.823], [-123.9532, 41.8232], [-123.9517, 41.8223], [-123.9498, 41.8222], [-123.9469, 41.8191], [-123.9445, 41.8189], [-123.9455, 41.8178], [-123.9437, 41.8191], [-123.9425, 41.8229], [-123.9443, 41.8272], [-123.9476, 41.8311], [-123.9469, 41.8319], [-123.9479, 41.8355], [-123.9463, 41.8371], [-123.9419, 41.8363], [-123.9377, 41.8372], [-123.9394, 41.8409], [-123.9377, 41.8426], [-123.9373, 41.847], [-123.9358, 41.8479], [-123.9389, 41.8489], [-123.9404, 41.8506], [-123.9405, 41.8523], [-123.9436, 41.8523], [-123.9458, 41.8539], [-123.9505, 41.8548], [-123.9541, 41.8574], [-123.9565, 41.8576], [-123.9592, 41.8564], [-123.9629, 41.8567], [-123.9644, 41.8562], [-123.9672, 41.8571], [-123.9646, 41.8609], [-123.9605, 41.8621], [-123.9595, 41.8618], [-123.9581, 41.8626], [-123.9554, 41.8619], [-123.9555, 41.8605], [-123.9543, 41.8603], [-123.9543, 41.8617], [-123.9472, 41.8617], [-123.947, 41.8622], [-123.9452, 41.8624], [-123.9441, 41.8642], [-123.9445, 41.8654], [-123.9456, 41.8638], [-123.9475, 41.8633], [-123.9495, 41.8638], [-123.9495, 41.8647], [-123.9524, 41.8637], [-123.9534, 41.8649], [-123.9559, 41.865], [-123.9562, 41.8666], [-123.9556, 41.867], [-123.9571, 41.8672], [-123.9576, 41.8678], [-123.9568, 41.8682], [-123.9585, 41.8688], [-123.9599, 41.8709], [-123.9617, 41.8716], [-123.9606, 41.8722], [-123.9613, 41.873], [-123.9596, 41.8734], [-123.9592, 41.8742], [-123.9613, 41.8756], [-123.9604, 41.8766], [-123.9597, 41.8761], [-123.9589, 41.8765], [-123.9607, 41.8778], [-123.9596, 41.8787], [-123.9576, 41.8787], [-123.9568, 41.8793], [-123.9554, 41.8785], [-123.9541, 41.8796], [-123.9527, 41.8793], [-123.9541, 41.88], [-123.9542, 41.881], [-123.9551, 41.8802], [-123.957, 41.8814], [-123.9565, 41.8824], [-123.958, 41.8833], [-123.9556, 41.8859], [-123.9516, 41.8874], [-123.9537, 41.8914], [-123.9571, 41.8907], [-123.9596, 41.8923], [-123.96, 41.8933], [-123.9579, 41.8949], [-123.9597, 41.8957], [-123.9589, 41.8982], [-123.9561, 41.8999], [-123.9552, 41.8996], [-123.956, 41.899], [-123.9554, 41.8988], [-123.9548, 41.8993], [-123.9478, 41.8992], [-123.9471, 41.9017], [-123.9446, 41.9016], [-123.9416, 41.9042], [-123.939, 41.9038], [-123.9407, 41.9054], [-123.9392, 41.9086], [-123.9388, 41.9074], [-123.9377, 41.9075], [-123.938, 41.9098], [-123.9373, 41.9103], [-123.9379, 41.9121], [-123.9392, 41.9128], [-123.9393, 41.9147], [-123.9349, 41.915], [-123.9342, 41.9138], [-123.9347, 41.9136], [-123.9282, 41.9117], [-123.9281, 41.914], [-123.9268, 41.9151], [-123.9264, 41.9143], [-123.9255, 41.9153], [-123.9268, 41.9166], [-123.9263, 41.9175], [-123.9206, 41.9174], [-123.9193, 41.9189], [-123.9206, 41.9201], [-123.9203, 41.9213], [-123.9192, 41.9223], [-123.9188, 41.9219], [-123.9182, 41.9232], [-123.9162, 41.9224], [-123.9148, 41.9234], [-123.913, 41.9233], [-123.9155, 41.9254], [-123.9144, 41.9264], [-123.9133, 41.9268], [-123.9121, 41.9251], [-123.9113, 41.926], [-123.9088, 41.9262], [-123.9066, 41.9227], [-123.9056, 41.9225], [-123.9025, 41.9245], [-123.9009, 41.9249], [-123.8986, 41.9242], [-123.8973, 41.9253], [-123.8973, 41.927], [-123.8982, 41.9277], [-123.8976, 41.9276], [-123.8995, 41.9298], [-123.9038, 41.93], [-123.9024, 41.9309], [-123.9046, 41.9325], [-123.9023, 41.9314], [-123.9023, 41.9329], [-123.8997, 41.9334], [-123.901, 41.9346], [-123.9035, 41.9346], [-123.9056, 41.9354], [-123.9043, 41.9366], [-123.9009, 41.9374], [-123.9037, 41.9387], [-123.9046, 41.9389], [-123.908, 41.9364], [-123.9083, 41.935], [-123.9095, 41.9347], [-123.9109, 41.9357], [-123.9151, 41.9351], [-123.9155, 41.9361], [-123.9169, 41.9353], [-123.9164, 41.934], [-123.9192, 41.9328], [-123.9222, 41.9335], [-123.9226, 41.9326], [-123.925, 41.9324], [-123.9252, 41.9329], [-123.9226, 41.9339], [-123.9224, 41.9359], [-123.9243, 41.9363], [-123.9249, 41.9355], [-123.9262, 41.9358], [-123.927, 41.9353], [-123.9268, 41.9343], [-123.9282, 41.9342], [-123.9288, 41.9327], [-123.9268, 41.9318], [-123.9267, 41.9309], [-123.9279, 41.9304], [-123.9281, 41.9316], [-123.9298, 41.9316], [-123.9293, 41.9342], [-123.9308, 41.9339], [-123.9311, 41.9346], [-123.9335, 41.9337], [-123.9336, 41.9345], [-123.9329, 41.9354], [-123.9332, 41.9371], [-123.9322, 41.9382], [-123.9284, 41.9384], [-123.9283, 41.9389], [-123.9298, 41.9392], [-123.9297, 41.9399], [-123.9273, 41.9403], [-123.9261, 41.9414], [-123.928, 41.9417], [-123.9291, 41.9408], [-123.9301, 41.9409], [-123.9298, 41.9417], [-123.9309, 41.9415], [-123.9314, 41.9432], [-123.9322, 41.9423], [-123.9336, 41.9423], [-123.9342, 41.9442], [-123.9318, 41.9446], [-123.9294, 41.9469], [-123.9291, 41.9458], [-123.9282, 41.9453], [-123.9266, 41.9458], [-123.9261, 41.9442], [-123.9248, 41.944], [-123.9252, 41.9452], [-123.9243, 41.9457], [-123.9256, 41.9465], [-123.9242, 41.9471], [-123.9259, 41.9477], [-123.9253, 41.9485], [-123.919, 41.9493], [-123.9178, 41.9512], [-123.9168, 41.9508], [-123.916, 41.9515], [-123.9173, 41.9539], [-123.9218, 41.958], [-123.9195, 41.9586], [-123.9196, 41.9608], [-123.917, 41.9618], [-123.9182, 41.9678], [-123.9154, 41.9724], [-123.9136, 41.9737], [-123.9147, 41.9753], [-123.9142, 41.9774], [-123.9137, 41.978], [-123.9127, 41.9779], [-123.9131, 41.9796], [-123.9117, 41.9798], [-123.9139, 41.9828], [-123.9131, 41.9831], [-123.9145, 41.9835], [-123.9151, 41.9851], [-123.9132, 41.9845], [-123.9134, 41.9876], [-123.9126, 41.9887], [-123.9109, 41.9871], [-123.9101, 41.9874], [-123.9109, 41.9883], [-123.9103, 41.9889], [-123.9112, 41.9892], [-123.9107, 41.9921], [-123.9114, 41.993], [-123.9104, 41.9934], [-123.9095, 41.9964], [-123.9057, 41.9962], [-123.9044, 41.9978], [-123.9027, 41.9982], [-123.9028, 41.9999], [-123.9054, 42.0005], [-123.9058, 42.0015], [-123.907, 42.0005], [-123.9065, 41.9984], [-123.9071, 41.9975], [-123.9084, 41.9973], [-123.9103, 41.9991], [-123.9102, 41.9999], [-123.9118, 42.0003], [-123.9123, 42.0012], [-123.9118, 42.0036], [-123.9128, 42.0044], [-123.9128, 42.0062], [-123.9122, 42.0071], [-123.9103, 42.0073], [-123.9097, 42.0082], [-123.9107, 42.0093], [-123.91, 42.0096], [-123.9097, 42.0132], [-123.9067, 42.015], [-123.9024, 42.021], [-123.9007, 42.0221], [-123.8979, 42.0235], [-123.8946, 42.0233], [-123.8933, 42.0243], [-123.891, 42.0234], [-123.8894, 42.0242], [-123.8884, 42.0234], [-123.8885, 42.022], [-123.8869, 42.0217], [-123.8868, 42.0204], [-123.8848, 42.0186], [-123.883, 42.0146], [-123.8822, 42.0155], [-123.8813, 42.0152], [-123.8803, 42.0143], [-123.8803, 42.0128], [-123.8796, 42.013], [-123.8798, 42.014], [-123.8793, 42.0138], [-123.8785, 42.0112], [-123.8766, 42.0127], [-123.8729, 42.0125], [-123.8731, 42.0099], [-123.8676, 42.0077], [-123.8652, 42.0062], [-123.8639, 42.0043], [-123.861, 42.0075], [-123.8596, 42.0075], [-123.8591, 42.0062], [-123.8576, 42.0063], [-123.8559, 42.0071], [-123.8544, 42.009], [-123.8528, 42.0081], [-123.8495, 42.0089], [-123.8502, 42.0096], [-123.8497, 42.0102], [-123.8485, 42.0103], [-123.8474, 42.0093], [-123.8461, 42.0103], [-123.8459, 42.0098], [-123.8401, 42.013], [-123.8389, 42.0148], [-123.8379, 42.0131], [-123.8361, 42.0135], [-123.8365, 42.015], [-123.8391, 42.0151], [-123.8403, 42.0168], [-123.8392, 42.0209], [-123.8415, 42.0217], [-123.8442, 42.021], [-123.8458, 42.0218], [-123.8455, 42.0244], [-123.8424, 42.0287], [-123.8419, 42.0315], [-123.8367, 42.0303], [-123.8336, 42.0307], [-123.8306, 42.0336], [-123.8269, 42.0342], [-123.8255, 42.0367], [-123.8227, 42.0375], [-123.8225, 42.0385], [-123.8202, 42.0397], [-123.8118, 42.04], [-123.8088, 42.0418], [-123.805, 42.0418], [-123.8017, 42.0444], [-123.7989, 42.0445], [-123.7978, 42.0439], [-123.7946, 42.0447], [-123.7937, 42.0437], [-123.7942, 42.0442], [-123.7906, 42.0454], [-123.7919, 42.0467], [-123.7901, 42.0462], [-123.7906, 42.048], [-123.7884, 42.0488], [-123.7906, 42.0509], [-123.7899, 42.0534], [-123.7864, 42.0545], [-123.7813, 42.0575], [-123.7795, 42.0622], [-123.7781, 42.0635], [-123.7767, 42.0638], [-123.7739, 42.0628], [-123.772, 42.0643], [-123.7691, 42.0618], [-123.7669, 42.062], [-123.7645, 42.0604], [-123.7643, 42.0586], [-123.7618, 42.0554], [-123.7629, 42.0535], [-123.7625, 42.0511], [-123.7604, 42.0472], [-123.7579, 42.0454], [-123.7561, 42.0452], [-123.754, 42.0431], [-123.7547, 42.04], [-123.7525, 42.0402], [-123.7511, 42.0382], [-123.7556, 42.037], [-123.7581, 42.0347], [-123.7548, 42.0334], [-123.7523, 42.0313], [-123.7521, 42.0299], [-123.7536, 42.0266], [-123.7524, 42.0209], [-123.7511, 42.0183], [-123.7515, 42.0173], [-123.7555, 42.0159], [-123.7577, 42.0138], [-123.7573, 42.012], [-123.7585, 42.0112], [-123.7593, 42.008], [-123.7572, 42.0043], [-123.7569, 42.0012], [-123.7581, 42.0007], [-123.7575, 41.9993], [-123.76, 41.9956], [-123.7586, 41.9922], [-123.7592, 41.9907], [-123.7533, 41.9885], [-123.7556, 41.9873], [-123.7576, 41.9898], [-123.7589, 41.9902], [-123.7604, 41.992], [-123.7611, 41.9918], [-123.7619, 41.9933], [-123.7618, 41.9914], [-123.7643, 41.9892], [-123.7643, 41.9882], [-123.7624, 41.9852], [-123.7601, 41.9836], [-123.7626, 41.9822], [-123.762, 41.9815], [-123.7638, 41.981], [-123.7639, 41.9798], [-123.767, 41.9782], [-123.7634, 41.9774], [-123.763, 41.9768], [-123.7642, 41.9763], [-123.765, 41.9745], [-123.7667, 41.9748], [-123.7673, 41.9726], [-123.7665, 41.9724], [-123.7663, 41.9708], [-123.768, 41.9708], [-123.768, 41.9699], [-123.7694, 41.9696], [-123.772, 41.9703], [-123.7719, 41.969], [-123.7702, 41.9691], [-123.7705, 41.9681], [-123.7689, 41.9667], [-123.7688, 41.9638], [-123.7699, 41.9627], [-123.7695, 41.9617], [-123.7669, 41.9608], [-123.7718, 41.9595], [-123.7726, 41.9578], [-123.7744, 41.9578], [-123.7739, 41.9572], [-123.7751, 41.9562], [-123.774, 41.956], [-123.7771, 41.9552], [-123.7768, 41.9546], [-123.7742, 41.9549], [-123.7744, 41.9514], [-123.7771, 41.9514], [-123.7774, 41.9495], [-123.7792, 41.9495], [-123.7791, 41.9489], [-123.7815, 41.9497], [-123.7824, 41.9488], [-123.7795, 41.9471], [-123.7795, 41.9466], [-123.7813, 41.947], [-123.7819, 41.9466], [-123.7799, 41.9457], [-123.7775, 41.947], [-123.7731, 41.9457], [-123.7721, 41.9464], [-123.7721, 41.9455], [-123.7704, 41.9445], [-123.7674, 41.9454], [-123.7673, 41.9447], [-123.7668, 41.9451], [-123.761, 41.9414], [-123.7615, 41.9403], [-123.7597, 41.9396], [-123.7578, 41.9401], [-123.7546, 41.9385], [-123.7561, 41.9373], [-123.756, 41.9354], [-123.7578, 41.9341], [-123.7562, 41.9326], [-123.757, 41.9294], [-123.7595, 41.9273], [-123.7644, 41.9206], [-123.7682, 41.9178], [-123.7685, 41.9148], [-123.77, 41.9121], [-123.7681, 41.9077], [-123.769, 41.9046], [-123.7685, 41.9012], [-123.7707, 41.9003], [-123.7714, 41.8975], [-123.7626, 41.8933], [-123.7624, 41.8892], [-123.7647, 41.887], [-123.7651, 41.8841], [-123.7624, 41.8826], [-123.7586, 41.8822], [-123.759, 41.8803], [-123.7579, 41.8786], [-123.7583, 41.878], [-123.7608, 41.8778], [-123.7626, 41.879], [-123.764, 41.8781], [-123.7645, 41.8794]], [[-123.7681, 42.0487], [-123.767, 42.0472], [-123.7657, 42.0499], [-123.767, 42.0508], [-123.7667, 42.0494], [-123.7681, 42.0487]], [[-123.7672, 42.0511], [-123.7677, 42.0526], [-123.7693, 42.0502], [-123.7672, 42.0511]], [[-123.767, 42.0392], [-123.7672, 42.0411], [-123.769, 42.0428], [-123.7687, 42.0408], [-123.767, 42.0392]], [[-123.7739, 42.05], [-123.7744, 42.0489], [-123.7734, 42.0482], [-123.7731, 42.0492], [-123.7738, 42.0494], [-123.7724, 42.0495], [-123.772, 42.0511], [-123.7746, 42.0526], [-123.7754, 42.0517], [-123.7734, 42.0507], [-123.7731, 42.0501], [-123.7739, 42.05]], [[-123.7743, 42.0478], [-123.7753, 42.0479], [-123.7756, 42.0482], [-123.7756, 42.0473], [-123.7769, 42.0468], [-123.7756, 42.0461], [-123.7743, 42.0478]], [[-123.7814, 42.0441], [-123.7797, 42.0431], [-123.7785, 42.0438], [-123.7796, 42.0436], [-123.7804, 42.0443], [-123.7814, 42.0441]], [[-123.7839, 42.0428], [-123.787, 42.0422], [-123.7873, 42.0415], [-123.7837, 42.042], [-123.7839, 42.0428]], [[-123.7864, 42.0316], [-123.786, 42.0336], [-123.7883, 42.0343], [-123.7876, 42.0359], [-123.7887, 42.0371], [-123.7909, 42.0371], [-123.7915, 42.0386], [-123.7914, 42.0358], [-123.7895, 42.0349], [-123.7881, 42.0321], [-123.7864, 42.0316]], [[-123.793, 42.0307], [-123.7931, 42.0285], [-123.7921, 42.0278], [-123.7929, 42.0268], [-123.7912, 42.026], [-123.7868, 42.0268], [-123.7882, 42.0294], [-123.791, 42.031], [-123.7937, 42.0316], [-123.793, 42.0307]], [[-123.7895, 42.0477], [-123.7893, 42.0478], [-123.7894, 42.0479], [-123.7895, 42.0477]], [[-123.7973, 41.9868], [-123.7963, 41.9864], [-123.798, 41.9852], [-123.7977, 41.9845], [-123.7968, 41.9854], [-123.7934, 41.9862], [-123.7932, 41.987], [-123.791, 41.9857], [-123.7903, 41.9863], [-123.7895, 41.9856], [-123.7891, 41.9865], [-123.7908, 41.9872], [-123.7911, 41.9889], [-123.7942, 41.9871], [-123.7955, 41.9882], [-123.7955, 41.9869], [-123.7964, 41.9869], [-123.7972, 41.988], [-123.8003, 41.9889], [-123.7993, 41.988], [-123.7994, 41.986], [-123.7973, 41.9868]], [[-123.8095, 41.9855], [-123.8056, 41.982], [-123.8062, 41.9781], [-123.8085, 41.9729], [-123.8069, 41.973], [-123.8068, 41.9705], [-123.8073, 41.97], [-123.8083, 41.9703], [-123.8085, 41.9693], [-123.8076, 41.9689], [-123.8089, 41.9669], [-123.8125, 41.9659], [-123.8099, 41.9656], [-123.8072, 41.9667], [-123.806, 41.9685], [-123.8065, 41.9698], [-123.8057, 41.9698], [-123.8062, 41.9717], [-123.8053, 41.9718], [-123.8034, 41.9742], [-123.8029, 41.9769], [-123.8012, 41.9773], [-123.8015, 41.9784], [-123.7987, 41.98], [-123.7986, 41.9814], [-123.7973, 41.9829], [-123.7976, 41.9837], [-123.7993, 41.9837], [-123.8004, 41.982], [-123.8027, 41.9819], [-123.805, 41.9853], [-123.8045, 41.9882], [-123.8052, 41.9889], [-123.8039, 41.9896], [-123.8048, 41.9904], [-123.8064, 41.9906], [-123.8073, 41.9875], [-123.809, 41.9869], [-123.8095, 41.9855]], [[-123.8044, 41.9955], [-123.8069, 41.9926], [-123.8061, 41.9925], [-123.8059, 41.9915], [-123.8031, 41.9916], [-123.8019, 41.9938], [-123.8028, 41.9942], [-123.8029, 41.9953], [-123.8019, 41.997], [-123.8044, 41.9955]], [[-123.8044, 41.9855], [-123.8023, 41.9827], [-123.802, 41.985], [-123.8039, 41.9866], [-123.8044, 41.9855]], [[-123.8168, 42.0173], [-123.8161, 42.0159], [-123.8157, 42.0158], [-123.8152, 42.0163], [-123.8163, 42.0168], [-123.8158, 42.0176], [-123.8168, 42.0173]], [[-123.8201, 41.9697], [-123.8178, 41.9713], [-123.8199, 41.971], [-123.8201, 41.9697]], [[-123.8264, 41.9929], [-123.8215, 41.9939], [-123.8248, 41.9935], [-123.8255, 41.9943], [-123.8264, 41.9929]], [[-123.9559, 41.8019], [-123.9529, 41.802], [-123.9518, 41.8003], [-123.9504, 41.8002], [-123.95, 41.8018], [-123.9487, 41.8019], [-123.949, 41.8036], [-123.9482, 41.8044], [-123.949, 41.8057], [-123.9512, 41.8057], [-123.9517, 41.807], [-123.954, 41.8056], [-123.9556, 41.8026], [-123.9562, 41.8027], [-123.9559, 41.8019]]], [[[-123.9078, 41.9267], [-123.9064, 41.9267], [-123.9079, 41.9265], [-123.9078, 41.9267]]], [[[-123.9071, 41.9339], [-123.9074, 41.9347], [-123.9064, 41.9349], [-123.9063, 41.9342], [-123.9071, 41.9339]]], [[[-123.9127, 41.9988], [-123.9125, 41.999], [-123.9125, 41.9987], [-123.9127, 41.9988]]], [[[-123.9112, 42.0081], [-123.9114, 42.0086], [-123.911, 42.0087], [-123.9108, 42.0085], [-123.9112, 42.0081]]], [[[-123.7398, 41.8317], [-123.7386, 41.8315], [-123.739, 41.8309], [-123.7398, 41.8317]]], [[[-123.7365, 41.8352], [-123.7362, 41.8345], [-123.738, 41.8344], [-123.738, 41.8349], [-123.7365, 41.8352]]], [[[-123.7737, 41.8789], [-123.7734, 41.8782], [-123.7737, 41.8784], [-123.7743, 41.8781], [-123.7747, 41.8783], [-123.7737, 41.8789]]], [[[-123.8052, 41.979], [-123.804, 41.9773], [-123.8042, 41.9769], [-123.8058, 41.9772], [-123.8052, 41.979]]], [[[-123.7507, 42.0297], [-123.7504, 42.0292], [-123.7507, 42.0292], [-123.7507, 42.0297]]]]}, "properties": {"layer": "perimeter"}}, {"type": "Feature", "geometry": {"type": "MultiPolygon", "coordinates": [[[[-123.7923, 41.8742], [-123.7897, 41.8739], [-123.7891, 41.8725], [-123.7883, 41.8723], [-123.7882, 41.8707], [-123.7864, 41.8703], [-123.7857, 41.8676], [-123.7827, 41.8679], [-123.7827, 41.8599], [-123.7875, 41.8598], [-123.7875, 41.8561], [-123.807, 41.8555], [-123.8069, 41.8591], [-123.7923, 41.8595], [-123.7923, 41.8742]]], [[[-123.947, 41.8368], [-123.9463, 41.8371], [-123.941, 41.8363], [-123.9411, 41.8358], [-123.9432, 41.8358], [-123.947, 41.8368]]], [[[-123.941, 41.8358], [-123.9377, 41.8372], [-123.9372, 41.8368], [-123.9397, 41.8358], [-123.941, 41.8358]]], [[[-123.9672, 41.8571], [-123.9672, 41.8572], [-123.9672, 41.8572], [-123.9672, 41.8571]]], [[[-123.9662, 41.8592], [-123.9646, 41.8609], [-123.9605, 41.8621], [-123.9595, 41.8618], [-123.9584, 41.8626], [-123.9572, 41.8622], [-123.9572, 41.8608], [-123.962, 41.8608], [-123.962, 41.857], [-123.9667, 41.8571], [-123.9662, 41.8592]]], [[[-123.9574, 41.8684], [-123.9585, 41.8688], [-123.9615, 41.8718], [-123.9571, 41.8718], [-123.9574, 41.8684]]], [[[-123.7944, 41.9887], [-123.8051, 41.9887], [-123.8041, 41.9899], [-123.8064, 41.9906], [-123.8069, 41.9887], [-123.8133, 41.9887], [-123.8135, 41.9779], [-123.8186, 41.9779], [-123.8185, 41.9823], [-123.8233, 41.9825], [-123.8232, 41.9861], [-123.8183, 41.986], [-123.8181, 41.9896], [-123.833, 41.9891], [-123.833, 41.996], [-123.8045, 41.9953], [-123.8069, 41.9926], [-123.8061, 41.9925], [-123.8059, 41.9915], [-123.8043, 41.9914], [-123.8031, 41.9916], [-123.8019, 41.9938], [-123.8028, 41.9942], [-123.8029, 41.9953], [-123.7941, 41.9955], [-123.7944, 41.9887]], [[-123.8264, 41.9929], [-123.8215, 41.9939], [-123.8248, 41.9935], [-123.8255, 41.9943], [-123.8264, 41.9929]]], [[[-123.8086, 41.9845], [-123.8056, 41.982], [-123.8068, 41.9762], [-123.8073, 41.9758], [-123.8087, 41.9767], [-123.8144, 41.9717], [-123.8161, 41.9728], [-123.8091, 41.9791], [-123.8123, 41.9812], [-123.8086, 41.9845]]], [[[-123.8028, 41.9822], [-123.8039, 41.9833], [-123.804, 41.9836], [-123.8024, 41.9825], [-123.8028, 41.9822]]], [[[-123.8052, 41.979], [-123.804, 41.9773], [-123.805, 41.9768], [-123.8058, 41.9776], [-123.8052, 41.979]]], [[[-123.9263, 41.8421], [-123.9289, 41.8402], [-123.9298, 41.8406], [-123.9271, 41.8424], [-123.9272, 41.8425], [-123.9296, 41.8408], [-123.9307, 41.8409], [-123.9275, 41.8431], [-123.9263, 41.8421]]], [[[-123.8527, 41.9644], [-123.843, 41.9644], [-123.843, 41.9571], [-123.8526, 41.9572], [-123.8527, 41.9644]]], [[[-123.8168, 41.8302], [-123.8169, 41.8446], [-123.8115, 41.8447], [-123.8114, 41.8302], [-123.8168, 41.8302]]], [[[-123.8215, 41.8445], [-123.8311, 41.8442], [-123.8311, 41.8509], [-123.8217, 41.8513], [-123.8215, 41.8445]]], [[[-123.8215, 41.8736], [-123.8168, 41.8736], [-123.8167, 41.87], [-123.8215, 41.8699], [-123.8215, 41.8736]]], [[[-123.7979, 41.8867], [-123.8003, 41.8849], [-123.8052, 41.8848], [-123.8052, 41.883], [-123.8076, 41.883], [-123.8076, 41.8866], [-123.8052, 41.8866], [-123.8052, 41.8885], [-123.8003, 41.8885], [-123.8003, 41.8867], [-123.7979, 41.8867]]], [[[-123.8235, 41.9689], [-123.8283, 41.9689], [-123.8282, 41.9653], [-123.8331, 41.9653], [-123.8333, 41.9725], [-123.8284, 41.9725], [-123.8284, 41.9753], [-123.8332, 41.9753], [-123.833, 41.9825], [-123.8233, 41.9825], [-123.8235, 41.9689]]]]}, "properties": {"layer": "retained"}}, {"type": "Feature", "geometry": {"type": "MultiPolygon", "coordinates": [[[[-123.8312, 41.996], [-123.8319, 41.9954], [-123.8315, 41.9949], [-123.8308, 41.9955], [-123.8312, 41.996]]], [[[-123.8247, 41.9956], [-123.825, 41.9948], [-123.8229, 41.9954], [-123.8229, 41.9957], [-123.8247, 41.9956]]], [[[-123.8124, 41.9952], [-123.8123, 41.9947], [-123.8109, 41.9947], [-123.8113, 41.9952], [-123.8124, 41.9952]]], [[[-123.8205, 41.9925], [-123.8201, 41.9917], [-123.8191, 41.992], [-123.8195, 41.9926], [-123.8205, 41.9925]]], [[[-123.833, 41.9959], [-123.8326, 41.9941], [-123.8332, 41.9927], [-123.8331, 41.99], [-123.8306, 41.9909], [-123.831, 41.9914], [-123.8299, 41.9914], [-123.8299, 41.9922], [-123.8306, 41.9919], [-123.831, 41.9925], [-123.8296, 41.9928], [-123.83, 41.9933], [-123.8307, 41.9928], [-123.8321, 41.993], [-123.8314, 41.9933], [-123.8322, 41.9941], [-123.8308, 41.9941], [-123.8308, 41.9949], [-123.8322, 41.9946], [-123.8319, 41.9957], [-123.833, 41.9959]], [[-123.8328, 41.9922], [-123.8325, 41.9924], [-123.8325, 41.9922], [-123.8328, 41.9922]], [[-123.8324, 41.9919], [-123.8321, 41.9922], [-123.8321, 41.9919], [-123.8324, 41.9919]], [[-123.8317, 41.9911], [-123.8313, 41.9914], [-123.8313, 41.9911], [-123.8317, 41.9911]], [[-123.8328, 41.9908], [-123.8317, 41.9911], [-123.8317, 41.9908], [-123.8328, 41.9908]]], [[[-123.8313, 41.99], [-123.8331, 41.9897], [-123.833, 41.9892], [-123.8312, 41.9895], [-123.8313, 41.99]]], [[[-123.8208, 41.9909], [-123.8237, 41.99], [-123.8233, 41.9895], [-123.82, 41.9896], [-123.8208, 41.9909]]], [[[-123.7988, 41.9907], [-123.7991, 41.9896], [-123.7976, 41.99], [-123.7977, 41.9905], [-123.7988, 41.9907]]], [[[-123.8135, 41.9892], [-123.8131, 41.9887], [-123.8117, 41.9887], [-123.8117, 41.989], [-123.8135, 41.9892]]], [[[-123.7976, 41.9894], [-123.799, 41.9888], [-123.7976, 41.9892], [-123.7976, 41.9894]]], [[[-123.8184, 41.9858], [-123.818, 41.9847], [-123.8165, 41.9848], [-123.8165, 41.9853], [-123.8184, 41.9858]]], [[[-123.8179, 41.9845], [-123.8179, 41.9839], [-123.8165, 41.984], [-123.8165, 41.9842], [-123.8179, 41.9845]]], [[[-123.8182, 41.9828], [-123.8175, 41.9821], [-123.8164, 41.9821], [-123.8168, 41.9826], [-123.8182, 41.9828]]], [[[-123.8148, 41.9802], [-123.8155, 41.9794], [-123.8137, 41.9795], [-123.8137, 41.9797], [-123.8148, 41.9802]]], [[[-123.8188, 41.9793], [-123.8187, 41.978], [-123.8183, 41.978], [-123.818, 41.9791], [-123.8188, 41.9793]]], [[[-123.833, 41.9824], [-123.8329, 41.9805], [-123.8322, 41.9811], [-123.8308, 41.9806], [-123.8333, 41.9799], [-123.8331, 41.9778], [-123.8309, 41.977], [-123.8304, 41.9803], [-123.8297, 41.9809], [-123.83, 41.9795], [-123.8293, 41.9795], [-123.8286, 41.9812], [-123.8301, 41.9811], [-123.829, 41.9814], [-123.8297, 41.9817], [-123.829, 41.982], [-123.8294, 41.9825], [-123.833, 41.9824]], [[-123.8311, 41.9811], [-123.8308, 41.9814], [-123.8308, 41.9811], [-123.8311, 41.9811]], [[-123.8311, 41.9795], [-123.8307, 41.98], [-123.8307, 41.9795], [-123.8311, 41.9795]], [[-123.8321, 41.9794], [-123.8318, 41.9797], [-123.8318, 41.9795], [-123.8321, 41.9794]], [[-123.8318, 41.9792], [-123.8314, 41.9795], [-123.8314, 41.9792], [-123.8318, 41.9792]], [[-123.8314, 41.9789], [-123.831, 41.9792], [-123.831, 41.9789], [-123.8314, 41.9789]], [[-123.8324, 41.9781], [-123.8314, 41.9784], [-123.8313, 41.9781], [-123.8324, 41.9781]]], [[[-123.8124, 41.9762], [-123.8138, 41.9751], [-123.8134, 41.9746], [-123.8113, 41.9749], [-123.8113, 41.976], [-123.8124, 41.9762]]], [[[-123.8256, 41.9721], [-123.8256, 41.9715], [-123.8248, 41.9713], [-123.8245, 41.9718], [-123.8256, 41.9721]]], [[[-123.8266, 41.9715], [-123.8266, 41.9709], [-123.8252, 41.9707], [-123.8252, 41.9713], [-123.8266, 41.9715]]], [[[-123.831, 41.9724], [-123.8324, 41.9705], [-123.8331, 41.9705], [-123.8332, 41.9653], [-123.8281, 41.9652], [-123.8283, 41.969], [-123.8265, 41.969], [-123.8266, 41.9709], [-123.8274, 41.9712], [-123.8267, 41.972], [-123.8288, 41.9717], [-123.8299, 41.9706], [-123.8295, 41.9714], [-123.8303, 41.9714], [-123.8303, 41.9716], [-123.8306, 41.9716], [-123.831, 41.9719], [-123.831, 41.9724]], [[-123.8314, 41.9716], [-123.8306, 41.9716], [-123.8306, 41.9703], [-123.8313, 41.9703], [-123.8314, 41.9716]], [[-123.832, 41.9702], [-123.8313, 41.9703], [-123.8316, 41.9686], [-123.8319, 41.9686], [-123.8319, 41.9689], [-123.8327, 41.9689], [-123.832, 41.9702]], [[-123.8312, 41.9694], [-123.8309, 41.9697], [-123.8309, 41.9695], [-123.8312, 41.9694]], [[-123.829, 41.9687], [-123.8287, 41.969], [-123.8287, 41.9687], [-123.829, 41.9687]], [[-123.8323, 41.9683], [-123.8319, 41.9686], [-123.8319, 41.9683], [-123.8323, 41.9683]], [[-123.833, 41.968], [-123.8326, 41.9683], [-123.8326, 41.9681], [-123.833, 41.968]], [[-123.8304, 41.9681], [-123.8301, 41.9684], [-123.8301, 41.9681], [-123.8304, 41.9681]], [[-123.8315, 41.9678], [-123.8308, 41.9678], [-123.8308, 41.9673], [-123.8311, 41.9673], [-123.8315, 41.9678]], [[-123.8315, 41.9673], [-123.83, 41.967], [-123.8303, 41.9657], [-123.8314, 41.9659], [-123.8315, 41.9673]]], [[[-123.8501, 41.964], [-123.8511, 41.9629], [-123.85, 41.9621], [-123.8501, 41.964]]], [[[-123.8527, 41.9645], [-123.8519, 41.9639], [-123.8526, 41.9637], [-123.8522, 41.9618], [-123.8505, 41.9645], [-123.8527, 41.9645]]], [[[-123.8507, 41.9615], [-123.8514, 41.961], [-123.8528, 41.9607], [-123.8528, 41.9596], [-123.8506, 41.9602], [-123.8507, 41.9615]], [[-123.8521, 41.9601], [-123.8517, 41.9604], [-123.8517, 41.9602], [-123.8521, 41.9601]]], [[[-123.8527, 41.9593], [-123.8527, 41.958], [-123.8512, 41.9583], [-123.8513, 41.9594], [-123.8527, 41.9593]]], [[[-123.8502, 41.9591], [-123.8505, 41.9586], [-123.8494, 41.9581], [-123.8491, 41.9589], [-123.8502, 41.9591]]], [[[-123.8454, 41.9644], [-123.8436, 41.9637], [-123.8443, 41.9631], [-123.8447, 41.9636], [-123.8457, 41.9636], [-123.8457, 41.9631], [-123.8468, 41.9636], [-123.8474, 41.9616], [-123.8467, 41.9614], [-123.8467, 41.9603], [-123.8473, 41.9598], [-123.8477, 41.9606], [-123.847, 41.9606], [-123.8471, 41.9611], [-123.8481, 41.9608], [-123.8477, 41.9597], [-123.8484, 41.9594], [-123.848, 41.9586], [-123.8491, 41.9586], [-123.849, 41.9573], [-123.8429, 41.9572], [-123.8435, 41.9631], [-123.8429, 41.9645], [-123.8454, 41.9644]], [[-123.8454, 41.9633], [-123.8446, 41.9631], [-123.8446, 41.9625], [-123.845, 41.9625], [-123.8453, 41.9628], [-123.8454, 41.9633]], [[-123.846, 41.9625], [-123.8457, 41.9628], [-123.8457, 41.9625], [-123.846, 41.9625]], [[-123.8457, 41.9622], [-123.845, 41.9625], [-123.8449, 41.9623], [-123.8457, 41.9622]], [[-123.8442, 41.962], [-123.8439, 41.9623], [-123.8439, 41.962], [-123.8442, 41.962]], [[-123.8467, 41.9617], [-123.8464, 41.9619], [-123.8464, 41.9617], [-123.8467, 41.9617]], [[-123.8456, 41.9617], [-123.8453, 41.962], [-123.8453, 41.9617], [-123.8456, 41.9617]], [[-123.8446, 41.9617], [-123.8442, 41.962], [-123.8442, 41.9617], [-123.8446, 41.9617]], [[-123.846, 41.9614], [-123.8456, 41.9617], [-123.8456, 41.9614], [-123.846, 41.9614]], [[-123.8442, 41.9617], [-123.8438, 41.9607], [-123.8456, 41.9606], [-123.8456, 41.9612], [-123.8442, 41.9617]], [[-123.8466, 41.96], [-123.8459, 41.9606], [-123.8456, 41.9601], [-123.8466, 41.96]], [[-123.8438, 41.9604], [-123.8434, 41.9607], [-123.8434, 41.9604], [-123.8438, 41.9604]], [[-123.8441, 41.9601], [-123.8438, 41.9604], [-123.8437, 41.9601], [-123.8441, 41.9601]], [[-123.8459, 41.9593], [-123.8452, 41.9595], [-123.8451, 41.9593], [-123.8459, 41.9593]], [[-123.848, 41.9589], [-123.847, 41.9592], [-123.8469, 41.959], [-123.848, 41.9589]], [[-123.8462, 41.959], [-123.8444, 41.9582], [-123.8476, 41.9576], [-123.8469, 41.9579], [-123.8476, 41.9587], [-123.8462, 41.9582], [-123.8462, 41.959]], [[-123.8448, 41.9587], [-123.8444, 41.959], [-123.8444, 41.9588], [-123.8448, 41.9587]], [[-123.8487, 41.9578], [-123.8476, 41.9581], [-123.8476, 41.9578], [-123.8487, 41.9578]]], [[[-123.8178, 41.8737], [-123.8185, 41.8729], [-123.8177, 41.8726], [-123.8178, 41.8737]]], [[[-123.8198, 41.8715], [-123.8198, 41.8709], [-123.8216, 41.8712], [-123.8216, 41.8704], [-123.8187, 41.8704], [-123.8187, 41.8715], [-123.8191, 41.871], [-123.8198, 41.8715]]], [[[-123.7923, 41.8696], [-123.7922, 41.868], [-123.7918, 41.868], [-123.7912, 41.8694], [-123.7923, 41.8696]]], [[[-123.788, 41.8632], [-123.7879, 41.8624], [-123.789, 41.8627], [-123.7883, 41.8622], [-123.7886, 41.8613], [-123.7872, 41.8622], [-123.788, 41.8632]]], [[[-123.8061, 41.8584], [-123.8061, 41.8576], [-123.8046, 41.8573], [-123.8046, 41.8576], [-123.8061, 41.8584]]], [[[-123.8061, 41.8573], [-123.806, 41.8565], [-123.8045, 41.856], [-123.8046, 41.8565], [-123.8061, 41.8573]]], [[[-123.831, 41.8508], [-123.8313, 41.85], [-123.8298, 41.8484], [-123.8283, 41.8488], [-123.8273, 41.8499], [-123.8262, 41.8491], [-123.8259, 41.8502], [-123.8241, 41.8508], [-123.8292, 41.8509], [-123.8295, 41.8503], [-123.8306, 41.8503], [-123.8299, 41.8509], [-123.831, 41.8508]], [[-123.8292, 41.8504], [-123.8288, 41.8506], [-123.8288, 41.8504], [-123.8292, 41.8504]], [[-123.827, 41.8499], [-123.8263, 41.8504], [-123.8262, 41.8499], [-123.827, 41.8499]], [[-123.8277, 41.8499], [-123.8273, 41.8501], [-123.8273, 41.8499], [-123.8277, 41.8499]]], [[[-123.828, 41.8488], [-123.8283, 41.8479], [-123.8269, 41.8483], [-123.8269, 41.8485], [-123.828, 41.8488]]], [[[-123.8237, 41.85], [-123.8265, 41.8488], [-123.8247, 41.8472], [-123.824, 41.8478], [-123.8247, 41.8486], [-123.8233, 41.8492], [-123.8237, 41.85]]]]}, "properties": {"layer": "high_severity"}}, {"type": "Feature", "geometry": {"type": "MultiPolygon", "coordinates": [[[[-123.8323, 41.9957], [-123.833, 41.9954], [-123.8323, 41.9951], [-123.8323, 41.9957]]], [[[-123.8329, 41.9938], [-123.8331, 41.9902], [-123.832, 41.9903], [-123.8317, 41.9908], [-123.8328, 41.9911], [-123.831, 41.9914], [-123.8303, 41.993], [-123.8321, 41.993], [-123.8315, 41.9938], [-123.8329, 41.9938]], [[-123.8328, 41.9922], [-123.8325, 41.9924], [-123.8325, 41.9922], [-123.8328, 41.9922]], [[-123.8324, 41.9919], [-123.8321, 41.9922], [-123.8321, 41.9919], [-123.8324, 41.9919]]], [[[-123.8215, 41.9901], [-123.8222, 41.9895], [-123.8218, 41.9895], [-123.8215, 41.9901]]], [[[-123.8308, 41.9816], [-123.833, 41.9819], [-123.8329, 41.9805], [-123.8308, 41.9816]]], [[[-123.8322, 41.9803], [-123.8333, 41.9799], [-123.8328, 41.9786], [-123.8314, 41.9784], [-123.8322, 41.9803]]], [[[-123.8295, 41.9709], [-123.8316, 41.97], [-123.8316, 41.9686], [-123.8319, 41.9686], [-123.833, 41.9691], [-123.8332, 41.9653], [-123.8281, 41.9652], [-123.8277, 41.9704], [-123.8295, 41.9709]], [[-123.8312, 41.9694], [-123.8309, 41.9697], [-123.8309, 41.9695], [-123.8312, 41.9694]], [[-123.829, 41.9687], [-123.8287, 41.969], [-123.8287, 41.9687], [-123.829, 41.9687]], [[-123.8323, 41.9683], [-123.8319, 41.9686], [-123.8319, 41.9683], [-123.8323, 41.9683]], [[-123.833, 41.968], [-123.8326, 41.9683], [-123.8326, 41.9681], [-123.833, 41.968]], [[-123.8304, 41.9681], [-123.8301, 41.9684], [-123.8301, 41.9681], [-123.8304, 41.9681]], [[-123.8315, 41.9678], [-123.8308, 41.9678], [-123.8308, 41.9673], [-123.8311, 41.9673], [-123.8315, 41.9678]], [[-123.8315, 41.9673], [-123.83, 41.967], [-123.8303, 41.9657], [-123.8314, 41.9659], [-123.8315, 41.9673]]], [[[-123.8457, 41.9636], [-123.8457, 41.9628], [-123.8454, 41.9633], [-123.8446, 41.9631], [-123.8447, 41.9636], [-123.8457, 41.9636]]], [[[-123.8429, 41.9645], [-123.8451, 41.9642], [-123.8436, 41.9639], [-123.8446, 41.9623], [-123.8431, 41.9623], [-123.8429, 41.9645]]], [[[-123.8459, 41.9606], [-123.8456, 41.9601], [-123.847, 41.9592], [-123.8465, 41.9582], [-123.8462, 41.959], [-123.844, 41.9588], [-123.843, 41.9596], [-123.843, 41.9602], [-123.8445, 41.9598], [-123.8459, 41.9606]], [[-123.8459, 41.9593], [-123.8452, 41.9595], [-123.8451, 41.9593], [-123.8459, 41.9593]]], [[[-123.8444, 41.9585], [-123.8447, 41.9579], [-123.8479, 41.9573], [-123.8429, 41.9572], [-123.8444, 41.9585]]], [[[-123.831, 41.8508], [-123.8313, 41.85], [-123.8291, 41.849], [-123.8273, 41.8499], [-123.8262, 41.8491], [-123.8259, 41.8502], [-123.8241, 41.8508], [-123.8292, 41.8509], [-123.8295, 41.8503], [-123.8306, 41.8503], [-123.8299, 41.8509], [-123.831, 41.8508]], [[-123.8292, 41.8504], [-123.8288, 41.8506], [-123.8288, 41.8504], [-123.8292, 41.8504]], [[-123.827, 41.8499], [-123.8263, 41.8504], [-123.8262, 41.8499], [-123.827, 41.8499]], [[-123.8277, 41.8499], [-123.8273, 41.8501], [-123.8273, 41.8499], [-123.8277, 41.8499]]], [[[-123.8255, 41.8497], [-123.8258, 41.8486], [-123.8237, 41.8489], [-123.8241, 41.8497], [-123.8255, 41.8497]]]]}, "properties": {"layer": "interior"}}, {"type": "Feature", "geometry": {"type": "Polygon", "coordinates": [[[-123.8332, 41.9924], [-123.8331, 41.9902], [-123.8327, 41.9903], [-123.8325, 41.9922], [-123.8332, 41.9924]]]}, "properties": {"layer": "cell", "cell_id": "91_2000", "seed_zone": "91", "elevation_band": "2000–2500 ft"}}, {"type": "Feature", "geometry": {"type": "MultiPolygon", "coordinates": [[[[-123.8323, 41.9957], [-123.833, 41.9954], [-123.8323, 41.9951], [-123.8323, 41.9957]]], [[[-123.8329, 41.9938], [-123.8332, 41.9924], [-123.8321, 41.9922], [-123.8328, 41.9911], [-123.8317, 41.9911], [-123.8303, 41.993], [-123.8321, 41.993], [-123.8315, 41.9938], [-123.8329, 41.9938]]], [[[-123.8328, 41.9908], [-123.8327, 41.9903], [-123.8317, 41.9906], [-123.8317, 41.9908], [-123.8328, 41.9908]]], [[[-123.8439, 41.9631], [-123.8442, 41.9626], [-123.8431, 41.9623], [-123.8432, 41.9629], [-123.8439, 41.9631]]], [[[-123.843, 41.9596], [-123.8445, 41.9598], [-123.8444, 41.9588], [-123.843, 41.9596]]], [[[-123.8444, 41.9585], [-123.8458, 41.9574], [-123.8429, 41.9572], [-123.8429, 41.9577], [-123.8444, 41.9585]]]]}, "properties": {"layer": "cell", "cell_id": "91_2500", "seed_zone": "91", "elevation_band": "2500–3000 ft"}}, {"type": "Feature", "geometry": {"type": "MultiPolygon", "coordinates": [[[[-123.8215, 41.9901], [-123.8222, 41.9895], [-123.8218, 41.9895], [-123.8215, 41.9901]]], [[[-123.8308, 41.9816], [-123.833, 41.9819], [-123.8329, 41.9805], [-123.8308, 41.9816]]], [[[-123.8322, 41.9803], [-123.8333, 41.9799], [-123.8328, 41.9786], [-123.8314, 41.9784], [-123.8322, 41.9803]]], [[[-123.8301, 41.9692], [-123.8312, 41.9681], [-123.8308, 41.9673], [-123.8311, 41.9673], [-123.8319, 41.9678], [-123.8322, 41.967], [-123.8333, 41.9669], [-123.8332, 41.9653], [-123.8281, 41.9652], [-123.8283, 41.969], [-123.829, 41.9684], [-123.8301, 41.9692]], [[-123.8304, 41.9681], [-123.8301, 41.9684], [-123.8301, 41.9681], [-123.8304, 41.9681]], [[-123.8315, 41.9673], [-123.83, 41.967], [-123.8303, 41.9657], [-123.8314, 41.9659], [-123.8315, 41.9673]]], [[[-123.8457, 41.9636], [-123.8457, 41.9628], [-123.8454, 41.9633], [-123.8446, 41.9631], [-123.8447, 41.9636], [-123.8457, 41.9636]]], [[[-123.8429, 41.9645], [-123.8451, 41.9642], [-123.8436, 41.9639], [-123.8443, 41.9636], [-123.8446, 41.9623], [-123.8428, 41.9634], [-123.8429, 41.9645]]], [[[-123.8459, 41.9606], [-123.8456, 41.9601], [-123.847, 41.9592], [-123.8465, 41.9582], [-123.8462, 41.959], [-123.8444, 41.959], [-123.8445, 41.9598], [-123.8459, 41.9606]], [[-123.8459, 41.9593], [-123.8452, 41.9595], [-123.8451, 41.9593], [-123.8459, 41.9593]]], [[[-123.8451, 41.9577], [-123.8454, 41.9579], [-123.8458, 41.9576], [-123.8451, 41.9577]]], [[[-123.8479, 41.9576], [-123.8476, 41.957], [-123.8458, 41.9574], [-123.8458, 41.9576], [-123.8479, 41.9576]]]]}, "properties": {"layer": "cell", "cell_id": "91_3000", "seed_zone": "91", "elevation_band": "3000–3500 ft"}}, {"type": "Feature", "geometry": {"type": "Polygon", "coordinates": [[[-123.8281, 41.9709], [-123.8316, 41.97], [-123.8316, 41.9686], [-123.8319, 41.9686], [-123.833, 41.9691], [-123.8333, 41.9669], [-123.8322, 41.967], [-123.8301, 41.9692], [-123.8294, 41.9687], [-123.8276, 41.969], [-123.8281, 41.9709]], [[-123.8312, 41.9694], [-123.8309, 41.9697], [-123.8309, 41.9695], [-123.8312, 41.9694]], [[-123.8323, 41.9683], [-123.8319, 41.9686], [-123.8319, 41.9683], [-123.8323, 41.9683]], [[-123.833, 41.968], [-123.8326, 41.9683], [-123.8326, 41.9681], [-123.833, 41.968]]]}, "properties": {"layer": "cell", "cell_id": "91_3500", "seed_zone": "91", "elevation_band": "3500–4000 ft"}}, {"type": "Feature", "geometry": {"type": "MultiPolygon", "coordinates": [[[[-123.8292, 41.8509], [-123.8288, 41.8504], [-123.8274, 41.8507], [-123.8274, 41.851], [-123.8292, 41.8509]]], [[[-123.8295, 41.8506], [-123.8295, 41.8501], [-123.8288, 41.8501], [-123.8288, 41.8504], [-123.8295, 41.8506]]], [[[-123.8263, 41.851], [-123.8266, 41.8496], [-123.8259, 41.8494], [-123.8259, 41.8502], [-123.8241, 41.8511], [-123.8263, 41.851]]], [[[-123.8241, 41.8497], [-123.8258, 41.8491], [-123.8248, 41.8491], [-123.8247, 41.8486], [-123.8237, 41.8489], [-123.8241, 41.8497]]]]}, "properties": {"layer": "cell", "cell_id": "301_1000", "seed_zone": "301", "elevation_band": "1000–1500 ft"}}, {"type": "Feature", "geometry": {"type": "MultiPolygon", "coordinates": [[[[-123.831, 41.8508], [-123.8313, 41.85], [-123.8291, 41.849], [-123.8277, 41.8493], [-123.827, 41.8499], [-123.827, 41.8504], [-123.8263, 41.8504], [-123.8263, 41.851], [-123.8274, 41.851], [-123.8295, 41.8501], [-123.8306, 41.8503], [-123.8299, 41.8509], [-123.831, 41.8508]], [[-123.8277, 41.8499], [-123.8273, 41.8501], [-123.8273, 41.8499], [-123.8277, 41.8499]]], [[[-123.827, 41.8499], [-123.8269, 41.8493], [-123.8262, 41.8491], [-123.8262, 41.8496], [-123.827, 41.8499]]], [[[-123.8258, 41.8491], [-123.8258, 41.8486], [-123.8247, 41.8483], [-123.8248, 41.8491], [-123.8258, 41.8491]]]]}, "properties": {"layer": "cell", "cell_id": "301_1500", "seed_zone": "301", "elevation_band": "1500–2000 ft"}}]}
