{"type": "FeatureCollection", "features": [{"type": "Feature", "geometry": {"type": "MultiPolygon", "coordinates": [[[[-122.6183, 41.9182], [-122.6175, 41.9173], [-122.618, 41.9163], [-122.6203, 41.9154], [-122.6207, 41.9174], [-122.62, 41.9183], [-122.6183, 41.9182]]], [[[-122.5679, 41.9197], [-122.5689, 41.9173], [-122.5684, 41.914], [-122.5665, 41.9094], [-122.5677, 41.9081], [-122.5666, 41.9073], [-122.563, 41.907], [-122.5616, 41.9026], [-122.5594, 41.9026], [-122.5599, 41.9074], [-122.5615, 41.9082], [-122.5605, 41.9089], [-122.5598, 41.908], [-122.5585, 41.9078], [-122.5566, 41.904], [-122.5568, 41.9023], [-122.5575, 41.9022], [-122.5581, 41.9008], [-122.557, 41.8984], [-122.5543, 41.8992], [-122.5527, 41.898], [-122.548, 41.8976], [-122.5457, 41.8954], [-122.545, 41.8928], [-122.5434, 41.8926], [-122.5438, 41.892], [-122.5422, 41.8894], [-122.5345, 41.893], [-122.5278, 41.8939], [-122.5284, 41.892], [-122.5262, 41.8845], [-122.5272, 41.883], [-122.5269, 41.8806], [-122.5275, 41.8795], [-122.5246, 41.88], [-122.523, 41.8758], [-122.5277, 41.872], [-122.5286, 41.8739], [-122.5308, 41.8744], [-122.5306, 41.8753], [-122.5335, 41.8755], [-122.5356, 41.8793], [-122.5377, 41.8806], [-122.5392, 41.8807], [-122.5427, 41.8791], [-122.543, 41.8781], [-122.542, 41.8778], [-122.5427, 41.8756], [-122.5441, 41.8749], [-122.5448, 41.8762], [-122.5457, 41.8756], [-122.5455, 41.8741], [-122.5433, 41.8728], [-122.5443, 41.8717], [-122.5526, 41.8749], [-122.5556, 41.8748], [-122.5559, 41.8756], [-122.5534, 41.8829], [-122.5522, 41.8813], [-122.5527, 41.8803], [-122.552, 41.8802], [-122.5528, 41.8798], [-122.5509, 41.8797], [-122.5505, 41.8807], [-122.5495, 41.881], [-122.5481, 41.8799], [-122.5465, 41.8801], [-122.5483, 41.8826], [-122.5473, 41.8836], [-122.5478, 41.8875], [-122.5541, 41.8877], [-122.5556, 41.8859], [-122.5554, 41.8827], [-122.556, 41.8826], [-122.5586, 41.8847], [-122.5627, 41.8921], [-122.5652, 41.8949], [-122.5701, 41.8935], [-122.5744, 41.8957], [-122.5778, 41.896], [-122.578, 41.8974], [-122.5771, 41.8976], [-122.5776, 41.8985], [-122.5769, 41.8993], [-122.5783, 41.8996], [-122.5793, 41.9007], [-122.5779, 41.902], [-122.5813, 41.9026], [-122.5829, 41.9036], [-122.5882, 41.9097], [-122.59, 41.9103], [-122.5901, 41.9128], [-122.5955, 41.9153], [-122.5959, 41.9161], [-122.595, 41.9193], [-122.5963, 41.9199], [-122.596, 41.9179], [-122.5974, 41.9169], [-122.5985, 41.9172], [-122.5978, 41.9183], [-122.6014, 41.9239], [-122.6026, 41.9239], [-122.604, 41.9227], [-122.6065, 41.9224], [-122.606, 41.9238], [-122.6067, 41.9249], [-122.6084, 41.9254], [-122.6092, 41.9274], [-122.6116, 41.9283], [-122.6118, 41.9255], [-122.6132, 41.9253], [-122.6136, 41.9239], [-122.616, 41.9242], [-122.6157, 41.9222], [-122.6176, 41.9221], [-122.6192, 41.9233], [-122.6193, 41.9223], [-122.6202, 41.9225], [-122.6211, 41.9238], [-122.6232, 41.9228], [-122.6239, 41.924], [-122.6266, 41.9253], [-122.6281, 41.925], [-122.6311, 41.9259], [-122.6319, 41.9273], [-122.6301, 41.928], [-122.6311, 41.9287], [-122.6326, 41.9286], [-122.6334, 41.9306], [-122.6351, 41.9319], [-122.6347, 41.9335], [-122.6316, 41.9343], [-122.632, 41.9361], [-122.631, 41.9381], [-122.632, 41.9394], [-122.6301, 41.94], [-122.6302, 41.9415], [-122.6279, 41.9424], [-122.6269, 41.9418], [-122.6261, 41.9425], [-122.6261, 41.9435], [-122.6247, 41.9448], [-122.6264, 41.9457], [-122.6237, 41.947], [-122.6237, 41.9488], [-122.6219, 41.9511], [-122.6187, 41.9529], [-122.617, 41.9548], [-122.6142, 41.956], [-122.6141, 41.9581], [-122.6127, 41.9603], [-122.6141, 41.9612], [-122.6136, 41.9638], [-122.6116, 41.9664], [-122.6134, 41.9702], [-122.6116, 41.9733], [-122.6105, 41.9777], [-122.6073, 41.979], [-122.6083, 41.9799], [-122.6069, 41.9815], [-122.6069, 41.9832], [-122.6011, 41.985], [-122.6009, 41.9871], [-122.5998, 41.9879], [-122.5985, 41.9915], [-122.5988, 41.9924], [-122.5934, 41.9926], [-122.5923, 41.9933], [-122.5933, 41.9936], [-122.5932, 41.9955], [-122.5925, 41.9964], [-122.592, 41.9961], [-122.5918, 41.9972], [-122.5911, 41.9966], [-122.5896, 41.9985], [-122.5905, 42.0001], [-122.5918, 41.9989], [-122.5933, 42.0003], [-122.5916, 42.0027], [-122.5884, 42.0027], [-122.5901, 42.0036], [-122.5895, 42.004], [-122.5894, 42.0035], [-122.5883, 42.0037], [-122.5868, 42.0019], [-122.5855, 42.0038], [-122.5839, 42.0037], [-122.5839, 42.0044], [-122.5829, 42.0041], [-122.5827, 42.0056], [-122.5814, 42.006], [-122.582, 42.0062], [-122.5803, 42.0083], [-122.5785, 42.0093], [-122.5796, 42.0096], [-122.5794, 42.0104], [-122.577, 42.0094], [-122.5754, 42.0115], [-122.5787, 42.0141], [-122.5766, 42.0151], [-122.5766, 42.0185], [-122.5736, 42.0175], [-122.5715, 42.0182], [-122.5687, 42.0167], [-122.5676, 42.018], [-122.5665, 42.0178], [-122.566, 42.0188], [-122.5648, 42.0186], [-122.5643, 42.0192], [-122.5614, 42.0182], [-122.5604, 42.0171], [-122.5582, 42.0176], [-122.5576, 42.0169], [-122.5562, 42.0174], [-122.5566, 42.0188], [-122.5542, 42.0177], [-122.5542, 42.019], [-122.5526, 42.0195], [-122.5511, 42.0192], [-122.5518, 42.0185], [-122.5491, 42.0175], [-122.5465, 42.0175], [-122.5459, 42.018], [-122.5469, 42.018], [-122.5471, 42.0188], [-122.5437, 42.0208], [-122.5398, 42.0193], [-122.5383, 42.0193], [-122.5364, 42.0181], [-122.5354, 42.0192], [-122.5347, 42.0187], [-122.5303, 42.0186], [-122.5293, 42.0195], [-122.5283, 42.0193], [-122.5275, 42.0165], [-122.524, 42.017], [-122.5207, 42.0158], [-122.5189, 42.0137], [-122.5169, 42.014], [-122.5136, 42.012], [-122.5127, 42.0124], [-122.5106, 42.0116], [-122.5095, 42.012], [-122.508, 42.0108], [-122.5084, 42.0103], [-122.5065, 42.0102], [-122.5055, 42.0089], [-122.504, 42.009], [-122.5041, 42.0098], [-122.5049, 42.01], [-122.5037, 42.0106], [-122.503, 42.0092], [-122.4967, 42.0067], [-122.4955, 42.0075], [-122.4962, 42.0086], [-122.4934, 42.0083], [-122.494, 42.0091], [-122.4928, 42.0097], [-122.4916, 42.0135], [-122.4894, 42.0149], [-122.489, 42.0174], [-122.4866, 42.0201], [-122.4849, 42.0191], [-122.4838, 42.0197], [-122.4827, 42.0195], [-122.4824, 42.0188], [-122.4805, 42.0188], [-122.4814, 42.0211], [-122.4801, 42.0196], [-122.4779, 42.0192], [-122.4775, 42.0186], [-122.4784, 42.0181], [-122.4746, 42.0153], [-122.4724, 42.0149], [-122.4715, 42.0163], [-122.4692, 42.017], [-122.4685, 42.0153], [-122.4703, 42.0145], [-122.4702, 42.0137], [-122.4649, 42.0146], [-122.4661, 42.0155], [-122.465, 42.016], [-122.4625, 42.0147], [-122.4629, 42.0135], [-122.4605, 42.0114], [-122.4555, 42.011], [-122.4542, 42.0072], [-122.4485, 42.0027], [-122.4482, 42.0013], [-122.4498, 42.0006], [-122.4457, 41.9985], [-122.4452, 41.9969], [-122.4461, 41.9962], [-122.4427, 41.997], [-122.4399, 41.9949], [-122.4391, 41.9926], [-122.438, 41.9923], [-122.4401, 41.9903], [-122.4372, 41.9907], [-122.4343, 41.988], [-122.4342, 41.9872], [-122.4357, 41.9863], [-122.4343, 41.9867], [-122.4335, 41.9862], [-122.434, 41.9806], [-122.4326, 41.9786], [-122.4333, 41.9766], [-122.4352, 41.9767], [-122.4359, 41.9758], [-122.4347, 41.9757], [-122.4371, 41.9743], [-122.4382, 41.9747], [-122.4377, 41.9785], [-122.4409, 41.978], [-122.4409, 41.9771], [-122.4394, 41.9762], [-122.4409, 41.975], [-122.439, 41.9729], [-122.4393, 41.972], [-122.4407, 41.9716], [-122.4396, 41.9716], [-122.44, 41.9706], [-122.4413, 41.9715], [-122.4421, 41.9709], [-122.4427, 41.972], [-122.4443, 41.9709], [-122.4474, 41.9704], [-122.4497, 41.9721], [-122.4511, 41.9721], [-122.4522, 41.9734], [-122.4535, 41.973], [-122.4541, 41.9723], [-122.4533, 41.9719], [-122.4544, 41.9713], [-122.4568, 41.9717], [-122.4575, 41.9731], [-122.4582, 41.9725], [-122.4579, 41.9715], [-122.4561, 41.9707], [-122.4567, 41.9701], [-122.4577, 41.9706], [-122.4585, 41.9702], [-122.4581, 41.9684], [-122.4588, 41.9683], [-122.4592, 41.9668], [-122.4581, 41.9643], [-122.46, 41.9628], [-122.4556, 41.9597], [-122.4604, 41.9594], [-122.4603, 41.9581], [-122.4577, 41.9571], [-122.457, 41.9557], [-122.4593, 41.9543], [-122.4589, 41.9527], [-122.4558, 41.9501], [-122.4565, 41.9484], [-122.4468, 41.9465], [-122.4493, 41.9434], [-122.4488, 41.9427], [-122.4505, 41.9402], [-122.4497, 41.9389], [-122.4511, 41.9388], [-122.4512, 41.9382], [-122.4505, 41.9378], [-122.4486, 41.9387], [-122.4467, 41.9372], [-122.4427, 41.9363], [-122.4412, 41.9328], [-122.4446, 41.9284], [-122.4487, 41.9255], [-122.4494, 41.9226], [-122.4517, 41.9187], [-122.4538, 41.9176], [-122.4599, 41.9178], [-122.4615, 41.9169], [-122.4645, 41.9046], [-122.4672, 41.9042], [-122.4705, 41.9055], [-122.4744, 41.9053], [-122.476, 41.9045], [-122.4776, 41.9018], [-122.4792, 41.9019], [-122.4812, 41.9005], [-122.4808, 41.8981], [-122.4815, 41.8976], [-122.4843, 41.8982], [-122.4827, 41.9002], [-122.486, 41.9018], [-122.4944, 41.9], [-122.4962, 41.9014], [-122.4976, 41.9], [-122.4995, 41.9019], [-122.5024, 41.9018], [-122.5036, 41.9024], [-122.5054, 41.9015], [-122.5067, 41.9019], [-122.5065, 41.9037], [-122.5074, 41.904], [-122.5074, 41.905], [-122.5063, 41.9052], [-122.5056, 41.9066], [-122.5075, 41.9088], [-122.5101, 41.9087], [-122.5109, 41.9135], [-122.5127, 41.9164], [-122.5123, 41.9183], [-122.5141, 41.9188], [-122.5132, 41.921], [-122.5145, 41.922], [-122.5152, 41.9239], [-122.5165, 41.9245], [-122.5143, 41.9257], [-122.5163, 41.9273], [-122.5164, 41.9289], [-122.5189, 41.9298], [-122.5187, 41.9308], [-122.5196, 41.931], [-122.5195, 41.9317], [-122.518, 41.9322], [-122.5184, 41.9332], [-122.521, 41.9334], [-122.5234, 41.9312], [-122.521, 41.9302], [-122.5208, 41.9287], [-122.5212, 41.9283], [-122.5226, 41.9292], [-122.523, 41.9286], [-122.5242, 41.9299], [-122.5251, 41.9299], [-122.5262, 41.9324], [-122.53, 41.9342], [-122.5312, 41.9383], [-122.532, 41.9386], [-122.5327, 41.937], [-122.5349, 41.9353], [-122.5398, 41.9338], [-122.5416, 41.932], [-122.5428, 41.9326], [-122.5427, 41.9336], [-122.5416, 41.9344], [-122.5417, 41.9348], [-122.5428, 41.9343], [-122.543, 41.9353], [-122.542, 41.9363], [-122.543, 41.937], [-122.5469, 41.9352], [-122.5474, 41.9337], [-122.5456, 41.9336], [-122.5452, 41.933], [-122.547, 41.9324], [-122.5473, 41.9315], [-122.5513, 41.9317], [-122.5501, 41.9334], [-122.5514, 41.9339], [-122.5528, 41.9314], [-122.5569, 41.9302], [-122.56, 41.9299], [-122.5631, 41.9306], [-122.5665, 41.9326], [-122.5678, 41.9322], [-122.5699, 41.9347], [-122.571, 41.9349], [-122.5757, 41.931], [-122.5736, 41.9253], [-122.5703, 41.9227], [-122.5694, 41.9204], [-122.5679, 41.9197]], [[-122.5685, 41.919], [-122.5685, 41.9189], [-122.5684, 41.919], [-122.5685, 41.919]]]]}, "properties": {"layer": "perimeter"}}, {"type": "Feature", "geometry": {"type": "MultiPolygon", "coordinates": [[[[-122.6198, 41.9154], [-122.6199, 41.9153], [-122.6202, 41.9154], [-122.6198, 41.9154]]], [[[-122.5679, 41.9197], [-122.5689, 41.9173], [-122.5684, 41.914], [-122.5665, 41.9094], [-122.5677, 41.9081], [-122.5666, 41.9073], [-122.563, 41.907], [-122.5616, 41.9026], [-122.5594, 41.9026], [-122.5599, 41.9074], [-122.5615, 41.908], [-122.5611, 41.9087], [-122.5603, 41.9089], [-122.5598, 41.908], [-122.5585, 41.9078], [-122.557, 41.9059], [-122.5568, 41.9023], [-122.5575, 41.9022], [-122.5577, 41.9011], [-122.5601, 41.9012], [-122.5597, 41.8958], [-122.5552, 41.8958], [-122.5552, 41.8975], [-122.5575, 41.8976], [-122.5577, 41.9003], [-122.557, 41.8984], [-122.5543, 41.8992], [-122.5527, 41.898], [-122.548, 41.8976], [-122.5457, 41.8954], [-122.545, 41.8928], [-122.5434, 41.8926], [-122.5438, 41.892], [-122.5422, 41.8894], [-122.5345, 41.893], [-122.5278, 41.8939], [-122.5284, 41.892], [-122.5262, 41.8845], [-122.5272, 41.883], [-122.5269, 41.8806], [-122.5275, 41.8795], [-122.5246, 41.88], [-122.523, 41.8758], [-122.5277, 41.872], [-122.5286, 41.8739], [-122.5308, 41.8744], [-122.5306, 41.8753], [-122.5335, 41.8755], [-122.5356, 41.8793], [-122.5377, 41.8806], [-122.5392, 41.8807], [-122.5427, 41.8791], [-122.543, 41.8781], [-122.542, 41.8778], [-122.5427, 41.8756], [-122.5441, 41.8749], [-122.5448, 41.8762], [-122.5457, 41.8756], [-122.5455, 41.8741], [-122.5434, 41.8728], [-122.5469, 41.8728], [-122.5526, 41.8749], [-122.5556, 41.8748], [-122.5534, 41.8829], [-122.5522, 41.8813], [-122.5527, 41.8803], [-122.552, 41.8802], [-122.5528, 41.8798], [-122.5509, 41.8797], [-122.5505, 41.8807], [-122.5495, 41.881], [-122.5481, 41.8799], [-122.5465, 41.8801], [-122.5483, 41.8826], [-122.5473, 41.8836], [-122.5478, 41.8875], [-122.5541, 41.8877], [-122.5556, 41.8859], [-122.5554, 41.8827], [-122.556, 41.8826], [-122.5586, 41.8847], [-122.5627, 41.8921], [-122.5652, 41.8949], [-122.5701, 41.8935], [-122.5744, 41.8957], [-122.5778, 41.896], [-122.578, 41.8974], [-122.5771, 41.8976], [-122.5776, 41.8985], [-122.5769, 41.8993], [-122.5783, 41.8996], [-122.5793, 41.9007], [-122.5779, 41.902], [-122.5813, 41.9026], [-122.5829, 41.9036], [-122.5882, 41.9097], [-122.59, 41.9103], [-122.5901, 41.9128], [-122.5955, 41.9153], [-122.5959, 41.9161], [-122.595, 41.9193], [-122.5963, 41.9199], [-122.596, 41.9179], [-122.5974, 41.9169], [-122.5985, 41.9172], [-122.5978, 41.918], [-122.5988, 41.9209], [-122.594, 41.9209], [-122.5939, 41.9155], [-122.5891, 41.9155], [-122.5894, 41.9264], [-122.5941, 41.9264], [-122.5941, 41.9301], [-122.5923, 41.9301], [-122.5921, 41.9311], [-122.5941, 41.9305], [-122.5942, 41.9377], [-122.5986, 41.9377], [-122.5987, 41.9448], [-122.6139, 41.9445], [-122.6137, 41.9585], [-122.6127, 41.9603], [-122.6141, 41.9612], [-122.6133, 41.9648], [-122.6116, 41.9664], [-122.6134, 41.9702], [-122.6116, 41.9733], [-122.6115, 41.9756], [-122.6105, 41.9777], [-122.6073, 41.979], [-122.6083, 41.9799], [-122.6069, 41.9815], [-122.6069, 41.9832], [-122.6011, 41.985], [-122.6009, 41.9871], [-122.5998, 41.9879], [-122.5985, 41.9914], [-122.5939, 41.9915], [-122.5939, 41.9926], [-122.5923, 41.9933], [-122.5933, 41.9936], [-122.5932, 41.9955], [-122.5925, 41.9964], [-122.592, 41.9961], [-122.5918, 41.9972], [-122.5911, 41.9966], [-122.5896, 41.999], [-122.5907, 42.0002], [-122.592, 41.999], [-122.5933, 42.0005], [-122.5916, 42.0027], [-122.5884, 42.0027], [-122.59, 42.0038], [-122.5884, 42.0037], [-122.587, 42.0018], [-122.5855, 42.0038], [-122.5839, 42.0037], [-122.5839, 42.0044], [-122.5829, 42.0041], [-122.5831, 42.0051], [-122.5814, 42.006], [-122.5816, 42.0065], [-122.5152, 42.008], [-122.5153, 42.0028], [-122.5448, 42.0025], [-122.5448, 41.9885], [-122.515, 41.9889], [-122.5157, 41.9748], [-122.4968, 41.9746], [-122.4968, 41.9889], [-122.4765, 41.9889], [-122.477, 42.0024], [-122.4606, 42.0051], [-122.4602, 41.99], [-122.4506, 41.99], [-122.4509, 42.0047], [-122.45, 42.0041], [-122.4482, 42.0013], [-122.4498, 42.0006], [-122.4457, 41.9985], [-122.4452, 41.9969], [-122.4461, 41.9962], [-122.4427, 41.997], [-122.4399, 41.9949], [-122.4391, 41.9926], [-122.438, 41.9923], [-122.4401, 41.9903], [-122.4372, 41.9907], [-122.4343, 41.988], [-122.4342, 41.9872], [-122.4357, 41.9863], [-122.4343, 41.9867], [-122.4335, 41.9862], [-122.434, 41.9806], [-122.4326, 41.9786], [-122.4333, 41.9766], [-122.4352, 41.9767], [-122.4359, 41.9758], [-122.4347, 41.9757], [-122.4371, 41.9743], [-122.4382, 41.9747], [-122.4377, 41.9785], [-122.4409, 41.978], [-122.4409, 41.9771], [-122.4394, 41.9762], [-122.4409, 41.975], [-122.439, 41.9729], [-122.4393, 41.972], [-122.4407, 41.9716], [-122.4396, 41.9716], [-122.44, 41.9706], [-122.4413, 41.9715], [-122.4421, 41.9709], [-122.4427, 41.972], [-122.4443, 41.9709], [-122.4474, 41.9704], [-122.4497, 41.9721], [-122.4511, 41.9721], [-122.4522, 41.9734], [-122.4539, 41.9726], [-122.4536, 41.9716], [-122.4558, 41.9714], [-122.4579, 41.973], [-122.4579, 41.9715], [-122.4561, 41.9707], [-122.4567, 41.9701], [-122.4577, 41.9706], [-122.4585, 41.9702], [-122.4581, 41.9684], [-122.4588, 41.9683], [-122.4592, 41.9668], [-122.4581, 41.9643], [-122.46, 41.9628], [-122.4556, 41.9596], [-122.46, 41.9595], [-122.46, 41.9604], [-122.4655, 41.9603], [-122.4657, 41.946], [-122.4603, 41.9462], [-122.4601, 41.9579], [-122.4572, 41.9564], [-122.457, 41.9557], [-122.4593, 41.9541], [-122.4576, 41.9512], [-122.4558, 41.9501], [-122.4565, 41.9484], [-122.4481, 41.9472], [-122.4465, 41.9462], [-122.4493, 41.9434], [-122.4488, 41.9427], [-122.4505, 41.9402], [-122.4497, 41.9389], [-122.4511, 41.9388], [-122.4512, 41.9382], [-122.4505, 41.9378], [-122.4486, 41.9387], [-122.4467, 41.9372], [-122.4456, 41.9372], [-122.4455, 41.9354], [-122.4506, 41.9354], [-122.4508, 41.9319], [-122.442, 41.9319], [-122.4446, 41.9284], [-122.4487, 41.9255], [-122.4494, 41.9226], [-122.4517, 41.9187], [-122.4538, 41.9176], [-122.4599, 41.9178], [-122.4615, 41.9169], [-122.4645, 41.9046], [-122.4672, 41.9042], [-122.4705, 41.9055], [-122.4744, 41.9053], [-122.476, 41.9045], [-122.4776, 41.9018], [-122.4792, 41.9019], [-122.4812, 41.9005], [-122.4808, 41.8981], [-122.4815, 41.8976], [-122.4843, 41.8982], [-122.4827, 41.9002], [-122.486, 41.9018], [-122.4944, 41.9], [-122.4962, 41.9014], [-122.4976, 41.9], [-122.4995, 41.9019], [-122.5024, 41.9018], [-122.5036, 41.9024], [-122.5054, 41.9015], [-122.5067, 41.9019], [-122.5065, 41.9037], [-122.5074, 41.904], [-122.5074, 41.905], [-122.5063, 41.9052], [-122.5056, 41.9066], [-122.5075, 41.9088], [-122.5101, 41.9087], [-122.5109, 41.9135], [-122.5127, 41.9164], [-122.5123, 41.9183], [-122.5141, 41.9188], [-122.5132, 41.921], [-122.5145, 41.922], [-122.5152, 41.9239], [-122.5165, 41.9245], [-122.5143, 41.9257], [-122.5163, 41.9273], [-122.5164, 41.9289], [-122.5189, 41.9298], [-122.5187, 41.9308], [-122.5196, 41.931], [-122.5195, 41.9317], [-122.518, 41.9322], [-122.5184, 41.9332], [-122.521, 41.9334], [-122.5234, 41.9312], [-122.521, 41.9302], [-122.5208, 41.9287], [-122.5212, 41.9283], [-122.5226, 41.9292], [-122.523, 41.9286], [-122.5242, 41.9299], [-122.5251, 41.9299], [-122.5262, 41.9324], [-122.53, 41.9342], [-122.5312, 41.9383], [-122.532, 41.9386], [-122.5327, 41.937], [-122.5349, 41.9353], [-122.5398, 41.9338], [-122.5416, 41.932], [-122.5428, 41.9326], [-122.5427, 41.9336], [-122.5416, 41.9344], [-122.5417, 41.9348], [-122.5428, 41.9343], [-122.543, 41.9353], [-122.542, 41.9363], [-122.543, 41.937], [-122.5469, 41.9352], [-122.5474, 41.9337], [-122.5456, 41.9336], [-122.5452, 41.933], [-122.547, 41.9324], [-122.5473, 41.9315], [-122.5513, 41.9317], [-122.5501, 41.9334], [-122.5514, 41.9339], [-122.5536, 41.9309], [-122.56, 41.9299], [-122.5631, 41.9306], [-122.5665, 41.9326], [-122.5678, 41.9322], [-122.569, 41.9335], [-122.5676, 41.9335], [-122.5676, 41.9408], [-122.5748, 41.9408], [-122.5747, 41.9371], [-122.57, 41.9372], [-122.5701, 41.9348], [-122.571, 41.9349], [-122.5758, 41.9314], [-122.5749, 41.9303], [-122.575, 41.9281], [-122.5736, 41.9253], [-122.5703, 41.9227], [-122.5694, 41.9204], [-122.5679, 41.9197]], [[-122.5159, 41.9748], [-122.5206, 41.9747], [-122.5208, 41.971], [-122.5159, 41.9711], [-122.5159, 41.9748]], [[-122.4765, 41.9888], [-122.4764, 41.9747], [-122.4649, 41.9752], [-122.4644, 41.9897], [-122.4765, 41.9888]], [[-122.5685, 41.919], [-122.5685, 41.9189], [-122.5684, 41.919], [-122.5685, 41.919]], [[-122.4409, 41.9829], [-122.4409, 41.9794], [-122.4359, 41.9794], [-122.436, 41.9829], [-122.4409, 41.9829]], [[-122.4614, 41.9176], [-122.4611, 41.9247], [-122.4706, 41.9244], [-122.4706, 41.917], [-122.4614, 41.9176]], [[-122.4776, 41.9382], [-122.4872, 41.9381], [-122.4879, 41.931], [-122.4776, 41.9308], [-122.4776, 41.9382]], [[-122.5307, 41.9707], [-122.5258, 41.9708], [-122.5256, 41.9746], [-122.5355, 41.9744], [-122.5361, 41.959], [-122.5165, 41.9593], [-122.5161, 41.9671], [-122.5309, 41.9668], [-122.5307, 41.9707]], [[-122.5744, 41.9882], [-122.5547, 41.9883], [-122.5547, 41.9953], [-122.5743, 41.9951], [-122.5744, 41.9882]], [[-122.5599, 41.9776], [-122.5696, 41.9774], [-122.5696, 41.9746], [-122.5599, 41.9748], [-122.5599, 41.9776]], [[-122.5843, 41.9735], [-122.5843, 41.988], [-122.5939, 41.9879], [-122.594, 41.9734], [-122.5843, 41.9735]]], [[[-122.6005, 41.9219], [-122.6019, 41.9241], [-122.604, 41.9227], [-122.6065, 41.9224], [-122.606, 41.9238], [-122.6067, 41.9249], [-122.6084, 41.9254], [-122.6092, 41.9274], [-122.6112, 41.9283], [-122.6118, 41.9255], [-122.6135, 41.9248], [-122.6135, 41.9298], [-122.5954, 41.9299], [-122.5978, 41.9263], [-122.599, 41.9263], [-122.5988, 41.9248], [-122.6005, 41.9219]]], [[[-122.6135, 41.9243], [-122.6135, 41.924], [-122.6135, 41.924], [-122.6135, 41.9243]]], [[[-122.6155, 41.9226], [-122.6166, 41.9219], [-122.6183, 41.9226], [-122.6155, 41.9226]]], [[[-122.6187, 41.9228], [-122.6194, 41.9233], [-122.6193, 41.9223], [-122.6202, 41.9225], [-122.6211, 41.9238], [-122.6232, 41.9228], [-122.6239, 41.924], [-122.6266, 41.9253], [-122.6281, 41.925], [-122.6311, 41.9259], [-122.6319, 41.9273], [-122.6301, 41.928], [-122.6311, 41.9287], [-122.6326, 41.9286], [-122.6334, 41.9306], [-122.6351, 41.9319], [-122.6347, 41.9335], [-122.6316, 41.9343], [-122.632, 41.9361], [-122.631, 41.9381], [-122.632, 41.9394], [-122.6301, 41.94], [-122.6302, 41.9415], [-122.6279, 41.9424], [-122.6269, 41.9418], [-122.6261, 41.9425], [-122.6261, 41.9435], [-122.6247, 41.9448], [-122.6264, 41.9457], [-122.6255, 41.9465], [-122.6245, 41.9461], [-122.6219, 41.9511], [-122.6185, 41.9533], [-122.6186, 41.9481], [-122.6234, 41.9479], [-122.6234, 41.9444], [-122.6139, 41.9445], [-122.6135, 41.9298], [-122.6183, 41.9298], [-122.6187, 41.9228]]], [[[-122.4964, 42.0067], [-122.4955, 42.0077], [-122.4963, 42.0081], [-122.4791, 42.0081], [-122.477, 42.0024], [-122.4966, 42.003], [-122.4964, 42.0067]]], [[[-122.4548, 42.0079], [-122.4515, 42.0052], [-122.4606, 42.0051], [-122.4607, 42.0082], [-122.4548, 42.0079]]], [[[-122.515, 41.9889], [-122.5153, 42.0028], [-122.4966, 42.003], [-122.4968, 41.9889], [-122.515, 41.9889]]]]}, "properties": {"layer": "retained"}}, {"type": "Feature", "geometry": {"type": "MultiPolygon", "coordinates": [[[[-122.5426, 42.007], [-122.5429, 42.0065], [-122.5426, 42.0065], [-122.5426, 42.007]]], [[[-122.5697, 42.0062], [-122.57, 42.006], [-122.5697, 42.006], [-122.5697, 42.0062]]], [[[-122.5404, 42.0071], [-122.54, 42.0063], [-122.539, 42.0066], [-122.539, 42.0068], [-122.5404, 42.0071]]], [[[-122.5419, 42.0071], [-122.5422, 42.0065], [-122.5411, 42.0063], [-122.5408, 42.0068], [-122.5419, 42.0071]]], [[[-122.5382, 42.0069], [-122.5386, 42.0063], [-122.5382, 42.0063], [-122.5382, 42.0069]]], [[[-122.5642, 42.0061], [-122.5646, 42.0058], [-122.5642, 42.0058], [-122.5642, 42.0061]]], [[[-122.5473, 42.0064], [-122.5476, 42.0061], [-122.5473, 42.0061], [-122.5473, 42.0064]]], [[[-122.5505, 42.0069], [-122.5505, 42.0063], [-122.5494, 42.0058], [-122.5494, 42.0064], [-122.5505, 42.0069]]], [[[-122.5418, 42.0063], [-122.5422, 42.006], [-122.5418, 42.006], [-122.5418, 42.0063]]], [[[-122.5379, 42.0063], [-122.5382, 42.0061], [-122.5379, 42.0061], [-122.5379, 42.0063]]], [[[-122.5747, 42.0056], [-122.5758, 42.0058], [-122.5758, 42.005], [-122.5747, 42.0056]]], [[[-122.5426, 42.0062], [-122.5433, 42.0057], [-122.5422, 42.0057], [-122.5426, 42.0062]]], [[[-122.5303, 42.0065], [-122.531, 42.0062], [-122.5303, 42.0059], [-122.5303, 42.0065]]], [[[-122.5675, 42.0055], [-122.5686, 42.0052], [-122.5675, 42.0052], [-122.5675, 42.0055]]], [[[-122.536, 42.0061], [-122.5364, 42.0058], [-122.536, 42.0058], [-122.536, 42.0061]]], [[[-122.5512, 42.0058], [-122.5516, 42.0052], [-122.5512, 42.0052], [-122.5512, 42.0058]]], [[[-122.5462, 42.0056], [-122.5465, 42.0053], [-122.5461, 42.0054], [-122.5462, 42.0056]]], [[[-122.5389, 42.0058], [-122.5393, 42.0055], [-122.5389, 42.0055], [-122.5389, 42.0058]]], [[[-122.5375, 42.0058], [-122.5382, 42.0055], [-122.5375, 42.0055], [-122.5375, 42.0058]]], [[[-122.5668, 42.0066], [-122.5671, 42.0055], [-122.566, 42.0058], [-122.5649, 42.0047], [-122.5646, 42.0055], [-122.5668, 42.0066]]], [[[-122.5772, 42.005], [-122.5779, 42.0044], [-122.5772, 42.0045], [-122.5772, 42.005]]], [[[-122.5418, 42.006], [-122.5422, 42.0052], [-122.5407, 42.0055], [-122.5407, 42.0057], [-122.5418, 42.006]]], [[[-122.5729, 42.0048], [-122.5736, 42.0045], [-122.5729, 42.0045], [-122.5729, 42.0048]]], [[[-122.5422, 42.0052], [-122.5425, 42.0049], [-122.5422, 42.0049], [-122.5422, 42.0052]]], [[[-122.5393, 42.0052], [-122.5396, 42.0049], [-122.5393, 42.0049], [-122.5393, 42.0052]]], [[[-122.5736, 42.0043], [-122.5739, 42.004], [-122.5736, 42.004], [-122.5736, 42.0043]]], [[[-122.5711, 42.0043], [-122.5714, 42.004], [-122.571, 42.004], [-122.5711, 42.0043]]], [[[-122.5653, 42.0044], [-122.5656, 42.0041], [-122.5653, 42.0042], [-122.5653, 42.0044]]], [[[-122.544, 42.0051], [-122.5443, 42.0046], [-122.5432, 42.0046], [-122.5432, 42.0049], [-122.544, 42.0051]]], [[[-122.5418, 42.0049], [-122.5421, 42.0046], [-122.5418, 42.0046], [-122.5418, 42.0049]]], [[[-122.5371, 42.005], [-122.5374, 42.0047], [-122.5371, 42.0047], [-122.5371, 42.005]]], [[[-122.4912, 42.0056], [-122.4916, 42.0054], [-122.4912, 42.0054], [-122.4912, 42.0056]]], [[[-122.5357, 42.0053], [-122.5367, 42.005], [-122.5367, 42.0042], [-122.5349, 42.0048], [-122.5357, 42.0053]]], [[[-122.5479, 42.0045], [-122.5483, 42.004], [-122.5479, 42.004], [-122.5479, 42.0045]]], [[[-122.5378, 42.0047], [-122.5385, 42.0044], [-122.5378, 42.0042], [-122.5378, 42.0047]]], [[[-122.5472, 42.0051], [-122.5472, 42.0042], [-122.5475, 42.004], [-122.5461, 42.0045], [-122.5472, 42.0051]]], [[[-122.5707, 42.0043], [-122.5699, 42.0032], [-122.5696, 42.0033], [-122.5692, 42.0038], [-122.5707, 42.0043]]], [[[-122.5555, 42.0046], [-122.5558, 42.0035], [-122.5555, 42.0035], [-122.5555, 42.0046]]], [[[-122.5432, 42.0046], [-122.5432, 42.0041], [-122.5414, 42.0038], [-122.5418, 42.0044], [-122.5432, 42.0046]]], [[[-122.5703, 42.0035], [-122.5707, 42.0032], [-122.5703, 42.0032], [-122.5703, 42.0035]]], [[[-122.5689, 42.0035], [-122.5692, 42.0033], [-122.5688, 42.0033], [-122.5689, 42.0035]]], [[[-122.5381, 42.0042], [-122.5385, 42.0039], [-122.5381, 42.0039], [-122.5381, 42.0042]]], [[[-122.4883, 42.0051], [-122.4886, 42.0049], [-122.4883, 42.0049], [-122.4883, 42.0051]]], [[[-122.553, 42.0047], [-122.553, 42.0039], [-122.5515, 42.0033], [-122.5512, 42.0042], [-122.553, 42.0047]]], [[[-122.5403, 42.0041], [-122.541, 42.0038], [-122.5403, 42.0036], [-122.5403, 42.0041]]], [[[-122.5707, 42.0032], [-122.571, 42.003], [-122.5706, 42.003], [-122.5707, 42.0032]]], [[[-122.5396, 42.0039], [-122.5399, 42.0036], [-122.5396, 42.0036], [-122.5396, 42.0039]]], [[[-122.5374, 42.0039], [-122.5378, 42.0036], [-122.5374, 42.0036], [-122.5374, 42.0039]]], [[[-122.536, 42.0039], [-122.5367, 42.0036], [-122.536, 42.0037], [-122.536, 42.0039]]], [[[-122.5505, 42.0045], [-122.5493, 42.0034], [-122.5475, 42.0032], [-122.549, 42.0045], [-122.5505, 42.0045]]], [[[-122.5511, 42.0034], [-122.5515, 42.0031], [-122.5511, 42.0031], [-122.5511, 42.0034]]], [[[-122.5497, 42.0034], [-122.55, 42.0031], [-122.5497, 42.0031], [-122.5497, 42.0034]]], [[[-122.5414, 42.0036], [-122.5425, 42.0033], [-122.5414, 42.0033], [-122.5414, 42.0036]]], [[[-122.5385, 42.0036], [-122.5396, 42.0033], [-122.5385, 42.0033], [-122.5385, 42.0036]]], [[[-122.5739, 42.0037], [-122.5743, 42.0029], [-122.5735, 42.0024], [-122.5728, 42.0035], [-122.5739, 42.0037]]], [[[-122.5486, 42.0031], [-122.5497, 42.0028], [-122.5486, 42.0029], [-122.5486, 42.0031]]], [[[-122.5425, 42.0033], [-122.5428, 42.003], [-122.5424, 42.003], [-122.5425, 42.0033]]], [[[-122.5377, 42.0031], [-122.5385, 42.0033], [-122.5385, 42.0028], [-122.5377, 42.0031]]], [[[-122.5464, 42.0029], [-122.5468, 42.0026], [-122.5464, 42.0026], [-122.5464, 42.0029]]], [[[-122.5352, 42.0031], [-122.5356, 42.0029], [-122.5352, 42.0029], [-122.5352, 42.0031]]], [[[-122.5323, 42.0032], [-122.533, 42.0029], [-122.5323, 42.0029], [-122.5323, 42.0032]]], [[[-122.5255, 42.0033], [-122.5258, 42.0031], [-122.5255, 42.0031], [-122.5255, 42.0033]]], [[[-122.5439, 42.0038], [-122.5439, 42.0027], [-122.5428, 42.0024], [-122.5432, 42.003], [-122.5428, 42.0038], [-122.5439, 42.0038]]], [[[-122.5529, 42.0033], [-122.5522, 42.0031], [-122.5518, 42.0023], [-122.5515, 42.0031], [-122.5529, 42.0033]]], [[[-122.5508, 42.0034], [-122.5511, 42.0028], [-122.55, 42.0023], [-122.5497, 42.0028], [-122.5508, 42.0034]]], [[[-122.5732, 42.0024], [-122.5735, 42.0018], [-122.5731, 42.0018], [-122.5732, 42.0024]]], [[[-122.5363, 42.0031], [-122.5366, 42.0026], [-122.5363, 42.0026], [-122.5363, 42.0031]]], [[[-122.5692, 42.0022], [-122.5695, 42.0019], [-122.5692, 42.0019], [-122.5692, 42.0022]]], [[[-122.5388, 42.0028], [-122.5395, 42.0025], [-122.5388, 42.0025], [-122.5388, 42.0028]]], [[[-122.5349, 42.004], [-122.5352, 42.0031], [-122.5341, 42.0026], [-122.5334, 42.0034], [-122.5349, 42.004]]], [[[-122.5312, 42.0029], [-122.5316, 42.0027], [-122.5312, 42.0027], [-122.5312, 42.0029]]], [[[-122.5808, 42.003], [-122.5807, 42.0019], [-122.5793, 42.0014], [-122.5789, 42.0025], [-122.5793, 42.0025], [-122.5793, 42.0028], [-122.58, 42.0028], [-122.58, 42.003], [-122.5808, 42.003]], [[-122.5797, 42.0022], [-122.5793, 42.0025], [-122.5793, 42.0022], [-122.5797, 42.0022]]], [[[-122.5724, 42.0021], [-122.5728, 42.0016], [-122.5724, 42.0016], [-122.5724, 42.0021]]], [[[-122.5688, 42.0019], [-122.5692, 42.0016], [-122.5688, 42.0016], [-122.5688, 42.0019]]], [[[-122.5497, 42.0023], [-122.55, 42.002], [-122.5496, 42.002], [-122.5497, 42.0023]]], [[[-122.5703, 42.0024], [-122.5713, 42.0021], [-122.5717, 42.0013], [-122.5699, 42.0019], [-122.5703, 42.0024]]], [[[-122.5706, 42.0013], [-122.5709, 42.0011], [-122.5706, 42.0011], [-122.5706, 42.0013]]], [[[-122.58, 42.0009], [-122.5803, 42.0006], [-122.58, 42.0006], [-122.58, 42.0009]]], [[[-122.5644, 42.0015], [-122.5648, 42.0009], [-122.5637, 42.0009], [-122.5637, 42.0012], [-122.5644, 42.0015]]], [[[-122.5084, 42.0023], [-122.5088, 42.002], [-122.5084, 42.002], [-122.5084, 42.0023]]], [[[-122.4831, 42.0028], [-122.4835, 42.0025], [-122.4831, 42.0025], [-122.4831, 42.0028]]], [[[-122.5503, 42.0015], [-122.5518, 42.0023], [-122.5518, 42.0009], [-122.5503, 42.0015]]], [[[-122.5713, 42.0008], [-122.5716, 42.0002], [-122.5713, 42.0002], [-122.5713, 42.0008]]], [[[-122.5799, 42.0003], [-122.5803, 42.0001], [-122.5799, 42.0001], [-122.5799, 42.0003]]], [[[-122.5507, 42.0009], [-122.551, 42.0007], [-122.5507, 42.0007], [-122.5507, 42.0009]]], [[[-122.5073, 42.0018], [-122.508, 42.0015], [-122.5073, 42.0015], [-122.5073, 42.0018]]], [[[-122.5822, 42.0016], [-122.5825, 42.0008], [-122.5832, 42.0011], [-122.5832, 41.9997], [-122.5821, 41.9998], [-122.5825, 42.0003], [-122.5811, 42.0014], [-122.5822, 42.0016]]], [[[-122.5785, 42.0001], [-122.5788, 41.9998], [-122.5785, 41.9998], [-122.5785, 42.0001]]], [[[-122.5633, 42.0004], [-122.564, 42.0001], [-122.5633, 42.0001], [-122.5633, 42.0004]]], [[[-122.5468, 42.0032], [-122.5496, 42.002], [-122.5492, 42.0001], [-122.547, 42.0002], [-122.5467, 42.0015], [-122.5449, 42.0013], [-122.5449, 42.0021], [-122.5468, 42.0024], [-122.5471, 42.0026], [-122.5468, 42.0032]]], [[[-122.5713, 42.0002], [-122.5709, 41.9997], [-122.5702, 42.0], [-122.5702, 42.0003], [-122.5713, 42.0002]]], [[[-122.5131, 42.002], [-122.5138, 42.0014], [-122.5134, 42.0009], [-122.5127, 42.0011], [-122.5131, 42.002]]], [[[-122.5792, 41.9998], [-122.5796, 41.9995], [-122.5792, 41.9995], [-122.5792, 41.9998]]], [[[-122.5503, 42.0004], [-122.551, 42.0001], [-122.5503, 42.0001], [-122.5503, 42.0004]]], [[[-122.5835, 41.9997], [-122.5842, 41.9992], [-122.5835, 41.9992], [-122.5835, 41.9997]]], [[[-122.5496, 42.0004], [-122.5499, 41.9999], [-122.5496, 41.9999], [-122.5496, 42.0004]]], [[[-122.5821, 41.9995], [-122.5824, 41.9992], [-122.5821, 41.9992], [-122.5821, 41.9995]]], [[[-122.5102, 42.0009], [-122.5105, 42.0006], [-122.5102, 42.0007], [-122.5102, 42.0009]]], [[[-122.5778, 41.9996], [-122.5781, 41.999], [-122.5777, 41.999], [-122.5778, 41.9996]]], [[[-122.5785, 41.9993], [-122.5788, 41.999], [-122.5785, 41.999], [-122.5785, 41.9993]]], [[[-122.5853, 41.9989], [-122.586, 41.9989], [-122.5864, 41.9986], [-122.5853, 41.9989]]], [[[-122.5788, 41.9987], [-122.5792, 41.9985], [-122.5788, 41.9985], [-122.5788, 41.9987]]], [[[-122.5766, 41.9988], [-122.577, 41.9985], [-122.5766, 41.9985], [-122.5766, 41.9988]]], [[[-122.5669, 41.999], [-122.5672, 41.9987], [-122.5669, 41.9987], [-122.5669, 41.999]]], [[[-122.5116, 42.0006], [-122.5116, 42.0001], [-122.512, 41.9998], [-122.5112, 41.9998], [-122.5116, 42.0006]]], [[[-122.5698, 42.0], [-122.5694, 41.9984], [-122.5687, 41.9989], [-122.5672, 41.999], [-122.5698, 42.0]]], [[[-122.5792, 41.9985], [-122.5795, 41.9982], [-122.5791, 41.9982], [-122.5792, 41.9985]]], [[[-122.5759, 41.9985], [-122.5763, 41.9982], [-122.5759, 41.9983], [-122.5759, 41.9985]]], [[[-122.5698, 41.9986], [-122.5701, 41.9984], [-122.5698, 41.9984], [-122.5698, 41.9986]]], [[[-122.5683, 41.9987], [-122.5687, 41.9984], [-122.5683, 41.9984], [-122.5683, 41.9987]]], [[[-122.5044, 41.9997], [-122.5051, 41.9994], [-122.5044, 41.9994], [-122.5044, 41.9997]]], [[[-122.5762, 41.998], [-122.5766, 41.9977], [-122.5762, 41.9977], [-122.5762, 41.998]]], [[[-122.5814, 41.9998], [-122.5824, 41.9987], [-122.5806, 41.9984], [-122.581, 41.9981], [-122.5806, 41.9973], [-122.5795, 41.999], [-122.5799, 41.9995], [-122.5806, 41.9995], [-122.5814, 41.9998]], [[-122.581, 41.9992], [-122.5806, 41.9995], [-122.5806, 41.9992], [-122.581, 41.9992]]], [[[-122.5665, 41.9982], [-122.5672, 41.9976], [-122.5668, 41.9976], [-122.5665, 41.9982]]], [[[-122.5791, 41.9976], [-122.5795, 41.9974], [-122.5791, 41.9974], [-122.5791, 41.9976]]], [[[-122.5777, 41.9977], [-122.578, 41.9974], [-122.5777, 41.9974], [-122.5777, 41.9977]]], [[[-122.5708, 41.9978], [-122.5712, 41.9975], [-122.5708, 41.9975], [-122.5708, 41.9978]]], [[[-122.5839, 41.9989], [-122.5842, 41.9975], [-122.5856, 41.9978], [-122.5856, 41.9972], [-122.5827, 41.9973], [-122.5839, 41.9989]]], [[[-122.5867, 41.9969], [-122.587, 41.9967], [-122.5867, 41.9967], [-122.5867, 41.9969]]], [[[-122.5719, 41.9973], [-122.5726, 41.997], [-122.5719, 41.997], [-122.5719, 41.9973]]], [[[-122.5668, 41.9974], [-122.5672, 41.9971], [-122.5668, 41.9971], [-122.5668, 41.9974]]], [[[-122.5863, 41.9967], [-122.5867, 41.9964], [-122.5863, 41.9964], [-122.5863, 41.9967]]], [[[-122.5715, 41.997], [-122.5719, 41.9967], [-122.5715, 41.9967], [-122.5715, 41.997]]], [[[-122.5802, 41.9974], [-122.5805, 41.9965], [-122.5784, 41.9963], [-122.5777, 41.9969], [-122.578, 41.9974], [-122.5784, 41.9971], [-122.5802, 41.9974]]], [[[-122.5451, 41.9975], [-122.5455, 41.997], [-122.5451, 41.997], [-122.5451, 41.9975]]], [[[-122.5867, 41.9964], [-122.587, 41.9961], [-122.5867, 41.9961], [-122.5867, 41.9964]]], [[[-122.5747, 41.9964], [-122.5751, 41.9961], [-122.5747, 41.9961], [-122.5747, 41.9964]]], [[[-122.5683, 41.9973], [-122.5682, 41.996], [-122.5679, 41.996], [-122.5672, 41.9965], [-122.5683, 41.9973]]], [[[-122.5777, 41.9969], [-122.5776, 41.9958], [-122.5762, 41.9964], [-122.5762, 41.9966], [-122.5777, 41.9969]]], [[[-122.5841, 41.9959], [-122.5841, 41.9954], [-122.5834, 41.9954], [-122.5834, 41.9957], [-122.5841, 41.9959]]], [[[-122.57, 41.9959], [-122.5704, 41.9957], [-122.57, 41.9957], [-122.57, 41.9959]]], [[[-122.5498, 41.9963], [-122.5505, 41.9961], [-122.5498, 41.9961], [-122.5498, 41.9963]]], [[[-122.5447, 41.9964], [-122.5451, 41.9962], [-122.5447, 41.9962], [-122.5447, 41.9964]]], [[[-122.5776, 41.9955], [-122.578, 41.9952], [-122.5776, 41.9952], [-122.5776, 41.9955]]], [[[-122.5762, 41.9955], [-122.5765, 41.9953], [-122.5762, 41.9953], [-122.5762, 41.9955]]], [[[-122.5491, 41.9961], [-122.5498, 41.9958], [-122.5491, 41.9958], [-122.5491, 41.9961]]], [[[-122.5877, 41.995], [-122.5881, 41.9948], [-122.5877, 41.9948], [-122.5877, 41.995]]], [[[-122.5678, 41.9954], [-122.5682, 41.9952], [-122.5678, 41.9952], [-122.5678, 41.9954]]], [[[-122.5621, 41.9956], [-122.5631, 41.9953], [-122.5621, 41.9953], [-122.5621, 41.9956]]], [[[-122.5487, 41.9958], [-122.549, 41.9955], [-122.5487, 41.9956], [-122.5487, 41.9958]]], [[[-122.5776, 41.995], [-122.5779, 41.9947], [-122.5776, 41.9947], [-122.5776, 41.995]]], [[[-122.5447, 41.9956], [-122.5451, 41.9954], [-122.5447, 41.9954], [-122.5447, 41.9956]]], [[[-122.5545, 41.9952], [-122.5548, 41.9949], [-122.5544, 41.9949], [-122.5545, 41.9952]]], [[[-122.587, 41.9961], [-122.5881, 41.9956], [-122.5877, 41.995], [-122.587, 41.995], [-122.5866, 41.994], [-122.5841, 41.9948], [-122.5852, 41.9959], [-122.5859, 41.9953], [-122.5859, 41.9959], [-122.5874, 41.9956], [-122.587, 41.9961]], [[-122.5866, 41.9945], [-122.5863, 41.9948], [-122.5862, 41.9945], [-122.5866, 41.9945]]], [[[-122.5779, 41.9944], [-122.5783, 41.9941], [-122.5779, 41.9942], [-122.5779, 41.9944]]], [[[-122.5866, 41.994], [-122.5873, 41.9937], [-122.5866, 41.9937], [-122.5866, 41.994]]], [[[-122.5859, 41.994], [-122.5862, 41.9937], [-122.5859, 41.9937], [-122.5859, 41.994]]], [[[-122.575, 41.9942], [-122.5754, 41.9939], [-122.575, 41.9939], [-122.575, 41.9942]]], [[[-122.5837, 41.9943], [-122.5837, 41.9935], [-122.583, 41.9935], [-122.583, 41.9943], [-122.5837, 41.9943]]], [[[-122.5003, 41.996], [-122.4999, 41.9952], [-122.4995, 41.9952], [-122.4995, 41.996], [-122.5003, 41.996]]], [[[-122.5754, 41.9939], [-122.5757, 41.9937], [-122.5754, 41.9937], [-122.5754, 41.9939]]], [[[-122.592, 41.9933], [-122.5923, 41.993], [-122.592, 41.9931], [-122.592, 41.9933]]], [[[-122.5837, 41.9935], [-122.584, 41.9932], [-122.5837, 41.9932], [-122.5837, 41.9935]]], [[[-122.5468, 41.9942], [-122.5472, 41.994], [-122.5468, 41.994], [-122.5468, 41.9942]]], [[[-122.5757, 41.9934], [-122.5761, 41.9931], [-122.5757, 41.9931], [-122.5757, 41.9934]]], [[[-122.5454, 41.994], [-122.5457, 41.9937], [-122.5454, 41.9937], [-122.5454, 41.994]]], [[[-122.4739, 41.9954], [-122.4742, 41.9951], [-122.4738, 41.9951], [-122.4739, 41.9954]]], [[[-122.545, 41.9937], [-122.5454, 41.9935], [-122.545, 41.9935], [-122.545, 41.9937]]], [[[-122.5457, 41.9934], [-122.5461, 41.9932], [-122.5457, 41.9932], [-122.5457, 41.9934]]], [[[-122.4713, 41.9949], [-122.4717, 41.9946], [-122.4713, 41.9947], [-122.4713, 41.9949]]], [[[-122.4742, 41.9946], [-122.4749, 41.9943], [-122.4742, 41.9943], [-122.4742, 41.9946]]], [[[-122.5497, 41.9936], [-122.5504, 41.9931], [-122.5504, 41.9925], [-122.5493, 41.9928], [-122.5497, 41.9936]]], [[[-122.5511, 41.9925], [-122.5515, 41.9928], [-122.5518, 41.9925], [-122.5511, 41.9925]]], [[[-122.5543, 41.9922], [-122.5547, 41.9919], [-122.5543, 41.9919], [-122.5543, 41.9922]]], [[[-122.4987, 41.9933], [-122.4994, 41.993], [-122.4987, 41.993], [-122.4987, 41.9933]]], [[[-122.5785, 41.9914], [-122.5789, 41.9912], [-122.5785, 41.9912], [-122.5785, 41.9914]]], [[[-122.5858, 41.991], [-122.5861, 41.9907], [-122.5857, 41.9907], [-122.5858, 41.991]]], [[[-122.546, 41.9918], [-122.5464, 41.9915], [-122.546, 41.9915], [-122.546, 41.9918]]], [[[-122.5764, 41.9915], [-122.5771, 41.9909], [-122.5763, 41.9907], [-122.5764, 41.9915]]], [[[-122.5536, 41.9919], [-122.5543, 41.9914], [-122.5536, 41.9911], [-122.5536, 41.9919]]], [[[-122.585, 41.9908], [-122.5857, 41.9905], [-122.585, 41.9905], [-122.585, 41.9908]]], [[[-122.5843, 41.9908], [-122.5847, 41.9905], [-122.5843, 41.9905], [-122.5843, 41.9908]]], [[[-122.5785, 41.9909], [-122.5789, 41.9906], [-122.5785, 41.9906], [-122.5785, 41.9909]]], [[[-122.5821, 41.9905], [-122.5825, 41.9903], [-122.5821, 41.9903], [-122.5821, 41.9905]]], [[[-122.5774, 41.9906], [-122.5785, 41.9903], [-122.5774, 41.9904], [-122.5774, 41.9906]]], [[[-122.5832, 41.9908], [-122.5839, 41.9905], [-122.5835, 41.99], [-122.5828, 41.9903], [-122.5832, 41.9908]]], [[[-122.585, 41.9905], [-122.5854, 41.9899], [-122.5839, 41.99], [-122.5839, 41.9902], [-122.585, 41.9905]]], [[[-122.5825, 41.9903], [-122.5828, 41.99], [-122.5825, 41.99], [-122.5825, 41.9903]]], [[[-122.5449, 41.991], [-122.5453, 41.9908], [-122.5449, 41.9908], [-122.5449, 41.991]]], [[[-122.5547, 41.9911], [-122.5543, 41.9903], [-122.5539, 41.9903], [-122.5536, 41.9909], [-122.5547, 41.9911]]], [[[-122.5835, 41.99], [-122.5839, 41.9897], [-122.5835, 41.9897], [-122.5835, 41.99]]], [[[-122.5983, 41.9891], [-122.5987, 41.9889], [-122.5983, 41.9889], [-122.5983, 41.9891]]], [[[-122.5951, 41.9889], [-122.5954, 41.9892], [-122.5958, 41.9889], [-122.5951, 41.9889]]], [[[-122.5467, 41.9902], [-122.547, 41.9899], [-122.5467, 41.9899], [-122.5467, 41.9902]]], [[[-122.598, 41.9889], [-122.5983, 41.9886], [-122.598, 41.9886], [-122.598, 41.9889]]], [[[-122.5944, 41.9889], [-122.5947, 41.9887], [-122.5943, 41.9887], [-122.5944, 41.9889]]], [[[-122.546, 41.9899], [-122.5463, 41.9896], [-122.5459, 41.9897], [-122.546, 41.9899]]], [[[-122.5091, 41.9907], [-122.5095, 41.9904], [-122.5091, 41.9904], [-122.5091, 41.9907]]], [[[-122.5965, 41.9886], [-122.5969, 41.9883], [-122.5965, 41.9884], [-122.5965, 41.9886]]], [[[-122.5463, 41.9896], [-122.5467, 41.9894], [-122.5463, 41.9894], [-122.5463, 41.9896]]], [[[-122.5459, 41.9894], [-122.5463, 41.9891], [-122.5459, 41.9891], [-122.5459, 41.9894]]], [[[-122.5055, 41.9902], [-122.5051, 41.9897], [-122.5044, 41.9899], [-122.5044, 41.9902], [-122.5055, 41.9902]]], [[[-122.504, 41.9899], [-122.5044, 41.9897], [-122.504, 41.9897], [-122.504, 41.9899]]], [[[-122.5452, 41.9891], [-122.5459, 41.9888], [-122.5452, 41.9886], [-122.5452, 41.9891]]], [[[-122.4993, 41.9898], [-122.4997, 41.9895], [-122.4993, 41.9895], [-122.4993, 41.9898]]], [[[-122.5961, 41.9884], [-122.5954, 41.9881], [-122.5957, 41.9873], [-122.5947, 41.9873], [-122.5951, 41.9884], [-122.5961, 41.9884]]], [[[-122.5961, 41.9873], [-122.5965, 41.987], [-122.5961, 41.987], [-122.5961, 41.9873]]], [[[-122.5278, 41.9887], [-122.5282, 41.9884], [-122.5278, 41.9884], [-122.5278, 41.9887]]], [[[-122.5242, 41.9887], [-122.5246, 41.9885], [-122.5242, 41.9885], [-122.5242, 41.9887]]], [[[-122.5199, 41.9888], [-122.521, 41.9885], [-122.5199, 41.9886], [-122.5199, 41.9888]]], [[[-122.5228, 41.9888], [-122.5235, 41.9885], [-122.5228, 41.9882], [-122.5228, 41.9888]]], [[[-122.5798, 41.9873], [-122.5809, 41.9868], [-122.5798, 41.9868], [-122.5798, 41.9873]]], [[[-122.5202, 41.9883], [-122.5206, 41.988], [-122.5202, 41.988], [-122.5202, 41.9883]]], [[[-122.5791, 41.9871], [-122.5794, 41.9865], [-122.5791, 41.9865], [-122.5791, 41.9871]]], [[[-122.5293, 41.9878], [-122.53, 41.9875], [-122.5292, 41.9873], [-122.5293, 41.9878]]], [[[-122.595, 41.9862], [-122.5953, 41.9859], [-122.595, 41.986], [-122.595, 41.9862]]], [[[-122.5809, 41.9862], [-122.5813, 41.9865], [-122.5816, 41.9862], [-122.5809, 41.9862]]], [[[-122.5213, 41.9877], [-122.5224, 41.9874], [-122.5213, 41.9874], [-122.5213, 41.9877]]], [[[-122.5654, 41.9868], [-122.5657, 41.9863], [-122.5653, 41.9863], [-122.5654, 41.9868]]], [[[-122.5281, 41.9873], [-122.5285, 41.987], [-122.5281, 41.987], [-122.5281, 41.9873]]], [[[-122.5191, 41.9875], [-122.5195, 41.9872], [-122.5191, 41.9872], [-122.5191, 41.9875]]], [[[-122.5751, 41.9861], [-122.5755, 41.9863], [-122.5765, 41.9861], [-122.5751, 41.9861]]], [[[-122.539, 41.9871], [-122.5393, 41.9865], [-122.539, 41.9865], [-122.539, 41.9871]]], [[[-122.5184, 41.9872], [-122.5187, 41.987], [-122.5184, 41.987], [-122.5184, 41.9872]]], [[[-122.5231, 41.9869], [-122.5234, 41.9866], [-122.5231, 41.9866], [-122.5231, 41.9869]]], [[[-122.5754, 41.9855], [-122.5758, 41.9853], [-122.5754, 41.9853], [-122.5754, 41.9855]]], [[[-122.5704, 41.9856], [-122.5707, 41.9854], [-122.5704, 41.9854], [-122.5704, 41.9856]]], [[[-122.5169, 41.9867], [-122.5173, 41.9864], [-122.5169, 41.9864], [-122.5169, 41.9867]]], [[[-122.5729, 41.9853], [-122.5732, 41.985], [-122.5729, 41.985], [-122.5729, 41.9853]]], [[[-122.5429, 41.9859], [-122.5433, 41.9856], [-122.5429, 41.9857], [-122.5429, 41.9859]]], [[[-122.5256, 41.9863], [-122.5259, 41.986], [-122.5256, 41.986], [-122.5256, 41.9863]]], [[[-122.531, 41.9859], [-122.5313, 41.9856], [-122.531, 41.9856], [-122.531, 41.9859]]], [[[-122.5292, 41.9859], [-122.5295, 41.9857], [-122.5292, 41.9857], [-122.5292, 41.9859]]], [[[-122.4913, 41.9867], [-122.4916, 41.9864], [-122.4912, 41.9864], [-122.4913, 41.9867]]], [[[-122.5483, 41.9853], [-122.5487, 41.985], [-122.5483, 41.985], [-122.5483, 41.9853]]], [[[-122.5451, 41.9853], [-122.5454, 41.9851], [-122.5451, 41.9851], [-122.5451, 41.9853]]], [[[-122.5299, 41.9856], [-122.5302, 41.9854], [-122.5299, 41.9854], [-122.5299, 41.9856]]], [[[-122.5241, 41.9858], [-122.5245, 41.9855], [-122.5241, 41.9855], [-122.5241, 41.9858]]], [[[-122.4916, 41.9864], [-122.492, 41.9861], [-122.4916, 41.9861], [-122.4916, 41.9864]]], [[[-122.5523, 41.9849], [-122.5526, 41.9846], [-122.5523, 41.9847], [-122.5523, 41.9849]]], [[[-122.5447, 41.9851], [-122.545, 41.9848], [-122.5447, 41.9848], [-122.5447, 41.9851]]], [[[-122.5436, 41.9851], [-122.544, 41.9848], [-122.5436, 41.9848], [-122.5436, 41.9851]]], [[[-122.5245, 41.9855], [-122.5248, 41.9852], [-122.5245, 41.9852], [-122.5245, 41.9855]]], [[[-122.5378, 41.9849], [-122.5382, 41.9847], [-122.5378, 41.9847], [-122.5378, 41.9849]]], [[[-122.527, 41.9852], [-122.5273, 41.9849], [-122.527, 41.9849], [-122.527, 41.9852]]], [[[-122.5252, 41.9852], [-122.5255, 41.9849], [-122.5252, 41.9849], [-122.5252, 41.9852]]], [[[-122.5237, 41.9852], [-122.5245, 41.9849], [-122.5237, 41.985], [-122.5237, 41.9852]]], [[[-122.5476, 41.9847], [-122.5479, 41.9842], [-122.5476, 41.9842], [-122.5476, 41.9847]]], [[[-122.5725, 41.984], [-122.5728, 41.9837], [-122.5725, 41.9837], [-122.5725, 41.984]]], [[[-122.5674, 41.9841], [-122.5678, 41.9838], [-122.5674, 41.9838], [-122.5674, 41.9841]]], [[[-122.5382, 41.9847], [-122.5389, 41.9844], [-122.5382, 41.9844], [-122.5382, 41.9847]]], [[[-122.4829, 41.9858], [-122.4833, 41.9855], [-122.4829, 41.9855], [-122.4829, 41.9858]]], [[[-122.4941, 41.9855], [-122.4945, 41.985], [-122.4941, 41.985], [-122.4941, 41.9855]]], [[[-122.5255, 41.9846], [-122.5262, 41.9844], [-122.5255, 41.9844], [-122.5255, 41.9846]]], [[[-122.4934, 41.9853], [-122.4937, 41.985], [-122.4934, 41.985], [-122.4934, 41.9853]]], [[[-122.5353, 41.9845], [-122.536, 41.9839], [-122.5356, 41.9839], [-122.5353, 41.9845]]], [[[-122.5486, 41.9839], [-122.549, 41.9836], [-122.5486, 41.9836], [-122.5486, 41.9839]]], [[[-122.541, 41.9841], [-122.5414, 41.9838], [-122.541, 41.9838], [-122.541, 41.9841]]], [[[-122.5306, 41.9843], [-122.5309, 41.984], [-122.5306, 41.984], [-122.5306, 41.9843]]], [[[-122.4945, 41.985], [-122.4952, 41.9847], [-122.4944, 41.9847], [-122.4945, 41.985]]], [[[-122.5252, 41.9844], [-122.5251, 41.9838], [-122.5241, 41.9839], [-122.5241, 41.9841], [-122.5252, 41.9844]]], [[[-122.5378, 41.9839], [-122.5381, 41.9836], [-122.5378, 41.9836], [-122.5378, 41.9839]]], [[[-122.5331, 41.984], [-122.5338, 41.9837], [-122.5331, 41.9837], [-122.5331, 41.984]]], [[[-122.5298, 41.984], [-122.5306, 41.9837], [-122.5298, 41.9838], [-122.5298, 41.984]]], [[[-122.5269, 41.9838], [-122.5273, 41.9841], [-122.5277, 41.9838], [-122.5269, 41.9838]]], [[[-122.5255, 41.9841], [-122.5259, 41.9838], [-122.5255, 41.9838], [-122.5255, 41.9841]]], [[[-122.5389, 41.9838], [-122.5388, 41.9833], [-122.5381, 41.9833], [-122.5381, 41.9836], [-122.5389, 41.9838]]], [[[-122.5295, 41.984], [-122.5291, 41.9835], [-122.528, 41.9835], [-122.528, 41.9841], [-122.5295, 41.984]]], [[[-122.4941, 41.9847], [-122.4944, 41.9842], [-122.4941, 41.9842], [-122.4941, 41.9847]]], [[[-122.5407, 41.9835], [-122.541, 41.9833], [-122.5407, 41.9833], [-122.5407, 41.9835]]], [[[-122.5371, 41.9836], [-122.5374, 41.9833], [-122.537, 41.9833], [-122.5371, 41.9836]]], [[[-122.5356, 41.9836], [-122.536, 41.9834], [-122.5356, 41.9834], [-122.5356, 41.9836]]], [[[-122.5349, 41.9839], [-122.5352, 41.9834], [-122.5338, 41.9834], [-122.5338, 41.9837], [-122.5349, 41.9839]]], [[[-122.5157, 41.984], [-122.5161, 41.9838], [-122.5157, 41.9838], [-122.5157, 41.984]]], [[[-122.4952, 41.9844], [-122.4955, 41.9842], [-122.4951, 41.9842], [-122.4952, 41.9844]]], [[[-122.5403, 41.9833], [-122.5406, 41.983], [-122.5403, 41.983], [-122.5403, 41.9833]]], [[[-122.5172, 41.9837], [-122.5175, 41.9835], [-122.5172, 41.9835], [-122.5172, 41.9837]]], [[[-122.4865, 41.9846], [-122.4868, 41.9841], [-122.4857, 41.9841], [-122.4858, 41.9844], [-122.4865, 41.9846]]], [[[-122.5219, 41.9839], [-122.5222, 41.9831], [-122.5204, 41.9834], [-122.5204, 41.9839], [-122.5219, 41.9839]]], [[[-122.5533, 41.9827], [-122.5536, 41.9825], [-122.5533, 41.9825], [-122.5533, 41.9827]]], [[[-122.549, 41.9828], [-122.5493, 41.9825], [-122.5489, 41.9826], [-122.549, 41.9828]]], [[[-122.5291, 41.9832], [-122.5294, 41.9829], [-122.5291, 41.983], [-122.5291, 41.9832]]], [[[-122.5258, 41.9833], [-122.5262, 41.983], [-122.5258, 41.983], [-122.5258, 41.9833]]], [[[-122.5168, 41.9835], [-122.5172, 41.9832], [-122.5168, 41.9832], [-122.5168, 41.9835]]], [[[-122.4951, 41.9839], [-122.4955, 41.9836], [-122.4951, 41.9836], [-122.4951, 41.9839]]], [[[-122.4941, 41.9839], [-122.4944, 41.9836], [-122.494, 41.9836], [-122.4941, 41.9839]]], [[[-122.5554, 41.9824], [-122.5562, 41.9821], [-122.5554, 41.9822], [-122.5554, 41.9824]]], [[[-122.5526, 41.9825], [-122.5529, 41.9822], [-122.5525, 41.9822], [-122.5526, 41.9825]]], [[[-122.5464, 41.9826], [-122.5468, 41.9823], [-122.5464, 41.9823], [-122.5464, 41.9826]]], [[[-122.5248, 41.9833], [-122.524, 41.9825], [-122.5229, 41.9831], [-122.5229, 41.9833], [-122.5248, 41.9833]]], [[[-122.5432, 41.984], [-122.5461, 41.9834], [-122.5457, 41.9829], [-122.545, 41.9832], [-122.5453, 41.9824], [-122.5424, 41.9821], [-122.5425, 41.9838], [-122.5428, 41.9832], [-122.5439, 41.9832], [-122.5432, 41.984]], [[-122.5442, 41.9826], [-122.5439, 41.9829], [-122.5439, 41.9827], [-122.5442, 41.9826]]], [[[-122.5388, 41.9828], [-122.5395, 41.9822], [-122.5392, 41.9822], [-122.5388, 41.9828]]], [[[-122.532, 41.984], [-122.5323, 41.9829], [-122.533, 41.9823], [-122.5309, 41.9829], [-122.5316, 41.9832], [-122.5309, 41.984], [-122.532, 41.984]]], [[[-122.5385, 41.9825], [-122.5388, 41.9822], [-122.5384, 41.9822], [-122.5385, 41.9825]]], [[[-122.5359, 41.9825], [-122.5363, 41.9823], [-122.5359, 41.9823], [-122.5359, 41.9825]]], [[[-122.4886, 41.9835], [-122.489, 41.9832], [-122.4886, 41.9832], [-122.4886, 41.9835]]], [[[-122.5497, 41.9823], [-122.5496, 41.9817], [-122.5482, 41.9818], [-122.5482, 41.982], [-122.5497, 41.9823]]], [[[-122.5417, 41.9822], [-122.5421, 41.9819], [-122.5417, 41.9819], [-122.5417, 41.9822]]], [[[-122.5161, 41.9827], [-122.5164, 41.9824], [-122.516, 41.9824], [-122.5161, 41.9827]]], [[[-122.4893, 41.9832], [-122.49, 41.9829], [-122.4893, 41.9827], [-122.4893, 41.9832]]], [[[-122.5413, 41.9819], [-122.5417, 41.9813], [-122.5413, 41.9814], [-122.5413, 41.9819]]], [[[-122.5377, 41.9825], [-122.5384, 41.9817], [-122.537, 41.9814], [-122.537, 41.982], [-122.5377, 41.9825]]], [[[-122.5273, 41.9833], [-122.5276, 41.9824], [-122.5269, 41.9825], [-122.5272, 41.9822], [-122.5269, 41.9816], [-122.5262, 41.9822], [-122.5273, 41.9833]]], [[[-122.5258, 41.9822], [-122.5254, 41.9817], [-122.5247, 41.9817], [-122.5251, 41.9822], [-122.5258, 41.9822]]], [[[-122.5435, 41.9816], [-122.5438, 41.9813], [-122.5435, 41.9813], [-122.5435, 41.9816]]], [[[-122.5388, 41.9817], [-122.5391, 41.9814], [-122.5388, 41.9814], [-122.5388, 41.9817]]], [[[-122.5178, 41.9821], [-122.5182, 41.9818], [-122.5178, 41.9818], [-122.5178, 41.9821]]], [[[-122.516, 41.9821], [-122.5164, 41.9819], [-122.516, 41.9819], [-122.516, 41.9821]]], [[[-122.5363, 41.9815], [-122.5366, 41.9812], [-122.5362, 41.9812], [-122.5363, 41.9815]]], [[[-122.4792, 41.9826], [-122.4795, 41.9823], [-122.4792, 41.9823], [-122.4792, 41.9826]]], [[[-122.5308, 41.9816], [-122.5315, 41.981], [-122.5308, 41.981], [-122.5308, 41.9816]]], [[[-122.5334, 41.9812], [-122.5337, 41.981], [-122.5333, 41.981], [-122.5334, 41.9812]]], [[[-122.5319, 41.9813], [-122.5323, 41.981], [-122.5319, 41.981], [-122.5319, 41.9813]]], [[[-122.5265, 41.9814], [-122.5276, 41.9811], [-122.5265, 41.9811], [-122.5265, 41.9814]]], [[[-122.4788, 41.9823], [-122.4792, 41.982], [-122.4788, 41.9821], [-122.4788, 41.9823]]], [[[-122.5287, 41.9824], [-122.5301, 41.9816], [-122.5301, 41.9808], [-122.5276, 41.9819], [-122.5287, 41.9824]]], [[[-122.5185, 41.9815], [-122.5189, 41.981], [-122.5185, 41.981], [-122.5185, 41.9815]]], [[[-122.525, 41.9811], [-122.5254, 41.9809], [-122.525, 41.9809], [-122.525, 41.9811]]], [[[-122.4965, 41.9817], [-122.4968, 41.9812], [-122.4965, 41.9812], [-122.4965, 41.9817]]], [[[-122.5489, 41.9804], [-122.5496, 41.9801], [-122.5489, 41.9801], [-122.5489, 41.9804]]], [[[-122.5312, 41.9807], [-122.5315, 41.9805], [-122.5312, 41.9805], [-122.5312, 41.9807]]], [[[-122.5239, 41.9809], [-122.5243, 41.9806], [-122.5239, 41.9806], [-122.5239, 41.9809]]], [[[-122.5174, 41.981], [-122.5185, 41.9807], [-122.5174, 41.9807], [-122.5174, 41.981]]], [[[-122.5496, 41.9801], [-122.5499, 41.9798], [-122.5496, 41.9798], [-122.5496, 41.9801]]], [[[-122.5297, 41.9805], [-122.5301, 41.9802], [-122.5297, 41.9802], [-122.5297, 41.9805]]], [[[-122.4864, 41.9814], [-122.4867, 41.9808], [-122.4864, 41.9808], [-122.4864, 41.9814]]], [[[-122.5351, 41.9801], [-122.5355, 41.9798], [-122.5351, 41.9799], [-122.5351, 41.9801]]], [[[-122.5424, 41.9816], [-122.5427, 41.9811], [-122.5435, 41.9813], [-122.5434, 41.9805], [-122.5464, 41.981], [-122.547, 41.9799], [-122.546, 41.9802], [-122.5456, 41.9796], [-122.5442, 41.9799], [-122.543, 41.9794], [-122.5416, 41.9805], [-122.5424, 41.9816]]], [[[-122.525, 41.9806], [-122.525, 41.9801], [-122.5243, 41.9798], [-122.5239, 41.9803], [-122.525, 41.9806]]], [[[-122.5618, 41.9793], [-122.5622, 41.979], [-122.5618, 41.979], [-122.5618, 41.9793]]], [[[-122.5344, 41.9799], [-122.5347, 41.9796], [-122.5344, 41.9796], [-122.5344, 41.9799]]], [[[-122.5236, 41.9801], [-122.5239, 41.9798], [-122.5235, 41.9798], [-122.5236, 41.9801]]], [[[-122.542, 41.9794], [-122.5423, 41.9792], [-122.542, 41.9792], [-122.542, 41.9794]]], [[[-122.525, 41.9798], [-122.5257, 41.9795], [-122.525, 41.9795], [-122.525, 41.9798]]], [[[-122.5239, 41.9798], [-122.5243, 41.9795], [-122.5239, 41.9795], [-122.5239, 41.9798]]], [[[-122.521, 41.9799], [-122.5214, 41.9796], [-122.521, 41.9796], [-122.521, 41.9799]]], [[[-122.5423, 41.9792], [-122.5427, 41.9789], [-122.5423, 41.9789], [-122.5423, 41.9792]]], [[[-122.5322, 41.9794], [-122.5326, 41.9791], [-122.5322, 41.9791], [-122.5322, 41.9794]]], [[[-122.5235, 41.9798], [-122.5235, 41.979], [-122.5228, 41.979], [-122.5228, 41.9796], [-122.5235, 41.9798]]], [[[-122.5243, 41.9795], [-122.5246, 41.979], [-122.5242, 41.979], [-122.5243, 41.9795]]], [[[-122.5629, 41.9779], [-122.5632, 41.9777], [-122.5629, 41.9777], [-122.5629, 41.9779]]], [[[-122.556, 41.9781], [-122.5564, 41.9778], [-122.556, 41.9778], [-122.556, 41.9781]]], [[[-122.5455, 41.978], [-122.5459, 41.9783], [-122.5462, 41.978], [-122.5455, 41.978]]], [[[-122.5206, 41.9788], [-122.521, 41.9785], [-122.5206, 41.9785], [-122.5206, 41.9788]]], [[[-122.5834, 41.9773], [-122.5838, 41.977], [-122.5834, 41.977], [-122.5834, 41.9773]]], [[[-122.5816, 41.9773], [-122.582, 41.977], [-122.5816, 41.977], [-122.5816, 41.9773]]], [[[-122.5564, 41.9778], [-122.5567, 41.9775], [-122.5564, 41.9775], [-122.5564, 41.9778]]], [[[-122.539, 41.9782], [-122.5394, 41.9779], [-122.539, 41.9779], [-122.539, 41.9782]]], [[[-122.5257, 41.9784], [-122.526, 41.9781], [-122.5257, 41.9781], [-122.5257, 41.9784]]], [[[-122.5798, 41.9773], [-122.5802, 41.9768], [-122.5798, 41.9768], [-122.5798, 41.9773]]], [[[-122.5513, 41.9776], [-122.5516, 41.9774], [-122.5513, 41.9774], [-122.5513, 41.9776]]], [[[-122.5787, 41.9768], [-122.5791, 41.9765], [-122.5787, 41.9765], [-122.5787, 41.9768]]], [[[-122.5506, 41.9774], [-122.5509, 41.9771], [-122.5506, 41.9771], [-122.5506, 41.9774]]], [[[-122.5495, 41.9774], [-122.5502, 41.9771], [-122.5495, 41.9771], [-122.5495, 41.9774]]], [[[-122.5329, 41.9777], [-122.5332, 41.9775], [-122.5329, 41.9775], [-122.5329, 41.9777]]], [[[-122.5213, 41.978], [-122.5217, 41.9777], [-122.5213, 41.9777], [-122.5213, 41.978]]], [[[-122.5827, 41.9767], [-122.5834, 41.9762], [-122.583, 41.9762], [-122.5827, 41.9767]]], [[[-122.5823, 41.9767], [-122.5827, 41.9762], [-122.5816, 41.9762], [-122.5816, 41.9765], [-122.5823, 41.9767]]], [[[-122.5802, 41.9765], [-122.5809, 41.9762], [-122.5802, 41.9762], [-122.5802, 41.9765]]], [[[-122.5491, 41.9771], [-122.5495, 41.9769], [-122.5491, 41.9769], [-122.5491, 41.9771]]], [[[-122.5444, 41.9772], [-122.5451, 41.9769], [-122.5444, 41.977], [-122.5444, 41.9772]]], [[[-122.539, 41.9773], [-122.5393, 41.9771], [-122.539, 41.9771], [-122.539, 41.9773]]], [[[-122.5502, 41.9771], [-122.5505, 41.9766], [-122.5502, 41.9766], [-122.5502, 41.9771]]], [[[-122.5433, 41.977], [-122.5437, 41.9772], [-122.5444, 41.9767], [-122.5433, 41.977]]], [[[-122.5404, 41.977], [-122.5408, 41.9768], [-122.5404, 41.9768], [-122.5404, 41.977]]], [[[-122.5386, 41.9771], [-122.539, 41.9768], [-122.5386, 41.9768], [-122.5386, 41.9771]]], [[[-122.5209, 41.9774], [-122.5216, 41.9771], [-122.5209, 41.9772], [-122.5209, 41.9774]]], [[[-122.5816, 41.9762], [-122.5816, 41.9757], [-122.5805, 41.9757], [-122.5805, 41.976], [-122.5816, 41.9762]]], [[[-122.5224, 41.9779], [-122.5231, 41.9774], [-122.5227, 41.9769], [-122.522, 41.9774], [-122.5224, 41.9779]]], [[[-122.543, 41.9767], [-122.5437, 41.9764], [-122.5429, 41.9764], [-122.543, 41.9767]]], [[[-122.5365, 41.9769], [-122.5368, 41.9766], [-122.5364, 41.9766], [-122.5365, 41.9769]]], [[[-122.5198, 41.9772], [-122.5206, 41.9769], [-122.5198, 41.9769], [-122.5198, 41.9772]]], [[[-122.4859, 41.9779], [-122.4862, 41.9776], [-122.4859, 41.9776], [-122.4859, 41.9779]]], [[[-122.5379, 41.9768], [-122.5382, 41.9763], [-122.5372, 41.9763], [-122.5372, 41.9766], [-122.5379, 41.9768]]], [[[-122.5364, 41.9763], [-122.5368, 41.976], [-122.5364, 41.976], [-122.5364, 41.9763]]], [[[-122.5389, 41.9757], [-122.5393, 41.9754], [-122.5389, 41.9754], [-122.5389, 41.9757]]], [[[-122.5368, 41.9758], [-122.5375, 41.9755], [-122.5368, 41.9755], [-122.5368, 41.9758]]], [[[-122.5263, 41.976], [-122.5267, 41.9757], [-122.5263, 41.9757], [-122.5263, 41.976]]], [[[-122.5404, 41.9765], [-122.5408, 41.976], [-122.5393, 41.9749], [-122.5397, 41.9754], [-122.5393, 41.976], [-122.5404, 41.9765]]], [[[-122.5804, 41.9741], [-122.5812, 41.9738], [-122.5804, 41.9738], [-122.5804, 41.9741]]], [[[-122.5385, 41.9746], [-122.5393, 41.9744], [-122.5385, 41.9744], [-122.5385, 41.9746]]], [[[-122.5338, 41.9747], [-122.5342, 41.9745], [-122.5338, 41.9745], [-122.5338, 41.9747]]], [[[-122.4407, 41.9766], [-122.441, 41.9763], [-122.4407, 41.9763], [-122.4407, 41.9766]]], [[[-122.6093, 41.9727], [-122.61, 41.9724], [-122.6093, 41.9724], [-122.6093, 41.9727]]], [[[-122.5757, 41.9734], [-122.5761, 41.9731], [-122.5757, 41.9731], [-122.5757, 41.9734]]], [[[-122.571, 41.9734], [-122.5717, 41.9732], [-122.571, 41.9732], [-122.571, 41.9734]]], [[[-122.5483, 41.9739], [-122.5483, 41.9734], [-122.5475, 41.9734], [-122.5475, 41.9737], [-122.5483, 41.9739]]], [[[-122.5396, 41.9741], [-122.5392, 41.9735], [-122.5385, 41.9738], [-122.5385, 41.9741], [-122.5396, 41.9741]]], [[[-122.5761, 41.9731], [-122.5764, 41.9728], [-122.5761, 41.9728], [-122.5761, 41.9731]]], [[[-122.5746, 41.9731], [-122.575, 41.9728], [-122.5746, 41.9728], [-122.5746, 41.9731]]], [[[-122.575, 41.9728], [-122.5753, 41.9725], [-122.575, 41.9726], [-122.575, 41.9728]]], [[[-122.5464, 41.9734], [-122.5468, 41.9731], [-122.5464, 41.9731], [-122.5464, 41.9734]]], [[[-122.4981, 41.9744], [-122.4984, 41.9741], [-122.498, 41.9741], [-122.4981, 41.9744]]], [[[-122.55, 41.9731], [-122.5504, 41.9728], [-122.55, 41.9728], [-122.55, 41.9731]]], [[[-122.537, 41.9733], [-122.5378, 41.973], [-122.537, 41.973], [-122.537, 41.9733]]], [[[-122.606, 41.9719], [-122.6067, 41.9716], [-122.606, 41.9714], [-122.606, 41.9719]]], [[[-122.5385, 41.973], [-122.5388, 41.9727], [-122.5385, 41.9727], [-122.5385, 41.973]]], [[[-122.5378, 41.973], [-122.5381, 41.9728], [-122.5377, 41.9728], [-122.5378, 41.973]]], [[[-122.5407, 41.9738], [-122.5406, 41.9727], [-122.5388, 41.9725], [-122.5392, 41.9735], [-122.5407, 41.9738]]], [[[-122.6107, 41.9721], [-122.6114, 41.9715], [-122.6107, 41.971], [-122.6107, 41.9721]]], [[[-122.6078, 41.9719], [-122.6082, 41.9711], [-122.6078, 41.9711], [-122.6078, 41.9719]]], [[[-122.6089, 41.9713], [-122.6092, 41.971], [-122.6089, 41.971], [-122.6089, 41.9713]]], [[[-122.6053, 41.9714], [-122.6056, 41.9711], [-122.6053, 41.9711], [-122.6053, 41.9714]]], [[[-122.5417, 41.973], [-122.5428, 41.9724], [-122.5421, 41.9721], [-122.5417, 41.973]]], [[[-122.4987, 41.9733], [-122.4991, 41.973], [-122.4987, 41.973], [-122.4987, 41.9733]]], [[[-122.4453, 41.9743], [-122.4456, 41.974], [-122.4453, 41.974], [-122.4453, 41.9743]]], [[[-122.6089, 41.9705], [-122.6092, 41.9702], [-122.6089, 41.9702], [-122.6089, 41.9705]]], [[[-122.5576, 41.9716], [-122.5579, 41.9713], [-122.5576, 41.9713], [-122.5576, 41.9716]]], [[[-122.5421, 41.9719], [-122.5424, 41.9716], [-122.542, 41.9716], [-122.5421, 41.9719]]], [[[-122.5399, 41.9719], [-122.5402, 41.9716], [-122.5399, 41.9716], [-122.5399, 41.9719]]], [[[-122.4994, 41.9727], [-122.4998, 41.9724], [-122.4994, 41.9724], [-122.4994, 41.9727]]], [[[-122.5569, 41.9713], [-122.5576, 41.971], [-122.5568, 41.971], [-122.5569, 41.9713]]], [[[-122.5431, 41.9716], [-122.5435, 41.9713], [-122.5431, 41.9713], [-122.5431, 41.9716]]], [[[-122.5395, 41.9722], [-122.5395, 41.9716], [-122.5399, 41.9714], [-122.5388, 41.9717], [-122.5395, 41.9722]]], [[[-122.6096, 41.97], [-122.6099, 41.9697], [-122.6096, 41.9697], [-122.6096, 41.97]]], [[[-122.5724, 41.9707], [-122.5727, 41.9704], [-122.5724, 41.9704], [-122.5724, 41.9707]]], [[[-122.5695, 41.9705], [-122.5698, 41.9702], [-122.5695, 41.9702], [-122.5695, 41.9705]]], [[[-122.5384, 41.9711], [-122.5388, 41.9708], [-122.5384, 41.9709], [-122.5384, 41.9711]]], [[[-122.5489, 41.9715], [-122.5489, 41.9709], [-122.5492, 41.9704], [-122.5478, 41.9709], [-122.5489, 41.9715]]], [[[-122.5435, 41.971], [-122.5435, 41.9705], [-122.5424, 41.9705], [-122.5424, 41.9708], [-122.5435, 41.971]]], [[[-122.6092, 41.9694], [-122.6099, 41.9691], [-122.6092, 41.9691], [-122.6092, 41.9694]]], [[[-122.5496, 41.9704], [-122.55, 41.9706], [-122.5503, 41.9703], [-122.5496, 41.9704]]], [[[-122.6106, 41.9691], [-122.611, 41.9688], [-122.6106, 41.9688], [-122.6106, 41.9691]]], [[[-122.5713, 41.971], [-122.5713, 41.9705], [-122.572, 41.9707], [-122.5716, 41.9696], [-122.5698, 41.9697], [-122.5698, 41.9702], [-122.5702, 41.9702], [-122.5702, 41.9705], [-122.5706, 41.9705], [-122.5713, 41.971]], [[-122.5709, 41.9702], [-122.5706, 41.9705], [-122.5705, 41.9702], [-122.5709, 41.9702]]], [[[-122.5528, 41.97], [-122.5539, 41.9703], [-122.5539, 41.9697], [-122.5528, 41.97]]], [[[-122.5402, 41.9708], [-122.5402, 41.9703], [-122.5394, 41.9698], [-122.5388, 41.9708], [-122.5402, 41.9708]]], [[[-122.5539, 41.9697], [-122.5543, 41.9695], [-122.5539, 41.9695], [-122.5539, 41.9697]]], [[[-122.5532, 41.9692], [-122.5535, 41.9687], [-122.5531, 41.9687], [-122.5532, 41.9692]]], [[[-122.5438, 41.9694], [-122.5441, 41.9688], [-122.5438, 41.9689], [-122.5438, 41.9694]]], [[[-122.5542, 41.9689], [-122.5546, 41.9686], [-122.5542, 41.9686], [-122.5542, 41.9689]]], [[[-122.542, 41.9692], [-122.5423, 41.9689], [-122.5419, 41.9689], [-122.542, 41.9692]]], [[[-122.5405, 41.9697], [-122.5405, 41.9692], [-122.5409, 41.9689], [-122.5401, 41.9689], [-122.5405, 41.9697]]], [[[-122.5503, 41.969], [-122.5499, 41.9685], [-122.5492, 41.9687], [-122.5492, 41.969], [-122.5503, 41.969]]], [[[-122.5499, 41.9685], [-122.5502, 41.9682], [-122.5499, 41.9682], [-122.5499, 41.9685]]], [[[-122.551, 41.9682], [-122.5509, 41.9674], [-122.5506, 41.9674], [-122.5502, 41.9682], [-122.551, 41.9682]]], [[[-122.5762, 41.9668], [-122.5766, 41.9666], [-122.5762, 41.9666], [-122.5762, 41.9668]]], [[[-122.5509, 41.9671], [-122.5513, 41.9668], [-122.5509, 41.9668], [-122.5509, 41.9671]]], [[[-122.6105, 41.9651], [-122.6108, 41.9648], [-122.6105, 41.9648], [-122.6105, 41.9651]]], [[[-122.6094, 41.9659], [-122.6105, 41.9651], [-122.6097, 41.9648], [-122.6094, 41.9654], [-122.609, 41.9645], [-122.6094, 41.9659]]], [[[-122.6108, 41.9648], [-122.6112, 41.9642], [-122.6108, 41.9642], [-122.6108, 41.9648]]], [[[-122.6097, 41.9645], [-122.6104, 41.9642], [-122.6097, 41.9643], [-122.6097, 41.9645]]], [[[-122.4776, 41.9672], [-122.4783, 41.9669], [-122.4776, 41.9669], [-122.4776, 41.9672]]], [[[-122.5566, 41.9653], [-122.557, 41.9651], [-122.5566, 41.9651], [-122.5566, 41.9653]]], [[[-122.4949, 41.9663], [-122.4956, 41.966], [-122.4949, 41.966], [-122.4949, 41.9663]]], [[[-122.557, 41.9651], [-122.5577, 41.9645], [-122.5573, 41.9645], [-122.557, 41.9651]]], [[[-122.6115, 41.9634], [-122.6118, 41.9631], [-122.6115, 41.9631], [-122.6115, 41.9634]]], [[[-122.4995, 41.9651], [-122.4999, 41.9649], [-122.4995, 41.9649], [-122.4995, 41.9651]]], [[[-122.4992, 41.9649], [-122.4995, 41.9646], [-122.4992, 41.9646], [-122.4992, 41.9649]]], [[[-122.4988, 41.9646], [-122.4991, 41.9643], [-122.4988, 41.9643], [-122.4988, 41.9646]]], [[[-122.4847, 41.9646], [-122.4854, 41.9649], [-122.4865, 41.964], [-122.4847, 41.9646]]], [[[-122.4865, 41.964], [-122.4868, 41.9638], [-122.4865, 41.9638], [-122.4865, 41.964]]], [[[-122.6095, 41.9591], [-122.6099, 41.9586], [-122.6095, 41.9586], [-122.6095, 41.9591]]], [[[-122.5662, 41.9592], [-122.5665, 41.9589], [-122.5662, 41.9589], [-122.5662, 41.9592]]], [[[-122.5665, 41.9586], [-122.5668, 41.9578], [-122.5665, 41.9578], [-122.5665, 41.9586]]], [[[-122.5661, 41.9578], [-122.5665, 41.9576], [-122.5661, 41.9576], [-122.5661, 41.9578]]], [[[-122.5675, 41.9562], [-122.5682, 41.9559], [-122.5675, 41.9559], [-122.5675, 41.9562]]], [[[-122.5732, 41.9547], [-122.5739, 41.9544], [-122.5732, 41.9545], [-122.5732, 41.9547]]], [[[-122.5707, 41.9542], [-122.571, 41.954], [-122.5707, 41.954], [-122.5707, 41.9542]]], [[[-122.5205, 41.9544], [-122.5208, 41.9542], [-122.5205, 41.9542], [-122.5205, 41.9544]]], [[[-122.6035, 41.9522], [-122.6042, 41.9519], [-122.6035, 41.9517], [-122.6035, 41.9522]]], [[[-122.5706, 41.9523], [-122.571, 41.9521], [-122.5706, 41.9521], [-122.5706, 41.9523]]], [[[-122.6016, 41.9509], [-122.6023, 41.9506], [-122.6016, 41.9506], [-122.6016, 41.9509]]], [[[-122.6012, 41.9501], [-122.602, 41.9498], [-122.6012, 41.9498], [-122.6012, 41.9501]]], [[[-122.6103, 41.9496], [-122.6106, 41.9494], [-122.6103, 41.9494], [-122.6103, 41.9496]]], [[[-122.6009, 41.9498], [-122.6012, 41.9495], [-122.6009, 41.9496], [-122.6009, 41.9498]]], [[[-122.6121, 41.9493], [-122.6124, 41.949], [-122.612, 41.9491], [-122.6121, 41.9493]]], [[[-122.6063, 41.9494], [-122.6066, 41.9492], [-122.6063, 41.9492], [-122.6063, 41.9494]]], [[[-122.6012, 41.9495], [-122.6016, 41.9493], [-122.6012, 41.9493], [-122.6012, 41.9495]]], [[[-122.6009, 41.9493], [-122.6012, 41.949], [-122.6008, 41.949], [-122.6009, 41.9493]]], [[[-122.6037, 41.9492], [-122.6045, 41.9489], [-122.6037, 41.9487], [-122.6037, 41.9492]]], [[[-122.612, 41.9488], [-122.6124, 41.9485], [-122.612, 41.9485], [-122.612, 41.9488]]], [[[-122.6185, 41.9489], [-122.6196, 41.9484], [-122.6185, 41.9481], [-122.6185, 41.9489]]], [[[-122.6041, 41.9487], [-122.6044, 41.9484], [-122.6041, 41.9484], [-122.6041, 41.9487]]], [[[-122.6099, 41.9483], [-122.6102, 41.948], [-122.6098, 41.948], [-122.6099, 41.9483]]], [[[-122.6019, 41.9485], [-122.6026, 41.9482], [-122.6019, 41.9482], [-122.6019, 41.9485]]], [[[-122.6102, 41.948], [-122.6106, 41.9477], [-122.6102, 41.9477], [-122.6102, 41.948]]], [[[-122.6026, 41.9482], [-122.6033, 41.9479], [-122.6026, 41.9479], [-122.6026, 41.9482]]], [[[-122.5983, 41.9483], [-122.5986, 41.948], [-122.5983, 41.948], [-122.5983, 41.9483]]], [[[-122.5658, 41.9489], [-122.5658, 41.9484], [-122.5647, 41.9487], [-122.5647, 41.9489], [-122.5658, 41.9489]]], [[[-122.6048, 41.9487], [-122.6066, 41.9484], [-122.6062, 41.9476], [-122.604, 41.9468], [-122.6034, 41.9484], [-122.6048, 41.9481], [-122.6048, 41.9487]], [[-122.6044, 41.9473], [-122.6041, 41.9479], [-122.604, 41.9473], [-122.6044, 41.9473]]], [[[-122.6062, 41.947], [-122.6069, 41.9473], [-122.6076, 41.9467], [-122.6062, 41.947]]], [[[-122.6062, 41.947], [-122.6054, 41.9462], [-122.6044, 41.9465], [-122.6044, 41.9468], [-122.6062, 41.947]]], [[[-122.6073, 41.9464], [-122.6076, 41.9462], [-122.6072, 41.9462], [-122.6073, 41.9464]]], [[[-122.6047, 41.9462], [-122.6051, 41.9459], [-122.6047, 41.946], [-122.6047, 41.9462]]], [[[-122.6124, 41.948], [-122.6123, 41.9455], [-122.6098, 41.9459], [-122.6094, 41.9464], [-122.6105, 41.9464], [-122.6105, 41.9461], [-122.6112, 41.9461], [-122.6109, 41.9469], [-122.6124, 41.948]], [[-122.6119, 41.9461], [-122.6116, 41.9464], [-122.6116, 41.9461], [-122.6119, 41.9461]], [[-122.6116, 41.9458], [-122.6112, 41.9461], [-122.6112, 41.9458], [-122.6116, 41.9458]]], [[[-122.6051, 41.9457], [-122.605, 41.9451], [-122.6043, 41.9452], [-122.6043, 41.9454], [-122.6051, 41.9457]]], [[[-122.6119, 41.945], [-122.6119, 41.9445], [-122.6112, 41.9445], [-122.6112, 41.9447], [-122.6119, 41.945]]], [[[-122.6101, 41.9448], [-122.6104, 41.9445], [-122.6101, 41.9445], [-122.6101, 41.9448]]], [[[-122.605, 41.9446], [-122.6054, 41.9449], [-122.6061, 41.9446], [-122.605, 41.9446]]], [[[-122.6187, 41.9443], [-122.6191, 41.944], [-122.6187, 41.944], [-122.6187, 41.9443]]], [[[-122.6209, 41.9437], [-122.6212, 41.9429], [-122.6209, 41.9429], [-122.6209, 41.9437]]], [[[-122.6187, 41.944], [-122.6194, 41.9435], [-122.619, 41.9424], [-122.6169, 41.9435], [-122.6187, 41.944]]], [[[-122.5649, 41.9438], [-122.5652, 41.9435], [-122.5649, 41.9435], [-122.5649, 41.9438]]], [[[-122.6169, 41.9425], [-122.6172, 41.9422], [-122.6169, 41.9422], [-122.6169, 41.9425]]], [[[-122.6165, 41.9422], [-122.6168, 41.9419], [-122.6165, 41.9419], [-122.6165, 41.9422]]], [[[-122.6151, 41.9428], [-122.6154, 41.9414], [-122.6146, 41.9412], [-122.614, 41.9425], [-122.6151, 41.9428]]], [[[-122.6234, 41.9434], [-122.6237, 41.9426], [-122.6252, 41.9428], [-122.6255, 41.9423], [-122.6255, 41.9412], [-122.6244, 41.9412], [-122.624, 41.9401], [-122.6229, 41.9396], [-122.6204, 41.9405], [-122.6193, 41.9405], [-122.6193, 41.9397], [-122.6171, 41.9403], [-122.619, 41.9416], [-122.6222, 41.9413], [-122.6212, 41.9429], [-122.6234, 41.9434]], [[-122.6233, 41.941], [-122.6226, 41.9413], [-122.6226, 41.941], [-122.6233, 41.941]], [[-122.6226, 41.9404], [-122.6222, 41.9407], [-122.6222, 41.9405], [-122.6226, 41.9404]], [[-122.6215, 41.9405], [-122.6211, 41.9407], [-122.6211, 41.9405], [-122.6215, 41.9405]], [[-122.6189, 41.9402], [-122.6186, 41.9405], [-122.6186, 41.9403], [-122.6189, 41.9402]]], [[[-122.6146, 41.9406], [-122.6142, 41.9398], [-122.6153, 41.9401], [-122.6149, 41.939], [-122.6139, 41.9395], [-122.6139, 41.9406], [-122.6146, 41.9406]]], [[[-122.6139, 41.9393], [-122.6142, 41.939], [-122.6138, 41.939], [-122.6139, 41.9393]]], [[[-122.6149, 41.939], [-122.6153, 41.9387], [-122.6149, 41.9387], [-122.6149, 41.939]]], [[[-122.6218, 41.9394], [-122.6225, 41.9388], [-122.6203, 41.9383], [-122.62, 41.9391], [-122.6218, 41.9394]]], [[[-122.6189, 41.9384], [-122.6192, 41.9386], [-122.6196, 41.9383], [-122.6189, 41.9384]]], [[[-122.6138, 41.9387], [-122.6142, 41.9382], [-122.6138, 41.9382], [-122.6138, 41.9387]]], [[[-122.6153, 41.9384], [-122.6156, 41.9382], [-122.6153, 41.9382], [-122.6153, 41.9384]]], [[[-122.5037, 41.9407], [-122.5041, 41.9404], [-122.5037, 41.9404], [-122.5037, 41.9407]]], [[[-122.6268, 41.9379], [-122.6275, 41.9376], [-122.6268, 41.9377], [-122.6268, 41.9379]]], [[[-122.6268, 41.9374], [-122.6271, 41.9371], [-122.6268, 41.9371], [-122.6268, 41.9374]]], [[[-122.5015, 41.9394], [-122.5019, 41.9391], [-122.5015, 41.9391], [-122.5015, 41.9394]]], [[[-122.6192, 41.9375], [-122.6195, 41.9364], [-122.6188, 41.9362], [-122.6181, 41.9373], [-122.6192, 41.9375]]], [[[-122.6148, 41.9365], [-122.6152, 41.9363], [-122.6148, 41.9363], [-122.6148, 41.9365]]], [[[-122.6314, 41.9365], [-122.6307, 41.9357], [-122.6285, 41.936], [-122.6286, 41.9365], [-122.6314, 41.9365]]], [[[-122.6271, 41.9366], [-122.6271, 41.9357], [-122.6267, 41.9358], [-122.6264, 41.9366], [-122.6271, 41.9366]]], [[[-122.513, 41.9383], [-122.5134, 41.9381], [-122.513, 41.9381], [-122.513, 41.9383]]], [[[-122.6188, 41.9359], [-122.6191, 41.9356], [-122.6188, 41.9357], [-122.6188, 41.9359]]], [[[-122.6171, 41.9397], [-122.6185, 41.9384], [-122.6185, 41.9376], [-122.6174, 41.937], [-122.6174, 41.9365], [-122.6163, 41.9365], [-122.6173, 41.9357], [-122.6155, 41.9357], [-122.6152, 41.9368], [-122.6171, 41.9379], [-122.6164, 41.9395], [-122.6171, 41.9397]], [[-122.6178, 41.9384], [-122.6174, 41.9387], [-122.6174, 41.9384], [-122.6178, 41.9384]]], [[[-122.6137, 41.936], [-122.6141, 41.9357], [-122.6137, 41.9358], [-122.6137, 41.936]]], [[[-122.6303, 41.9346], [-122.6306, 41.9343], [-122.6303, 41.9343], [-122.6303, 41.9346]]], [[[-122.6299, 41.9343], [-122.6303, 41.9341], [-122.6299, 41.9341], [-122.6299, 41.9343]]], [[[-122.6311, 41.9357], [-122.6318, 41.9348], [-122.6303, 41.9349], [-122.6303, 41.9346], [-122.6299, 41.9346], [-122.6299, 41.9343], [-122.6296, 41.9343], [-122.6295, 41.9335], [-122.6274, 41.9347], [-122.6311, 41.9357]], [[-122.6299, 41.9346], [-122.6296, 41.9349], [-122.6296, 41.9346], [-122.6299, 41.9346]], [[-122.6292, 41.9341], [-122.6288, 41.9344], [-122.6288, 41.9341], [-122.6292, 41.9341]]], [[[-122.6299, 41.9338], [-122.6303, 41.9335], [-122.6299, 41.9335], [-122.6299, 41.9338]]], [[[-122.6303, 41.9338], [-122.6321, 41.934], [-122.6317, 41.9329], [-122.6303, 41.9338]]], [[[-122.614, 41.9333], [-122.6143, 41.933], [-122.614, 41.933], [-122.614, 41.9333]]], [[[-122.6331, 41.9321], [-122.6334, 41.9313], [-122.6331, 41.9313], [-122.6331, 41.9321]]], [[[-122.624, 41.9315], [-122.6244, 41.9312], [-122.624, 41.9312], [-122.624, 41.9315]]], [[[-122.6201, 41.9316], [-122.6204, 41.931], [-122.6201, 41.931], [-122.6201, 41.9316]]], [[[-122.6244, 41.9312], [-122.6247, 41.9309], [-122.6244, 41.9309], [-122.6244, 41.9312]]], [[[-122.5908, 41.9319], [-122.5912, 41.9316], [-122.5908, 41.9316], [-122.5908, 41.9319]]], [[[-122.5919, 41.9313], [-122.5922, 41.9311], [-122.5919, 41.9311], [-122.5919, 41.9313]]], [[[-122.6287, 41.9303], [-122.629, 41.93], [-122.6287, 41.93], [-122.6287, 41.9303]]], [[[-122.6186, 41.9305], [-122.6193, 41.9302], [-122.6186, 41.9302], [-122.6186, 41.9305]]], [[[-122.6218, 41.9307], [-122.6218, 41.9302], [-122.6207, 41.9299], [-122.6208, 41.9307], [-122.6218, 41.9307]]], [[[-122.6171, 41.9305], [-122.6179, 41.9303], [-122.6171, 41.93], [-122.6171, 41.9305]]], [[[-122.6255, 41.9309], [-122.6254, 41.9304], [-122.6261, 41.9298], [-122.6247, 41.9304], [-122.6255, 41.9309]]], [[[-122.6218, 41.9302], [-122.6222, 41.9299], [-122.6218, 41.9299], [-122.6218, 41.9302]]], [[[-122.6175, 41.93], [-122.6178, 41.9297], [-122.6175, 41.9297], [-122.6175, 41.93]]], [[[-122.615, 41.93], [-122.616, 41.9298], [-122.6149, 41.9298], [-122.615, 41.93]]], [[[-122.6225, 41.9296], [-122.6233, 41.9299], [-122.6232, 41.9293], [-122.6225, 41.9296]]], [[[-122.611, 41.9296], [-122.6113, 41.9293], [-122.611, 41.9293], [-122.611, 41.9296]]], [[[-122.6182, 41.9294], [-122.6185, 41.9286], [-122.6182, 41.9286], [-122.6182, 41.9294]]], [[[-122.6185, 41.9283], [-122.6189, 41.9281], [-122.6185, 41.9281], [-122.6185, 41.9283]]], [[[-122.6257, 41.9279], [-122.6261, 41.9274], [-122.6257, 41.9274], [-122.6257, 41.9279]]], [[[-122.6232, 41.9293], [-122.6257, 41.9287], [-122.6246, 41.9271], [-122.6232, 41.9293]]], [[[-122.5939, 41.9275], [-122.5943, 41.9272], [-122.5939, 41.9272], [-122.5939, 41.9275]]], [[[-122.5856, 41.9274], [-122.586, 41.9271], [-122.5856, 41.9271], [-122.5856, 41.9274]]], [[[-122.587, 41.9268], [-122.5874, 41.9271], [-122.5878, 41.9268], [-122.587, 41.9268]]], [[[-122.6209, 41.925], [-122.6213, 41.9248], [-122.6209, 41.9248], [-122.6209, 41.925]]], [[[-122.5871, 41.9184], [-122.5874, 41.9182], [-122.5871, 41.9182], [-122.5871, 41.9184]]], [[[-122.5781, 41.9186], [-122.5784, 41.9183], [-122.5781, 41.9184], [-122.5781, 41.9186]]], [[[-122.5884, 41.9152], [-122.5888, 41.9149], [-122.5884, 41.9149], [-122.5884, 41.9152]]], [[[-122.588, 41.9146], [-122.5884, 41.9144], [-122.588, 41.9144], [-122.588, 41.9146]]], [[[-122.5884, 41.9144], [-122.5887, 41.9138], [-122.5884, 41.9138], [-122.5884, 41.9144]]], [[[-122.5872, 41.9127], [-122.5876, 41.9125], [-122.5872, 41.9125], [-122.5872, 41.9127]]], [[[-122.5876, 41.9125], [-122.5879, 41.9122], [-122.5876, 41.9122], [-122.5876, 41.9125]]], [[[-122.5843, 41.9101], [-122.585, 41.9098], [-122.5842, 41.9098], [-122.5843, 41.9101]]], [[[-122.585, 41.9098], [-122.5853, 41.9095], [-122.585, 41.9095], [-122.585, 41.9098]]], [[[-122.5759, 41.9097], [-122.5763, 41.9095], [-122.5759, 41.9095], [-122.5759, 41.9097]]], [[[-122.5712, 41.9082], [-122.5715, 41.9079], [-122.5712, 41.9079], [-122.5712, 41.9082]]], [[[-122.582, 41.9066], [-122.5823, 41.9064], [-122.582, 41.9064], [-122.582, 41.9066]]], [[[-122.5819, 41.905], [-122.5823, 41.9047], [-122.5819, 41.9047], [-122.5819, 41.905]]], [[[-122.5747, 41.9041], [-122.575, 41.9038], [-122.5746, 41.9038], [-122.5747, 41.9041]]], [[[-122.5749, 41.9], [-122.5752, 41.8997], [-122.5749, 41.8997], [-122.5749, 41.9]]]]}, "properties": {"layer": "high_severity"}}, {"type": "Feature", "geometry": {"type": "MultiPolygon", "coordinates": [[[[-122.5728, 42.0035], [-122.5732, 42.0032], [-122.5728, 42.0032], [-122.5728, 42.0035]]], [[[-122.5511, 42.0034], [-122.5515, 42.0031], [-122.5511, 42.0031], [-122.5511, 42.0034]]], [[[-122.5497, 42.0034], [-122.55, 42.0031], [-122.5497, 42.0031], [-122.5497, 42.0034]]], [[[-122.5414, 42.0036], [-122.5417, 42.0033], [-122.5414, 42.0033], [-122.5414, 42.0036]]], [[[-122.5493, 42.0031], [-122.5497, 42.0028], [-122.5493, 42.0029], [-122.5493, 42.0031]]], [[[-122.5377, 42.0031], [-122.5385, 42.0033], [-122.5385, 42.0028], [-122.5377, 42.0031]]], [[[-122.5352, 42.0031], [-122.5356, 42.0029], [-122.5352, 42.0029], [-122.5352, 42.0031]]], [[[-122.5508, 42.0034], [-122.5511, 42.0028], [-122.55, 42.0023], [-122.5497, 42.0028], [-122.5508, 42.0034]]], [[[-122.5363, 42.0031], [-122.5366, 42.0026], [-122.5363, 42.0026], [-122.5363, 42.0031]]], [[[-122.5388, 42.0028], [-122.5395, 42.0025], [-122.5388, 42.0025], [-122.5388, 42.0028]]], [[[-122.5497, 42.0023], [-122.55, 42.002], [-122.5496, 42.002], [-122.5497, 42.0023]]], [[[-122.5496, 42.002], [-122.5485, 42.001], [-122.5475, 42.0015], [-122.5475, 42.0021], [-122.5496, 42.002]]], [[[-122.5806, 41.999], [-122.581, 41.9984], [-122.5806, 41.9984], [-122.5806, 41.999]]], [[[-122.5799, 41.9984], [-122.5802, 41.9982], [-122.5799, 41.9982], [-122.5799, 41.9984]]], [[[-122.5787, 41.9968], [-122.5791, 41.9966], [-122.5787, 41.9966], [-122.5787, 41.9968]]], [[[-122.5679, 41.9962], [-122.5682, 41.996], [-122.5679, 41.996], [-122.5679, 41.9962]]], [[[-122.5309, 41.984], [-122.5313, 41.9837], [-122.5309, 41.9837], [-122.5309, 41.984]]], [[[-122.5298, 41.984], [-122.5306, 41.9837], [-122.5298, 41.9838], [-122.5298, 41.984]]], [[[-122.528, 41.9841], [-122.5295, 41.9838], [-122.528, 41.9835], [-122.528, 41.9841]]], [[[-122.532, 41.984], [-122.532, 41.9834], [-122.5323, 41.9832], [-122.5313, 41.9835], [-122.532, 41.984]]], [[[-122.5258, 41.9833], [-122.5262, 41.983], [-122.5258, 41.983], [-122.5258, 41.9833]]], [[[-122.5432, 41.984], [-122.5457, 41.9834], [-122.5457, 41.9829], [-122.545, 41.9832], [-122.5453, 41.9824], [-122.5424, 41.9821], [-122.5439, 41.9832], [-122.5432, 41.984]], [[-122.5442, 41.9826], [-122.5439, 41.9829], [-122.5439, 41.9827], [-122.5442, 41.9826]]], [[[-122.5417, 41.9822], [-122.5421, 41.9819], [-122.5417, 41.9819], [-122.5417, 41.9822]]], [[[-122.5287, 41.9824], [-122.5283, 41.9819], [-122.5276, 41.9819], [-122.528, 41.9824], [-122.5287, 41.9824]]], [[[-122.5273, 41.9833], [-122.5276, 41.9824], [-122.5269, 41.9825], [-122.5272, 41.9822], [-122.5269, 41.9816], [-122.5262, 41.9822], [-122.5273, 41.9833]]], [[[-122.5251, 41.9822], [-122.5258, 41.9819], [-122.5251, 41.9817], [-122.5251, 41.9822]]], [[[-122.5435, 41.9816], [-122.5438, 41.9813], [-122.5435, 41.9813], [-122.5435, 41.9816]]], [[[-122.5431, 41.9813], [-122.5435, 41.9808], [-122.5431, 41.9808], [-122.5431, 41.9813]]], [[[-122.5269, 41.9814], [-122.5272, 41.9811], [-122.5268, 41.9811], [-122.5269, 41.9814]]], [[[-122.5453, 41.9807], [-122.5456, 41.9805], [-122.5453, 41.9805], [-122.5453, 41.9807]]], [[[-122.5438, 41.9808], [-122.5442, 41.9805], [-122.5438, 41.9805], [-122.5438, 41.9808]]], [[[-122.5434, 41.9805], [-122.5438, 41.9802], [-122.5434, 41.9802], [-122.5434, 41.9805]]], [[[-122.5239, 41.9803], [-122.5246, 41.9798], [-122.5243, 41.9798], [-122.5239, 41.9803]]], [[[-122.5236, 41.9801], [-122.5239, 41.9798], [-122.5235, 41.9798], [-122.5236, 41.9801]]], [[[-122.5239, 41.9798], [-122.5243, 41.9795], [-122.5239, 41.9795], [-122.5239, 41.9798]]], [[[-122.5235, 41.9798], [-122.5235, 41.979], [-122.5228, 41.979], [-122.5228, 41.9796], [-122.5235, 41.9798]]], [[[-122.5243, 41.9795], [-122.5246, 41.979], [-122.5242, 41.979], [-122.5243, 41.9795]]], [[[-122.5206, 41.9788], [-122.521, 41.9785], [-122.5206, 41.9785], [-122.5206, 41.9788]]], [[[-122.6059, 41.9484], [-122.6062, 41.9478], [-122.6047, 41.947], [-122.6044, 41.9481], [-122.6059, 41.9484]]], [[[-122.623, 41.9423], [-122.6241, 41.9418], [-122.6233, 41.9415], [-122.623, 41.9423]]], [[[-122.623, 41.9415], [-122.6233, 41.9412], [-122.623, 41.9412], [-122.623, 41.9415]]], [[[-122.6222, 41.941], [-122.6229, 41.9407], [-122.6222, 41.9407], [-122.6222, 41.941]]], [[[-122.6292, 41.9346], [-122.6296, 41.9343], [-122.6292, 41.9344], [-122.6292, 41.9346]]]]}, "properties": {"layer": "interior"}}, {"type": "Feature", "geometry": {"type": "Polygon", "coordinates": [[[-122.6059, 41.9484], [-122.6062, 41.9478], [-122.6047, 41.947], [-122.6044, 41.9481], [-122.6059, 41.9484]]]}, "properties": {"layer": "cell", "cell_id": "321_2500", "seed_zone": "321", "elevation_band": "2500–3000 ft"}}, {"type": "Feature", "geometry": {"type": "MultiPolygon", "coordinates": [[[[-122.5511, 42.0034], [-122.5515, 42.0031], [-122.5511, 42.0031], [-122.5511, 42.0034]]], [[[-122.5497, 42.0034], [-122.55, 42.0031], [-122.5497, 42.0031], [-122.5497, 42.0034]]], [[[-122.5493, 42.0031], [-122.5497, 42.0028], [-122.5493, 42.0029], [-122.5493, 42.0031]]], [[[-122.5352, 42.0031], [-122.5356, 42.0029], [-122.5352, 42.0029], [-122.5352, 42.0031]]], [[[-122.5508, 42.0034], [-122.5511, 42.0028], [-122.55, 42.0023], [-122.5497, 42.0028], [-122.5508, 42.0034]]], [[[-122.5497, 42.0023], [-122.55, 42.002], [-122.5496, 42.002], [-122.5497, 42.0023]]], [[[-122.5679, 41.9962], [-122.5682, 41.996], [-122.5679, 41.996], [-122.5679, 41.9962]]], [[[-122.5309, 41.984], [-122.5313, 41.9837], [-122.5309, 41.9837], [-122.5309, 41.984]]], [[[-122.5298, 41.984], [-122.5306, 41.9837], [-122.5298, 41.9838], [-122.5298, 41.984]]], [[[-122.532, 41.984], [-122.532, 41.9834], [-122.5313, 41.9835], [-122.5313, 41.9837], [-122.532, 41.984]]], [[[-122.528, 41.9841], [-122.5295, 41.9838], [-122.528, 41.9835], [-122.528, 41.9841]]], [[[-122.5258, 41.9833], [-122.5262, 41.983], [-122.5258, 41.983], [-122.5258, 41.9833]]], [[[-122.5432, 41.984], [-122.5457, 41.9834], [-122.5457, 41.9829], [-122.545, 41.9832], [-122.5453, 41.9824], [-122.5424, 41.9821], [-122.5439, 41.9832], [-122.5432, 41.984]], [[-122.5442, 41.9826], [-122.5439, 41.9829], [-122.5439, 41.9827], [-122.5442, 41.9826]]], [[[-122.5417, 41.9822], [-122.5421, 41.9819], [-122.5417, 41.9819], [-122.5417, 41.9822]]], [[[-122.5287, 41.9824], [-122.5283, 41.9819], [-122.5276, 41.9819], [-122.528, 41.9824], [-122.5287, 41.9824]]], [[[-122.5273, 41.9833], [-122.5276, 41.9824], [-122.5269, 41.9825], [-122.5272, 41.9822], [-122.5269, 41.9816], [-122.5262, 41.9822], [-122.5273, 41.9833]]], [[[-122.5251, 41.9822], [-122.5258, 41.9819], [-122.5251, 41.9817], [-122.5251, 41.9822]]], [[[-122.5435, 41.9816], [-122.5438, 41.9813], [-122.5435, 41.9813], [-122.5435, 41.9816]]], [[[-122.5431, 41.9813], [-122.5435, 41.9808], [-122.5431, 41.9808], [-122.5431, 41.9813]]], [[[-122.5269, 41.9814], [-122.5272, 41.9811], [-122.5268, 41.9811], [-122.5269, 41.9814]]], [[[-122.5453, 41.9807], [-122.5456, 41.9805], [-122.5453, 41.9805], [-122.5453, 41.9807]]], [[[-122.5438, 41.9808], [-122.5442, 41.9805], [-122.5438, 41.9805], [-122.5438, 41.9808]]], [[[-122.5239, 41.9803], [-122.5246, 41.9798], [-122.5243, 41.9798], [-122.5239, 41.9803]]], [[[-122.5236, 41.9801], [-122.5239, 41.9798], [-122.5235, 41.9798], [-122.5236, 41.9801]]], [[[-122.5239, 41.9798], [-122.5243, 41.9795], [-122.5239, 41.9795], [-122.5239, 41.9798]]], [[[-122.5235, 41.9798], [-122.5235, 41.979], [-122.5228, 41.979], [-122.5228, 41.9796], [-122.5235, 41.9798]]], [[[-122.5243, 41.9795], [-122.5246, 41.979], [-122.5242, 41.979], [-122.5243, 41.9795]]], [[[-122.5206, 41.9788], [-122.521, 41.9785], [-122.5206, 41.9785], [-122.5206, 41.9788]]], [[[-122.623, 41.9423], [-122.6241, 41.9418], [-122.6233, 41.9415], [-122.623, 41.9423]]], [[[-122.623, 41.9415], [-122.6233, 41.9412], [-122.623, 41.9412], [-122.623, 41.9415]]], [[[-122.6222, 41.941], [-122.6229, 41.9407], [-122.6222, 41.9407], [-122.6222, 41.941]]]]}, "properties": {"layer": "cell", "cell_id": "321_3500", "seed_zone": "321", "elevation_band": "3500–4000 ft"}}, {"type": "Feature", "geometry": {"type": "MultiPolygon", "coordinates": [[[[-122.5728, 42.0035], [-122.5732, 42.0032], [-122.5728, 42.0032], [-122.5728, 42.0035]]], [[[-122.5414, 42.0036], [-122.5417, 42.0033], [-122.5414, 42.0033], [-122.5414, 42.0036]]], [[[-122.5377, 42.0031], [-122.5385, 42.0033], [-122.5385, 42.0028], [-122.5377, 42.0031]]], [[[-122.5363, 42.0031], [-122.5366, 42.0026], [-122.5363, 42.0026], [-122.5363, 42.0031]]], [[[-122.5388, 42.0028], [-122.5395, 42.0025], [-122.5388, 42.0025], [-122.5388, 42.0028]]], [[[-122.5496, 42.002], [-122.5485, 42.001], [-122.5475, 42.0015], [-122.5475, 42.0021], [-122.5496, 42.002]]], [[[-122.5806, 41.999], [-122.581, 41.9984], [-122.5806, 41.9984], [-122.5806, 41.999]]], [[[-122.5799, 41.9984], [-122.5802, 41.9982], [-122.5799, 41.9982], [-122.5799, 41.9984]]], [[[-122.5787, 41.9968], [-122.5791, 41.9966], [-122.5787, 41.9966], [-122.5787, 41.9968]]], [[[-122.5316, 41.9834], [-122.5323, 41.9832], [-122.5316, 41.9832], [-122.5316, 41.9834]]], [[[-122.5434, 41.9805], [-122.5438, 41.9802], [-122.5434, 41.9802], [-122.5434, 41.9805]]], [[[-122.6292, 41.9346], [-122.6296, 41.9343], [-122.6292, 41.9344], [-122.6292, 41.9346]]]]}, "properties": {"layer": "cell", "cell_id": "321_4000", "seed_zone": "321", "elevation_band": "4000–4500 ft"}}]}
