{"type": "FeatureCollection", "features": [{"type": "Feature", "geometry": {"type": "Polygon", "coordinates": [[[-123.639, 40.8945], [-123.6361, 40.8973], [-123.6392, 40.898], [-123.6399, 40.8968], [-123.6399, 40.8984], [-123.6415, 40.8976], [-123.6413, 40.8996], [-123.6426, 40.8999], [-123.6431, 40.9012], [-123.644, 40.901], [-123.6447, 40.9042], [-123.6436, 40.9043], [-123.6434, 40.9054], [-123.6449, 40.9065], [-123.6445, 40.9074], [-123.6435, 40.9074], [-123.6432, 40.9068], [-123.6425, 40.9072], [-123.6437, 40.9083], [-123.6435, 40.9089], [-123.6449, 40.9097], [-123.6419, 40.9151], [-123.6456, 40.9192], [-123.6445, 40.9191], [-123.6423, 40.9213], [-123.6402, 40.9211], [-123.6407, 40.9218], [-123.6425, 40.9221], [-123.6433, 40.9206], [-123.6434, 40.9225], [-123.6443, 40.9234], [-123.6462, 40.9235], [-123.6454, 40.9243], [-123.6462, 40.9253], [-123.6453, 40.9263], [-123.6472, 40.9278], [-123.6476, 40.9291], [-123.6446, 40.9318], [-123.6441, 40.9313], [-123.6436, 40.9318], [-123.6424, 40.9299], [-123.6368, 40.9293], [-123.6367, 40.9277], [-123.6328, 40.9261], [-123.6317, 40.9248], [-123.6321, 40.9225], [-123.6303, 40.9237], [-123.6276, 40.9233], [-123.6279, 40.9227], [-123.6271, 40.9231], [-123.6263, 40.9219], [-123.6223, 40.9199], [-123.622, 40.9161], [-123.621, 40.9142], [-123.6211, 40.9136], [-123.623, 40.9138], [-123.6219, 40.9129], [-123.6216, 40.9134], [-123.6209, 40.9119], [-123.6211, 40.9085], [-123.6198, 40.9083], [-123.6178, 40.9062], [-123.6161, 40.9056], [-123.6156, 40.9039], [-123.6145, 40.9046], [-123.6127, 40.9038], [-123.6124, 40.901], [-123.6132, 40.9007], [-123.6111, 40.8974], [-123.6097, 40.8969], [-123.6094, 40.8933], [-123.6084, 40.8932], [-123.6091, 40.8923], [-123.6078, 40.891], [-123.6094, 40.8883], [-123.6077, 40.8869], [-123.6053, 40.8863], [-123.6059, 40.8839], [-123.6042, 40.884], [-123.6036, 40.8828], [-123.6054, 40.8822], [-123.6064, 40.8805], [-123.6074, 40.8802], [-123.6093, 40.8816], [-123.6103, 40.8812], [-123.612, 40.8824], [-123.6161, 40.8817], [-123.6165, 40.882], [-123.6152, 40.8827], [-123.6156, 40.8832], [-123.6163, 40.8836], [-123.6169, 40.8828], [-123.618, 40.8828], [-123.6172, 40.8854], [-123.618, 40.8842], [-123.6193, 40.8845], [-123.62, 40.8883], [-123.6209, 40.888], [-123.6202, 40.8865], [-123.621, 40.8861], [-123.622, 40.8861], [-123.6214, 40.8869], [-123.6239, 40.8861], [-123.624, 40.887], [-123.6259, 40.887], [-123.626, 40.8878], [-123.6274, 40.887], [-123.628, 40.8884], [-123.6306, 40.8893], [-123.631, 40.8911], [-123.6341, 40.891], [-123.633, 40.8912], [-123.6358, 40.8922], [-123.639, 40.8945]]]}, "properties": {"layer": "perimeter"}}, {"type": "Feature", "geometry": {"type": "MultiPolygon", "coordinates": [[[[-123.6351, 40.8973], [-123.6398, 40.8983], [-123.6392, 40.9052], [-123.6348, 40.9045], [-123.635, 40.9011], [-123.6307, 40.9005], [-123.6309, 40.8934], [-123.6354, 40.8938], [-123.6351, 40.8973]]], [[[-123.6423, 40.916], [-123.6446, 40.9176], [-123.6444, 40.9182], [-123.6456, 40.9192], [-123.6445, 40.9191], [-123.6423, 40.9213], [-123.6412, 40.921], [-123.6402, 40.9213], [-123.6425, 40.9221], [-123.6433, 40.9206], [-123.6434, 40.9225], [-123.6443, 40.9234], [-123.6461, 40.9234], [-123.6462, 40.9242], [-123.6454, 40.9243], [-123.6462, 40.9253], [-123.6453, 40.9263], [-123.6476, 40.9289], [-123.6446, 40.9318], [-123.6441, 40.9313], [-123.6436, 40.9318], [-123.6424, 40.9299], [-123.637, 40.9294], [-123.6367, 40.9277], [-123.6326, 40.9259], [-123.6394, 40.9262], [-123.6397, 40.9157], [-123.6423, 40.916]]], [[[-123.6302, 40.9236], [-123.6276, 40.9233], [-123.6279, 40.9227], [-123.6271, 40.9231], [-123.6257, 40.9218], [-123.6302, 40.9216], [-123.6302, 40.9236]]], [[[-123.6255, 40.9219], [-123.6254, 40.9218], [-123.6257, 40.9218], [-123.6255, 40.9219]]], [[[-123.6232, 40.9202], [-123.6228, 40.9204], [-123.6228, 40.9202], [-123.6232, 40.9202]]], [[[-123.6221, 40.9197], [-123.622, 40.9192], [-123.6221, 40.9192], [-123.6221, 40.9197]]], [[[-123.6221, 40.9183], [-123.6217, 40.9179], [-123.622, 40.9162], [-123.6221, 40.9183]]], [[[-123.6217, 40.9162], [-123.621, 40.9142], [-123.6211, 40.9136], [-123.622, 40.9137], [-123.6217, 40.9162]]], [[[-123.6209, 40.9094], [-123.6216, 40.9134], [-123.6209, 40.9118], [-123.6209, 40.9094]]], [[[-123.6206, 40.9084], [-123.6209, 40.9084], [-123.6209, 40.9085], [-123.6206, 40.9084]]], [[[-123.6197, 40.9075], [-123.6197, 40.9078], [-123.6191, 40.9075], [-123.6197, 40.9075]]], [[[-123.6167, 40.9057], [-123.6156, 40.9039], [-123.6145, 40.9046], [-123.6127, 40.9038], [-123.6129, 40.9005], [-123.6169, 40.9005], [-123.6167, 40.9057]]], [[[-123.6115, 40.8986], [-123.6111, 40.8974], [-123.6101, 40.8975], [-123.6098, 40.8967], [-123.6115, 40.8968], [-123.6115, 40.8986]]], [[[-123.6098, 40.8966], [-123.6101, 40.8956], [-123.6096, 40.8945], [-123.6105, 40.8956], [-123.6098, 40.8966]]], [[[-123.6095, 40.8944], [-123.6095, 40.8943], [-123.6095, 40.8943], [-123.6095, 40.8944]]], [[[-123.6092, 40.894], [-123.6092, 40.8941], [-123.6092, 40.8939], [-123.6092, 40.894]]], [[[-123.6213, 40.8933], [-123.6084, 40.8932], [-123.6091, 40.8923], [-123.6078, 40.891], [-123.6092, 40.8881], [-123.6077, 40.8869], [-123.6053, 40.8863], [-123.6058, 40.8837], [-123.6043, 40.8841], [-123.6037, 40.8835], [-123.6053, 40.8834], [-123.6053, 40.8826], [-123.6122, 40.8825], [-123.6123, 40.8861], [-123.6196, 40.8862], [-123.6198, 40.8881], [-123.6205, 40.8884], [-123.6202, 40.8865], [-123.6212, 40.8862], [-123.6213, 40.8933]]], [[[-123.6212, 40.8862], [-123.622, 40.8861], [-123.6221, 40.8862], [-123.6212, 40.8862]]], [[[-123.6237, 40.8862], [-123.6239, 40.8861], [-123.624, 40.8862], [-123.6237, 40.8862]]], [[[-123.631, 40.8907], [-123.632, 40.8912], [-123.6331, 40.8908], [-123.6331, 40.8919], [-123.6309, 40.8916], [-123.631, 40.8907]]], [[[-123.6304, 40.9146], [-123.6305, 40.9079], [-123.6394, 40.9091], [-123.6397, 40.9157], [-123.6304, 40.9146]]]]}, "properties": {"layer": "retained"}}, {"type": "Feature", "geometry": {"type": "MultiPolygon", "coordinates": [[[[-123.6454, 40.9279], [-123.6461, 40.9276], [-123.6461, 40.9268], [-123.645, 40.9273], [-123.6454, 40.9279]]], [[[-123.6418, 40.9264], [-123.6417, 40.9258], [-123.6403, 40.9261], [-123.6403, 40.9264], [-123.6418, 40.9264]]], [[[-123.6383, 40.9151], [-123.6383, 40.9143], [-123.6361, 40.9141], [-123.6361, 40.9135], [-123.6375, 40.9135], [-123.6372, 40.913], [-123.6357, 40.913], [-123.6358, 40.9138], [-123.6347, 40.9138], [-123.6358, 40.9146], [-123.6355, 40.9152], [-123.6362, 40.9146], [-123.6383, 40.9151]]], [[[-123.6354, 40.913], [-123.6364, 40.9122], [-123.635, 40.9119], [-123.6342, 40.9103], [-123.6324, 40.9104], [-123.6332, 40.9117], [-123.6322, 40.9126], [-123.6354, 40.913]], [[-123.635, 40.9128], [-123.6343, 40.9128], [-123.6339, 40.9122], [-123.6346, 40.9122], [-123.635, 40.9128]]], [[[-123.6352, 40.9025], [-123.6352, 40.9019], [-123.6365, 40.9], [-123.634, 40.9006], [-123.6352, 40.9025]]], [[[-123.6319, 40.9007], [-123.6322, 40.8999], [-123.6308, 40.9002], [-123.6308, 40.9004], [-123.6319, 40.9007]]], [[[-123.6091, 40.8857], [-123.6094, 40.8848], [-123.6105, 40.8848], [-123.6093, 40.8838], [-123.6087, 40.8849], [-123.6076, 40.8849], [-123.6076, 40.8854], [-123.6091, 40.8857]]]]}, "properties": {"layer": "high_severity"}}, {"type": "Feature", "geometry": {"type": "Polygon", "coordinates": [[[-123.6332, 40.9117], [-123.6335, 40.9112], [-123.6332, 40.9112], [-123.6332, 40.9117]]]}, "properties": {"layer": "interior"}}, {"type": "Feature", "geometry": {"type": "Polygon", "coordinates": [[[-123.6332, 40.9117], [-123.6335, 40.9112], [-123.6332, 40.9112], [-123.6332, 40.9117]]]}, "properties": {"layer": "cell", "cell_id": "303_1500", "seed_zone": "303", "elevation_band": "1500–2000 ft"}}, {"type": "Feature", "geometry": {"type": "Polygon", "coordinates": [[[-123.6352, 40.9014], [-123.6355, 40.9011], [-123.6351, 40.9011], [-123.6352, 40.9014]]]}, "properties": {"layer": "cell", "cell_id": "303_2000", "seed_zone": "303", "elevation_band": "2000–2500 ft"}}]}
