{"type": "FeatureCollection", "features": [{"type": "Feature", "geometry": {"type": "Polygon", "coordinates": [[[-118.6269, 34.6827], [-118.6255, 34.6821], [-118.6246, 34.6841], [-118.6195, 34.6825], [-118.6191, 34.6826], [-118.62, 34.6832], [-118.6195, 34.6851], [-118.6201, 34.6867], [-118.6185, 34.6876], [-118.6188, 34.69], [-118.6194, 34.6894], [-118.6222, 34.6892], [-118.6268, 34.6891], [-118.6284, 34.6897], [-118.6296, 34.6892], [-118.631, 34.6905], [-118.6343, 34.6918], [-118.6368, 34.6924], [-118.6382, 34.692], [-118.6385, 34.6934], [-118.6374, 34.6949], [-118.6381, 34.6968], [-118.6364, 34.6974], [-118.6357, 34.6993], [-118.6374, 34.6995], [-118.6404, 34.702], [-118.639, 34.698], [-118.6397, 34.696], [-118.6407, 34.6957], [-118.6399, 34.6926], [-118.6411, 34.691], [-118.6412, 34.6896], [-118.644, 34.6892], [-118.645, 34.6897], [-118.645, 34.6911], [-118.6435, 34.6922], [-118.6456, 34.6944], [-118.6463, 34.6967], [-118.6451, 34.702], [-118.6463, 34.707], [-118.6456, 34.7083], [-118.6467, 34.7091], [-118.6483, 34.7087], [-118.6492, 34.7092], [-118.6501, 34.7086], [-118.6518, 34.7096], [-118.653, 34.7087], [-118.6551, 34.7094], [-118.6564, 34.7086], [-118.6564, 34.7095], [-118.6583, 34.7103], [-118.6574, 34.7111], [-118.6606, 34.7133], [-118.6601, 34.716], [-118.6583, 34.7148], [-118.6587, 34.7144], [-118.6576, 34.7128], [-118.6534, 34.7112], [-118.6524, 34.712], [-118.6462, 34.7115], [-118.6447, 34.7128], [-118.6432, 34.7126], [-118.639, 34.7146], [-118.6354, 34.7138], [-118.6331, 34.7145], [-118.632, 34.7141], [-118.6317, 34.713], [-118.63, 34.7123], [-118.6263, 34.7127], [-118.622, 34.7095], [-118.6201, 34.7089], [-118.6193, 34.7064], [-118.6162, 34.7038], [-118.6125, 34.7031], [-118.6092, 34.7062], [-118.6047, 34.7073], [-118.6034, 34.7085], [-118.6012, 34.7091], [-118.5995, 34.7094], [-118.5985, 34.7089], [-118.5971, 34.7094], [-118.5967, 34.7104], [-118.5935, 34.7104], [-118.5913, 34.7092], [-118.5908, 34.7081], [-118.5898, 34.7088], [-118.5875, 34.7086], [-118.5853, 34.7062], [-118.5827, 34.7059], [-118.5785, 34.7022], [-118.5706, 34.6999], [-118.5704, 34.7021], [-118.5677, 34.7052], [-118.5663, 34.7056], [-118.5631, 34.7086], [-118.5621, 34.7111], [-118.5595, 34.712], [-118.5548, 34.7106], [-118.5515, 34.7105], [-118.5504, 34.7098], [-118.5468, 34.7096], [-118.5385, 34.7079], [-118.5331, 34.7053], [-118.5334, 34.7065], [-118.5365, 34.7076], [-118.5353, 34.7093], [-118.5291, 34.7099], [-118.5276, 34.7088], [-118.5254, 34.7104], [-118.5248, 34.7121], [-118.5253, 34.7157], [-118.5238, 34.7176], [-118.5207, 34.7184], [-118.518, 34.718], [-118.5176, 34.7183], [-118.5185, 34.7189], [-118.5175, 34.7223], [-118.5167, 34.7209], [-118.5159, 34.7211], [-118.5155, 34.7227], [-118.5142, 34.7224], [-118.5121, 34.7232], [-118.5116, 34.7228], [-118.509, 34.7238], [-118.5094, 34.7268], [-118.5086, 34.7276], [-118.5088, 34.7285], [-118.5058, 34.7306], [-118.5056, 34.7322], [-118.5061, 34.732], [-118.5064, 34.7326], [-118.5049, 34.7343], [-118.502, 34.7348], [-118.5011, 34.7377], [-118.502, 34.7396], [-118.502, 34.7424], [-118.5003, 34.7444], [-118.4995, 34.7436], [-118.4986, 34.7444], [-118.4929, 34.7519], [-118.4909, 34.751], [-118.4905, 34.7502], [-118.493, 34.7425], [-118.4941, 34.7415], [-118.4937, 34.7388], [-118.4979, 34.7353], [-118.5003, 34.7317], [-118.496, 34.731], [-118.493, 34.7326], [-118.4923, 34.7365], [-118.4912, 34.7356], [-118.4904, 34.7366], [-118.4907, 34.7405], [-118.4897, 34.7416], [-118.4886, 34.7398], [-118.4887, 34.7374], [-118.4904, 34.735], [-118.4877, 34.7328], [-118.487, 34.7346], [-118.4839, 34.735], [-118.4847, 34.7389], [-118.4837, 34.7426], [-118.4806, 34.7376], [-118.4829, 34.7297], [-118.4832, 34.7254], [-118.4875, 34.7209], [-118.4941, 34.7183], [-118.4946, 34.7166], [-118.4925, 34.7153], [-118.4922, 34.7159], [-118.4903, 34.7154], [-118.4895, 34.7163], [-118.4845, 34.716], [-118.4858, 34.7134], [-118.4824, 34.7128], [-118.4831, 34.7115], [-118.481, 34.712], [-118.4794, 34.7102], [-118.4782, 34.7099], [-118.4774, 34.7102], [-118.4765, 34.7125], [-118.4752, 34.7128], [-118.4749, 34.7156], [-118.4725, 34.7165], [-118.472, 34.7155], [-118.47, 34.7151], [-118.4689, 34.7171], [-118.467, 34.7186], [-118.4656, 34.718], [-118.4652, 34.7185], [-118.4628, 34.7185], [-118.4617, 34.7177], [-118.4637, 34.7162], [-118.4626, 34.7146], [-118.4631, 34.7137], [-118.4639, 34.7139], [-118.4647, 34.7116], [-118.4676, 34.7111], [-118.4651, 34.7105], [-118.4648, 34.7094], [-118.4671, 34.7102], [-118.4691, 34.7097], [-118.4684, 34.7077], [-118.472, 34.7053], [-118.4745, 34.7055], [-118.4769, 34.7038], [-118.4713, 34.6994], [-118.4738, 34.6984], [-118.4691, 34.6908], [-118.4745, 34.6886], [-118.475, 34.6875], [-118.4734, 34.6872], [-118.4724, 34.6856], [-118.472, 34.6827], [-118.4728, 34.6816], [-118.4791, 34.6818], [-118.4785, 34.6828], [-118.4789, 34.6834], [-118.4798, 34.6831], [-118.48, 34.6823], [-118.4817, 34.6814], [-118.4819, 34.6804], [-118.4824, 34.6812], [-118.4837, 34.6799], [-118.483, 34.6792], [-118.4836, 34.6788], [-118.4817, 34.6782], [-118.4844, 34.6763], [-118.4849, 34.6774], [-118.4867, 34.6772], [-118.4892, 34.6744], [-118.4877, 34.6735], [-118.4898, 34.6723], [-118.489, 34.6708], [-118.4903, 34.6703], [-118.4911, 34.669], [-118.4931, 34.6688], [-118.4937, 34.6644], [-118.4926, 34.6629], [-118.4938, 34.6632], [-118.4945, 34.656], [-118.4961, 34.655], [-118.4951, 34.6533], [-118.4955, 34.6504], [-118.4947, 34.6503], [-118.4972, 34.6475], [-118.497, 34.6442], [-118.4994, 34.6439], [-118.501, 34.6422], [-118.5047, 34.6424], [-118.5042, 34.6411], [-118.5024, 34.64], [-118.5037, 34.6362], [-118.5095, 34.6333], [-118.5115, 34.6359], [-118.5112, 34.6376], [-118.5142, 34.6395], [-118.5176, 34.6379], [-118.52, 34.6381], [-118.522, 34.6358], [-118.5216, 34.634], [-118.5199, 34.6333], [-118.5209, 34.6312], [-118.5231, 34.6318], [-118.524, 34.6305], [-118.5293, 34.6281], [-118.5308, 34.6272], [-118.532, 34.6244], [-118.5368, 34.6216], [-118.5413, 34.6213], [-118.5426, 34.6218], [-118.5532, 34.6197], [-118.5549, 34.6205], [-118.5539, 34.624], [-118.5577, 34.6221], [-118.5587, 34.6266], [-118.5604, 34.627], [-118.5605, 34.6276], [-118.5614, 34.626], [-118.5635, 34.6247], [-118.5678, 34.6257], [-118.5709, 34.6286], [-118.5713, 34.6307], [-118.5704, 34.6311], [-118.5711, 34.6335], [-118.5753, 34.6366], [-118.5772, 34.6373], [-118.5768, 34.6397], [-118.5777, 34.6406], [-118.5799, 34.6407], [-118.5833, 34.6419], [-118.5851, 34.6398], [-118.5895, 34.6402], [-118.5921, 34.6393], [-118.6003, 34.6411], [-118.6024, 34.641], [-118.6022, 34.6388], [-118.6055, 34.6357], [-118.6094, 34.6358], [-118.6103, 34.6367], [-118.6109, 34.6355], [-118.6123, 34.6363], [-118.6138, 34.6363], [-118.6146, 34.6356], [-118.6151, 34.6365], [-118.6178, 34.6365], [-118.6185, 34.6375], [-118.6191, 34.6369], [-118.6209, 34.6368], [-118.6246, 34.634], [-118.6262, 34.6341], [-118.6279, 34.6382], [-118.6319, 34.6386], [-118.6348, 34.6409], [-118.6353, 34.6427], [-118.6377, 34.6435], [-118.6376, 34.6453], [-118.6355, 34.6478], [-118.6349, 34.6506], [-118.6332, 34.6509], [-118.6326, 34.6539], [-118.6342, 34.6533], [-118.6356, 34.6562], [-118.639, 34.6564], [-118.6397, 34.6571], [-118.6397, 34.6557], [-118.6419, 34.6555], [-118.6416, 34.6578], [-118.6431, 34.6595], [-118.6394, 34.6606], [-118.6393, 34.6588], [-118.6384, 34.6586], [-118.6378, 34.6612], [-118.6393, 34.6631], [-118.6393, 34.665], [-118.6379, 34.6669], [-118.6351, 34.667], [-118.6358, 34.6695], [-118.6352, 34.6701], [-118.6341, 34.6706], [-118.6326, 34.67], [-118.6309, 34.6708], [-118.63, 34.673], [-118.6316, 34.6729], [-118.632, 34.6743], [-118.6286, 34.6758], [-118.6292, 34.6772], [-118.6283, 34.6774], [-118.6276, 34.6786], [-118.6278, 34.6811], [-118.6286, 34.6814], [-118.6269, 34.6827]]]}, "properties": {"layer": "perimeter"}}, {"type": "Feature", "geometry": {"type": "MultiPolygon", "coordinates": [[[[-118.5634, 34.7065], [-118.5621, 34.7111], [-118.5588, 34.7119], [-118.5548, 34.7106], [-118.546, 34.7094], [-118.5459, 34.7066], [-118.5545, 34.7064], [-118.5546, 34.709], [-118.5593, 34.709], [-118.5593, 34.7065], [-118.5634, 34.7065]]], [[[-118.5281, 34.7087], [-118.5254, 34.7104], [-118.5248, 34.7121], [-118.5253, 34.7157], [-118.5238, 34.7176], [-118.5207, 34.7184], [-118.518, 34.718], [-118.5176, 34.7183], [-118.5185, 34.7189], [-118.5175, 34.7223], [-118.5167, 34.7209], [-118.5159, 34.7211], [-118.5155, 34.7227], [-118.5142, 34.7224], [-118.5121, 34.7232], [-118.5116, 34.7228], [-118.509, 34.7238], [-118.5094, 34.7268], [-118.5086, 34.7276], [-118.5088, 34.7285], [-118.5058, 34.7306], [-118.5056, 34.7322], [-118.5061, 34.732], [-118.5064, 34.7326], [-118.5049, 34.7343], [-118.502, 34.7348], [-118.5011, 34.7377], [-118.502, 34.7396], [-118.502, 34.7424], [-118.5003, 34.7444], [-118.4995, 34.7436], [-118.4986, 34.7444], [-118.4929, 34.7519], [-118.4909, 34.751], [-118.4905, 34.7502], [-118.493, 34.7425], [-118.4941, 34.7415], [-118.4937, 34.7388], [-118.4979, 34.7353], [-118.5003, 34.7317], [-118.496, 34.731], [-118.493, 34.7326], [-118.4923, 34.7365], [-118.4912, 34.7356], [-118.4904, 34.7366], [-118.4907, 34.7405], [-118.4897, 34.7416], [-118.4886, 34.7398], [-118.4887, 34.7374], [-118.4904, 34.735], [-118.4877, 34.7328], [-118.487, 34.7346], [-118.4839, 34.735], [-118.4847, 34.7389], [-118.4837, 34.7426], [-118.4806, 34.7376], [-118.4829, 34.7297], [-118.4832, 34.7254], [-118.4875, 34.7209], [-118.4941, 34.7183], [-118.4946, 34.7166], [-118.4925, 34.7153], [-118.4922, 34.7159], [-118.4903, 34.7154], [-118.4895, 34.7163], [-118.4845, 34.716], [-118.4858, 34.7134], [-118.4824, 34.7128], [-118.4831, 34.7115], [-118.481, 34.712], [-118.4794, 34.7102], [-118.4782, 34.7099], [-118.4774, 34.7102], [-118.4765, 34.7125], [-118.4752, 34.7128], [-118.4749, 34.7156], [-118.4725, 34.7165], [-118.472, 34.7155], [-118.47, 34.7151], [-118.4689, 34.7171], [-118.467, 34.7186], [-118.4656, 34.718], [-118.4652, 34.7185], [-118.4628, 34.7185], [-118.4617, 34.7177], [-118.4637, 34.7162], [-118.4626, 34.7146], [-118.4631, 34.7137], [-118.4639, 34.7139], [-118.4647, 34.7116], [-118.4676, 34.7111], [-118.4651, 34.7105], [-118.4648, 34.7094], [-118.4671, 34.7102], [-118.4691, 34.7097], [-118.4684, 34.7077], [-118.472, 34.7053], [-118.4745, 34.7055], [-118.4769, 34.7038], [-118.4757, 34.7028], [-118.497, 34.7028], [-118.497, 34.6992], [-118.5014, 34.6992], [-118.5014, 34.7028], [-118.5283, 34.7029], [-118.5283, 34.7091], [-118.5281, 34.7087]]], [[[-118.4735, 34.701], [-118.4713, 34.6994], [-118.4738, 34.6984], [-118.472, 34.6947], [-118.4726, 34.6947], [-118.4726, 34.6956], [-118.4748, 34.6956], [-118.4749, 34.701], [-118.4735, 34.701]]], [[[-118.4702, 34.6922], [-118.4691, 34.6908], [-118.4745, 34.6886], [-118.475, 34.6875], [-118.4734, 34.6872], [-118.472, 34.6827], [-118.4728, 34.6816], [-118.4747, 34.6817], [-118.4747, 34.6846], [-118.4792, 34.6846], [-118.4792, 34.6865], [-118.4836, 34.6864], [-118.4836, 34.6901], [-118.488, 34.6901], [-118.488, 34.691], [-118.4925, 34.691], [-118.4925, 34.6919], [-118.4969, 34.6919], [-118.4969, 34.6937], [-118.5013, 34.6937], [-118.5013, 34.6956], [-118.5057, 34.6955], [-118.5058, 34.6992], [-118.5014, 34.6992], [-118.5013, 34.6965], [-118.4991, 34.6965], [-118.4988, 34.6956], [-118.4925, 34.6955], [-118.4925, 34.6946], [-118.4881, 34.6946], [-118.4881, 34.6937], [-118.4858, 34.6937], [-118.4858, 34.6919], [-118.4748, 34.692], [-118.4748, 34.6911], [-118.4704, 34.6911], [-118.4702, 34.6922]]]]}, "properties": {"layer": "retained"}}, {"type": "Feature", "geometry": {"type": "MultiPolygon", "coordinates": [[[[-118.4977, 34.7194], [-118.4983, 34.7191], [-118.4977, 34.7191], [-118.4977, 34.7194]]], [[[-118.5016, 34.7186], [-118.5026, 34.7184], [-118.5016, 34.7184], [-118.5016, 34.7186]]], [[[-118.4987, 34.7183], [-118.4997, 34.7181], [-118.4987, 34.7181], [-118.4987, 34.7183]]], [[[-118.4987, 34.7172], [-118.499, 34.7175], [-118.4994, 34.7173], [-118.4987, 34.7172]]], [[[-118.4994, 34.7173], [-118.4997, 34.717], [-118.4994, 34.717], [-118.4994, 34.7173]]], [[[-118.501, 34.7159], [-118.5014, 34.7157], [-118.501, 34.7157], [-118.501, 34.7159]]], [[[-118.4981, 34.7159], [-118.4984, 34.7156], [-118.4981, 34.7156], [-118.4981, 34.7159]]], [[[-118.4978, 34.7156], [-118.4981, 34.7153], [-118.4978, 34.7153], [-118.4978, 34.7156]]], [[[-118.4939, 34.7121], [-118.4942, 34.7118], [-118.4939, 34.7118], [-118.4939, 34.7121]]], [[[-118.5169, 34.7113], [-118.5172, 34.711], [-118.5169, 34.711], [-118.5169, 34.7113]]], [[[-118.5201, 34.7108], [-118.5205, 34.7105], [-118.5201, 34.7105], [-118.5201, 34.7108]]], [[[-118.5614, 34.7108], [-118.5618, 34.7105], [-118.5614, 34.7105], [-118.5614, 34.7108]]], [[[-118.5552, 34.7104], [-118.5555, 34.7101], [-118.5552, 34.7101], [-118.5552, 34.7104]]], [[[-118.5539, 34.7104], [-118.5542, 34.7101], [-118.5539, 34.7101], [-118.5539, 34.7104]]], [[[-118.4923, 34.7096], [-118.4926, 34.7093], [-118.4923, 34.7093], [-118.4923, 34.7096]]], [[[-118.5549, 34.7101], [-118.5552, 34.7099], [-118.5549, 34.7099], [-118.5549, 34.7101]]], [[[-118.5536, 34.7101], [-118.5539, 34.7098], [-118.5536, 34.7098], [-118.5536, 34.7101]]], [[[-118.5529, 34.7101], [-118.5533, 34.7098], [-118.5529, 34.7098], [-118.5529, 34.7101]]], [[[-118.551, 34.7101], [-118.5513, 34.7098], [-118.551, 34.7098], [-118.551, 34.7101]]], [[[-118.5526, 34.7098], [-118.5529, 34.7096], [-118.5526, 34.7096], [-118.5526, 34.7098]]], [[[-118.5503, 34.7098], [-118.5506, 34.7095], [-118.5503, 34.7095], [-118.5503, 34.7098]]], [[[-118.5542, 34.7096], [-118.5546, 34.709], [-118.5543, 34.709], [-118.5542, 34.7096]]], [[[-118.5615, 34.7091], [-118.5618, 34.7089], [-118.5615, 34.7089], [-118.5615, 34.7091]]], [[[-118.5507, 34.709], [-118.551, 34.7087], [-118.5507, 34.7087], [-118.5507, 34.709]]], [[[-118.5621, 34.7091], [-118.5628, 34.7086], [-118.5625, 34.7086], [-118.5621, 34.7091]]], [[[-118.5087, 34.7085], [-118.5091, 34.7079], [-118.5087, 34.7079], [-118.5087, 34.7085]]], [[[-118.5205, 34.7083], [-118.5212, 34.7078], [-118.5205, 34.7078], [-118.5205, 34.7083]]], [[[-118.5172, 34.708], [-118.5176, 34.7078], [-118.5172, 34.7078], [-118.5172, 34.708]]], [[[-118.4946, 34.7077], [-118.495, 34.7075], [-118.4946, 34.7075], [-118.4946, 34.7077]]], [[[-118.5507, 34.7082], [-118.551, 34.7079], [-118.5507, 34.7079], [-118.5507, 34.7082]]], [[[-118.5071, 34.7076], [-118.5074, 34.7074], [-118.5071, 34.7074], [-118.5071, 34.7076]]], [[[-118.495, 34.7075], [-118.4953, 34.7072], [-118.495, 34.7072], [-118.495, 34.7075]]], [[[-118.4933, 34.7074], [-118.4937, 34.7072], [-118.4933, 34.7072], [-118.4933, 34.7074]]], [[[-118.548, 34.7084], [-118.5481, 34.7076], [-118.5474, 34.7076], [-118.5474, 34.7081], [-118.548, 34.7084]]], [[[-118.5543, 34.708], [-118.5546, 34.7077], [-118.5543, 34.7077], [-118.5543, 34.708]]], [[[-118.493, 34.7072], [-118.4933, 34.7069], [-118.493, 34.7069], [-118.493, 34.7072]]], [[[-118.5487, 34.7076], [-118.5494, 34.7074], [-118.5487, 34.7074], [-118.5487, 34.7076]]], [[[-118.4953, 34.7069], [-118.496, 34.7067], [-118.4953, 34.7067], [-118.4953, 34.7069]]], [[[-118.5608, 34.7075], [-118.5612, 34.7072], [-118.5608, 34.7072], [-118.5608, 34.7075]]], [[[-118.5477, 34.7073], [-118.5484, 34.7071], [-118.5477, 34.7071], [-118.5477, 34.7073]]], [[[-118.5471, 34.7073], [-118.5474, 34.7071], [-118.5471, 34.7071], [-118.5471, 34.7073]]], [[[-118.5612, 34.7072], [-118.5615, 34.707], [-118.5612, 34.707], [-118.5612, 34.7072]]], [[[-118.5595, 34.7072], [-118.5599, 34.7069], [-118.5595, 34.7069], [-118.5595, 34.7072]]], [[[-118.5504, 34.7071], [-118.5507, 34.7068], [-118.5504, 34.7068], [-118.5504, 34.7071]]], [[[-118.4956, 34.7064], [-118.496, 34.7061], [-118.4957, 34.7061], [-118.4956, 34.7064]]], [[[-118.5622, 34.707], [-118.5625, 34.7067], [-118.5622, 34.7067], [-118.5622, 34.707]]], [[[-118.5481, 34.7068], [-118.5484, 34.7065], [-118.5481, 34.7065], [-118.5481, 34.7068]]], [[[-118.5264, 34.7065], [-118.5268, 34.7063], [-118.5265, 34.7063], [-118.5264, 34.7065]]], [[[-118.5219, 34.7065], [-118.5225, 34.7062], [-118.5219, 34.7062], [-118.5219, 34.7065]]], [[[-118.5212, 34.7065], [-118.5215, 34.7062], [-118.5212, 34.7062], [-118.5212, 34.7065]]], [[[-118.5268, 34.7063], [-118.5271, 34.706], [-118.5268, 34.706], [-118.5268, 34.7063]]], [[[-118.5038, 34.706], [-118.5042, 34.7057], [-118.5039, 34.7057], [-118.5038, 34.706]]], [[[-118.5189, 34.7059], [-118.5193, 34.7056], [-118.5189, 34.7056], [-118.5189, 34.7059]]], [[[-118.5029, 34.7057], [-118.5032, 34.7054], [-118.5029, 34.7054], [-118.5029, 34.7057]]], [[[-118.5012, 34.7057], [-118.5019, 34.7051], [-118.5016, 34.7051], [-118.5012, 34.7057]]], [[[-118.5255, 34.7054], [-118.5258, 34.7052], [-118.5255, 34.7052], [-118.5255, 34.7054]]], [[[-118.5003, 34.7043], [-118.5, 34.7038], [-118.4993, 34.7037], [-118.4996, 34.7043], [-118.5003, 34.7043]]], [[[-118.5055, 34.7041], [-118.5059, 34.7038], [-118.5055, 34.7038], [-118.5055, 34.7041]]], [[[-118.5059, 34.7038], [-118.5062, 34.7036], [-118.5059, 34.7036], [-118.5059, 34.7038]]], [[[-118.4983, 34.7037], [-118.4987, 34.7035], [-118.4983, 34.7035], [-118.4983, 34.7037]]], [[[-118.4967, 34.7037], [-118.497, 34.7034], [-118.4967, 34.7034], [-118.4967, 34.7037]]], [[[-118.5088, 34.7041], [-118.5091, 34.7033], [-118.5088, 34.7033], [-118.5088, 34.7041]]], [[[-118.4826, 34.703], [-118.4829, 34.7027], [-118.4826, 34.7027], [-118.4826, 34.703]]], [[[-118.4964, 34.7032], [-118.4967, 34.7026], [-118.4964, 34.7026], [-118.4964, 34.7032]]], [[[-118.5023, 34.6989], [-118.503, 34.6987], [-118.5023, 34.6986], [-118.5023, 34.6989]]], [[[-118.503, 34.6987], [-118.5033, 34.6984], [-118.503, 34.6984], [-118.503, 34.6987]]], [[[-118.503, 34.6981], [-118.5033, 34.6978], [-118.503, 34.6978], [-118.503, 34.6981]]], [[[-118.5011, 34.6946], [-118.5014, 34.6943], [-118.5011, 34.6943], [-118.5011, 34.6946]]], [[[-118.4978, 34.6945], [-118.4982, 34.6943], [-118.4978, 34.6943], [-118.4978, 34.6945]]], [[[-118.4991, 34.6946], [-118.4995, 34.694], [-118.4992, 34.694], [-118.4991, 34.6946]]], [[[-118.5005, 34.6943], [-118.5008, 34.694], [-118.5005, 34.694], [-118.5005, 34.6943]]], [[[-118.4995, 34.694], [-118.4998, 34.6937], [-118.4995, 34.6937], [-118.4995, 34.694]]], [[[-118.4953, 34.6921], [-118.4956, 34.6923], [-118.4962, 34.6921], [-118.4953, 34.6921]]]]}, "properties": {"layer": "high_severity"}}, {"type": "Feature", "geometry": {"type": "MultiPolygon", "coordinates": [[[[-118.5542, 34.7093], [-118.5546, 34.709], [-118.5543, 34.709], [-118.5542, 34.7093]]], [[[-118.4953, 34.6923], [-118.4956, 34.6921], [-118.4953, 34.6921], [-118.4953, 34.6923]]]]}, "properties": {"layer": "interior"}}, {"type": "Feature", "geometry": {"type": "Polygon", "coordinates": [[[-118.4953, 34.6923], [-118.4956, 34.6921], [-118.4953, 34.6921], [-118.4953, 34.6923]]]}, "properties": {"layer": "cell", "cell_id": "992_3500", "seed_zone": "992", "elevation_band": "3500–4000 ft"}}, {"type": "Feature", "geometry": {"type": "Polygon", "coordinates": [[[-118.5542, 34.7093], [-118.5546, 34.709], [-118.5543, 34.709], [-118.5542, 34.7093]]]}, "properties": {"layer": "cell", "cell_id": "992_4000", "seed_zone": "992", "elevation_band": "4000–4500 ft"}}]}
