{"type": "FeatureCollection", "features": [{"type": "Feature", "geometry": {"type": "MultiPolygon", "coordinates": [[[[-121.8156, 40.3472], [-121.8138, 40.3476], [-121.8109, 40.3468], [-121.8068, 40.3438], [-121.8017, 40.3426], [-121.7952, 40.3369], [-121.7952, 40.3353], [-121.8001, 40.3364], [-121.8027, 40.3359], [-121.805, 40.3341], [-121.8088, 40.3335], [-121.8115, 40.3339], [-121.8114, 40.333], [-121.81, 40.332], [-121.8065, 40.3311], [-121.8039, 40.3334], [-121.8007, 40.3334], [-121.7991, 40.3306], [-121.8002, 40.3279], [-121.8026, 40.3262], [-121.8024, 40.3237], [-121.8011, 40.3226], [-121.8036, 40.3216], [-121.803, 40.3206], [-121.8035, 40.3193], [-121.8042, 40.3195], [-121.804, 40.3183], [-121.8055, 40.3176], [-121.8063, 40.3162], [-121.8084, 40.3166], [-121.8112, 40.3161], [-121.8125, 40.3172], [-121.8135, 40.3165], [-121.8159, 40.3178], [-121.821, 40.3183], [-121.8246, 40.3196], [-121.8283, 40.3197], [-121.8287, 40.3133], [-121.8273, 40.3096], [-121.837, 40.3104], [-121.8399, 40.3114], [-121.8401, 40.3123], [-121.8384, 40.3133], [-121.8403, 40.3143], [-121.8402, 40.3163], [-121.8412, 40.3175], [-121.8435, 40.317], [-121.8483, 40.3178], [-121.8514, 40.3196], [-121.8517, 40.321], [-121.8572, 40.3205], [-121.859, 40.3218], [-121.8639, 40.3214], [-121.8678, 40.3228], [-121.8683, 40.3248], [-121.8673, 40.3272], [-121.8642, 40.3269], [-121.8638, 40.3289], [-121.8564, 40.3315], [-121.8556, 40.3323], [-121.8524, 40.3316], [-121.8502, 40.3301], [-121.8481, 40.3316], [-121.8462, 40.3311], [-121.8412, 40.3316], [-121.8368, 40.3331], [-121.8341, 40.3356], [-121.83, 40.3359], [-121.8326, 40.3383], [-121.8345, 40.338], [-121.8352, 40.3389], [-121.8377, 40.3392], [-121.8392, 40.3387], [-121.8414, 40.3389], [-121.845, 40.3439], [-121.8499, 40.3438], [-121.8514, 40.3444], [-121.8513, 40.3457], [-121.8475, 40.3468], [-121.8435, 40.3456], [-121.8407, 40.3436], [-121.8392, 40.3433], [-121.8385, 40.3442], [-121.829, 40.3437], [-121.8244, 40.3462], [-121.8196, 40.3504], [-121.8195, 40.3499], [-121.816, 40.3497], [-121.8156, 40.3472]]], [[[-121.9271, 40.3713], [-121.927, 40.3718], [-121.9264, 40.3712], [-121.9271, 40.3712], [-121.9242, 40.3683], [-121.9258, 40.3682], [-121.9271, 40.3702], [-121.9293, 40.3706], [-121.9307, 40.3722], [-121.9298, 40.3729], [-121.9271, 40.3713]]], [[[-121.9315, 40.3735], [-121.9323, 40.3733], [-121.9324, 40.3739], [-121.9315, 40.3735]]], [[[-121.9442, 40.3805], [-121.9421, 40.3784], [-121.9415, 40.3779], [-121.9445, 40.3795], [-121.9442, 40.3805]]]]}, "properties": {"layer": "perimeter"}}, {"type": "Feature", "geometry": {"type": "MultiPolygon", "coordinates": [[[[-121.8156, 40.3472], [-121.8109, 40.3468], [-121.8068, 40.3438], [-121.8007, 40.342], [-121.8004, 40.3409], [-121.7952, 40.3369], [-121.795, 40.336], [-121.7952, 40.3353], [-121.8001, 40.3364], [-121.8027, 40.3359], [-121.805, 40.3341], [-121.8088, 40.3335], [-121.8115, 40.3339], [-121.8114, 40.333], [-121.81, 40.332], [-121.8065, 40.3311], [-121.8039, 40.3334], [-121.8007, 40.3334], [-121.7991, 40.3306], [-121.8002, 40.3279], [-121.8026, 40.3262], [-121.8024, 40.3237], [-121.8011, 40.3226], [-121.8036, 40.3216], [-121.803, 40.3206], [-121.8035, 40.3193], [-121.8042, 40.3195], [-121.804, 40.3183], [-121.8055, 40.3176], [-121.8063, 40.3162], [-121.8084, 40.3166], [-121.8112, 40.3161], [-121.8125, 40.3172], [-121.8135, 40.3165], [-121.8159, 40.3178], [-121.821, 40.3183], [-121.8246, 40.3196], [-121.8283, 40.3197], [-121.8282, 40.3161], [-121.8384, 40.3162], [-121.8385, 40.3133], [-121.8403, 40.3143], [-121.8402, 40.3163], [-121.8412, 40.3175], [-121.8435, 40.317], [-121.8483, 40.3178], [-121.8514, 40.3196], [-121.8517, 40.321], [-121.8572, 40.3205], [-121.859, 40.3218], [-121.8639, 40.3214], [-121.8678, 40.3228], [-121.8683, 40.3248], [-121.8673, 40.3272], [-121.8642, 40.3269], [-121.8638, 40.3289], [-121.8564, 40.3315], [-121.8556, 40.3323], [-121.8524, 40.3316], [-121.8502, 40.3301], [-121.8481, 40.3316], [-121.8462, 40.3311], [-121.8412, 40.3316], [-121.8368, 40.3331], [-121.8341, 40.3356], [-121.83, 40.3359], [-121.8326, 40.3383], [-121.8345, 40.338], [-121.8352, 40.3389], [-121.8377, 40.3392], [-121.8392, 40.3387], [-121.8414, 40.3389], [-121.845, 40.3439], [-121.8499, 40.3438], [-121.8514, 40.3444], [-121.8513, 40.3457], [-121.8475, 40.3468], [-121.8435, 40.3456], [-121.8407, 40.3436], [-121.8392, 40.3433], [-121.8385, 40.3442], [-121.829, 40.3437], [-121.8244, 40.3462], [-121.8196, 40.3504], [-121.8195, 40.3499], [-121.816, 40.3497], [-121.8156, 40.3472]]], [[[-121.8284, 40.3118], [-121.8273, 40.3096], [-121.8333, 40.3101], [-121.8334, 40.3118], [-121.8284, 40.3118]]], [[[-121.8399, 40.3114], [-121.8401, 40.3123], [-121.8385, 40.313], [-121.8385, 40.311], [-121.8399, 40.3114]]], [[[-121.9271, 40.3713], [-121.927, 40.3718], [-121.9264, 40.3712], [-121.9271, 40.3712], [-121.9242, 40.3683], [-121.9258, 40.3682], [-121.9271, 40.3702], [-121.9293, 40.3706], [-121.9307, 40.3722], [-121.9298, 40.3729], [-121.9271, 40.3713]]], [[[-121.9315, 40.3735], [-121.9323, 40.3733], [-121.9324, 40.3739], [-121.9315, 40.3735]]], [[[-121.9442, 40.3805], [-121.9421, 40.3784], [-121.9415, 40.3779], [-121.9445, 40.3795], [-121.9442, 40.3805]]]]}, "properties": {"layer": "retained"}}]}
