{"type": "FeatureCollection", "features": [{"type": "Feature", "geometry": {"type": "MultiPolygon", "coordinates": [[[[-120.0705, 40.0764], [-120.0658, 40.0805], [-120.0665, 40.0814], [-120.0651, 40.0812], [-120.0644, 40.0818], [-120.0641, 40.083], [-120.0651, 40.083], [-120.0634, 40.0843], [-120.0634, 40.0858], [-120.0609, 40.0883], [-120.0598, 40.0906], [-120.0614, 40.0919], [-120.0609, 40.0934], [-120.0635, 40.094], [-120.0649, 40.0964], [-120.0616, 40.0957], [-120.0601, 40.0947], [-120.0576, 40.0959], [-120.0574, 40.0968], [-120.0541, 40.0963], [-120.0515, 40.0968], [-120.0502, 40.0939], [-120.0532, 40.093], [-120.0528, 40.0894], [-120.0518, 40.0896], [-120.0506, 40.0886], [-120.0515, 40.0865], [-120.0507, 40.0865], [-120.0479, 40.083], [-120.0498, 40.0837], [-120.0496, 40.0831], [-120.052, 40.0822], [-120.0524, 40.0832], [-120.0534, 40.0831], [-120.0554, 40.0862], [-120.0596, 40.0846], [-120.0598, 40.0827], [-120.0611, 40.0821], [-120.0625, 40.08], [-120.0609, 40.081], [-120.0612, 40.0804], [-120.0629, 40.0796], [-120.0653, 40.0755], [-120.0683, 40.0734], [-120.0681, 40.0726], [-120.0777, 40.0656], [-120.0773, 40.065], [-120.0764, 40.066], [-120.073, 40.0672], [-120.0753, 40.0659], [-120.0771, 40.0636], [-120.0713, 40.0639], [-120.0753, 40.0626], [-120.0756, 40.0618], [-120.0744, 40.0612], [-120.0761, 40.0609], [-120.0754, 40.0604], [-120.0766, 40.0586], [-120.0783, 40.0589], [-120.0805, 40.0576], [-120.081, 40.0561], [-120.0841, 40.0542], [-120.0862, 40.055], [-120.0934, 40.052], [-120.0944, 40.051], [-120.0977, 40.0512], [-120.0983, 40.0488], [-120.094, 40.0485], [-120.0936, 40.0427], [-120.0959, 40.0405], [-120.0991, 40.0389], [-120.1021, 40.0334], [-120.1017, 40.0292], [-120.1042, 40.0295], [-120.1047, 40.0286], [-120.1074, 40.0313], [-120.1088, 40.0315], [-120.1118, 40.0337], [-120.1127, 40.0379], [-120.1103, 40.0396], [-120.1132, 40.0445], [-120.1124, 40.0486], [-120.1131, 40.0491], [-120.1127, 40.05], [-120.1138, 40.0508], [-120.1136, 40.0526], [-120.1126, 40.0532], [-120.1117, 40.0556], [-120.106, 40.0586], [-120.1064, 40.0603], [-120.0984, 40.0716], [-120.0993, 40.0722], [-120.0993, 40.0747], [-120.0973, 40.0755], [-120.0964, 40.0749], [-120.0948, 40.0757], [-120.0924, 40.0793], [-120.092, 40.0813], [-120.0899, 40.0834], [-120.0854, 40.0819], [-120.0829, 40.082], [-120.0825, 40.0845], [-120.0776, 40.0885], [-120.081, 40.082], [-120.0797, 40.0834], [-120.0802, 40.0815], [-120.0793, 40.0825], [-120.0804, 40.0808], [-120.0799, 40.08], [-120.0777, 40.0816], [-120.0754, 40.085], [-120.0738, 40.0861], [-120.0728, 40.0859], [-120.071, 40.0876], [-120.0722, 40.086], [-120.0713, 40.086], [-120.0716, 40.0851], [-120.0744, 40.0836], [-120.0752, 40.082], [-120.0773, 40.0817], [-120.0809, 40.0776], [-120.0842, 40.077], [-120.0861, 40.0739], [-120.0862, 40.0725], [-120.0882, 40.0708], [-120.0884, 40.0696], [-120.0855, 40.069], [-120.084, 40.0693], [-120.0804, 40.0675], [-120.0743, 40.0691], [-120.0726, 40.0719], [-120.0728, 40.0742], [-120.0714, 40.0746], [-120.0705, 40.0764]]], [[[-120.0664, 40.0899], [-120.0724, 40.0874], [-120.0684, 40.0914], [-120.0693, 40.0928], [-120.067, 40.0932], [-120.0664, 40.0899]]]]}, "properties": {"layer": "perimeter"}}, {"type": "Feature", "geometry": {"type": "Polygon", "coordinates": [[[-120.081, 40.0561], [-120.0841, 40.0542], [-120.0862, 40.055], [-120.0901, 40.0536], [-120.0944, 40.051], [-120.0977, 40.0512], [-120.0983, 40.0488], [-120.094, 40.0485], [-120.0936, 40.0427], [-120.0959, 40.0405], [-120.0991, 40.0389], [-120.1021, 40.0334], [-120.1017, 40.0292], [-120.1042, 40.0295], [-120.1047, 40.0286], [-120.1074, 40.0313], [-120.1088, 40.0315], [-120.1118, 40.0337], [-120.1127, 40.0379], [-120.1103, 40.0396], [-120.1132, 40.0445], [-120.1124, 40.0486], [-120.1131, 40.0491], [-120.1127, 40.05], [-120.1138, 40.0508], [-120.1136, 40.0526], [-120.1126, 40.0532], [-120.1117, 40.0556], [-120.106, 40.0586], [-120.1064, 40.0603], [-120.0984, 40.0716], [-120.0993, 40.0722], [-120.0993, 40.0747], [-120.0973, 40.0755], [-120.0963, 40.075], [-120.0967, 40.0565], [-120.081, 40.0561]]]}, "properties": {"layer": "retained"}}]}
