{"type": "FeatureCollection", "features": [{"type": "Feature", "geometry": {"type": "MultiPolygon", "coordinates": [[[[-122.2589, 41.4114], [-122.2586, 41.4114], [-122.2588, 41.4113], [-122.2589, 41.4114]]], [[[-122.2586, 41.412], [-122.2584, 41.412], [-122.2585, 41.4119], [-122.2586, 41.412]]], [[[-122.2567, 41.4148], [-122.2568, 41.4146], [-122.2568, 41.4148], [-122.2567, 41.4148]]], [[[-122.2561, 41.419], [-122.2557, 41.4188], [-122.2563, 41.4189], [-122.2561, 41.419]]], [[[-122.2534, 41.4233], [-122.2536, 41.4235], [-122.2532, 41.4236], [-122.2534, 41.4233]]], [[[-122.2533, 41.4267], [-122.253, 41.427], [-122.253, 41.4268], [-122.2533, 41.4267]]], [[[-122.3149, 41.4343], [-122.3147, 41.434], [-122.3152, 41.4341], [-122.3149, 41.4343]]], [[[-122.2438, 41.4392], [-122.2441, 41.4388], [-122.2443, 41.4393], [-122.2438, 41.4392]]], [[[-122.2448, 41.4397], [-122.2446, 41.4399], [-122.2445, 41.4397], [-122.2448, 41.4397]]], [[[-122.2412, 41.4402], [-122.241, 41.4402], [-122.2411, 41.44], [-122.2412, 41.4402]]], [[[-122.2388, 41.4432], [-122.2374, 41.4432], [-122.237, 41.4426], [-122.2401, 41.4431], [-122.2397, 41.4439], [-122.2388, 41.4432]]], [[[-122.2379, 41.444], [-122.2384, 41.4433], [-122.2385, 41.444], [-122.2379, 41.444]]], [[[-122.3179, 41.5605], [-122.316, 41.5652], [-122.3144, 41.5658], [-122.3134, 41.5652], [-122.3158, 41.5638], [-122.3165, 41.5611], [-122.3175, 41.5601], [-122.3173, 41.558], [-122.3181, 41.5585], [-122.318, 41.5572], [-122.32, 41.5537], [-122.3193, 41.5518], [-122.3198, 41.5493], [-122.3225, 41.5461], [-122.3217, 41.5408], [-122.3225, 41.541], [-122.3224, 41.5363], [-122.3233, 41.5339], [-122.3223, 41.5311], [-122.3236, 41.5299], [-122.3251, 41.5194], [-122.3246, 41.515], [-122.3208, 41.51], [-122.3202, 41.5071], [-122.3212, 41.5065], [-122.3209, 41.505], [-122.319, 41.5069], [-122.3186, 41.5059], [-122.317, 41.5051], [-122.3135, 41.5043], [-122.3121, 41.5068], [-122.3123, 41.5085], [-122.3134, 41.5097], [-122.3088, 41.5092], [-122.3063, 41.5069], [-122.3067, 41.5057], [-122.3103, 41.5031], [-122.3114, 41.5012], [-122.3101, 41.4997], [-122.3063, 41.4984], [-122.3013, 41.4943], [-122.3005, 41.5177], [-122.3036, 41.5205], [-122.2962, 41.5214], [-122.295, 41.5222], [-122.2949, 41.5227], [-122.3001, 41.5244], [-122.3002, 41.5257], [-122.2972, 41.5287], [-122.2978, 41.5301], [-122.2946, 41.5311], [-122.2943, 41.5301], [-122.2925, 41.5294], [-122.2916, 41.5282], [-122.2913, 41.5288], [-122.2897, 41.5285], [-122.2891, 41.5291], [-122.2874, 41.5271], [-122.2867, 41.5253], [-122.2874, 41.5236], [-122.2892, 41.5222], [-122.2899, 41.5181], [-122.2878, 41.5165], [-122.2884, 41.516], [-122.2876, 41.5123], [-122.2859, 41.5118], [-122.2854, 41.5067], [-122.2819, 41.5044], [-122.2789, 41.5043], [-122.2756, 41.5022], [-122.2753, 41.503], [-122.2733, 41.5028], [-122.2716, 41.5046], [-122.2679, 41.5036], [-122.2706, 41.508], [-122.2661, 41.5103], [-122.2684, 41.513], [-122.2703, 41.5143], [-122.2699, 41.5166], [-122.2695, 41.5165], [-122.2691, 41.5171], [-122.2699, 41.517], [-122.2688, 41.5175], [-122.2688, 41.5203], [-122.2626, 41.523], [-122.2611, 41.5257], [-122.2587, 41.5258], [-122.2576, 41.5252], [-122.2567, 41.5258], [-122.2537, 41.5258], [-122.2522, 41.5252], [-122.2534, 41.5244], [-122.2531, 41.5235], [-122.2515, 41.5233], [-122.2481, 41.5243], [-122.2473, 41.5238], [-122.248, 41.5227], [-122.2449, 41.5226], [-122.2451, 41.521], [-122.2426, 41.5193], [-122.2419, 41.5206], [-122.2409, 41.5208], [-122.2341, 41.5192], [-122.2311, 41.5163], [-122.2307, 41.5149], [-122.2292, 41.5145], [-122.2305, 41.5139], [-122.2283, 41.5139], [-122.228, 41.5133], [-122.2262, 41.5154], [-122.2241, 41.5163], [-122.2223, 41.5147], [-122.224, 41.5131], [-122.2227, 41.5124], [-122.225, 41.5088], [-122.2239, 41.5087], [-122.2244, 41.5073], [-122.2224, 41.5069], [-122.2211, 41.5076], [-122.2171, 41.5067], [-122.2143, 41.505], [-122.2129, 41.5051], [-122.213, 41.5061], [-122.2116, 41.5057], [-122.2091, 41.5011], [-122.2089, 41.4987], [-122.2066, 41.4968], [-122.2075, 41.4951], [-122.2054, 41.4939], [-122.2048, 41.4926], [-122.207, 41.4916], [-122.2051, 41.4894], [-122.2052, 41.4872], [-122.2065, 41.4869], [-122.2049, 41.4858], [-122.206, 41.4855], [-122.2063, 41.4832], [-122.2048, 41.4825], [-122.204, 41.4788], [-122.2053, 41.4777], [-122.2048, 41.4773], [-122.2087, 41.4763], [-122.2092, 41.4752], [-122.2129, 41.4748], [-122.2128, 41.4733], [-122.2139, 41.4719], [-122.216, 41.471], [-122.2148, 41.4702], [-122.2158, 41.4695], [-122.2156, 41.4687], [-122.2165, 41.4696], [-122.2169, 41.4696], [-122.2157, 41.468], [-122.2155, 41.467], [-122.2166, 41.4669], [-122.2158, 41.4667], [-122.2159, 41.4662], [-122.2191, 41.4673], [-122.2204, 41.465], [-122.2211, 41.4652], [-122.222, 41.4643], [-122.2237, 41.4664], [-122.2241, 41.4684], [-122.226, 41.4687], [-122.2268, 41.4679], [-122.2253, 41.4655], [-122.2254, 41.4638], [-122.2269, 41.4633], [-122.2274, 41.4623], [-122.2259, 41.4607], [-122.2261, 41.4594], [-122.2277, 41.4585], [-122.2298, 41.4596], [-122.2283, 41.4579], [-122.2302, 41.4564], [-122.2328, 41.457], [-122.2318, 41.4537], [-122.2303, 41.4534], [-122.2309, 41.4528], [-122.2278, 41.4529], [-122.227, 41.4524], [-122.2279, 41.4522], [-122.2258, 41.451], [-122.2237, 41.452], [-122.223, 41.4519], [-122.2231, 41.4511], [-122.2196, 41.4512], [-122.2174, 41.4487], [-122.2192, 41.4488], [-122.2187, 41.4479], [-122.2196, 41.4472], [-122.2212, 41.4488], [-122.2216, 41.4477], [-122.2231, 41.4489], [-122.223, 41.4483], [-122.2249, 41.4491], [-122.2253, 41.4485], [-122.2233, 41.4473], [-122.2236, 41.4464], [-122.2228, 41.4456], [-122.2241, 41.4443], [-122.2245, 41.4464], [-122.2259, 41.4471], [-122.2252, 41.4475], [-122.2258, 41.4482], [-122.2264, 41.4477], [-122.2278, 41.4481], [-122.2294, 41.4494], [-122.2286, 41.4496], [-122.2324, 41.4522], [-122.2324, 41.4511], [-122.2315, 41.4512], [-122.2304, 41.4496], [-122.231, 41.4477], [-122.2328, 41.4471], [-122.2367, 41.4482], [-122.2367, 41.4472], [-122.2383, 41.447], [-122.2393, 41.4458], [-122.2414, 41.4456], [-122.2403, 41.4439], [-122.2414, 41.4435], [-122.2409, 41.4424], [-122.2401, 41.4428], [-122.239, 41.4421], [-122.2402, 41.4411], [-122.2394, 41.4411], [-122.238, 41.4397], [-122.241, 41.441], [-122.2417, 41.4404], [-122.2424, 41.4416], [-122.2438, 41.4399], [-122.2449, 41.44], [-122.2462, 41.4408], [-122.2463, 41.4424], [-122.2465, 41.4418], [-122.2475, 41.4421], [-122.2473, 41.4411], [-122.2485, 41.4409], [-122.2494, 41.4409], [-122.2504, 41.4421], [-122.2495, 41.4392], [-122.2505, 41.4385], [-122.253, 41.4392], [-122.254, 41.439], [-122.2536, 41.438], [-122.2544, 41.4377], [-122.2548, 41.4385], [-122.2564, 41.4381], [-122.2544, 41.4356], [-122.2565, 41.4359], [-122.2547, 41.4351], [-122.2555, 41.4344], [-122.2515, 41.4329], [-122.2501, 41.4337], [-122.2476, 41.4311], [-122.2482, 41.4297], [-122.2489, 41.4297], [-122.2463, 41.4278], [-122.2464, 41.4267], [-122.2485, 41.4277], [-122.2484, 41.427], [-122.249, 41.4271], [-122.2496, 41.4282], [-122.2527, 41.4274], [-122.2559, 41.4287], [-122.2562, 41.428], [-122.2569, 41.4283], [-122.2554, 41.4271], [-122.2558, 41.4266], [-122.2563, 41.427], [-122.256, 41.4261], [-122.2511, 41.4256], [-122.2519, 41.4248], [-122.2542, 41.4248], [-122.254, 41.4241], [-122.2531, 41.424], [-122.2541, 41.4235], [-122.254, 41.4228], [-122.252, 41.4219], [-122.2551, 41.4219], [-122.2538, 41.4216], [-122.2536, 41.421], [-122.2543, 41.4208], [-122.2538, 41.4207], [-122.2554, 41.42], [-122.255, 41.4191], [-122.2561, 41.4199], [-122.2575, 41.4199], [-122.258, 41.4181], [-122.2572, 41.4176], [-122.2583, 41.4176], [-122.2578, 41.4173], [-122.2585, 41.4168], [-122.258, 41.4163], [-122.2568, 41.417], [-122.2561, 41.4186], [-122.2538, 41.4186], [-122.2531, 41.4178], [-122.2553, 41.4166], [-122.2522, 41.416], [-122.255, 41.415], [-122.2579, 41.4149], [-122.2562, 41.4134], [-122.2581, 41.4131], [-122.2575, 41.4128], [-122.258, 41.412], [-122.2588, 41.4122], [-122.26, 41.4108], [-122.2593, 41.4096], [-122.2599, 41.4091], [-122.2656, 41.4066], [-122.2647, 41.4044], [-122.2671, 41.4036], [-122.2669, 41.4029], [-122.2682, 41.4036], [-122.2701, 41.4021], [-122.272, 41.4025], [-122.2733, 41.4015], [-122.2772, 41.4014], [-122.2777, 41.4026], [-122.2795, 41.4025], [-122.2826, 41.4049], [-122.2814, 41.4066], [-122.2836, 41.4061], [-122.2831, 41.4072], [-122.2853, 41.4075], [-122.2854, 41.4082], [-122.2871, 41.4079], [-122.2878, 41.4086], [-122.2871, 41.4096], [-122.2898, 41.4102], [-122.2907, 41.4112], [-122.2897, 41.4116], [-122.2892, 41.413], [-122.2904, 41.4147], [-122.2896, 41.4167], [-122.291, 41.4193], [-122.2909, 41.4236], [-122.2923, 41.4264], [-122.2918, 41.4277], [-122.2929, 41.4285], [-122.2932, 41.4322], [-122.2964, 41.434], [-122.2994, 41.4317], [-122.3026, 41.4319], [-122.3048, 41.4337], [-122.3057, 41.4384], [-122.3104, 41.4382], [-122.3165, 41.4363], [-122.3193, 41.4369], [-122.318, 41.4379], [-122.3165, 41.4376], [-122.3164, 41.4397], [-122.3155, 41.4405], [-122.3167, 41.4408], [-122.3172, 41.4403], [-122.318, 41.4412], [-122.3176, 41.4429], [-122.3167, 41.4433], [-122.3179, 41.4435], [-122.3189, 41.4448], [-122.3183, 41.4463], [-122.3172, 41.4466], [-122.3152, 41.4458], [-122.3128, 41.4476], [-122.3161, 41.4488], [-122.3198, 41.4481], [-122.3223, 41.4502], [-122.3235, 41.4492], [-122.3246, 41.4496], [-122.3275, 41.4527], [-122.3276, 41.4584], [-122.3282, 41.4577], [-122.3314, 41.4581], [-122.3408, 41.461], [-122.3446, 41.4655], [-122.3446, 41.4683], [-122.3464, 41.4727], [-122.3481, 41.4734], [-122.3486, 41.4755], [-122.3496, 41.476], [-122.3455, 41.4793], [-122.3432, 41.4798], [-122.3435, 41.4812], [-122.3402, 41.485], [-122.3418, 41.499], [-122.3413, 41.5146], [-122.3427, 41.5154], [-122.3419, 41.5194], [-122.3432, 41.5234], [-122.3412, 41.5232], [-122.3418, 41.5245], [-122.3409, 41.5267], [-122.3417, 41.5308], [-122.3461, 41.5308], [-122.3482, 41.5349], [-122.3471, 41.537], [-122.3436, 41.5375], [-122.3425, 41.5385], [-122.3408, 41.5388], [-122.3402, 41.5403], [-122.3408, 41.5411], [-122.3393, 41.5414], [-122.3385, 41.5403], [-122.3381, 41.5419], [-122.3362, 41.5439], [-122.339, 41.5447], [-122.3405, 41.5463], [-122.3401, 41.5476], [-122.3365, 41.548], [-122.3342, 41.5534], [-122.3337, 41.5568], [-122.3344, 41.5577], [-122.3321, 41.5652], [-122.3294, 41.5669], [-122.3211, 41.5801], [-122.3159, 41.5846], [-122.3068, 41.5885], [-122.3044, 41.5882], [-122.3043, 41.5871], [-122.3163, 41.5722], [-122.3148, 41.5713], [-122.3165, 41.5691], [-122.3176, 41.569], [-122.3168, 41.5684], [-122.3184, 41.5652], [-122.3175, 41.5645], [-122.3186, 41.5624], [-122.3179, 41.5605]]], [[[-122.2674, 41.5111], [-122.2671, 41.5113], [-122.2673, 41.511], [-122.2674, 41.5111]]], [[[-122.2695, 41.5178], [-122.2693, 41.5181], [-122.2691, 41.5181], [-122.2695, 41.5178]]], [[[-122.2464, 41.525], [-122.2445, 41.5246], [-122.2454, 41.524], [-122.2464, 41.525]]], [[[-122.2373, 41.4435], [-122.2376, 41.4437], [-122.2374, 41.4437], [-122.2373, 41.4435]]], [[[-122.2377, 41.4441], [-122.2376, 41.4443], [-122.2375, 41.4442], [-122.2377, 41.4441]]], [[[-122.2261, 41.4476], [-122.2268, 41.4473], [-122.2268, 41.4476], [-122.2261, 41.4476]]], [[[-122.2299, 41.4494], [-122.2301, 41.449], [-122.2302, 41.4495], [-122.2299, 41.4494]]], [[[-122.2182, 41.4505], [-122.2183, 41.4507], [-122.2181, 41.4506], [-122.2182, 41.4505]]], [[[-122.2266, 41.452], [-122.2264, 41.4523], [-122.2264, 41.4521], [-122.2266, 41.452]]], [[[-122.2311, 41.4541], [-122.2309, 41.4541], [-122.2311, 41.454], [-122.2311, 41.4541]]], [[[-122.2298, 41.4542], [-122.2294, 41.4543], [-122.2295, 41.4542], [-122.2298, 41.4542]]], [[[-122.2257, 41.4593], [-122.2254, 41.4591], [-122.2257, 41.4591], [-122.2257, 41.4593]]], [[[-122.2137, 41.4678], [-122.2137, 41.4674], [-122.2139, 41.4679], [-122.2137, 41.4678]]], [[[-122.2094, 41.4723], [-122.2106, 41.4721], [-122.2111, 41.4724], [-122.2093, 41.4731], [-122.2094, 41.4723]]], [[[-122.2098, 41.4746], [-122.2085, 41.4745], [-122.2091, 41.4736], [-122.2098, 41.4746]]], [[[-122.206, 41.4752], [-122.2065, 41.4755], [-122.2061, 41.4755], [-122.206, 41.4752]]], [[[-122.2063, 41.4761], [-122.2063, 41.4764], [-122.2061, 41.4763], [-122.2063, 41.4761]]], [[[-122.2052, 41.4764], [-122.2059, 41.4763], [-122.2058, 41.4764], [-122.2052, 41.4764]]]]}, "properties": {"layer": "perimeter"}}, {"type": "Feature", "geometry": {"type": "MultiPolygon", "coordinates": [[[[-122.3149, 41.4343], [-122.3147, 41.434], [-122.3152, 41.4341], [-122.3149, 41.4343]]], [[[-122.316, 41.5652], [-122.3144, 41.5658], [-122.3134, 41.5652], [-122.3158, 41.5638], [-122.3165, 41.5611], [-122.3175, 41.5601], [-122.3173, 41.558], [-122.3181, 41.5585], [-122.318, 41.5572], [-122.32, 41.5537], [-122.3193, 41.5518], [-122.3198, 41.5493], [-122.3225, 41.5461], [-122.3217, 41.5408], [-122.3225, 41.541], [-122.3224, 41.5363], [-122.3233, 41.5339], [-122.3223, 41.5311], [-122.3236, 41.5299], [-122.3241, 41.5267], [-122.336, 41.527], [-122.3359, 41.5233], [-122.3245, 41.5232], [-122.3246, 41.515], [-122.3205, 41.5086], [-122.3326, 41.5085], [-122.3326, 41.5049], [-122.3374, 41.5048], [-122.3374, 41.5011], [-122.3418, 41.5011], [-122.3413, 41.5146], [-122.3427, 41.5154], [-122.3419, 41.5194], [-122.3432, 41.5234], [-122.3412, 41.5232], [-122.3414, 41.5295], [-122.3417, 41.5308], [-122.3461, 41.5308], [-122.3482, 41.5349], [-122.3471, 41.537], [-122.3436, 41.5375], [-122.3425, 41.5385], [-122.3408, 41.5388], [-122.3402, 41.5403], [-122.3408, 41.5411], [-122.3393, 41.5414], [-122.3385, 41.5403], [-122.3381, 41.5419], [-122.3362, 41.5439], [-122.339, 41.5447], [-122.3405, 41.5463], [-122.3401, 41.5476], [-122.3365, 41.548], [-122.3361, 41.5501], [-122.3345, 41.5524], [-122.321, 41.5525], [-122.3212, 41.5674], [-122.3291, 41.5674], [-122.3211, 41.5801], [-122.3159, 41.5846], [-122.3068, 41.5885], [-122.3044, 41.5882], [-122.3043, 41.5871], [-122.3163, 41.5722], [-122.3148, 41.5713], [-122.3165, 41.5691], [-122.3176, 41.569], [-122.3168, 41.5684], [-122.3184, 41.5652], [-122.3175, 41.5645], [-122.3186, 41.5624], [-122.3179, 41.5605], [-122.316, 41.5652]]], [[[-122.3132, 41.4973], [-122.3123, 41.5085], [-122.3079, 41.5084], [-122.3063, 41.5069], [-122.3067, 41.5057], [-122.3103, 41.5031], [-122.3114, 41.5012], [-122.3101, 41.4997], [-122.3063, 41.4984], [-122.3051, 41.4972], [-122.3132, 41.4973]]], [[[-122.3011, 41.5083], [-122.3005, 41.5177], [-122.3021, 41.5191], [-122.302, 41.5206], [-122.2971, 41.5213], [-122.2975, 41.5155], [-122.2882, 41.5154], [-122.2876, 41.5123], [-122.2859, 41.5118], [-122.2858, 41.5079], [-122.3011, 41.5083]]], [[[-122.2838, 41.506], [-122.2819, 41.5044], [-122.2789, 41.5043], [-122.2756, 41.5022], [-122.2753, 41.503], [-122.2733, 41.5028], [-122.2716, 41.5046], [-122.2679, 41.5036], [-122.2706, 41.5079], [-122.2649, 41.508], [-122.2647, 41.5007], [-122.2744, 41.5006], [-122.2743, 41.4935], [-122.2841, 41.4934], [-122.2838, 41.506]]], [[[-122.2632, 41.5228], [-122.2617, 41.5237], [-122.2619, 41.525], [-122.2611, 41.5257], [-122.2583, 41.5257], [-122.2582, 41.5228], [-122.2632, 41.5228]]], [[[-122.3161, 41.4364], [-122.3165, 41.4363], [-122.3174, 41.4364], [-122.3161, 41.4364]]], [[[-122.325, 41.4501], [-122.3275, 41.4527], [-122.3276, 41.4584], [-122.3282, 41.4577], [-122.3314, 41.4581], [-122.3375, 41.4603], [-122.3391, 41.4603], [-122.3408, 41.461], [-122.3441, 41.4647], [-122.3456, 41.4712], [-122.3464, 41.4727], [-122.3481, 41.4734], [-122.3486, 41.4755], [-122.3496, 41.476], [-122.3456, 41.4792], [-122.3423, 41.4792], [-122.3429, 41.4717], [-122.3331, 41.4715], [-122.3331, 41.4645], [-122.3234, 41.4643], [-122.3237, 41.4501], [-122.325, 41.4501]]], [[[-122.3153, 41.4442], [-122.3147, 41.445], [-122.3147, 41.4442], [-122.3153, 41.4442]]], [[[-122.3171, 41.445], [-122.3165, 41.4442], [-122.3171, 41.4441], [-122.3171, 41.445]]], [[[-122.3091, 41.4643], [-122.309, 41.468], [-122.3138, 41.4678], [-122.3137, 41.4712], [-122.3041, 41.4714], [-122.3042, 41.4643], [-122.3091, 41.4643]]], [[[-122.2993, 41.4695], [-122.2992, 41.4786], [-122.2848, 41.4791], [-122.2849, 41.4718], [-122.2894, 41.4717], [-122.2894, 41.4695], [-122.2993, 41.4695]]], [[[-122.2799, 41.4791], [-122.275, 41.4791], [-122.2752, 41.4719], [-122.2801, 41.4718], [-122.2799, 41.4791]]], [[[-122.2598, 41.4864], [-122.2597, 41.4899], [-122.2647, 41.4899], [-122.2646, 41.4935], [-122.2451, 41.4935], [-122.2456, 41.4791], [-122.2553, 41.4791], [-122.2549, 41.4864], [-122.2598, 41.4864]]], [[[-122.2942, 41.4861], [-122.2938, 41.4934], [-122.2841, 41.4934], [-122.2844, 41.4863], [-122.2942, 41.4861]]]]}, "properties": {"layer": "retained"}}, {"type": "Feature", "geometry": {"type": "MultiPolygon", "coordinates": [[[[-122.2596, 41.4885], [-122.2599, 41.4864], [-122.2574, 41.4864], [-122.2581, 41.4867], [-122.2578, 41.4877], [-122.2589, 41.4877], [-122.2596, 41.4885]]], [[[-122.2552, 41.4837], [-122.2554, 41.4791], [-122.25, 41.4795], [-122.2501, 41.4811], [-122.2519, 41.4814], [-122.2522, 41.4824], [-122.253, 41.4824], [-122.2526, 41.483], [-122.2552, 41.4837]]], [[[-122.255, 41.4889], [-122.2549, 41.4859], [-122.2542, 41.4859], [-122.2534, 41.484], [-122.2523, 41.4841], [-122.2512, 41.4825], [-122.2486, 41.4811], [-122.2482, 41.4793], [-122.2457, 41.479], [-122.2455, 41.4842], [-122.2462, 41.4839], [-122.2466, 41.4844], [-122.2462, 41.4855], [-122.2477, 41.4858], [-122.2481, 41.4863], [-122.2488, 41.4863], [-122.2488, 41.4868], [-122.2495, 41.4865], [-122.2495, 41.4876], [-122.2502, 41.4873], [-122.251, 41.4884], [-122.2524, 41.4876], [-122.252, 41.4868], [-122.2531, 41.4865], [-122.2531, 41.487], [-122.2542, 41.487], [-122.255, 41.4889]], [[-122.2488, 41.4857], [-122.2484, 41.486], [-122.2484, 41.4857], [-122.2488, 41.4857]], [[-122.248, 41.4855], [-122.2477, 41.4858], [-122.2477, 41.4855], [-122.248, 41.4855]], [[-122.2473, 41.485], [-122.247, 41.4852], [-122.2469, 41.485], [-122.2473, 41.485]]], [[[-122.2884, 41.4791], [-122.2884, 41.4785], [-122.2869, 41.478], [-122.2873, 41.4788], [-122.2884, 41.4791]]], [[[-122.2912, 41.4788], [-122.2912, 41.4782], [-122.2891, 41.4783], [-122.2895, 41.4788], [-122.2912, 41.4788]]], [[[-122.2909, 41.4779], [-122.2901, 41.4772], [-122.2894, 41.4774], [-122.2894, 41.4777], [-122.2909, 41.4779]]], [[[-122.338, 41.4711], [-122.338, 41.4698], [-122.3358, 41.4693], [-122.3373, 41.4701], [-122.338, 41.4711]]], [[[-122.3354, 41.469], [-122.3354, 41.4679], [-122.334, 41.4677], [-122.334, 41.4688], [-122.3351, 41.4685], [-122.3354, 41.469]]], [[[-122.3299, 41.4632], [-122.3302, 41.4626], [-122.3287, 41.4621], [-122.3284, 41.4627], [-122.3299, 41.4632]]], [[[-122.3359, 41.4617], [-122.3366, 41.4611], [-122.3377, 41.4614], [-122.3387, 41.4606], [-122.3362, 41.4601], [-122.3348, 41.4614], [-122.3359, 41.4617]]], [[[-122.3264, 41.4562], [-122.3267, 41.4543], [-122.3253, 41.4541], [-122.326, 41.4551], [-122.3249, 41.4557], [-122.3264, 41.4562]]], [[[-122.3252, 41.4538], [-122.327, 41.4535], [-122.3249, 41.453], [-122.3252, 41.4538]]]]}, "properties": {"layer": "high_severity"}}, {"type": "Feature", "geometry": {"type": "MultiPolygon", "coordinates": [[[[-122.2513, 41.4868], [-122.2516, 41.486], [-122.2531, 41.4857], [-122.2527, 41.4849], [-122.2505, 41.4838], [-122.2501, 41.4827], [-122.2479, 41.4817], [-122.2475, 41.4804], [-122.2457, 41.4796], [-122.2455, 41.4831], [-122.2469, 41.4833], [-122.2473, 41.4844], [-122.2513, 41.4868]]], [[[-122.2544, 41.4824], [-122.2543, 41.4792], [-122.2518, 41.4792], [-122.2515, 41.4806], [-122.2544, 41.4824]]]]}, "properties": {"layer": "interior"}}, {"type": "Feature", "geometry": {"type": "MultiPolygon", "coordinates": [[[[-122.2513, 41.4868], [-122.2531, 41.4854], [-122.2479, 41.4817], [-122.2472, 41.4804], [-122.2454, 41.4812], [-122.2455, 41.4831], [-122.2469, 41.4833], [-122.2473, 41.4844], [-122.2513, 41.4868]]], [[[-122.2544, 41.4824], [-122.2543, 41.4792], [-122.2518, 41.4792], [-122.2515, 41.4806], [-122.2544, 41.4824]]]]}, "properties": {"layer": "cell", "cell_id": "516_5000", "seed_zone": "516", "elevation_band": "5000–5500 ft"}}, {"type": "Feature", "geometry": {"type": "Polygon", "coordinates": [[[-122.2457, 41.4812], [-122.2472, 41.4801], [-122.2457, 41.4796], [-122.2457, 41.4812]]]}, "properties": {"layer": "cell", "cell_id": "516_5500", "seed_zone": "516", "elevation_band": "5500–6000 ft"}}]}
