{"type": "FeatureCollection", "features": [{"type": "Feature", "geometry": {"type": "MultiPolygon", "coordinates": [[[[-122.6707, 41.8834], [-122.6635, 41.8828], [-122.6537, 41.8807], [-122.6501, 41.8818], [-122.6506, 41.8812], [-122.6497, 41.8812], [-122.6503, 41.8808], [-122.6493, 41.8798], [-122.6493, 41.8785], [-122.6473, 41.8785], [-122.6464, 41.8779], [-122.6475, 41.8756], [-122.6463, 41.875], [-122.6456, 41.8724], [-122.6445, 41.8718], [-122.6446, 41.87], [-122.6426, 41.8666], [-122.6444, 41.8639], [-122.6436, 41.863], [-122.6441, 41.8622], [-122.6455, 41.8617], [-122.6482, 41.8631], [-122.6538, 41.8639], [-122.6551, 41.8653], [-122.659, 41.8641], [-122.6578, 41.8632], [-122.6562, 41.8635], [-122.6524, 41.8592], [-122.6492, 41.8569], [-122.6473, 41.8568], [-122.654, 41.8549], [-122.6567, 41.8555], [-122.6579, 41.8551], [-122.6576, 41.8536], [-122.6557, 41.8521], [-122.655, 41.8528], [-122.6549, 41.852], [-122.6521, 41.8515], [-122.6524, 41.8497], [-122.6545, 41.8499], [-122.6542, 41.8504], [-122.6564, 41.8502], [-122.6623, 41.8478], [-122.6629, 41.8493], [-122.6643, 41.8495], [-122.6667, 41.8485], [-122.6672, 41.8496], [-122.6682, 41.8499], [-122.6691, 41.8493], [-122.6721, 41.8509], [-122.671, 41.8513], [-122.6716, 41.8536], [-122.6749, 41.8566], [-122.6722, 41.8584], [-122.6735, 41.8587], [-122.6748, 41.8605], [-122.6737, 41.8632], [-122.6742, 41.864], [-122.6772, 41.8646], [-122.6789, 41.8673], [-122.6765, 41.8686], [-122.6747, 41.8722], [-122.6754, 41.8751], [-122.6718, 41.8824], [-122.6707, 41.8834]]], [[[-122.6443, 41.8736], [-122.6427, 41.8731], [-122.6433, 41.8723], [-122.6455, 41.8726], [-122.6455, 41.8732], [-122.6443, 41.8736]]]]}, "properties": {"layer": "perimeter"}}, {"type": "Feature", "geometry": {"type": "MultiPolygon", "coordinates": [[[[-122.6707, 41.8834], [-122.6635, 41.8828], [-122.6537, 41.8807], [-122.6501, 41.8818], [-122.6506, 41.8812], [-122.6497, 41.8812], [-122.6503, 41.8808], [-122.6493, 41.8799], [-122.6563, 41.8799], [-122.6578, 41.8728], [-122.6749, 41.8728], [-122.6753, 41.8753], [-122.6718, 41.8824], [-122.6707, 41.8834]]], [[[-122.6457, 41.8728], [-122.6454, 41.8722], [-122.6445, 41.8718], [-122.6446, 41.87], [-122.6426, 41.8666], [-122.6444, 41.8639], [-122.6436, 41.863], [-122.6446, 41.8618], [-122.6482, 41.8631], [-122.6538, 41.8639], [-122.6551, 41.8653], [-122.658, 41.8644], [-122.6578, 41.8728], [-122.6457, 41.8728]]], [[[-122.658, 41.8637], [-122.6562, 41.8635], [-122.6541, 41.8606], [-122.6516, 41.859], [-122.6581, 41.8589], [-122.658, 41.8637]]], [[[-122.6598, 41.849], [-122.6623, 41.8478], [-122.6631, 41.8487], [-122.6626, 41.8491], [-122.6638, 41.8496], [-122.6667, 41.8485], [-122.6672, 41.8496], [-122.6682, 41.8499], [-122.6691, 41.8493], [-122.671, 41.85], [-122.6722, 41.8511], [-122.671, 41.8513], [-122.6716, 41.8536], [-122.6749, 41.8566], [-122.6723, 41.8584], [-122.6736, 41.8587], [-122.6581, 41.8589], [-122.6598, 41.849]]], [[[-122.6427, 41.8728], [-122.6433, 41.8723], [-122.6455, 41.8726], [-122.6451, 41.8728], [-122.6427, 41.8728]]]]}, "properties": {"layer": "retained"}}, {"type": "Feature", "geometry": {"type": "Polygon", "coordinates": [[[-122.6631, 41.8749], [-122.6638, 41.8746], [-122.6631, 41.8746], [-122.6631, 41.8749]]]}, "properties": {"layer": "high_severity"}}]}
