{"type": "FeatureCollection", "features": [{"type": "Feature", "geometry": {"type": "MultiPolygon", "coordinates": [[[[-119.1739, 37.537], [-119.1732, 37.5365], [-119.1735, 37.5361], [-119.1737, 37.5362], [-119.1739, 37.537]]], [[[-119.1674, 37.5551], [-119.1677, 37.5553], [-119.1674, 37.5553], [-119.1674, 37.5551]]], [[[-119.1032, 37.5854], [-119.1031, 37.5869], [-119.1026, 37.5852], [-119.1032, 37.5854]]], [[[-119.1099, 37.5936], [-119.1089, 37.5939], [-119.1086, 37.5922], [-119.1074, 37.5921], [-119.1075, 37.5901], [-119.1049, 37.5841], [-119.1053, 37.5806], [-119.1042, 37.5817], [-119.1018, 37.5797], [-119.1049, 37.5769], [-119.104, 37.5739], [-119.1057, 37.571], [-119.1056, 37.5626], [-119.1105, 37.5563], [-119.1138, 37.5568], [-119.1173, 37.554], [-119.124, 37.5521], [-119.1266, 37.5507], [-119.1294, 37.5502], [-119.1344, 37.5507], [-119.1352, 37.5493], [-119.1371, 37.5492], [-119.1408, 37.547], [-119.1418, 37.5472], [-119.1441, 37.5464], [-119.1456, 37.5477], [-119.1463, 37.5457], [-119.148, 37.5443], [-119.1497, 37.5434], [-119.1528, 37.5437], [-119.158, 37.5393], [-119.1607, 37.5411], [-119.1641, 37.5412], [-119.1674, 37.54], [-119.1685, 37.5409], [-119.1684, 37.5421], [-119.1729, 37.5433], [-119.1749, 37.5447], [-119.1885, 37.5439], [-119.191, 37.5483], [-119.1951, 37.5472], [-119.2026, 37.549], [-119.2031, 37.5508], [-119.2045, 37.5513], [-119.2038, 37.5522], [-119.2044, 37.5541], [-119.2057, 37.5543], [-119.2093, 37.5621], [-119.2132, 37.5674], [-119.2127, 37.5679], [-119.2134, 37.5687], [-119.2115, 37.5715], [-119.2122, 37.5718], [-119.2141, 37.5709], [-119.2155, 37.5714], [-119.2167, 37.5737], [-119.2166, 37.5759], [-119.2192, 37.5788], [-119.2192, 37.5803], [-119.22, 37.5791], [-119.2184, 37.5828], [-119.2194, 37.5833], [-119.2191, 37.584], [-119.2197, 37.5838], [-119.2187, 37.5847], [-119.2188, 37.5856], [-119.22, 37.5862], [-119.2198, 37.5876], [-119.2183, 37.5893], [-119.2195, 37.5899], [-119.2191, 37.5918], [-119.2216, 37.5931], [-119.221, 37.5951], [-119.2224, 37.5969], [-119.2201, 37.6024], [-119.2212, 37.6031], [-119.2205, 37.6036], [-119.221, 37.6065], [-119.2177, 37.6111], [-119.2179, 37.6128], [-119.2167, 37.6146], [-119.2175, 37.6172], [-119.2167, 37.6178], [-119.217, 37.6194], [-119.2166, 37.6199], [-119.2158, 37.6189], [-119.2148, 37.6194], [-119.216, 37.6229], [-119.2155, 37.6236], [-119.2161, 37.6239], [-119.2153, 37.6255], [-119.2161, 37.626], [-119.2161, 37.6271], [-119.2122, 37.6277], [-119.2126, 37.6292], [-119.212, 37.6293], [-119.2128, 37.6297], [-119.2117, 37.6299], [-119.2115, 37.632], [-119.2105, 37.6318], [-119.2111, 37.6346], [-119.2098, 37.6347], [-119.2096, 37.6356], [-119.2078, 37.6351], [-119.2084, 37.6343], [-119.2074, 37.6347], [-119.2075, 37.6338], [-119.2083, 37.6337], [-119.2077, 37.6321], [-119.2064, 37.6326], [-119.2065, 37.6332], [-119.2039, 37.6311], [-119.2024, 37.631], [-119.2011, 37.6264], [-119.1971, 37.6291], [-119.1987, 37.6241], [-119.1969, 37.6229], [-119.2006, 37.6212], [-119.2012, 37.6212], [-119.2021, 37.6226], [-119.2031, 37.6227], [-119.2036, 37.6219], [-119.2036, 37.6213], [-119.2017, 37.6211], [-119.2009, 37.6201], [-119.198, 37.6191], [-119.1993, 37.6168], [-119.1979, 37.6158], [-119.1971, 37.6134], [-119.1975, 37.6131], [-119.1985, 37.6138], [-119.1999, 37.6133], [-119.1991, 37.6128], [-119.2007, 37.6101], [-119.2008, 37.6085], [-119.2034, 37.6077], [-119.2023, 37.6059], [-119.203, 37.6024], [-119.1956, 37.5997], [-119.1991, 37.5925], [-119.1943, 37.5905], [-119.1921, 37.593], [-119.1885, 37.5926], [-119.1831, 37.5941], [-119.1788, 37.5922], [-119.1753, 37.593], [-119.1736, 37.5942], [-119.1716, 37.5989], [-119.1709, 37.5951], [-119.1714, 37.5939], [-119.1696, 37.5912], [-119.1642, 37.5887], [-119.1583, 37.5879], [-119.1568, 37.5863], [-119.1548, 37.5881], [-119.1521, 37.5881], [-119.1516, 37.5891], [-119.1521, 37.5905], [-119.1504, 37.5904], [-119.1414, 37.5963], [-119.1406, 37.598], [-119.1374, 37.5992], [-119.1346, 37.6032], [-119.1321, 37.6034], [-119.128, 37.601], [-119.1203, 37.6018], [-119.1184, 37.5987], [-119.1159, 37.5982], [-119.1145, 37.5934], [-119.1105, 37.5922], [-119.1099, 37.5936]], [[-119.1105, 37.5922], [-119.1105, 37.5922], [-119.1105, 37.5922], [-119.1105, 37.5922]], [[-119.1693, 37.5523], [-119.1644, 37.5432], [-119.1635, 37.5435], [-119.1619, 37.5422], [-119.16, 37.5431], [-119.1596, 37.5458], [-119.1602, 37.5467], [-119.1589, 37.5479], [-119.1595, 37.5495], [-119.1584, 37.5496], [-119.1578, 37.5515], [-119.1567, 37.5519], [-119.1569, 37.5535], [-119.1558, 37.5528], [-119.1551, 37.5534], [-119.1547, 37.5556], [-119.1515, 37.5598], [-119.1518, 37.5609], [-119.1501, 37.5624], [-119.1505, 37.5637], [-119.151, 37.5632], [-119.1544, 37.5638], [-119.1647, 37.5602], [-119.165, 37.5584], [-119.1674, 37.5565], [-119.1693, 37.5523]]], [[[-119.1054, 37.5889], [-119.105, 37.5886], [-119.1053, 37.5883], [-119.1054, 37.5889]]], [[[-119.1042, 37.5926], [-119.1043, 37.5919], [-119.1047, 37.5917], [-119.1048, 37.5923], [-119.1042, 37.5926]]], [[[-119.1664, 37.5936], [-119.1665, 37.5938], [-119.1663, 37.5937], [-119.1664, 37.5936]]]]}, "properties": {"layer": "perimeter"}}]}
