{"type": "FeatureCollection", "features": [{"type": "Feature", "geometry": {"type": "Polygon", "coordinates": [[[-120.0274, 39.8792], [-120.0254, 39.8816], [-120.0223, 39.8836], [-120.0179, 39.886], [-120.0139, 39.8871], [-120.0152, 39.8874], [-120.0151, 39.8882], [-120.0116, 39.8923], [-120.0102, 39.8927], [-120.0073, 39.8916], [-120.0057, 39.8919], [-120.0051, 39.8932], [-119.9974, 39.897], [-119.9961, 39.8984], [-119.9923, 39.8998], [-119.9901, 39.903], [-119.9871, 39.9014], [-119.9879, 39.899], [-119.9856, 39.8994], [-119.9835, 39.8976], [-119.9859, 39.898], [-119.9878, 39.8973], [-119.9878, 39.8959], [-119.9869, 39.8957], [-119.9886, 39.8944], [-119.988, 39.8937], [-119.9864, 39.8941], [-119.9853, 39.8935], [-119.9828, 39.8969], [-119.9818, 39.8958], [-119.9822, 39.8938], [-119.9802, 39.8945], [-119.9773, 39.8919], [-119.9823, 39.8921], [-119.9841, 39.8908], [-119.9871, 39.8916], [-119.9849, 39.8881], [-119.9824, 39.8881], [-119.9803, 39.8853], [-119.9811, 39.8842], [-119.9809, 39.8827], [-119.9793, 39.8819], [-119.976, 39.8839], [-119.9738, 39.884], [-119.9758, 39.8829], [-119.9771, 39.881], [-119.9706, 39.8806], [-119.9694, 39.8794], [-119.9675, 39.8799], [-119.9687, 39.8784], [-119.9669, 39.8765], [-119.9692, 39.8766], [-119.9671, 39.8738], [-119.9632, 39.873], [-119.9647, 39.8718], [-119.9678, 39.8717], [-119.9655, 39.8703], [-119.966, 39.8689], [-119.9664, 39.8684], [-119.9695, 39.8684], [-119.9699, 39.8651], [-119.9742, 39.8628], [-119.9776, 39.8627], [-119.9887, 39.8603], [-119.993, 39.8632], [-119.9934, 39.8739], [-119.9952, 39.8756], [-119.9957, 39.8782], [-119.9974, 39.8797], [-119.9974, 39.881], [-119.9985, 39.8811], [-119.9998, 39.8827], [-120.0008, 39.8814], [-120.0023, 39.8817], [-120.0026, 39.883], [-120.0158, 39.8794], [-120.0241, 39.8786], [-120.0274, 39.8792]]]}, "properties": {"layer": "perimeter"}}, {"type": "Feature", "geometry": {"type": "Polygon", "coordinates": [[[-120.0274, 39.8792], [-120.0248, 39.8821], [-120.0194, 39.8853], [-120.0153, 39.8866], [-120.0152, 39.8813], [-120.0246, 39.8814], [-120.0247, 39.8787], [-120.0274, 39.8792]]]}, "properties": {"layer": "retained"}}]}
