{"type": "FeatureCollection", "features": [{"type": "Feature", "geometry": {"type": "MultiPolygon", "coordinates": [[[[-114.4511, 34.0496], [-114.4452, 34.0569], [-114.4399, 34.0569], [-114.4398, 34.0524], [-114.439, 34.0495], [-114.4365, 34.0457], [-114.4349, 34.0382], [-114.4372, 34.0268], [-114.4397, 34.0207], [-114.4445, 34.0165], [-114.4509, 34.0127], [-114.4561, 34.0118], [-114.4603, 34.0118], [-114.4635, 34.0126], [-114.4656, 34.0118], [-114.469, 34.007], [-114.4665, 33.9976], [-114.4673, 33.9943], [-114.4761, 33.9897], [-114.4778, 33.9861], [-114.4827, 33.9808], [-114.4853, 33.9768], [-114.4934, 33.9709], [-114.5023, 33.9696], [-114.5073, 33.9751], [-114.5025, 33.9801], [-114.4965, 33.985], [-114.4891, 33.9984], [-114.4837, 34.006], [-114.4849, 34.017], [-114.4834, 34.0201], [-114.4842, 34.0225], [-114.4826, 34.0293], [-114.4801, 34.0234], [-114.4774, 34.0222], [-114.4772, 34.0231], [-114.4792, 34.0273], [-114.4756, 34.0317], [-114.4733, 34.0296], [-114.4724, 34.0302], [-114.4739, 34.0331], [-114.4795, 34.0355], [-114.4743, 34.038], [-114.4693, 34.0421], [-114.4642, 34.0448], [-114.4511, 34.0496]]], [[[-114.434, 34.043], [-114.4348, 34.043], [-114.439, 34.0532], [-114.4373, 34.0659], [-114.4339, 34.065], [-114.434, 34.043]]]]}, "properties": {"layer": "perimeter"}}]}
