{"type": "FeatureCollection", "features": [{"type": "Feature", "geometry": {"type": "MultiPolygon", "coordinates": [[[[-123.3479, 41.4941], [-123.3487, 41.4942], [-123.3492, 41.4953], [-123.3479, 41.4953], [-123.3479, 41.4941]]], [[[-123.4265, 41.4932], [-123.4267, 41.4932], [-123.4267, 41.4933], [-123.4265, 41.4932]]], [[[-123.4697, 41.4968], [-123.4683, 41.4971], [-123.4683, 41.4967], [-123.4697, 41.4968]]], [[[-123.3989, 41.5014], [-123.3991, 41.5006], [-123.4, 41.5001], [-123.3998, 41.5012], [-123.3989, 41.5014]]], [[[-123.3925, 41.5059], [-123.3908, 41.5018], [-123.3928, 41.501], [-123.3943, 41.5017], [-123.3939, 41.5022], [-123.3965, 41.5025], [-123.3954, 41.5034], [-123.3964, 41.504], [-123.3944, 41.5062], [-123.3925, 41.5059]]], [[[-123.4775, 41.5026], [-123.476, 41.502], [-123.4768, 41.5019], [-123.4775, 41.5026]]], [[[-123.3774, 41.5067], [-123.3792, 41.5056], [-123.3794, 41.5062], [-123.3774, 41.5067]]], [[[-123.3988, 41.5213], [-123.3981, 41.5214], [-123.3981, 41.521], [-123.3988, 41.5213]]], [[[-123.4632, 41.5012], [-123.4653, 41.5003], [-123.4643, 41.4996], [-123.4653, 41.4985], [-123.4693, 41.4982], [-123.471, 41.5036], [-123.4751, 41.5038], [-123.4806, 41.5066], [-123.4849, 41.5062], [-123.4872, 41.5074], [-123.4875, 41.5069], [-123.4874, 41.5096], [-123.4865, 41.5111], [-123.4882, 41.5111], [-123.4897, 41.5123], [-123.4914, 41.5122], [-123.4912, 41.5137], [-123.4931, 41.5141], [-123.4937, 41.5159], [-123.4921, 41.5166], [-123.4898, 41.5194], [-123.4884, 41.5195], [-123.4894, 41.5206], [-123.4897, 41.5228], [-123.488, 41.5255], [-123.4884, 41.5262], [-123.4867, 41.5272], [-123.4864, 41.5287], [-123.4853, 41.529], [-123.4874, 41.5311], [-123.4906, 41.5321], [-123.4917, 41.5338], [-123.4904, 41.5348], [-123.4896, 41.5388], [-123.491, 41.5411], [-123.4928, 41.541], [-123.4964, 41.5466], [-123.4982, 41.5472], [-123.4985, 41.5493], [-123.4967, 41.5505], [-123.4968, 41.551], [-123.5005, 41.5529], [-123.5011, 41.5556], [-123.5057, 41.5556], [-123.5064, 41.5567], [-123.5039, 41.5578], [-123.5029, 41.5603], [-123.5045, 41.5621], [-123.504, 41.5642], [-123.5018, 41.5672], [-123.5025, 41.5682], [-123.502, 41.5698], [-123.5038, 41.5697], [-123.5041, 41.5703], [-123.5035, 41.5714], [-123.5021, 41.5715], [-123.5012, 41.5731], [-123.5028, 41.5755], [-123.5026, 41.5769], [-123.5003, 41.5766], [-123.4998, 41.5753], [-123.4993, 41.5756], [-123.4972, 41.5761], [-123.4952, 41.5782], [-123.4932, 41.5791], [-123.4838, 41.5794], [-123.4816, 41.5787], [-123.4812, 41.578], [-123.479, 41.5799], [-123.4778, 41.5772], [-123.4769, 41.578], [-123.4777, 41.5796], [-123.4769, 41.5801], [-123.4749, 41.5796], [-123.4741, 41.5782], [-123.4721, 41.5782], [-123.474, 41.5796], [-123.4746, 41.5794], [-123.4745, 41.5799], [-123.4771, 41.5806], [-123.4766, 41.5819], [-123.4748, 41.5824], [-123.4754, 41.583], [-123.4749, 41.5841], [-123.4716, 41.5848], [-123.4695, 41.5845], [-123.4698, 41.5839], [-123.4685, 41.5828], [-123.4643, 41.5821], [-123.4644, 41.5803], [-123.4646, 41.5809], [-123.4662, 41.5806], [-123.4668, 41.5798], [-123.4661, 41.5801], [-123.4658, 41.5794], [-123.4664, 41.5797], [-123.4669, 41.579], [-123.4657, 41.5789], [-123.4634, 41.5771], [-123.463, 41.5775], [-123.4631, 41.5766], [-123.4627, 41.5771], [-123.4623, 41.5762], [-123.4609, 41.5761], [-123.4612, 41.5752], [-123.4608, 41.575], [-123.4598, 41.5759], [-123.46, 41.5751], [-123.4595, 41.5757], [-123.4583, 41.5748], [-123.4569, 41.5758], [-123.4557, 41.575], [-123.4558, 41.5758], [-123.4522, 41.5774], [-123.4521, 41.578], [-123.4503, 41.5774], [-123.4511, 41.5785], [-123.4503, 41.5786], [-123.4504, 41.5793], [-123.4474, 41.5804], [-123.4478, 41.5806], [-123.4469, 41.5814], [-123.4462, 41.5812], [-123.4461, 41.5817], [-123.4489, 41.5822], [-123.4482, 41.5832], [-123.4492, 41.5845], [-123.4505, 41.5847], [-123.4512, 41.5858], [-123.4525, 41.5857], [-123.4521, 41.5873], [-123.4533, 41.5875], [-123.4505, 41.5884], [-123.4521, 41.5885], [-123.4512, 41.5891], [-123.4519, 41.5899], [-123.4523, 41.5887], [-123.4537, 41.5888], [-123.4516, 41.5902], [-123.4518, 41.5907], [-123.4527, 41.5904], [-123.4526, 41.5911], [-123.4541, 41.592], [-123.4551, 41.5955], [-123.4628, 41.5997], [-123.4642, 41.6023], [-123.4651, 41.6022], [-123.4651, 41.6037], [-123.468, 41.6049], [-123.4665, 41.6058], [-123.469, 41.6059], [-123.4701, 41.6038], [-123.4717, 41.6038], [-123.4713, 41.6047], [-123.47, 41.605], [-123.4714, 41.6049], [-123.4719, 41.6056], [-123.4711, 41.606], [-123.4734, 41.6056], [-123.4736, 41.6063], [-123.4747, 41.606], [-123.4758, 41.6072], [-123.4771, 41.607], [-123.4775, 41.6081], [-123.4791, 41.6085], [-123.4792, 41.6097], [-123.4838, 41.6116], [-123.4842, 41.6124], [-123.4831, 41.6135], [-123.4832, 41.615], [-123.48, 41.6136], [-123.48, 41.6145], [-123.481, 41.6145], [-123.4826, 41.6157], [-123.48, 41.6148], [-123.4777, 41.6163], [-123.4795, 41.6176], [-123.4783, 41.6178], [-123.478, 41.6186], [-123.4774, 41.6178], [-123.4766, 41.6186], [-123.4745, 41.6182], [-123.4732, 41.6187], [-123.4718, 41.6168], [-123.4716, 41.6181], [-123.4694, 41.6179], [-123.468, 41.6173], [-123.4688, 41.6169], [-123.4676, 41.6156], [-123.467, 41.6172], [-123.466, 41.6175], [-123.467, 41.6188], [-123.4653, 41.6201], [-123.4644, 41.6242], [-123.4603, 41.6287], [-123.461, 41.6336], [-123.4635, 41.6382], [-123.4636, 41.6458], [-123.4622, 41.6499], [-123.4593, 41.6529], [-123.4546, 41.6562], [-123.4518, 41.6573], [-123.4516, 41.6563], [-123.45, 41.6561], [-123.4503, 41.657], [-123.4454, 41.6594], [-123.444, 41.6577], [-123.4437, 41.6553], [-123.4394, 41.6548], [-123.4369, 41.6559], [-123.4315, 41.656], [-123.4302, 41.6568], [-123.43, 41.6584], [-123.4278, 41.6584], [-123.4269, 41.6579], [-123.4265, 41.6556], [-123.4207, 41.6547], [-123.4198, 41.654], [-123.4208, 41.6531], [-123.4204, 41.6527], [-123.4144, 41.6509], [-123.412, 41.6489], [-123.4114, 41.6467], [-123.4039, 41.6471], [-123.4031, 41.648], [-123.4008, 41.6483], [-123.3972, 41.6499], [-123.3905, 41.6503], [-123.3888, 41.6511], [-123.3886, 41.6506], [-123.3865, 41.6508], [-123.3866, 41.6519], [-123.3851, 41.6517], [-123.3836, 41.6495], [-123.3802, 41.6488], [-123.379, 41.6462], [-123.3772, 41.6464], [-123.3742, 41.6457], [-123.374, 41.6463], [-123.376, 41.6478], [-123.3791, 41.6483], [-123.3784, 41.6505], [-123.3764, 41.6514], [-123.3774, 41.6527], [-123.3769, 41.6556], [-123.3793, 41.6548], [-123.3818, 41.6516], [-123.3826, 41.6518], [-123.3825, 41.6538], [-123.384, 41.6559], [-123.3808, 41.6601], [-123.3813, 41.6606], [-123.3798, 41.6612], [-123.3801, 41.6619], [-123.3815, 41.6617], [-123.3797, 41.665], [-123.3776, 41.6663], [-123.3765, 41.6696], [-123.3742, 41.671], [-123.3747, 41.6724], [-123.3729, 41.6752], [-123.3726, 41.6745], [-123.3709, 41.6754], [-123.3674, 41.6733], [-123.3646, 41.6744], [-123.3618, 41.6747], [-123.3572, 41.6741], [-123.3569, 41.6752], [-123.354, 41.6757], [-123.3521, 41.6745], [-123.355, 41.6721], [-123.3534, 41.6714], [-123.3484, 41.6729], [-123.3469, 41.6745], [-123.3452, 41.6732], [-123.3452, 41.6739], [-123.3442, 41.6743], [-123.3455, 41.6751], [-123.3449, 41.676], [-123.3458, 41.6763], [-123.3456, 41.6773], [-123.3464, 41.6769], [-123.347, 41.6775], [-123.3491, 41.6812], [-123.3539, 41.6849], [-123.3539, 41.6868], [-123.3509, 41.6872], [-123.3496, 41.6867], [-123.3485, 41.6855], [-123.3493, 41.6852], [-123.348, 41.6845], [-123.3447, 41.6844], [-123.3436, 41.6836], [-123.3433, 41.6822], [-123.3424, 41.6816], [-123.3411, 41.6819], [-123.3398, 41.6804], [-123.3383, 41.6818], [-123.3355, 41.6806], [-123.3341, 41.6818], [-123.3293, 41.6831], [-123.3285, 41.6844], [-123.3272, 41.6847], [-123.3255, 41.6842], [-123.325, 41.6833], [-123.3219, 41.6816], [-123.323, 41.6809], [-123.3211, 41.6793], [-123.3211, 41.6786], [-123.3164, 41.6779], [-123.309, 41.6791], [-123.3078, 41.6797], [-123.3065, 41.6818], [-123.3031, 41.6824], [-123.3011, 41.6817], [-123.2985, 41.6821], [-123.2949, 41.6815], [-123.2948, 41.6801], [-123.2915, 41.6788], [-123.2857, 41.6787], [-123.2849, 41.6796], [-123.2856, 41.6797], [-123.2854, 41.6806], [-123.2844, 41.6806], [-123.2846, 41.6801], [-123.2832, 41.6812], [-123.2807, 41.6793], [-123.2788, 41.6805], [-123.2775, 41.6799], [-123.2765, 41.6803], [-123.2751, 41.6792], [-123.2734, 41.6789], [-123.2744, 41.6798], [-123.2722, 41.68], [-123.2737, 41.6809], [-123.273, 41.6814], [-123.2734, 41.6823], [-123.2708, 41.6816], [-123.2701, 41.6834], [-123.2696, 41.6829], [-123.2706, 41.6817], [-123.27, 41.6812], [-123.2693, 41.6832], [-123.2686, 41.683], [-123.2689, 41.6822], [-123.2682, 41.6827], [-123.2677, 41.6846], [-123.2664, 41.6843], [-123.267, 41.6836], [-123.2662, 41.6838], [-123.2655, 41.6858], [-123.2637, 41.6875], [-123.264, 41.6881], [-123.2617, 41.688], [-123.2621, 41.6885], [-123.2607, 41.6884], [-123.2612, 41.6888], [-123.26, 41.6892], [-123.2589, 41.6882], [-123.2578, 41.689], [-123.2583, 41.6893], [-123.2573, 41.6895], [-123.2565, 41.6888], [-123.2549, 41.6889], [-123.2511, 41.6865], [-123.2493, 41.6892], [-123.2466, 41.6887], [-123.2477, 41.69], [-123.2433, 41.6892], [-123.2437, 41.6885], [-123.2455, 41.6882], [-123.2451, 41.6875], [-123.2467, 41.6872], [-123.2466, 41.6839], [-123.2476, 41.6825], [-123.2472, 41.6812], [-123.2517, 41.6801], [-123.2529, 41.6776], [-123.2514, 41.6724], [-123.2515, 41.6675], [-123.2502, 41.6669], [-123.2511, 41.6653], [-123.2489, 41.6637], [-123.2452, 41.6635], [-123.2441, 41.6623], [-123.2417, 41.6626], [-123.2409, 41.6636], [-123.2374, 41.6638], [-123.2364, 41.6644], [-123.2341, 41.6634], [-123.2334, 41.6649], [-123.2312, 41.6644], [-123.2285, 41.665], [-123.2266, 41.6637], [-123.2272, 41.6615], [-123.2291, 41.6609], [-123.2297, 41.6598], [-123.2368, 41.6554], [-123.2353, 41.6547], [-123.2352, 41.6536], [-123.2353, 41.6519], [-123.2371, 41.6493], [-123.2393, 41.6481], [-123.2417, 41.6477], [-123.2506, 41.6485], [-123.2537, 41.648], [-123.2547, 41.6477], [-123.2554, 41.6461], [-123.2562, 41.6461], [-123.2554, 41.6447], [-123.2565, 41.6446], [-123.2592, 41.6418], [-123.258, 41.6408], [-123.2561, 41.6408], [-123.2555, 41.6402], [-123.2554, 41.6381], [-123.2564, 41.6375], [-123.2557, 41.6378], [-123.254, 41.637], [-123.254, 41.6349], [-123.2533, 41.6343], [-123.2536, 41.6313], [-123.2555, 41.63], [-123.2568, 41.6306], [-123.2634, 41.6284], [-123.2633, 41.6261], [-123.2641, 41.6251], [-123.2531, 41.6277], [-123.2537, 41.6253], [-123.2569, 41.6235], [-123.2568, 41.6219], [-123.2648, 41.6202], [-123.2732, 41.6195], [-123.2761, 41.618], [-123.2763, 41.6175], [-123.269, 41.6166], [-123.2705, 41.6157], [-123.2704, 41.6143], [-123.2714, 41.6138], [-123.2709, 41.6133], [-123.2695, 41.6139], [-123.2691, 41.6117], [-123.2711, 41.6103], [-123.2753, 41.6107], [-123.2774, 41.61], [-123.2774, 41.608], [-123.2789, 41.6072], [-123.2782, 41.6057], [-123.2815, 41.6011], [-123.2878, 41.6016], [-123.2897, 41.6012], [-123.2878, 41.6015], [-123.2894, 41.6001], [-123.2879, 41.5995], [-123.2826, 41.601], [-123.2825, 41.5996], [-123.2851, 41.5997], [-123.2853, 41.5988], [-123.2841, 41.5987], [-123.2873, 41.5966], [-123.2879, 41.5966], [-123.2893, 41.5974], [-123.2901, 41.5972], [-123.2906, 41.5988], [-123.2927, 41.5995], [-123.2919, 41.5969], [-123.2929, 41.5955], [-123.29, 41.5943], [-123.2908, 41.593], [-123.2923, 41.5929], [-123.2935, 41.5899], [-123.2921, 41.5873], [-123.293, 41.5865], [-123.2921, 41.5829], [-123.2931, 41.5825], [-123.2928, 41.5812], [-123.2939, 41.5789], [-123.2954, 41.5792], [-123.2966, 41.5783], [-123.2996, 41.5793], [-123.3029, 41.5736], [-123.3026, 41.572], [-123.3019, 41.5717], [-123.3027, 41.5708], [-123.3025, 41.5688], [-123.3011, 41.569], [-123.3, 41.568], [-123.3029, 41.5667], [-123.3013, 41.567], [-123.3014, 41.566], [-123.3032, 41.5659], [-123.3023, 41.5649], [-123.3037, 41.5638], [-123.3024, 41.5636], [-123.3051, 41.5634], [-123.3068, 41.5644], [-123.3093, 41.5641], [-123.3108, 41.5632], [-123.3123, 41.5605], [-123.3141, 41.5603], [-123.3151, 41.5615], [-123.3138, 41.5623], [-123.3151, 41.562], [-123.3153, 41.5628], [-123.3166, 41.5621], [-123.3167, 41.5612], [-123.3158, 41.5609], [-123.3188, 41.5597], [-123.3222, 41.561], [-123.3252, 41.5606], [-123.3274, 41.5614], [-123.3312, 41.5592], [-123.3343, 41.5611], [-123.3315, 41.5651], [-123.3333, 41.5644], [-123.3328, 41.5662], [-123.3364, 41.5662], [-123.3391, 41.5647], [-123.3384, 41.5634], [-123.3408, 41.5604], [-123.3397, 41.5601], [-123.3397, 41.5578], [-123.3369, 41.5582], [-123.3361, 41.5568], [-123.3344, 41.5565], [-123.3333, 41.5545], [-123.33, 41.5554], [-123.3302, 41.5533], [-123.3323, 41.5528], [-123.3304, 41.5469], [-123.3287, 41.5477], [-123.3275, 41.5463], [-123.3271, 41.5443], [-123.3247, 41.545], [-123.3251, 41.544], [-123.3264, 41.5438], [-123.3265, 41.5426], [-123.3256, 41.5432], [-123.3245, 41.5429], [-123.3255, 41.5436], [-123.3248, 41.5436], [-123.3236, 41.5451], [-123.3222, 41.5434], [-123.3204, 41.5429], [-123.3205, 41.5423], [-123.3215, 41.5426], [-123.3218, 41.541], [-123.3229, 41.5406], [-123.3218, 41.5408], [-123.3217, 41.5401], [-123.3225, 41.54], [-123.323, 41.5398], [-123.3237, 41.5391], [-123.3226, 41.5387], [-123.3219, 41.5398], [-123.3205, 41.5398], [-123.3212, 41.5404], [-123.32, 41.5406], [-123.3213, 41.5412], [-123.3186, 41.5412], [-123.3176, 41.5405], [-123.3173, 41.541], [-123.3169, 41.5402], [-123.3162, 41.5404], [-123.3176, 41.538], [-123.3185, 41.539], [-123.3187, 41.5378], [-123.3208, 41.5375], [-123.3209, 41.5352], [-123.3172, 41.5373], [-123.3174, 41.5363], [-123.3164, 41.5365], [-123.3165, 41.536], [-123.3151, 41.5355], [-123.3141, 41.5364], [-123.3131, 41.5362], [-123.3126, 41.5342], [-123.3111, 41.5337], [-123.3115, 41.5355], [-123.3101, 41.5351], [-123.3108, 41.5359], [-123.3103, 41.537], [-123.3096, 41.5371], [-123.3085, 41.5357], [-123.3065, 41.5353], [-123.3043, 41.5335], [-123.3054, 41.5316], [-123.3036, 41.5324], [-123.3043, 41.5318], [-123.3026, 41.5317], [-123.3017, 41.5302], [-123.3007, 41.5307], [-123.3011, 41.5315], [-123.2976, 41.5333], [-123.2971, 41.5324], [-123.2964, 41.533], [-123.2933, 41.5321], [-123.2905, 41.5326], [-123.2856, 41.5284], [-123.2845, 41.5282], [-123.2845, 41.5265], [-123.2828, 41.5273], [-123.2839, 41.5251], [-123.2861, 41.5258], [-123.2867, 41.5242], [-123.2844, 41.5248], [-123.2858, 41.5234], [-123.2829, 41.5246], [-123.2817, 41.5237], [-123.2811, 41.5239], [-123.2811, 41.5245], [-123.2813, 41.524], [-123.2819, 41.5244], [-123.2813, 41.5249], [-123.2794, 41.5245], [-123.2784, 41.5198], [-123.2769, 41.5189], [-123.2777, 41.5142], [-123.281, 41.5107], [-123.2811, 41.5093], [-123.2797, 41.5093], [-123.2801, 41.5072], [-123.2791, 41.5062], [-123.2801, 41.5061], [-123.2781, 41.5046], [-123.271, 41.5045], [-123.2691, 41.5073], [-123.2685, 41.507], [-123.2671, 41.5079], [-123.2646, 41.5079], [-123.2621, 41.5087], [-123.2627, 41.5065], [-123.2604, 41.5072], [-123.2596, 41.5069], [-123.262, 41.5063], [-123.2615, 41.5057], [-123.2597, 41.5058], [-123.261, 41.5051], [-123.261, 41.5042], [-123.2601, 41.505], [-123.2588, 41.5046], [-123.2587, 41.5053], [-123.2575, 41.5057], [-123.2565, 41.504], [-123.255, 41.5055], [-123.256, 41.5053], [-123.2562, 41.506], [-123.2534, 41.5071], [-123.2543, 41.5078], [-123.2538, 41.5086], [-123.253, 41.5085], [-123.2507, 41.5101], [-123.247, 41.5114], [-123.2457, 41.5105], [-123.2463, 41.5087], [-123.2456, 41.5095], [-123.2456, 41.5077], [-123.2442, 41.5067], [-123.2438, 41.5079], [-123.2426, 41.5081], [-123.2409, 41.5071], [-123.2395, 41.5044], [-123.2356, 41.5035], [-123.2354, 41.5026], [-123.233, 41.5025], [-123.232, 41.5014], [-123.2323, 41.5001], [-123.2349, 41.499], [-123.2348, 41.4976], [-123.2336, 41.4983], [-123.2323, 41.4977], [-123.2288, 41.4977], [-123.225, 41.4998], [-123.2214, 41.4992], [-123.2197, 41.4996], [-123.2188, 41.4989], [-123.2171, 41.4995], [-123.2166, 41.4985], [-123.214, 41.5001], [-123.2125, 41.4994], [-123.2128, 41.4986], [-123.2112, 41.4995], [-123.2082, 41.4989], [-123.2085, 41.4984], [-123.2071, 41.4988], [-123.2076, 41.4982], [-123.2052, 41.4972], [-123.2056, 41.4967], [-123.203, 41.4977], [-123.2021, 41.4991], [-123.1999, 41.4993], [-123.1984, 41.5002], [-123.1944, 41.5003], [-123.1868, 41.5054], [-123.1842, 41.5056], [-123.1817, 41.5046], [-123.1828, 41.5036], [-123.1813, 41.5023], [-123.1831, 41.5007], [-123.1808, 41.4996], [-123.18, 41.4979], [-123.1815, 41.4958], [-123.1828, 41.4957], [-123.1814, 41.4938], [-123.1827, 41.4925], [-123.184, 41.4923], [-123.1835, 41.4931], [-123.1846, 41.4937], [-123.1832, 41.495], [-123.1838, 41.4951], [-123.186, 41.4933], [-123.1866, 41.491], [-123.1893, 41.4917], [-123.1905, 41.4927], [-123.1917, 41.4874], [-123.1943, 41.4846], [-123.1958, 41.4844], [-123.1953, 41.4836], [-123.1961, 41.4834], [-123.1963, 41.4824], [-123.2006, 41.4809], [-123.2013, 41.4809], [-123.203, 41.4814], [-123.2018, 41.4811], [-123.2014, 41.4828], [-123.2049, 41.4824], [-123.2063, 41.4813], [-123.2079, 41.4812], [-123.2084, 41.4796], [-123.2099, 41.4796], [-123.2092, 41.4806], [-123.2119, 41.4789], [-123.2112, 41.4786], [-123.2117, 41.4777], [-123.2123, 41.4781], [-123.2119, 41.4767], [-123.2134, 41.4756], [-123.2096, 41.4743], [-123.2087, 41.4728], [-123.2096, 41.471], [-123.2088, 41.4701], [-123.2123, 41.4697], [-123.2136, 41.4707], [-123.2141, 41.4703], [-123.2129, 41.4699], [-123.2144, 41.47], [-123.2156, 41.472], [-123.2173, 41.4722], [-123.2172, 41.4733], [-123.2183, 41.4726], [-123.2191, 41.4733], [-123.2209, 41.4687], [-123.2208, 41.466], [-123.222, 41.4651], [-123.2242, 41.467], [-123.2306, 41.4687], [-123.2326, 41.4684], [-123.2318, 41.4694], [-123.235, 41.4713], [-123.2375, 41.4688], [-123.2364, 41.467], [-123.239, 41.466], [-123.2409, 41.466], [-123.2406, 41.4654], [-123.2431, 41.4645], [-123.243, 41.4629], [-123.2454, 41.4614], [-123.247, 41.4612], [-123.2471, 41.4606], [-123.2478, 41.4615], [-123.2581, 41.4611], [-123.2598, 41.4605], [-123.2603, 41.4569], [-123.2627, 41.4542], [-123.2623, 41.4528], [-123.2655, 41.4542], [-123.2679, 41.4537], [-123.27, 41.4558], [-123.2726, 41.456], [-123.2723, 41.4566], [-123.2812, 41.4591], [-123.2838, 41.4603], [-123.2843, 41.4613], [-123.2898, 41.4634], [-123.2917, 41.462], [-123.2938, 41.4618], [-123.2989, 41.4595], [-123.3048, 41.4547], [-123.3076, 41.4547], [-123.3094, 41.4539], [-123.3107, 41.4515], [-123.3069, 41.4506], [-123.3052, 41.4476], [-123.3036, 41.4467], [-123.3042, 41.4448], [-123.3033, 41.444], [-123.3018, 41.4441], [-123.2999, 41.4425], [-123.2996, 41.443], [-123.2974, 41.443], [-123.2968, 41.4422], [-123.2925, 41.4419], [-123.2921, 41.4411], [-123.2903, 41.4406], [-123.2883, 41.4377], [-123.281, 41.434], [-123.2794, 41.4305], [-123.2814, 41.4257], [-123.2826, 41.4249], [-123.2822, 41.4243], [-123.2836, 41.4215], [-123.2852, 41.4201], [-123.2861, 41.4209], [-123.2865, 41.4197], [-123.2924, 41.4162], [-123.2937, 41.4144], [-123.2974, 41.4149], [-123.3003, 41.4142], [-123.3036, 41.4167], [-123.3035, 41.4175], [-123.3053, 41.4182], [-123.3074, 41.4144], [-123.3116, 41.4139], [-123.314, 41.4147], [-123.3162, 41.4174], [-123.3163, 41.4218], [-123.3188, 41.4238], [-123.3176, 41.4264], [-123.3197, 41.4271], [-123.3221, 41.4263], [-123.3226, 41.4272], [-123.3256, 41.4282], [-123.3307, 41.4223], [-123.3329, 41.4171], [-123.3351, 41.4144], [-123.3375, 41.4135], [-123.3391, 41.4146], [-123.3415, 41.4139], [-123.3439, 41.4116], [-123.3461, 41.4113], [-123.3475, 41.4115], [-123.3487, 41.4131], [-123.3499, 41.4134], [-123.3501, 41.4154], [-123.3512, 41.4148], [-123.3556, 41.4162], [-123.3543, 41.4172], [-123.3521, 41.4176], [-123.3522, 41.4164], [-123.3507, 41.4173], [-123.3516, 41.4191], [-123.3548, 41.4191], [-123.3549, 41.4196], [-123.3521, 41.42], [-123.3544, 41.4213], [-123.3539, 41.4233], [-123.355, 41.4236], [-123.357, 41.4226], [-123.3648, 41.4229], [-123.3652, 41.4224], [-123.3654, 41.4231], [-123.3671, 41.4232], [-123.3704, 41.4249], [-123.3698, 41.4267], [-123.3709, 41.427], [-123.3705, 41.4291], [-123.3718, 41.43], [-123.3701, 41.4322], [-123.3694, 41.4319], [-123.3695, 41.4324], [-123.3686, 41.4326], [-123.3681, 41.4341], [-123.3699, 41.4368], [-123.3671, 41.4371], [-123.3637, 41.4406], [-123.3607, 41.4396], [-123.361, 41.4404], [-123.3591, 41.4401], [-123.3587, 41.4408], [-123.3584, 41.4402], [-123.358, 41.4411], [-123.3588, 41.4417], [-123.358, 41.4438], [-123.3564, 41.4437], [-123.3563, 41.4458], [-123.3589, 41.4482], [-123.358, 41.4493], [-123.3586, 41.4512], [-123.3571, 41.4521], [-123.3583, 41.4534], [-123.3564, 41.4568], [-123.3568, 41.4581], [-123.3559, 41.4582], [-123.3551, 41.4607], [-123.3532, 41.4616], [-123.3538, 41.4622], [-123.3524, 41.4663], [-123.3552, 41.4667], [-123.3558, 41.4681], [-123.3577, 41.4681], [-123.3603, 41.4656], [-123.3633, 41.4655], [-123.3639, 41.4625], [-123.3663, 41.4622], [-123.3691, 41.4639], [-123.3686, 41.4659], [-123.3694, 41.4673], [-123.3723, 41.4678], [-123.3741, 41.4673], [-123.3742, 41.4687], [-123.3745, 41.4688], [-123.3747, 41.4685], [-123.375, 41.4685], [-123.3733, 41.47], [-123.3722, 41.4684], [-123.3705, 41.4687], [-123.3719, 41.47], [-123.3717, 41.4715], [-123.3731, 41.471], [-123.3741, 41.4716], [-123.3727, 41.4739], [-123.3708, 41.4742], [-123.3715, 41.4752], [-123.3649, 41.4773], [-123.3629, 41.477], [-123.3615, 41.4753], [-123.3603, 41.4755], [-123.3599, 41.4744], [-123.3596, 41.4743], [-123.3595, 41.4752], [-123.3588, 41.4755], [-123.3588, 41.4744], [-123.3536, 41.477], [-123.353, 41.478], [-123.3541, 41.4776], [-123.3542, 41.4785], [-123.353, 41.4781], [-123.3511, 41.4804], [-123.3476, 41.4807], [-123.349, 41.4843], [-123.3482, 41.4849], [-123.349, 41.4865], [-123.348, 41.4883], [-123.3486, 41.4914], [-123.3455, 41.4953], [-123.3438, 41.4953], [-123.3456, 41.496], [-123.3456, 41.4969], [-123.3461, 41.4964], [-123.3478, 41.4969], [-123.3466, 41.4985], [-123.3474, 41.4999], [-123.3462, 41.5002], [-123.349, 41.5031], [-123.3464, 41.5031], [-123.3473, 41.504], [-123.3485, 41.5031], [-123.3494, 41.5045], [-123.3484, 41.5039], [-123.3458, 41.5044], [-123.3475, 41.5048], [-123.347, 41.5057], [-123.3478, 41.507], [-123.3472, 41.5077], [-123.3447, 41.5069], [-123.3439, 41.5055], [-123.343, 41.5054], [-123.347, 41.51], [-123.3478, 41.5097], [-123.3472, 41.5093], [-123.3476, 41.5082], [-123.3489, 41.5094], [-123.3502, 41.5092], [-123.3489, 41.5087], [-123.3489, 41.508], [-123.3496, 41.5085], [-123.3503, 41.508], [-123.3509, 41.5091], [-123.3508, 41.5083], [-123.3522, 41.5078], [-123.3531, 41.5086], [-123.3531, 41.5081], [-123.354, 41.5084], [-123.3546, 41.5093], [-123.3534, 41.5093], [-123.3544, 41.5124], [-123.3533, 41.5126], [-123.3548, 41.5134], [-123.3536, 41.5153], [-123.3549, 41.5156], [-123.3547, 41.5163], [-123.3553, 41.5173], [-123.3546, 41.5183], [-123.3541, 41.5175], [-123.3533, 41.5179], [-123.3531, 41.517], [-123.3517, 41.5171], [-123.3517, 41.5177], [-123.3508, 41.5162], [-123.3497, 41.5172], [-123.3507, 41.5176], [-123.3487, 41.518], [-123.3497, 41.5202], [-123.3486, 41.5197], [-123.3472, 41.5207], [-123.3483, 41.5214], [-123.3475, 41.5217], [-123.3481, 41.5235], [-123.3476, 41.5249], [-123.3488, 41.5236], [-123.3504, 41.5239], [-123.3502, 41.5247], [-123.3508, 41.5248], [-123.351, 41.5242], [-123.3518, 41.5246], [-123.3496, 41.5227], [-123.3509, 41.5216], [-123.3523, 41.5218], [-123.3513, 41.5212], [-123.3521, 41.521], [-123.3514, 41.5205], [-123.3517, 41.5193], [-123.3509, 41.5193], [-123.3515, 41.5183], [-123.3539, 41.5198], [-123.3551, 41.518], [-123.3558, 41.5189], [-123.3572, 41.5191], [-123.3563, 41.5187], [-123.3576, 41.5185], [-123.3575, 41.5177], [-123.3569, 41.5179], [-123.3551, 41.5168], [-123.3564, 41.5163], [-123.3571, 41.5172], [-123.3576, 41.5164], [-123.3566, 41.5162], [-123.3577, 41.5161], [-123.358, 41.5145], [-123.3591, 41.5142], [-123.3586, 41.5133], [-123.3592, 41.5131], [-123.3598, 41.5139], [-123.3597, 41.5112], [-123.3606, 41.5108], [-123.3612, 41.5119], [-123.3625, 41.5119], [-123.3622, 41.5143], [-123.3613, 41.5144], [-123.361, 41.5136], [-123.3605, 41.5145], [-123.3615, 41.5146], [-123.3618, 41.5158], [-123.3637, 41.5157], [-123.3645, 41.5165], [-123.365, 41.5151], [-123.3675, 41.5155], [-123.3683, 41.5141], [-123.3691, 41.5153], [-123.3702, 41.5148], [-123.37, 41.5156], [-123.3709, 41.5155], [-123.3714, 41.5146], [-123.3723, 41.515], [-123.3734, 41.5142], [-123.3739, 41.5128], [-123.3722, 41.5099], [-123.373, 41.5089], [-123.3759, 41.5086], [-123.3752, 41.5084], [-123.3757, 41.5076], [-123.3767, 41.5087], [-123.3756, 41.509], [-123.376, 41.5108], [-123.3749, 41.512], [-123.3761, 41.5128], [-123.3754, 41.5135], [-123.376, 41.5147], [-123.3771, 41.5152], [-123.3765, 41.5165], [-123.3781, 41.5173], [-123.3771, 41.5182], [-123.3779, 41.5196], [-123.3789, 41.5197], [-123.3778, 41.5201], [-123.3779, 41.5219], [-123.3789, 41.5222], [-123.3788, 41.523], [-123.38, 41.5224], [-123.3822, 41.523], [-123.3815, 41.5244], [-123.3842, 41.5236], [-123.3833, 41.525], [-123.3838, 41.5254], [-123.382, 41.5257], [-123.3816, 41.5268], [-123.3807, 41.5268], [-123.3822, 41.5273], [-123.3829, 41.5258], [-123.385, 41.5259], [-123.3844, 41.5266], [-123.3858, 41.5265], [-123.3843, 41.5274], [-123.3846, 41.5284], [-123.3865, 41.5287], [-123.3858, 41.5291], [-123.3869, 41.5292], [-123.3875, 41.5309], [-123.3884, 41.5302], [-123.3886, 41.5321], [-123.3913, 41.5324], [-123.3915, 41.5316], [-123.3923, 41.5315], [-123.3921, 41.5303], [-123.3929, 41.5303], [-123.3939, 41.5321], [-123.3959, 41.5326], [-123.3962, 41.5314], [-123.3943, 41.5306], [-123.3951, 41.5304], [-123.3974, 41.5313], [-123.3988, 41.533], [-123.3997, 41.5327], [-123.3987, 41.5327], [-123.3991, 41.5316], [-123.3975, 41.5308], [-123.4, 41.5305], [-123.3973, 41.5287], [-123.3983, 41.5286], [-123.3992, 41.5294], [-123.3988, 41.5287], [-123.4003, 41.5283], [-123.3996, 41.5282], [-123.3997, 41.5272], [-123.3989, 41.5272], [-123.3986, 41.5285], [-123.3969, 41.5269], [-123.3981, 41.5268], [-123.3977, 41.5263], [-123.3987, 41.5252], [-123.3999, 41.5255], [-123.4002, 41.5245], [-123.402, 41.5243], [-123.3999, 41.5236], [-123.4003, 41.5224], [-123.4018, 41.5236], [-123.403, 41.5236], [-123.4022, 41.5217], [-123.4038, 41.5193], [-123.4013, 41.5197], [-123.4003, 41.5211], [-123.3993, 41.5218], [-123.3999, 41.5212], [-123.3982, 41.5201], [-123.3998, 41.5189], [-123.3988, 41.517], [-123.3952, 41.5161], [-123.394, 41.5115], [-123.3931, 41.5116], [-123.3941, 41.5111], [-123.3957, 41.5069], [-123.3992, 41.5018], [-123.403, 41.502], [-123.4039, 41.5005], [-123.402, 41.4972], [-123.4032, 41.4952], [-123.4044, 41.4959], [-123.4037, 41.4969], [-123.4054, 41.4955], [-123.4102, 41.4954], [-123.4121, 41.494], [-123.4126, 41.4947], [-123.4116, 41.495], [-123.4132, 41.4947], [-123.4131, 41.4935], [-123.4148, 41.4944], [-123.4152, 41.4934], [-123.4169, 41.4935], [-123.418, 41.4926], [-123.4201, 41.493], [-123.4199, 41.4942], [-123.4191, 41.4935], [-123.4183, 41.4938], [-123.421, 41.4951], [-123.42, 41.4959], [-123.4212, 41.4962], [-123.4213, 41.4975], [-123.4222, 41.4961], [-123.4212, 41.4959], [-123.4229, 41.4957], [-123.4244, 41.4932], [-123.4258, 41.4937], [-123.426, 41.4931], [-123.4275, 41.4936], [-123.4275, 41.4949], [-123.4267, 41.4953], [-123.4274, 41.4966], [-123.4324, 41.498], [-123.4328, 41.4986], [-123.4331, 41.4975], [-123.4364, 41.4983], [-123.4357, 41.4977], [-123.4368, 41.4974], [-123.4369, 41.4968], [-123.436, 41.4971], [-123.4342, 41.4961], [-123.4345, 41.4956], [-123.4361, 41.4961], [-123.4363, 41.4953], [-123.439, 41.4972], [-123.4379, 41.4985], [-123.4386, 41.5006], [-123.4394, 41.5004], [-123.4399, 41.5011], [-123.4407, 41.5035], [-123.4399, 41.5041], [-123.441, 41.5054], [-123.4407, 41.5059], [-123.4383, 41.5057], [-123.4378, 41.5061], [-123.4409, 41.5065], [-123.4426, 41.5083], [-123.4459, 41.5072], [-123.4454, 41.5064], [-123.4466, 41.5067], [-123.4466, 41.506], [-123.4487, 41.5056], [-123.4495, 41.5043], [-123.4529, 41.5024], [-123.4531, 41.5011], [-123.4551, 41.5016], [-123.4536, 41.5009], [-123.4527, 41.4992], [-123.4541, 41.4992], [-123.454, 41.5], [-123.4549, 41.4997], [-123.456, 41.5009], [-123.458, 41.5003], [-123.4581, 41.5016], [-123.4597, 41.5017], [-123.4599, 41.5022], [-123.4595, 41.5002], [-123.4601, 41.5004], [-123.4602, 41.4998], [-123.4617, 41.4995], [-123.4632, 41.5012]], [[-123.4215, 41.6548], [-123.4215, 41.6548], [-123.4215, 41.6548], [-123.4215, 41.6548]], [[-123.2884, 41.597], [-123.2888, 41.5973], [-123.2884, 41.597], [-123.2884, 41.597]], [[-123.4602, 41.5004], [-123.4602, 41.5003], [-123.4602, 41.5003], [-123.4602, 41.5004]], [[-123.4631, 41.5013], [-123.4631, 41.5013], [-123.4631, 41.5013], [-123.4631, 41.5013]], [[-123.4978, 41.5759], [-123.4978, 41.5759], [-123.4978, 41.5759], [-123.4978, 41.5759]]], [[[-123.3335, 41.56], [-123.3337, 41.5599], [-123.3337, 41.56], [-123.3335, 41.56]]], [[[-123.4776, 41.5813], [-123.4773, 41.5807], [-123.4778, 41.5803], [-123.4786, 41.5811], [-123.4776, 41.5813]]], [[[-123.477, 41.5839], [-123.4763, 41.5838], [-123.4772, 41.5835], [-123.477, 41.5839]]], [[[-123.4781, 41.586], [-123.4759, 41.5851], [-123.4751, 41.5841], [-123.4767, 41.5846], [-123.4781, 41.586]]], [[[-123.4549, 41.5922], [-123.4543, 41.5923], [-123.4544, 41.592], [-123.4549, 41.5922]]], [[[-123.471, 41.6024], [-123.4747, 41.6002], [-123.4744, 41.6018], [-123.4724, 41.6033], [-123.4735, 41.6037], [-123.4733, 41.6041], [-123.4714, 41.6034], [-123.471, 41.6024]]], [[[-123.3199, 41.4261], [-123.321, 41.4258], [-123.3212, 41.426], [-123.3199, 41.4261]]], [[[-123.2974, 41.4431], [-123.2977, 41.4432], [-123.2974, 41.4432], [-123.2974, 41.4431]]], [[[-123.3224, 41.5396], [-123.3224, 41.54], [-123.3221, 41.5398], [-123.3224, 41.5396]]], [[[-123.3021, 41.5657], [-123.3023, 41.5656], [-123.3024, 41.5657], [-123.3021, 41.5657]]], [[[-123.2746, 41.6794], [-123.275, 41.6794], [-123.2749, 41.6795], [-123.2746, 41.6794]]], [[[-123.2857, 41.6811], [-123.2849, 41.6809], [-123.2861, 41.681], [-123.2857, 41.6811]]], [[[-123.3246, 41.6834], [-123.3246, 41.6835], [-123.3244, 41.6834], [-123.3246, 41.6834]]], [[[-123.3216, 41.6837], [-123.3211, 41.6834], [-123.3216, 41.6834], [-123.3216, 41.6837]]], [[[-123.267, 41.6923], [-123.2666, 41.6918], [-123.2684, 41.6909], [-123.2682, 41.6901], [-123.2733, 41.6874], [-123.2724, 41.6868], [-123.2783, 41.6845], [-123.278, 41.6834], [-123.28, 41.6838], [-123.2825, 41.6833], [-123.2825, 41.6822], [-123.2834, 41.682], [-123.283, 41.6819], [-123.2819, 41.6824], [-123.2818, 41.6819], [-123.2832, 41.6813], [-123.2849, 41.6819], [-123.2842, 41.6812], [-123.286, 41.6812], [-123.2853, 41.6818], [-123.2871, 41.6828], [-123.2868, 41.6845], [-123.2902, 41.685], [-123.2901, 41.6857], [-123.2924, 41.6857], [-123.2939, 41.6876], [-123.2922, 41.6878], [-123.2912, 41.687], [-123.2896, 41.6873], [-123.2894, 41.6867], [-123.2887, 41.687], [-123.2863, 41.6859], [-123.2855, 41.6866], [-123.2831, 41.6868], [-123.2814, 41.6881], [-123.2801, 41.688], [-123.2792, 41.689], [-123.278, 41.6884], [-123.2741, 41.6897], [-123.2725, 41.6894], [-123.271, 41.69], [-123.2701, 41.6913], [-123.267, 41.6923]]], [[[-123.2828, 41.6891], [-123.2832, 41.6899], [-123.2823, 41.6905], [-123.2818, 41.6894], [-123.2828, 41.6891]]], [[[-123.2723, 41.6932], [-123.2705, 41.6929], [-123.272, 41.6926], [-123.2717, 41.6922], [-123.2731, 41.6915], [-123.2738, 41.6918], [-123.2734, 41.6913], [-123.2728, 41.6913], [-123.2733, 41.691], [-123.2756, 41.6911], [-123.2772, 41.6896], [-123.2783, 41.6896], [-123.2782, 41.6907], [-123.2796, 41.6903], [-123.2767, 41.6915], [-123.2782, 41.6911], [-123.2776, 41.6922], [-123.2795, 41.6905], [-123.2817, 41.6905], [-123.2817, 41.6931], [-123.2798, 41.6926], [-123.28, 41.6917], [-123.279, 41.6931], [-123.2762, 41.6926], [-123.2761, 41.692], [-123.2751, 41.6925], [-123.2754, 41.6932], [-123.2739, 41.6927], [-123.2732, 41.6934], [-123.2719, 41.6935], [-123.2723, 41.6932]]], [[[-123.2821, 41.6921], [-123.2826, 41.692], [-123.2824, 41.6923], [-123.2821, 41.6921]]], [[[-123.277, 41.6931], [-123.2767, 41.693], [-123.277, 41.693], [-123.277, 41.6931]]], [[[-123.2789, 41.6932], [-123.2786, 41.6932], [-123.2787, 41.6931], [-123.2789, 41.6932]]], [[[-123.2783, 41.6934], [-123.2782, 41.6934], [-123.2782, 41.6933], [-123.2783, 41.6934]]], [[[-123.2393, 41.4658], [-123.2396, 41.4654], [-123.2398, 41.4656], [-123.2393, 41.4658]]], [[[-123.2112, 41.469], [-123.2129, 41.4692], [-123.213, 41.4694], [-123.2116, 41.4695], [-123.2112, 41.469]]], [[[-123.2123, 41.4756], [-123.2126, 41.476], [-123.2122, 41.4759], [-123.2123, 41.4756]]], [[[-123.2596, 41.5053], [-123.2598, 41.5052], [-123.2598, 41.5053], [-123.2596, 41.5053]]], [[[-123.2598, 41.5064], [-123.2597, 41.5065], [-123.2597, 41.5064], [-123.2598, 41.5064]]], [[[-123.259, 41.5067], [-123.259, 41.5066], [-123.2592, 41.5066], [-123.259, 41.5067]]], [[[-123.2535, 41.6349], [-123.2537, 41.6349], [-123.2538, 41.635], [-123.2535, 41.6349]]], [[[-123.2354, 41.6669], [-123.2357, 41.6667], [-123.2357, 41.6669], [-123.2354, 41.6669]]], [[[-123.2425, 41.6713], [-123.2426, 41.6716], [-123.2424, 41.6715], [-123.2425, 41.6713]]], [[[-123.2663, 41.6849], [-123.2661, 41.6848], [-123.2663, 41.6847], [-123.2663, 41.6849]]], [[[-123.2666, 41.6847], [-123.267, 41.6853], [-123.2668, 41.6859], [-123.2661, 41.6857], [-123.2666, 41.6847]]], [[[-123.2446, 41.6879], [-123.2444, 41.6877], [-123.2448, 41.6877], [-123.2446, 41.6879]]], [[[-123.2562, 41.6892], [-123.2561, 41.689], [-123.2563, 41.6891], [-123.2562, 41.6892]]], [[[-123.2738, 41.6933], [-123.2746, 41.6932], [-123.2742, 41.6935], [-123.2738, 41.6933]]], [[[-123.2729, 41.6952], [-123.2734, 41.6952], [-123.2731, 41.6955], [-123.2729, 41.6952]]]]}, "properties": {"layer": "perimeter"}}, {"type": "Feature", "geometry": {"type": "MultiPolygon", "coordinates": [[[[-123.4669, 41.6188], [-123.4665, 41.619], [-123.4664, 41.6191], [-123.4669, 41.6188]]], [[[-123.4477, 41.6581], [-123.4452, 41.6593], [-123.4437, 41.6561], [-123.4452, 41.6569], [-123.4477, 41.6581]]], [[[-123.3489, 41.6804], [-123.351, 41.683], [-123.3501, 41.6834], [-123.3473, 41.6805], [-123.3489, 41.6804]]], [[[-123.4606, 41.6381], [-123.4571, 41.6461], [-123.4582, 41.6467], [-123.457, 41.6474], [-123.4527, 41.6463], [-123.4527, 41.6427], [-123.4548, 41.635], [-123.4584, 41.6345], [-123.4607, 41.6361], [-123.4606, 41.6381]]], [[[-123.3241, 41.6613], [-123.3283, 41.664], [-123.3279, 41.6647], [-123.3213, 41.6626], [-123.316, 41.6592], [-123.317, 41.6587], [-123.3198, 41.6606], [-123.3241, 41.6613]]]]}, "properties": {"layer": "retained"}}, {"type": "Feature", "geometry": {"type": "MultiPolygon", "coordinates": [[[[-123.4445, 41.6589], [-123.4449, 41.6587], [-123.4445, 41.6587], [-123.4445, 41.6589]]], [[[-123.4456, 41.6589], [-123.4474, 41.6578], [-123.4445, 41.657], [-123.4441, 41.6581], [-123.4456, 41.6589]]], [[[-123.4455, 41.6573], [-123.4459, 41.657], [-123.4455, 41.657], [-123.4455, 41.6573]]], [[[-123.4562, 41.6473], [-123.458, 41.6467], [-123.4572, 41.6461], [-123.4575, 41.6451], [-123.4568, 41.6451], [-123.4569, 41.6467], [-123.4562, 41.6467], [-123.4562, 41.6473]]], [[[-123.4575, 41.6448], [-123.4579, 41.6445], [-123.4575, 41.6445], [-123.4575, 41.6448]]], [[[-123.4575, 41.6434], [-123.4582, 41.6437], [-123.4582, 41.6431], [-123.4575, 41.6434]]], [[[-123.4582, 41.6431], [-123.4585, 41.6429], [-123.4582, 41.6429], [-123.4582, 41.6431]]], [[[-123.4571, 41.6432], [-123.4574, 41.6429], [-123.4571, 41.6429], [-123.4571, 41.6432]]], [[[-123.4578, 41.6426], [-123.4589, 41.6423], [-123.4578, 41.6423], [-123.4578, 41.6426]]], [[[-123.4581, 41.6418], [-123.4588, 41.6415], [-123.4581, 41.6415], [-123.4581, 41.6418]]], [[[-123.4588, 41.6415], [-123.4592, 41.6412], [-123.4588, 41.6412], [-123.4588, 41.6415]]], [[[-123.4584, 41.6412], [-123.4588, 41.641], [-123.4584, 41.641], [-123.4584, 41.6412]]], [[[-123.4577, 41.641], [-123.458, 41.6404], [-123.4577, 41.6404], [-123.4577, 41.641]]], [[[-123.4559, 41.6405], [-123.4562, 41.6402], [-123.4559, 41.6402], [-123.4559, 41.6405]]], [[[-123.4587, 41.6401], [-123.4591, 41.6399], [-123.4587, 41.6399], [-123.4587, 41.6401]]], [[[-123.4577, 41.6402], [-123.4584, 41.6399], [-123.4577, 41.6399], [-123.4577, 41.6402]]], [[[-123.4573, 41.6402], [-123.4569, 41.6397], [-123.4562, 41.6399], [-123.4562, 41.6402], [-123.4573, 41.6402]]], [[[-123.4569, 41.6397], [-123.4573, 41.6394], [-123.4569, 41.6394], [-123.4569, 41.6397]]], [[[-123.4598, 41.6393], [-123.4597, 41.6385], [-123.459, 41.6382], [-123.4587, 41.6388], [-123.4598, 41.6393]]], [[[-123.4597, 41.6374], [-123.46, 41.6371], [-123.4597, 41.6371], [-123.4597, 41.6374]]], [[[-123.46, 41.6371], [-123.4607, 41.6368], [-123.46, 41.6369], [-123.46, 41.6371]]], [[[-123.4589, 41.6366], [-123.46, 41.6363], [-123.4589, 41.6364], [-123.4589, 41.6366]]], [[[-123.4596, 41.6361], [-123.46, 41.6358], [-123.4596, 41.6358], [-123.4596, 41.6361]]]]}, "properties": {"layer": "high_severity"}}, {"type": "Feature", "geometry": {"type": "MultiPolygon", "coordinates": [[[[-123.4452, 41.6578], [-123.4456, 41.6576], [-123.4452, 41.6576], [-123.4452, 41.6578]]], [[[-123.4455, 41.6573], [-123.4459, 41.657], [-123.4455, 41.657], [-123.4455, 41.6573]]]]}, "properties": {"layer": "interior"}}, {"type": "Feature", "geometry": {"type": "MultiPolygon", "coordinates": [[[[-123.4452, 41.6578], [-123.4456, 41.6576], [-123.4452, 41.6576], [-123.4452, 41.6578]]], [[[-123.4455, 41.6573], [-123.4459, 41.657], [-123.4455, 41.657], [-123.4455, 41.6573]]]]}, "properties": {"layer": "cell", "cell_id": "301_1000", "seed_zone": "301", "elevation_band": "1000–1500 ft"}}]}
