{"type": "FeatureCollection", "features": [{"type": "Feature", "geometry": {"type": "Polygon", "coordinates": [[[-120.3708, 35.6875], [-120.3682, 35.6906], [-120.3671, 35.6899], [-120.3677, 35.6863], [-120.3704, 35.68], [-120.3689, 35.6802], [-120.3671, 35.6825], [-120.3655, 35.6825], [-120.3661, 35.681], [-120.364, 35.6814], [-120.361, 35.6838], [-120.3593, 35.6828], [-120.3582, 35.6853], [-120.3552, 35.6854], [-120.3507, 35.6813], [-120.3469, 35.6806], [-120.3458, 35.6785], [-120.3494, 35.676], [-120.358, 35.6732], [-120.3599, 35.672], [-120.3597, 35.6706], [-120.3569, 35.6692], [-120.3623, 35.6637], [-120.3661, 35.6631], [-120.3685, 35.6658], [-120.3704, 35.6661], [-120.3708, 35.667], [-120.3739, 35.6677], [-120.3825, 35.6659], [-120.3847, 35.6665], [-120.387, 35.6661], [-120.3924, 35.6675], [-120.3983, 35.6665], [-120.3999, 35.667], [-120.3998, 35.6683], [-120.4014, 35.6689], [-120.4016, 35.67], [-120.3992, 35.6703], [-120.3978, 35.6717], [-120.3942, 35.6735], [-120.386, 35.6805], [-120.3805, 35.6824], [-120.379, 35.6836], [-120.3789, 35.6859], [-120.3757, 35.6865], [-120.3728, 35.688], [-120.371, 35.686], [-120.3708, 35.6875]]]}, "properties": {"layer": "perimeter"}}, {"type": "Feature", "geometry": {"type": "Polygon", "coordinates": [[[-120.3708, 35.6875], [-120.3682, 35.6906], [-120.3671, 35.6899], [-120.3677, 35.6863], [-120.3704, 35.68], [-120.3689, 35.6802], [-120.3671, 35.6825], [-120.3655, 35.6825], [-120.3661, 35.681], [-120.364, 35.6814], [-120.361, 35.6838], [-120.3593, 35.6828], [-120.3582, 35.6853], [-120.3552, 35.6854], [-120.3507, 35.6813], [-120.3469, 35.6806], [-120.3458, 35.6785], [-120.3494, 35.676], [-120.358, 35.6732], [-120.3599, 35.672], [-120.3597, 35.6706], [-120.3569, 35.6692], [-120.3623, 35.6637], [-120.3661, 35.6631], [-120.3685, 35.6658], [-120.3704, 35.6661], [-120.3708, 35.667], [-120.3739, 35.6677], [-120.3825, 35.6659], [-120.3847, 35.6665], [-120.387, 35.6661], [-120.3924, 35.6675], [-120.3983, 35.6665], [-120.3999, 35.667], [-120.3998, 35.6683], [-120.4014, 35.6689], [-120.4016, 35.67], [-120.3992, 35.6703], [-120.3978, 35.6717], [-120.3942, 35.6735], [-120.386, 35.6805], [-120.3805, 35.6824], [-120.379, 35.6836], [-120.3789, 35.6859], [-120.3757, 35.6865], [-120.3728, 35.688], [-120.371, 35.686], [-120.3708, 35.6875]]]}, "properties": {"layer": "retained"}}]}
