{"type": "FeatureCollection", "features": [{"type": "Feature", "geometry": {"type": "Polygon", "coordinates": [[[-123.2285, 38.5164], [-123.2247, 38.5191], [-123.2236, 38.5222], [-123.2199, 38.5223], [-123.2176, 38.5253], [-123.2155, 38.5259], [-123.2115, 38.5257], [-123.2064, 38.522], [-123.2042, 38.5231], [-123.2024, 38.5226], [-123.1991, 38.5191], [-123.2009, 38.5168], [-123.2002, 38.5161], [-123.1981, 38.5155], [-123.1971, 38.5123], [-123.1976, 38.5106], [-123.1969, 38.5097], [-123.1945, 38.5095], [-123.191, 38.5078], [-123.191, 38.5057], [-123.1873, 38.5039], [-123.1807, 38.4954], [-123.1806, 38.4938], [-123.1785, 38.4914], [-123.1784, 38.4893], [-123.1748, 38.4859], [-123.1749, 38.4834], [-123.1765, 38.4841], [-123.1763, 38.4821], [-123.1774, 38.4808], [-123.1817, 38.4828], [-123.1832, 38.4851], [-123.1852, 38.4855], [-123.1951, 38.4907], [-123.1948, 38.4926], [-123.1957, 38.4922], [-123.1966, 38.4928], [-123.1991, 38.4955], [-123.2003, 38.4939], [-123.2028, 38.4946], [-123.2029, 38.4977], [-123.2088, 38.4985], [-123.2076, 38.5014], [-123.2118, 38.5003], [-123.2138, 38.5016], [-123.2161, 38.501], [-123.2185, 38.5018], [-123.22, 38.5041], [-123.2272, 38.5083], [-123.23, 38.5112], [-123.2305, 38.5148], [-123.2284, 38.5145], [-123.2285, 38.5164]]]}, "properties": {"layer": "perimeter"}}, {"type": "Feature", "geometry": {"type": "Polygon", "coordinates": [[[-123.2285, 38.5164], [-123.2247, 38.5191], [-123.2236, 38.5222], [-123.2199, 38.5223], [-123.2176, 38.5253], [-123.2155, 38.5259], [-123.2115, 38.5257], [-123.2064, 38.522], [-123.2042, 38.5231], [-123.2024, 38.5226], [-123.1991, 38.5191], [-123.2009, 38.5168], [-123.2002, 38.5161], [-123.1981, 38.5155], [-123.1971, 38.5123], [-123.1976, 38.5106], [-123.1969, 38.5097], [-123.1945, 38.5095], [-123.191, 38.5078], [-123.191, 38.5057], [-123.1873, 38.5039], [-123.1807, 38.4954], [-123.1806, 38.4938], [-123.1785, 38.4914], [-123.1784, 38.4893], [-123.1748, 38.4859], [-123.1749, 38.4834], [-123.1765, 38.4841], [-123.1763, 38.4821], [-123.1774, 38.4808], [-123.1817, 38.4828], [-123.1832, 38.4851], [-123.1852, 38.4855], [-123.1951, 38.4907], [-123.1948, 38.4926], [-123.1957, 38.4922], [-123.1966, 38.4928], [-123.1991, 38.4955], [-123.2003, 38.4939], [-123.2028, 38.4946], [-123.2029, 38.4977], [-123.2088, 38.4985], [-123.2076, 38.5014], [-123.2118, 38.5003], [-123.2138, 38.5016], [-123.2171, 38.5011], [-123.2185, 38.5018], [-123.22, 38.5041], [-123.2272, 38.5083], [-123.2296, 38.5105], [-123.2308, 38.5141], [-123.2305, 38.5148], [-123.2284, 38.5145], [-123.2285, 38.5164]]]}, "properties": {"layer": "retained"}}, {"type": "Feature", "geometry": {"type": "MultiPolygon", "coordinates": [[[[-123.204, 38.5221], [-123.2043, 38.5218], [-123.204, 38.5218], [-123.204, 38.5221]]], [[[-123.2036, 38.5218], [-123.204, 38.5215], [-123.2036, 38.5215], [-123.2036, 38.5218]]], [[[-123.2029, 38.5213], [-123.2046, 38.521], [-123.2029, 38.5207], [-123.2029, 38.5213]]], [[[-123.2198, 38.5206], [-123.2201, 38.5203], [-123.2198, 38.5203], [-123.2198, 38.5206]]], [[[-123.2201, 38.5203], [-123.2205, 38.52], [-123.2201, 38.52], [-123.2201, 38.5203]]], [[[-123.2198, 38.52], [-123.2201, 38.5197], [-123.2198, 38.5198], [-123.2198, 38.52]]], [[[-123.2137, 38.5151], [-123.2144, 38.5148], [-123.2137, 38.5148], [-123.2137, 38.5151]]], [[[-123.2092, 38.5149], [-123.2096, 38.5152], [-123.2102, 38.5149], [-123.2092, 38.5149]]], [[[-123.2102, 38.5149], [-123.2109, 38.5146], [-123.2102, 38.5146], [-123.2102, 38.5149]]], [[[-123.2154, 38.5147], [-123.2157, 38.5142], [-123.2154, 38.5142], [-123.2154, 38.5147]]], [[[-123.2081, 38.5144], [-123.2085, 38.5141], [-123.2081, 38.5141], [-123.2081, 38.5144]]], [[[-123.2151, 38.5148], [-123.215, 38.5139], [-123.2143, 38.5137], [-123.2144, 38.5145], [-123.2151, 38.5148]]], [[[-123.2137, 38.5148], [-123.2136, 38.5137], [-123.2133, 38.5137], [-123.213, 38.5145], [-123.2137, 38.5148]]], [[[-123.2126, 38.514], [-123.2129, 38.5137], [-123.2126, 38.5137], [-123.2126, 38.514]]], [[[-123.2092, 38.5141], [-123.2095, 38.5138], [-123.2092, 38.5138], [-123.2092, 38.5141]]], [[[-123.2085, 38.5141], [-123.2088, 38.5138], [-123.2085, 38.5138], [-123.2085, 38.5141]]], [[[-123.2161, 38.5139], [-123.216, 38.5134], [-123.2153, 38.5134], [-123.2154, 38.5137], [-123.2161, 38.5139]]], [[[-123.2129, 38.5137], [-123.2133, 38.5134], [-123.2129, 38.5135], [-123.2129, 38.5137]]], [[[-123.206, 38.5136], [-123.2064, 38.5134], [-123.206, 38.5134], [-123.206, 38.5136]]], [[[-123.2168, 38.5142], [-123.2167, 38.5134], [-123.217, 38.5128], [-123.2164, 38.5128], [-123.2161, 38.5139], [-123.2168, 38.5142]]], [[[-123.2184, 38.5122], [-123.2191, 38.5119], [-123.2184, 38.512], [-123.2184, 38.5122]]], [[[-123.2177, 38.5123], [-123.2173, 38.5115], [-123.2163, 38.5115], [-123.2163, 38.512], [-123.2177, 38.5123]]], [[[-123.215, 38.5137], [-123.215, 38.5129], [-123.2153, 38.5129], [-123.2153, 38.5131], [-123.216, 38.5131], [-123.2163, 38.5123], [-123.2153, 38.5115], [-123.215, 38.5123], [-123.2136, 38.5121], [-123.2139, 38.5126], [-123.2129, 38.5129], [-123.215, 38.5137]], [[-123.2157, 38.5126], [-123.2153, 38.5129], [-123.2153, 38.5126], [-123.2157, 38.5126]]], [[[-123.2029, 38.5121], [-123.2032, 38.5118], [-123.2029, 38.5118], [-123.2029, 38.5121]]], [[[-123.2156, 38.5115], [-123.2163, 38.5112], [-123.2156, 38.5112], [-123.2156, 38.5115]]], [[[-123.2153, 38.5112], [-123.2156, 38.511], [-123.2152, 38.511], [-123.2153, 38.5112]]], [[[-123.2025, 38.5118], [-123.2028, 38.511], [-123.2025, 38.511], [-123.2025, 38.5118]]], [[[-123.2163, 38.5112], [-123.2166, 38.5107], [-123.2163, 38.5107], [-123.2163, 38.5112]]], [[[-123.2004, 38.5114], [-123.2008, 38.5111], [-123.2004, 38.5111], [-123.2004, 38.5114]]], [[[-123.2169, 38.5104], [-123.2173, 38.5101], [-123.2169, 38.5101], [-123.2169, 38.5104]]], [[[-123.2169, 38.5098], [-123.2172, 38.5096], [-123.2169, 38.5096], [-123.2169, 38.5098]]], [[[-123.2022, 38.5121], [-123.2018, 38.5111], [-123.2025, 38.5105], [-123.2004, 38.5097], [-123.2004, 38.5108], [-123.2015, 38.5111], [-123.2011, 38.5119], [-123.2022, 38.5121]]], [[[-123.2179, 38.5095], [-123.2183, 38.5093], [-123.2179, 38.5093], [-123.2179, 38.5095]]], [[[-123.2172, 38.5096], [-123.2176, 38.5093], [-123.2172, 38.5093], [-123.2172, 38.5096]]], [[[-123.2035, 38.5113], [-123.2049, 38.5107], [-123.2049, 38.5102], [-123.2028, 38.5094], [-123.2035, 38.5113]], [[-123.2045, 38.5104], [-123.2039, 38.5107], [-123.2038, 38.5105], [-123.2045, 38.5104]]], [[[-123.2176, 38.5093], [-123.2179, 38.5087], [-123.2176, 38.5087], [-123.2176, 38.5093]]], [[[-123.2024, 38.5089], [-123.2028, 38.5091], [-123.2034, 38.5089], [-123.2024, 38.5089]]], [[[-123.2041, 38.5088], [-123.2045, 38.5086], [-123.2041, 38.5086], [-123.2041, 38.5088]]], [[[-123.2006, 38.5073], [-123.2009, 38.507], [-123.2006, 38.507], [-123.2006, 38.5073]]], [[[-123.2003, 38.507], [-123.2006, 38.5068], [-123.2002, 38.5068], [-123.2003, 38.507]]], [[[-123.1985, 38.5068], [-123.1989, 38.5065], [-123.1985, 38.5066], [-123.1985, 38.5068]]], [[[-123.2009, 38.5065], [-123.2012, 38.5062], [-123.2009, 38.5062], [-123.2009, 38.5065]]], [[[-123.2016, 38.5065], [-123.2023, 38.5059], [-123.2016, 38.5059], [-123.2016, 38.5065]]], [[[-123.2071, 38.5061], [-123.2074, 38.5058], [-123.2071, 38.5058], [-123.2071, 38.5061]]], [[[-123.1996, 38.5079], [-123.1999, 38.5062], [-123.2005, 38.506], [-123.1992, 38.506], [-123.1996, 38.5068], [-123.1989, 38.5074], [-123.1996, 38.5079]]], [[[-123.2047, 38.5058], [-123.205, 38.5056], [-123.2047, 38.5056], [-123.2047, 38.5058]]], [[[-123.2091, 38.5055], [-123.2095, 38.5052], [-123.2091, 38.5052], [-123.2091, 38.5055]]], [[[-123.2064, 38.5055], [-123.2067, 38.505], [-123.2064, 38.505], [-123.2064, 38.5055]]], [[[-123.2067, 38.505], [-123.2074, 38.5047], [-123.2067, 38.5047], [-123.2067, 38.505]]], [[[-123.1974, 38.505], [-123.1984, 38.5049], [-123.1974, 38.5044], [-123.1974, 38.505]]], [[[-123.2036, 38.5045], [-123.2039, 38.5042], [-123.2036, 38.5043], [-123.2036, 38.5045]]], [[[-123.208, 38.5039], [-123.2097, 38.5033], [-123.2097, 38.5022], [-123.209, 38.503], [-123.208, 38.5031], [-123.208, 38.5039]]], [[[-123.1952, 38.5023], [-123.1956, 38.502], [-123.1952, 38.502], [-123.1952, 38.5023]]], [[[-123.2011, 38.5019], [-123.2014, 38.5016], [-123.2011, 38.5016], [-123.2011, 38.5019]]], [[[-123.1924, 38.5016], [-123.1928, 38.5013], [-123.1924, 38.5013], [-123.1924, 38.5016]]], [[[-123.2048, 38.501], [-123.2051, 38.5007], [-123.2048, 38.5007], [-123.2048, 38.501]]], [[[-123.1935, 38.5013], [-123.1938, 38.501], [-123.1934, 38.501], [-123.1935, 38.5013]]], [[[-123.1928, 38.5013], [-123.1931, 38.501], [-123.1928, 38.501], [-123.1928, 38.5013]]], [[[-123.1934, 38.5007], [-123.1938, 38.5005], [-123.1934, 38.5005], [-123.1934, 38.5007]]], [[[-123.206, 38.5131], [-123.206, 38.5126], [-123.2081, 38.5128], [-123.2087, 38.5122], [-123.2077, 38.5109], [-123.206, 38.5115], [-123.2072, 38.5087], [-123.2079, 38.5087], [-123.2076, 38.5104], [-123.209, 38.5109], [-123.2087, 38.5117], [-123.2104, 38.5116], [-123.2104, 38.5108], [-123.2118, 38.5105], [-123.2117, 38.5094], [-123.2131, 38.5105], [-123.2128, 38.5097], [-123.2138, 38.5091], [-123.2137, 38.508], [-123.211, 38.5078], [-123.2109, 38.507], [-123.2123, 38.507], [-123.2112, 38.5051], [-123.2102, 38.5054], [-123.2109, 38.506], [-123.2085, 38.5055], [-123.2078, 38.5068], [-123.2064, 38.5066], [-123.2057, 38.5058], [-123.206, 38.5047], [-123.2074, 38.5044], [-123.2078, 38.5058], [-123.2081, 38.5052], [-123.2091, 38.5052], [-123.2091, 38.5041], [-123.2081, 38.5041], [-123.208, 38.5039], [-123.2074, 38.5039], [-123.2073, 38.5033], [-123.2067, 38.5036], [-123.2066, 38.5031], [-123.2056, 38.5042], [-123.2039, 38.5037], [-123.2043, 38.5045], [-123.2033, 38.5048], [-123.2029, 38.5035], [-123.2035, 38.5034], [-123.2042, 38.5021], [-123.2041, 38.5005], [-123.2014, 38.5008], [-123.2021, 38.5029], [-123.2008, 38.5043], [-123.2008, 38.5035], [-123.1997, 38.5027], [-123.199, 38.503], [-123.199, 38.5011], [-123.2003, 38.5011], [-123.2004, 38.5016], [-123.201, 38.5011], [-123.1996, 38.5006], [-123.1992, 38.4998], [-123.1979, 38.5001], [-123.1975, 38.4996], [-123.1976, 38.5004], [-123.1965, 38.5004], [-123.1969, 38.5009], [-123.1979, 38.5006], [-123.1976, 38.5017], [-123.1962, 38.5012], [-123.1967, 38.5039], [-123.1973, 38.5033], [-123.1994, 38.5036], [-123.1991, 38.5041], [-123.1984, 38.5039], [-123.1988, 38.5049], [-123.1985, 38.5057], [-123.1995, 38.5046], [-123.1995, 38.5052], [-123.2002, 38.5049], [-123.2026, 38.5059], [-123.2026, 38.5067], [-123.2013, 38.5067], [-123.2013, 38.5076], [-123.2023, 38.5073], [-123.2024, 38.5081], [-123.2027, 38.5086], [-123.2034, 38.508], [-123.2034, 38.5089], [-123.2038, 38.5083], [-123.2048, 38.5083], [-123.2045, 38.5099], [-123.2052, 38.5099], [-123.2056, 38.5101], [-123.2056, 38.5112], [-123.2049, 38.5118], [-123.2042, 38.5113], [-123.2039, 38.5123], [-123.205, 38.5123], [-123.205, 38.5126], [-123.2053, 38.5126], [-123.206, 38.5131]], [[-123.2056, 38.5123], [-123.2053, 38.5126], [-123.2053, 38.5123], [-123.2056, 38.5123]], [[-123.2074, 38.512], [-123.207, 38.5123], [-123.207, 38.512], [-123.2074, 38.512]], [[-123.206, 38.5118], [-123.2056, 38.512], [-123.2056, 38.5118], [-123.206, 38.5118]], [[-123.2053, 38.5118], [-123.2049, 38.5121], [-123.2049, 38.5118], [-123.2053, 38.5118]], [[-123.2046, 38.5118], [-123.2043, 38.5121], [-123.2042, 38.5118], [-123.2046, 38.5118]], [[-123.21, 38.5103], [-123.2097, 38.5108], [-123.2097, 38.5103], [-123.21, 38.5103]], [[-123.2086, 38.5095], [-123.2083, 38.5101], [-123.2079, 38.5095], [-123.2086, 38.5095]], [[-123.2062, 38.5099], [-123.2059, 38.5101], [-123.2059, 38.5099], [-123.2062, 38.5099]], [[-123.2055, 38.5096], [-123.2052, 38.5099], [-123.2052, 38.5096], [-123.2055, 38.5096]], [[-123.2065, 38.509], [-123.2059, 38.5096], [-123.2059, 38.5091], [-123.2065, 38.509]], [[-123.2131, 38.5086], [-123.2127, 38.5089], [-123.2127, 38.5086], [-123.2131, 38.5086]], [[-123.2093, 38.5084], [-123.2089, 38.509], [-123.2089, 38.5084], [-123.2093, 38.5084]], [[-123.2058, 38.5088], [-123.2055, 38.5091], [-123.2055, 38.5088], [-123.2058, 38.5088]], [[-123.2072, 38.5085], [-123.2069, 38.5088], [-123.2069, 38.5085], [-123.2072, 38.5085]], [[-123.2082, 38.5082], [-123.2079, 38.5085], [-123.2079, 38.5082], [-123.2082, 38.5082]], [[-123.2079, 38.5079], [-123.2075, 38.5082], [-123.2075, 38.5079], [-123.2079, 38.5079]], [[-123.2068, 38.5082], [-123.2065, 38.5074], [-123.2075, 38.5069], [-123.2075, 38.5077], [-123.2068, 38.5082]], [[-123.2055, 38.508], [-123.2051, 38.5083], [-123.2051, 38.508], [-123.2055, 38.508]], [[-123.2099, 38.5076], [-123.2092, 38.5079], [-123.2092, 38.5076], [-123.2099, 38.5076]], [[-123.2089, 38.5079], [-123.2079, 38.5079], [-123.2079, 38.5077], [-123.2089, 38.5074], [-123.2089, 38.5079]], [[-123.2044, 38.508], [-123.2037, 38.508], [-123.2037, 38.5075], [-123.2027, 38.5078], [-123.203, 38.5067], [-123.2037, 38.5072], [-123.204, 38.5064], [-123.205, 38.5064], [-123.204, 38.5072], [-123.2044, 38.508]], [[-123.2058, 38.5077], [-123.2054, 38.5072], [-123.2064, 38.5069], [-123.2065, 38.5071], [-123.2058, 38.5077]], [[-123.2051, 38.5075], [-123.2048, 38.5077], [-123.2047, 38.5075], [-123.2051, 38.5075]], [[-123.2082, 38.5071], [-123.2078, 38.5074], [-123.2078, 38.5071], [-123.2082, 38.5071]], [[-123.2047, 38.5072], [-123.2044, 38.5075], [-123.2044, 38.5072], [-123.2047, 38.5072]], [[-123.2054, 38.5069], [-123.2051, 38.5072], [-123.2051, 38.5069], [-123.2054, 38.5069]], [[-123.205, 38.5061], [-123.2047, 38.5061], [-123.2047, 38.5058], [-123.2043, 38.5059], [-123.2047, 38.5053], [-123.2054, 38.5056], [-123.205, 38.5061]], [[-123.2043, 38.505], [-123.204, 38.5053], [-123.204, 38.5051], [-123.2043, 38.505]], [[-123.206, 38.5045], [-123.2057, 38.5047], [-123.2057, 38.5045], [-123.206, 38.5045]], [[-123.2025, 38.5043], [-123.2012, 38.5049], [-123.2012, 38.5043], [-123.2025, 38.5043]], [[-123.2081, 38.5041], [-123.2077, 38.5044], [-123.2077, 38.5041], [-123.2081, 38.5041]], [[-123.2067, 38.5042], [-123.2063, 38.5045], [-123.2063, 38.5042], [-123.2067, 38.5042]], [[-123.2005, 38.5038], [-123.1998, 38.5044], [-123.1998, 38.5041], [-123.2005, 38.5038]], [[-123.1994, 38.5041], [-123.1991, 38.5044], [-123.1991, 38.5041], [-123.1994, 38.5041]], [[-123.1997, 38.5033], [-123.1994, 38.5036], [-123.1994, 38.5033], [-123.1997, 38.5033]], [[-123.198, 38.5031], [-123.1973, 38.5031], [-123.1976, 38.5017], [-123.1983, 38.5017], [-123.198, 38.5031]], [[-123.2028, 38.5024], [-123.2025, 38.5027], [-123.2025, 38.5024], [-123.2028, 38.5024]]], [[[-123.1969, 38.5001], [-123.1972, 38.4996], [-123.1968, 38.4996], [-123.1969, 38.5001]]], [[[-123.203, 38.4997], [-123.203, 38.4991], [-123.202, 38.4989], [-123.202, 38.4997], [-123.203, 38.4997]]], [[[-123.2003, 38.5], [-123.2002, 38.4989], [-123.2016, 38.4992], [-123.2013, 38.4984], [-123.1999, 38.4984], [-123.1996, 38.5], [-123.2003, 38.5]]], [[[-123.1965, 38.5004], [-123.1965, 38.4993], [-123.1985, 38.4979], [-123.1981, 38.4974], [-123.1971, 38.4974], [-123.1968, 38.4988], [-123.1958, 38.4993], [-123.1958, 38.5004], [-123.1965, 38.5004]]], [[[-123.1985, 38.4976], [-123.1988, 38.4974], [-123.1985, 38.4974], [-123.1985, 38.4976]]], [[[-123.1923, 38.4978], [-123.1926, 38.4975], [-123.1923, 38.4975], [-123.1923, 38.4978]]], [[[-123.1964, 38.4972], [-123.1967, 38.4969], [-123.1964, 38.4969], [-123.1964, 38.4972]]], [[[-123.1944, 38.4999], [-123.1964, 38.4977], [-123.1957, 38.4969], [-123.1964, 38.4966], [-123.1971, 38.4969], [-123.197, 38.4963], [-123.195, 38.4961], [-123.1946, 38.495], [-123.1939, 38.4961], [-123.1929, 38.4959], [-123.1932, 38.4953], [-123.1922, 38.4954], [-123.1905, 38.497], [-123.1905, 38.4973], [-123.1922, 38.497], [-123.1933, 38.498], [-123.193, 38.4989], [-123.194, 38.4988], [-123.1944, 38.4999]], [[-123.1951, 38.4985], [-123.1947, 38.4988], [-123.1947, 38.4985], [-123.1951, 38.4985]], [[-123.1944, 38.4986], [-123.1933, 38.498], [-123.1933, 38.4972], [-123.194, 38.4972], [-123.1936, 38.4978], [-123.1954, 38.4975], [-123.1944, 38.4986]], [[-123.1954, 38.498], [-123.195, 38.4983], [-123.195, 38.498], [-123.1954, 38.498]], [[-123.1946, 38.4967], [-123.1943, 38.4969], [-123.1943, 38.4967], [-123.1946, 38.4967]], [[-123.1915, 38.4965], [-123.1912, 38.497], [-123.1912, 38.4965], [-123.1915, 38.4965]], [[-123.1939, 38.4964], [-123.1936, 38.4967], [-123.1936, 38.4964], [-123.1939, 38.4964]], [[-123.1922, 38.4959], [-123.1919, 38.4965], [-123.1918, 38.4959], [-123.1922, 38.4959]]], [[[-123.1908, 38.4962], [-123.1911, 38.4951], [-123.1901, 38.4952], [-123.1898, 38.496], [-123.1908, 38.4962]]], [[[-123.1935, 38.4951], [-123.1945, 38.4945], [-123.1932, 38.4945], [-123.1935, 38.4951]]], [[[-123.1918, 38.4948], [-123.1921, 38.4946], [-123.1918, 38.4946], [-123.1918, 38.4948]]], [[[-123.1918, 38.4943], [-123.1921, 38.494], [-123.1918, 38.494], [-123.1918, 38.4943]]], [[[-123.1918, 38.4938], [-123.1921, 38.4935], [-123.1917, 38.4935], [-123.1918, 38.4938]]], [[[-123.1921, 38.4935], [-123.1924, 38.4929], [-123.1921, 38.4929], [-123.1921, 38.4935]]], [[[-123.1842, 38.4937], [-123.1848, 38.4931], [-123.1845, 38.4931], [-123.1842, 38.4937]]], [[[-123.1866, 38.4939], [-123.1869, 38.4931], [-123.1859, 38.4931], [-123.1855, 38.4937], [-123.1866, 38.4939]]], [[[-123.1887, 38.4949], [-123.1911, 38.4949], [-123.1918, 38.4938], [-123.1896, 38.4925], [-123.1876, 38.4925], [-123.1887, 38.4949]], [[-123.1911, 38.4941], [-123.1904, 38.4943], [-123.1904, 38.4941], [-123.1911, 38.4941]], [[-123.1907, 38.4935], [-123.19, 38.4941], [-123.19, 38.4935], [-123.1907, 38.4935]], [[-123.1897, 38.493], [-123.1893, 38.4933], [-123.1893, 38.493], [-123.1897, 38.493]]], [[[-123.1924, 38.4924], [-123.1927, 38.4921], [-123.1924, 38.4921], [-123.1924, 38.4924]]], [[[-123.1827, 38.4924], [-123.1831, 38.4921], [-123.1827, 38.4921], [-123.1827, 38.4924]]], [[[-123.1841, 38.4921], [-123.1844, 38.4918], [-123.1841, 38.4918], [-123.1841, 38.4921]]], [[[-123.1834, 38.4918], [-123.1841, 38.4915], [-123.1834, 38.4916], [-123.1834, 38.4918]]], [[[-123.1816, 38.4911], [-123.182, 38.4908], [-123.1816, 38.4908], [-123.1816, 38.4911]]], [[[-123.182, 38.4908], [-123.1823, 38.4905], [-123.182, 38.4905], [-123.182, 38.4908]]], [[[-123.1916, 38.4895], [-123.1919, 38.4892], [-123.1916, 38.4892], [-123.1916, 38.4895]]], [[[-123.1798, 38.4892], [-123.1802, 38.4889], [-123.1798, 38.489], [-123.1798, 38.4892]]], [[[-123.1809, 38.4889], [-123.1808, 38.4884], [-123.1801, 38.4881], [-123.1802, 38.4887], [-123.1809, 38.4889]]], [[[-123.1791, 38.4882], [-123.1794, 38.4879], [-123.1791, 38.4879], [-123.1791, 38.4882]]], [[[-123.1759, 38.4853], [-123.1762, 38.485], [-123.1759, 38.485], [-123.1759, 38.4853]]]]}, "properties": {"layer": "high_severity"}}, {"type": "Feature", "geometry": {"type": "MultiPolygon", "coordinates": [[[[-123.2147, 38.5142], [-123.215, 38.5139], [-123.2147, 38.514], [-123.2147, 38.5142]]], [[[-123.2143, 38.514], [-123.2147, 38.5137], [-123.2143, 38.5137], [-123.2143, 38.514]]], [[[-123.2154, 38.5137], [-123.216, 38.5134], [-123.2153, 38.5134], [-123.2154, 38.5137]]], [[[-123.215, 38.5137], [-123.215, 38.5131], [-123.2143, 38.5132], [-123.2143, 38.5134], [-123.215, 38.5137]]], [[[-123.2153, 38.5131], [-123.2157, 38.5128], [-123.2153, 38.5129], [-123.2153, 38.5131]]], [[[-123.2034, 38.5078], [-123.2037, 38.5075], [-123.2034, 38.5075], [-123.2034, 38.5078]]], [[[-123.2102, 38.5065], [-123.2109, 38.5062], [-123.2102, 38.5062], [-123.2102, 38.5065]]], [[[-123.2094, 38.5103], [-123.2117, 38.5084], [-123.211, 38.5086], [-123.2103, 38.5079], [-123.2092, 38.5079], [-123.2102, 38.5065], [-123.2085, 38.5057], [-123.2075, 38.5077], [-123.2089, 38.5074], [-123.2079, 38.5082], [-123.2093, 38.5084], [-123.2094, 38.5103]], [[-123.2082, 38.5071], [-123.2078, 38.5074], [-123.2078, 38.5071], [-123.2082, 38.5071]]], [[[-123.2071, 38.5061], [-123.2074, 38.5058], [-123.2071, 38.5058], [-123.2071, 38.5061]]], [[[-123.2047, 38.5058], [-123.205, 38.5056], [-123.2047, 38.5056], [-123.2047, 38.5058]]], [[[-123.2064, 38.5055], [-123.2067, 38.505], [-123.2064, 38.505], [-123.2064, 38.5055]]], [[[-123.203, 38.5075], [-123.203, 38.5067], [-123.2037, 38.5072], [-123.204, 38.5064], [-123.2075, 38.5069], [-123.2057, 38.5058], [-123.206, 38.5047], [-123.2023, 38.5056], [-123.2023, 38.5073], [-123.203, 38.5075]], [[-123.205, 38.5061], [-123.2047, 38.5061], [-123.2047, 38.5058], [-123.2043, 38.5059], [-123.2047, 38.5053], [-123.2054, 38.5056], [-123.205, 38.5061]]], [[[-123.2081, 38.5058], [-123.2084, 38.5049], [-123.2077, 38.5047], [-123.2074, 38.5055], [-123.2081, 38.5058]]], [[[-123.2067, 38.505], [-123.2074, 38.5047], [-123.2067, 38.5047], [-123.2067, 38.505]]], [[[-123.2064, 38.5047], [-123.2067, 38.5044], [-123.2063, 38.5045], [-123.2064, 38.5047]]], [[[-123.1994, 38.5041], [-123.1998, 38.5038], [-123.1994, 38.5038], [-123.1994, 38.5041]]], [[[-123.1973, 38.5025], [-123.1976, 38.5023], [-123.1973, 38.5023], [-123.1973, 38.5025]]], [[[-123.2024, 38.5016], [-123.2031, 38.5013], [-123.2024, 38.5013], [-123.2024, 38.5016]]], [[[-123.1969, 38.5001], [-123.1972, 38.4996], [-123.1968, 38.4996], [-123.1969, 38.5001]]], [[[-123.1961, 38.4993], [-123.1968, 38.499], [-123.1961, 38.4991], [-123.1961, 38.4993]]], [[[-123.1954, 38.4985], [-123.1957, 38.4983], [-123.1954, 38.4983], [-123.1954, 38.4985]]]]}, "properties": {"layer": "interior"}}, {"type": "Feature", "geometry": {"type": "MultiPolygon", "coordinates": [[[[-123.2143, 38.514], [-123.2147, 38.5137], [-123.2143, 38.5137], [-123.2143, 38.514]]], [[[-123.215, 38.5137], [-123.215, 38.5131], [-123.2143, 38.5132], [-123.2143, 38.5134], [-123.215, 38.5137]]], [[[-123.2153, 38.5131], [-123.2157, 38.5128], [-123.2153, 38.5129], [-123.2153, 38.5131]]], [[[-123.2094, 38.5103], [-123.2107, 38.51], [-123.2107, 38.5095], [-123.2097, 38.5095], [-123.2094, 38.5103]]], [[[-123.211, 38.5095], [-123.211, 38.5089], [-123.2117, 38.5089], [-123.2117, 38.5084], [-123.2106, 38.5084], [-123.211, 38.5095]]], [[[-123.2099, 38.5076], [-123.2099, 38.5071], [-123.2102, 38.5065], [-123.2092, 38.5068], [-123.2099, 38.5076]]], [[[-123.2102, 38.5065], [-123.2109, 38.5062], [-123.2102, 38.5062], [-123.2102, 38.5065]]], [[[-123.204, 38.5064], [-123.204, 38.5056], [-123.2023, 38.5056], [-123.2026, 38.5064], [-123.204, 38.5064]]], [[[-123.2084, 38.5052], [-123.2081, 38.5047], [-123.2074, 38.505], [-123.2074, 38.5052], [-123.2084, 38.5052]]], [[[-123.206, 38.5053], [-123.206, 38.5047], [-123.205, 38.505], [-123.205, 38.5053], [-123.206, 38.5053]]], [[[-123.2067, 38.505], [-123.2074, 38.5047], [-123.2067, 38.5047], [-123.2067, 38.505]]], [[[-123.2064, 38.5047], [-123.2067, 38.5044], [-123.2063, 38.5045], [-123.2064, 38.5047]]], [[[-123.2024, 38.5016], [-123.2031, 38.5013], [-123.2024, 38.5013], [-123.2024, 38.5016]]]]}, "properties": {"layer": "cell", "cell_id": "95_500", "seed_zone": "95", "elevation_band": "500–1000 ft"}}, {"type": "Feature", "geometry": {"type": "MultiPolygon", "coordinates": [[[[-123.2147, 38.5142], [-123.215, 38.5139], [-123.2147, 38.514], [-123.2147, 38.5142]]], [[[-123.2154, 38.5137], [-123.216, 38.5134], [-123.2153, 38.5134], [-123.2154, 38.5137]]], [[[-123.2034, 38.5078], [-123.2037, 38.5075], [-123.2034, 38.5075], [-123.2034, 38.5078]]], [[[-123.203, 38.5075], [-123.203, 38.5067], [-123.2037, 38.5072], [-123.204, 38.5064], [-123.2023, 38.5067], [-123.203, 38.5075]]], [[[-123.2107, 38.5095], [-123.2103, 38.5079], [-123.2092, 38.5079], [-123.2095, 38.5063], [-123.2085, 38.5057], [-123.2075, 38.5077], [-123.2089, 38.5074], [-123.2079, 38.5082], [-123.2093, 38.5084], [-123.2093, 38.5095], [-123.2107, 38.5095]], [[-123.2082, 38.5071], [-123.2078, 38.5074], [-123.2078, 38.5071], [-123.2082, 38.5071]]], [[[-123.2071, 38.5061], [-123.2074, 38.5058], [-123.2071, 38.5058], [-123.2071, 38.5061]]], [[[-123.2047, 38.5058], [-123.205, 38.5056], [-123.2047, 38.5056], [-123.2047, 38.5058]]], [[[-123.2081, 38.5058], [-123.2081, 38.5052], [-123.2074, 38.5052], [-123.2074, 38.5055], [-123.2081, 38.5058]]], [[[-123.2071, 38.5071], [-123.2075, 38.5066], [-123.2064, 38.5066], [-123.206, 38.5053], [-123.205, 38.5053], [-123.2054, 38.5058], [-123.205, 38.5061], [-123.2047, 38.5058], [-123.2043, 38.5059], [-123.204, 38.5061], [-123.2051, 38.5069], [-123.2071, 38.5071]]], [[[-123.204, 38.5053], [-123.2043, 38.5056], [-123.2047, 38.5053], [-123.204, 38.5053]]], [[[-123.2064, 38.5055], [-123.2067, 38.505], [-123.2064, 38.505], [-123.2064, 38.5055]]], [[[-123.2047, 38.5053], [-123.205, 38.505], [-123.2046, 38.505], [-123.2047, 38.5053]]], [[[-123.1994, 38.5041], [-123.1998, 38.5038], [-123.1994, 38.5038], [-123.1994, 38.5041]]], [[[-123.1973, 38.5025], [-123.1976, 38.5023], [-123.1973, 38.5023], [-123.1973, 38.5025]]], [[[-123.1969, 38.5001], [-123.1972, 38.4996], [-123.1968, 38.4996], [-123.1969, 38.5001]]], [[[-123.1961, 38.4993], [-123.1968, 38.499], [-123.1961, 38.4991], [-123.1961, 38.4993]]], [[[-123.1954, 38.4985], [-123.1957, 38.4983], [-123.1954, 38.4983], [-123.1954, 38.4985]]]]}, "properties": {"layer": "cell", "cell_id": "95_1000", "seed_zone": "95", "elevation_band": "1000–1500 ft"}}]}
