{"type": "FeatureCollection", "features": [{"type": "Feature", "geometry": {"type": "MultiPolygon", "coordinates": [[[[-122.9806, 40.8806], [-122.9791, 40.8796], [-122.9824, 40.879], [-122.9817, 40.8804], [-122.9806, 40.8806]]], [[[-122.9811, 40.8833], [-122.9811, 40.8823], [-122.982, 40.8819], [-122.9842, 40.8824], [-122.9811, 40.8833]]], [[[-123.0162, 40.8938], [-123.011, 40.8935], [-123.0073, 40.892], [-123.0072, 40.8899], [-123.004, 40.8879], [-123.0014, 40.8875], [-122.999, 40.8891], [-122.9945, 40.8897], [-122.9919, 40.8849], [-122.9916, 40.8818], [-122.9907, 40.8803], [-122.9886, 40.8802], [-122.9886, 40.8806], [-122.9883, 40.8802], [-122.9882, 40.8805], [-122.988, 40.8806], [-122.9881, 40.8807], [-122.9879, 40.8808], [-122.9879, 40.881], [-122.9878, 40.881], [-122.9882, 40.8795], [-122.9875, 40.879], [-122.9889, 40.8785], [-122.9881, 40.877], [-122.9875, 40.8764], [-122.9854, 40.877], [-122.9865, 40.8753], [-122.9877, 40.8745], [-122.991, 40.875], [-122.9947, 40.8733], [-122.9974, 40.8729], [-123.0075, 40.8734], [-123.0155, 40.8726], [-123.0196, 40.8733], [-123.0224, 40.8748], [-123.0233, 40.8778], [-123.0252, 40.8795], [-123.0254, 40.8809], [-123.0239, 40.8831], [-123.0216, 40.8836], [-123.0209, 40.8844], [-123.0237, 40.885], [-123.0238, 40.887], [-123.0251, 40.8881], [-123.0225, 40.891], [-123.0198, 40.891], [-123.0162, 40.8938]]]]}, "properties": {"layer": "perimeter"}}]}
