{"type": "FeatureCollection", "features": [{"type": "Feature", "geometry": {"type": "MultiPolygon", "coordinates": [[[[-122.3928, 41.4626], [-122.3926, 41.4624], [-122.3927, 41.4624], [-122.3928, 41.4626]]], [[[-122.4132, 41.4658], [-122.4136, 41.4661], [-122.4132, 41.466], [-122.4132, 41.4658]]], [[[-122.3946, 41.4677], [-122.394, 41.4669], [-122.3956, 41.4666], [-122.3958, 41.4675], [-122.3946, 41.4677]]], [[[-122.3983, 41.468], [-122.3987, 41.4678], [-122.3989, 41.4681], [-122.3983, 41.468]]], [[[-122.3933, 41.4696], [-122.3914, 41.4686], [-122.3928, 41.4682], [-122.3942, 41.4686], [-122.3933, 41.4696]]], [[[-122.4131, 41.4659], [-122.4116, 41.4668], [-122.4128, 41.4667], [-122.4121, 41.467], [-122.4145, 41.468], [-122.4148, 41.4696], [-122.4163, 41.4707], [-122.4155, 41.4711], [-122.4143, 41.4694], [-122.4139, 41.4694], [-122.4151, 41.4722], [-122.4144, 41.4735], [-122.4152, 41.4732], [-122.415, 41.4743], [-122.4162, 41.4738], [-122.4151, 41.4756], [-122.4151, 41.4745], [-122.4139, 41.4758], [-122.4137, 41.4741], [-122.413, 41.4743], [-122.4113, 41.4772], [-122.4114, 41.4828], [-122.4128, 41.4802], [-122.4135, 41.4821], [-122.4151, 41.483], [-122.4132, 41.485], [-122.4137, 41.4865], [-122.413, 41.4857], [-122.4131, 41.4863], [-122.412, 41.4866], [-122.4127, 41.4882], [-122.4115, 41.4889], [-122.4118, 41.4844], [-122.4133, 41.4841], [-122.412, 41.4829], [-122.4111, 41.4868], [-122.4103, 41.4854], [-122.4089, 41.4855], [-122.4084, 41.4863], [-122.4092, 41.4869], [-122.4086, 41.4871], [-122.4088, 41.4897], [-122.4081, 41.4878], [-122.4018, 41.4946], [-122.4002, 41.495], [-122.4003, 41.4944], [-122.3996, 41.4943], [-122.3999, 41.4954], [-122.398, 41.4962], [-122.3981, 41.4972], [-122.4005, 41.4986], [-122.3922, 41.5047], [-122.3942, 41.5054], [-122.3938, 41.5075], [-122.3971, 41.5091], [-122.3968, 41.5112], [-122.3942, 41.512], [-122.3924, 41.5116], [-122.3954, 41.5102], [-122.3952, 41.5092], [-122.3938, 41.5089], [-122.3921, 41.5099], [-122.3924, 41.511], [-122.3914, 41.5099], [-122.3911, 41.5113], [-122.3902, 41.5112], [-122.3906, 41.5117], [-122.39, 41.5112], [-122.39, 41.5107], [-122.389, 41.5107], [-122.3888, 41.5114], [-122.3886, 41.5106], [-122.3866, 41.5119], [-122.3828, 41.5118], [-122.3818, 41.5104], [-122.3846, 41.5093], [-122.3833, 41.5086], [-122.3818, 41.5093], [-122.3832, 41.508], [-122.383, 41.5072], [-122.3814, 41.5089], [-122.3807, 41.5087], [-122.3817, 41.5074], [-122.3814, 41.5058], [-122.3765, 41.508], [-122.3741, 41.5075], [-122.3788, 41.5045], [-122.3785, 41.5034], [-122.3799, 41.502], [-122.3801, 41.5001], [-122.3786, 41.5], [-122.3782, 41.4974], [-122.3768, 41.4968], [-122.3778, 41.4958], [-122.3755, 41.4951], [-122.3749, 41.4939], [-122.3759, 41.4926], [-122.3748, 41.4913], [-122.3734, 41.4923], [-122.3739, 41.4932], [-122.3723, 41.4928], [-122.3725, 41.494], [-122.3736, 41.4942], [-122.3716, 41.4943], [-122.3725, 41.4963], [-122.3709, 41.4956], [-122.3713, 41.4945], [-122.3698, 41.4933], [-122.3696, 41.4915], [-122.3684, 41.4906], [-122.3691, 41.4892], [-122.3683, 41.4887], [-122.3665, 41.4836], [-122.3658, 41.4731], [-122.3673, 41.4725], [-122.3671, 41.4717], [-122.37, 41.4709], [-122.3727, 41.471], [-122.3733, 41.4703], [-122.376, 41.4699], [-122.3801, 41.4698], [-122.3809, 41.4705], [-122.3817, 41.4702], [-122.3813, 41.4697], [-122.3832, 41.4698], [-122.3835, 41.4691], [-122.3854, 41.4685], [-122.3873, 41.4692], [-122.3877, 41.4739], [-122.391, 41.4729], [-122.3923, 41.4734], [-122.393, 41.4725], [-122.3935, 41.4724], [-122.3932, 41.4716], [-122.3937, 41.4722], [-122.3941, 41.4741], [-122.3933, 41.4725], [-122.3934, 41.4759], [-122.3945, 41.4763], [-122.3963, 41.4753], [-122.3967, 41.4758], [-122.3994, 41.4758], [-122.3984, 41.4745], [-122.3986, 41.4753], [-122.3967, 41.4746], [-122.3965, 41.4732], [-122.3972, 41.473], [-122.3966, 41.4718], [-122.3978, 41.4712], [-122.3985, 41.4722], [-122.3994, 41.472], [-122.3995, 41.4713], [-122.3989, 41.4716], [-122.3997, 41.4704], [-122.399, 41.4707], [-122.3989, 41.4697], [-122.401, 41.4687], [-122.4009, 41.4667], [-122.3999, 41.4673], [-122.4001, 41.4669], [-122.3981, 41.4658], [-122.3989, 41.4651], [-122.3975, 41.4657], [-122.3984, 41.467], [-122.3965, 41.467], [-122.3978, 41.4669], [-122.3958, 41.4651], [-122.3946, 41.465], [-122.399, 41.465], [-122.3976, 41.4642], [-122.394, 41.4646], [-122.3931, 41.4617], [-122.3911, 41.4598], [-122.3907, 41.454], [-122.3896, 41.4512], [-122.391, 41.4512], [-122.3911, 41.4519], [-122.3902, 41.4516], [-122.39, 41.4521], [-122.3909, 41.4526], [-122.3926, 41.4521], [-122.3923, 41.4514], [-122.393, 41.4518], [-122.3955, 41.4506], [-122.3946, 41.4497], [-122.3924, 41.4503], [-122.3873, 41.4488], [-122.3873, 41.4477], [-122.3886, 41.4475], [-122.3864, 41.4471], [-122.3861, 41.4455], [-122.385, 41.4448], [-122.3861, 41.4434], [-122.385, 41.4433], [-122.3856, 41.4425], [-122.3846, 41.442], [-122.3859, 41.4406], [-122.3848, 41.4407], [-122.3848, 41.44], [-122.3838, 41.4397], [-122.3852, 41.4389], [-122.3844, 41.4383], [-122.3855, 41.4381], [-122.3842, 41.4362], [-122.3834, 41.4361], [-122.3844, 41.4343], [-122.3833, 41.4342], [-122.3839, 41.4331], [-122.3834, 41.4325], [-122.3869, 41.4319], [-122.3875, 41.4334], [-122.387, 41.4353], [-122.3879, 41.4359], [-122.3858, 41.4367], [-122.3855, 41.4383], [-122.3869, 41.4388], [-122.3873, 41.4368], [-122.3898, 41.439], [-122.3899, 41.4403], [-122.3915, 41.4408], [-122.3933, 41.4427], [-122.3951, 41.4426], [-122.3973, 41.4438], [-122.3992, 41.447], [-122.4008, 41.4477], [-122.4018, 41.4497], [-122.4012, 41.4506], [-122.4032, 41.4503], [-122.4042, 41.4518], [-122.4052, 41.4519], [-122.407, 41.4517], [-122.4091, 41.4503], [-122.4125, 41.4511], [-122.4138, 41.452], [-122.4133, 41.4538], [-122.4142, 41.4545], [-122.4161, 41.4548], [-122.4184, 41.4568], [-122.4194, 41.4559], [-122.4203, 41.4562], [-122.418, 41.4599], [-122.416, 41.461], [-122.4145, 41.4653], [-122.4142, 41.4653], [-122.4141, 41.4654], [-122.4136, 41.4656], [-122.4136, 41.4656], [-122.4134, 41.4657], [-122.4132, 41.4658], [-122.4131, 41.4659]], [[-122.3831, 41.4823], [-122.3804, 41.4813], [-122.383, 41.4831], [-122.3826, 41.4845], [-122.3817, 41.4846], [-122.3823, 41.4855], [-122.3861, 41.4868], [-122.3864, 41.4888], [-122.3853, 41.489], [-122.3845, 41.4881], [-122.3828, 41.4887], [-122.3811, 41.4932], [-122.3837, 41.4937], [-122.3889, 41.5001], [-122.3922, 41.4997], [-122.3949, 41.4979], [-122.3928, 41.4958], [-122.3923, 41.4928], [-122.3899, 41.4908], [-122.39, 41.4889], [-122.3882, 41.4867], [-122.3884, 41.4837], [-122.39, 41.4814], [-122.3873, 41.4798], [-122.3836, 41.481], [-122.3831, 41.4823]], [[-122.3958, 41.4871], [-122.3938, 41.4855], [-122.392, 41.4855], [-122.3908, 41.4867], [-122.3914, 41.487], [-122.3904, 41.4892], [-122.3948, 41.4879], [-122.3958, 41.4871]]], [[[-122.4129, 41.4796], [-122.4126, 41.4776], [-122.4138, 41.4771], [-122.4129, 41.4796]]]]}, "properties": {"layer": "perimeter"}}, {"type": "Feature", "geometry": {"type": "MultiPolygon", "coordinates": [[[[-122.3925, 41.4627], [-122.3926, 41.4624], [-122.3927, 41.4624], [-122.3925, 41.4627]]], [[[-122.4135, 41.4659], [-122.4132, 41.466], [-122.4132, 41.4658], [-122.4135, 41.4659]]], [[[-122.3945, 41.4677], [-122.3941, 41.4669], [-122.3956, 41.4666], [-122.3957, 41.4676], [-122.3945, 41.4677]]], [[[-122.3983, 41.468], [-122.3989, 41.4679], [-122.3989, 41.4681], [-122.3983, 41.468]]], [[[-122.3915, 41.4692], [-122.3914, 41.4686], [-122.3928, 41.4682], [-122.3942, 41.4686], [-122.3933, 41.4696], [-122.3915, 41.4692]]], [[[-122.4124, 41.4662], [-122.4116, 41.4668], [-122.4128, 41.4667], [-122.4121, 41.467], [-122.4145, 41.468], [-122.4148, 41.4696], [-122.4163, 41.4707], [-122.4155, 41.4711], [-122.4143, 41.4694], [-122.4139, 41.4694], [-122.4151, 41.4722], [-122.4144, 41.4735], [-122.4152, 41.4732], [-122.415, 41.4743], [-122.4162, 41.4738], [-122.4151, 41.4756], [-122.4151, 41.4745], [-122.4139, 41.4758], [-122.4137, 41.4741], [-122.413, 41.4743], [-122.4113, 41.4772], [-122.4114, 41.4828], [-122.4128, 41.4802], [-122.4135, 41.4821], [-122.4151, 41.483], [-122.4132, 41.485], [-122.4137, 41.4865], [-122.413, 41.4857], [-122.4131, 41.4863], [-122.412, 41.4866], [-122.4127, 41.4882], [-122.4115, 41.4889], [-122.4118, 41.4844], [-122.4133, 41.4841], [-122.412, 41.4829], [-122.4111, 41.4868], [-122.4103, 41.4854], [-122.4089, 41.4855], [-122.4084, 41.4863], [-122.4092, 41.4869], [-122.4086, 41.4871], [-122.4088, 41.4897], [-122.4081, 41.4878], [-122.4018, 41.4946], [-122.4002, 41.495], [-122.4003, 41.4944], [-122.3996, 41.4943], [-122.3999, 41.4954], [-122.398, 41.4962], [-122.3981, 41.4972], [-122.4005, 41.4986], [-122.3922, 41.5047], [-122.3942, 41.5054], [-122.3938, 41.5075], [-122.3971, 41.5091], [-122.3968, 41.5112], [-122.3942, 41.512], [-122.3924, 41.5116], [-122.3954, 41.5102], [-122.3952, 41.5092], [-122.3938, 41.5089], [-122.3921, 41.5099], [-122.3924, 41.511], [-122.3914, 41.5099], [-122.3911, 41.5113], [-122.3902, 41.5112], [-122.3906, 41.5117], [-122.39, 41.5112], [-122.39, 41.5107], [-122.389, 41.5107], [-122.3888, 41.5114], [-122.3886, 41.5106], [-122.3866, 41.5119], [-122.3828, 41.5118], [-122.3818, 41.5104], [-122.3846, 41.5093], [-122.3833, 41.5086], [-122.3818, 41.5093], [-122.3832, 41.508], [-122.383, 41.5072], [-122.3814, 41.5089], [-122.3807, 41.5087], [-122.3817, 41.5074], [-122.3814, 41.5058], [-122.3765, 41.508], [-122.3741, 41.5075], [-122.3788, 41.5045], [-122.3785, 41.5034], [-122.3799, 41.502], [-122.3801, 41.5001], [-122.3786, 41.5], [-122.3782, 41.4974], [-122.3768, 41.4968], [-122.3778, 41.4958], [-122.3755, 41.4951], [-122.3749, 41.4939], [-122.3759, 41.4926], [-122.3748, 41.4913], [-122.3734, 41.4923], [-122.3739, 41.4932], [-122.3723, 41.4928], [-122.3725, 41.494], [-122.3736, 41.4942], [-122.3716, 41.4943], [-122.3725, 41.4963], [-122.3711, 41.4959], [-122.3713, 41.4945], [-122.3698, 41.4933], [-122.3696, 41.4915], [-122.3684, 41.4906], [-122.3691, 41.4892], [-122.3683, 41.4887], [-122.3659, 41.4804], [-122.3661, 41.4795], [-122.3715, 41.4795], [-122.3715, 41.4759], [-122.3663, 41.4759], [-122.3658, 41.4733], [-122.3673, 41.4725], [-122.3671, 41.4717], [-122.37, 41.4709], [-122.3727, 41.471], [-122.3733, 41.4703], [-122.376, 41.4699], [-122.3801, 41.4698], [-122.3809, 41.4705], [-122.3817, 41.4702], [-122.3813, 41.4697], [-122.3832, 41.4698], [-122.3835, 41.4691], [-122.3854, 41.4685], [-122.3873, 41.4692], [-122.3877, 41.4739], [-122.391, 41.4729], [-122.3923, 41.4734], [-122.393, 41.4725], [-122.3935, 41.4724], [-122.3932, 41.4716], [-122.3937, 41.4722], [-122.3941, 41.4741], [-122.3933, 41.4725], [-122.3934, 41.4759], [-122.3945, 41.4763], [-122.3963, 41.4753], [-122.3967, 41.4758], [-122.3994, 41.4758], [-122.3984, 41.4745], [-122.3986, 41.4753], [-122.3967, 41.4746], [-122.3965, 41.4732], [-122.3972, 41.473], [-122.3966, 41.4718], [-122.3978, 41.4712], [-122.3985, 41.4722], [-122.3995, 41.4719], [-122.3995, 41.4713], [-122.3989, 41.4716], [-122.3997, 41.4704], [-122.399, 41.4707], [-122.3989, 41.4697], [-122.401, 41.4688], [-122.4009, 41.4667], [-122.3999, 41.4673], [-122.4001, 41.4669], [-122.3981, 41.4658], [-122.399, 41.4651], [-122.3981, 41.4651], [-122.3975, 41.4664], [-122.3984, 41.467], [-122.3965, 41.467], [-122.3978, 41.4669], [-122.3958, 41.4651], [-122.3946, 41.465], [-122.399, 41.465], [-122.3976, 41.4642], [-122.394, 41.4646], [-122.3931, 41.4617], [-122.3905, 41.4584], [-122.3907, 41.454], [-122.3896, 41.4512], [-122.391, 41.4512], [-122.3911, 41.4519], [-122.3902, 41.4516], [-122.39, 41.4521], [-122.3909, 41.4526], [-122.3926, 41.4521], [-122.3923, 41.4514], [-122.393, 41.4518], [-122.3955, 41.4506], [-122.3946, 41.4497], [-122.3924, 41.4503], [-122.3875, 41.449], [-122.3873, 41.4477], [-122.3886, 41.4475], [-122.3864, 41.4471], [-122.3861, 41.4455], [-122.385, 41.4448], [-122.3861, 41.4434], [-122.385, 41.4433], [-122.3911, 41.4433], [-122.3912, 41.4406], [-122.3933, 41.4427], [-122.3951, 41.4426], [-122.3982, 41.4447], [-122.3992, 41.447], [-122.4006, 41.4475], [-122.4014, 41.4489], [-122.4013, 41.4507], [-122.4032, 41.4503], [-122.4042, 41.4518], [-122.4052, 41.4519], [-122.407, 41.4517], [-122.4091, 41.4503], [-122.4125, 41.4511], [-122.4138, 41.452], [-122.4133, 41.4538], [-122.4142, 41.4545], [-122.4161, 41.4548], [-122.4184, 41.4568], [-122.4192, 41.456], [-122.4202, 41.4561], [-122.418, 41.4599], [-122.416, 41.461], [-122.4145, 41.4653], [-122.4142, 41.4653], [-122.4124, 41.4662]], [[-122.383, 41.4824], [-122.3804, 41.4813], [-122.383, 41.4831], [-122.3826, 41.4845], [-122.3817, 41.4846], [-122.3823, 41.4855], [-122.3861, 41.4868], [-122.3864, 41.4888], [-122.3853, 41.489], [-122.3845, 41.4881], [-122.3828, 41.4887], [-122.3811, 41.4932], [-122.3837, 41.4937], [-122.3889, 41.5001], [-122.3922, 41.4997], [-122.3949, 41.4979], [-122.3928, 41.4958], [-122.3923, 41.4928], [-122.3899, 41.4908], [-122.39, 41.4889], [-122.3882, 41.4867], [-122.3884, 41.4837], [-122.39, 41.4814], [-122.3873, 41.4798], [-122.3836, 41.481], [-122.383, 41.4824]], [[-122.3949, 41.4858], [-122.392, 41.4855], [-122.3914, 41.4859], [-122.3904, 41.4892], [-122.3948, 41.4879], [-122.3958, 41.4871], [-122.3949, 41.4858]]], [[[-122.3838, 41.4351], [-122.3838, 41.4347], [-122.3841, 41.4346], [-122.3838, 41.4351]]], [[[-122.3843, 41.4342], [-122.3833, 41.4342], [-122.3839, 41.4331], [-122.3834, 41.4325], [-122.3869, 41.4319], [-122.3843, 41.4342]]], [[[-122.4129, 41.4796], [-122.4126, 41.4776], [-122.4138, 41.4771], [-122.4129, 41.4796]]]]}, "properties": {"layer": "retained"}}, {"type": "Feature", "geometry": {"type": "MultiPolygon", "coordinates": [[[[-122.3755, 41.4769], [-122.3755, 41.4764], [-122.3737, 41.4764], [-122.3737, 41.4767], [-122.3755, 41.4769]]], [[[-122.3712, 41.4751], [-122.3722, 41.4729], [-122.3707, 41.473], [-122.3707, 41.4724], [-122.3685, 41.4722], [-122.3675, 41.4736], [-122.3668, 41.4733], [-122.3665, 41.4747], [-122.3679, 41.4749], [-122.3675, 41.4744], [-122.3704, 41.4743], [-122.3712, 41.4751]], [[-122.3708, 41.474], [-122.3704, 41.4743], [-122.3704, 41.474], [-122.3708, 41.474]], [[-122.3707, 41.4735], [-122.37, 41.474], [-122.37, 41.4732], [-122.3707, 41.4735]], [[-122.3682, 41.4738], [-122.3679, 41.4741], [-122.3679, 41.4738], [-122.3682, 41.4738]], [[-122.3679, 41.4735], [-122.3675, 41.4738], [-122.3675, 41.4736], [-122.3679, 41.4735]], [[-122.3715, 41.4732], [-122.3707, 41.4735], [-122.3707, 41.4732], [-122.3715, 41.4732]], [[-122.3682, 41.4733], [-122.3679, 41.4735], [-122.3679, 41.4733], [-122.3682, 41.4733]], [[-122.3704, 41.4727], [-122.37, 41.473], [-122.37, 41.4727], [-122.3704, 41.4727]], [[-122.37, 41.4724], [-122.3693, 41.473], [-122.3693, 41.4724], [-122.37, 41.4724]]], [[[-122.3711, 41.4727], [-122.3725, 41.4718], [-122.3703, 41.4716], [-122.3711, 41.4727]]], [[[-122.3743, 41.4723], [-122.3743, 41.4718], [-122.3732, 41.4713], [-122.3732, 41.4721], [-122.3743, 41.4723]]], [[[-122.4012, 41.4624], [-122.4034, 41.4621], [-122.4012, 41.4621], [-122.4012, 41.4624]]], [[[-122.3971, 41.4581], [-122.3971, 41.4573], [-122.3942, 41.4571], [-122.3946, 41.4579], [-122.3968, 41.4576], [-122.3971, 41.4581]]], [[[-122.41, 41.4557], [-122.4103, 41.4549], [-122.411, 41.4551], [-122.4121, 41.4543], [-122.4121, 41.4535], [-122.4114, 41.4541], [-122.4099, 41.4538], [-122.4099, 41.4544], [-122.4088, 41.4541], [-122.4078, 41.4549], [-122.4078, 41.4555], [-122.41, 41.4557]], [[-122.4103, 41.4543], [-122.4099, 41.4546], [-122.4099, 41.4544], [-122.4103, 41.4543]]]]}, "properties": {"layer": "high_severity"}}, {"type": "Feature", "geometry": {"type": "MultiPolygon", "coordinates": [[[[-122.3689, 41.473], [-122.3693, 41.4735], [-122.3714, 41.4729], [-122.37, 41.4724], [-122.3689, 41.473]], [[-122.3704, 41.4727], [-122.37, 41.473], [-122.37, 41.4727], [-122.3704, 41.4727]]], [[[-122.3711, 41.4727], [-122.3721, 41.4721], [-122.3711, 41.4721], [-122.3711, 41.4727]]]]}, "properties": {"layer": "interior"}}, {"type": "Feature", "geometry": {"type": "Polygon", "coordinates": [[[-122.3689, 41.473], [-122.3693, 41.4735], [-122.3714, 41.4729], [-122.37, 41.4724], [-122.3689, 41.473]], [[-122.3704, 41.4727], [-122.37, 41.473], [-122.37, 41.4727], [-122.3704, 41.4727]]]}, "properties": {"layer": "cell", "cell_id": "516_3000", "seed_zone": "516", "elevation_band": "3000–3500 ft"}}, {"type": "Feature", "geometry": {"type": "Polygon", "coordinates": [[[-122.3711, 41.4724], [-122.3721, 41.4721], [-122.3711, 41.4721], [-122.3711, 41.4724]]]}, "properties": {"layer": "cell", "cell_id": "516_3500", "seed_zone": "516", "elevation_band": "3500–4000 ft"}}]}
