{"type": "FeatureCollection", "features": [{"type": "Feature", "geometry": {"type": "Polygon", "coordinates": [[[-120.5992, 36.1827], [-120.6028, 36.1824], [-120.6052, 36.1838], [-120.6068, 36.1867], [-120.6095, 36.1873], [-120.61, 36.1887], [-120.6114, 36.1893], [-120.6128, 36.1913], [-120.6168, 36.1917], [-120.6179, 36.1926], [-120.6199, 36.1928], [-120.6221, 36.1926], [-120.6231, 36.1913], [-120.6249, 36.1924], [-120.6263, 36.1919], [-120.6274, 36.1944], [-120.6272, 36.1962], [-120.6282, 36.197], [-120.6299, 36.197], [-120.63, 36.1961], [-120.6315, 36.1955], [-120.6297, 36.2], [-120.6301, 36.2009], [-120.634, 36.1982], [-120.6383, 36.1976], [-120.6394, 36.1964], [-120.6419, 36.1969], [-120.6485, 36.193], [-120.6492, 36.1939], [-120.6487, 36.1954], [-120.6504, 36.1956], [-120.6526, 36.1973], [-120.6536, 36.1996], [-120.6532, 36.2007], [-120.6541, 36.2009], [-120.6552, 36.2035], [-120.6564, 36.2039], [-120.655, 36.207], [-120.6568, 36.2071], [-120.6572, 36.2077], [-120.6583, 36.2067], [-120.6613, 36.2089], [-120.6635, 36.2078], [-120.6672, 36.2092], [-120.6677, 36.2105], [-120.6693, 36.2105], [-120.6704, 36.2116], [-120.6696, 36.2131], [-120.6706, 36.2139], [-120.6701, 36.2154], [-120.671, 36.2166], [-120.6679, 36.2227], [-120.6646, 36.2264], [-120.6642, 36.23], [-120.6662, 36.233], [-120.6641, 36.2356], [-120.6631, 36.2359], [-120.6568, 36.2341], [-120.6554, 36.232], [-120.6531, 36.2321], [-120.6513, 36.2309], [-120.649, 36.2335], [-120.6453, 36.2358], [-120.6434, 36.2381], [-120.6416, 36.2389], [-120.639, 36.2379], [-120.6347, 36.2398], [-120.6311, 36.2404], [-120.6316, 36.2414], [-120.6283, 36.2433], [-120.6258, 36.2463], [-120.6239, 36.2471], [-120.6203, 36.2464], [-120.6197, 36.2472], [-120.6125, 36.2453], [-120.6101, 36.2454], [-120.608, 36.2443], [-120.6059, 36.2452], [-120.6043, 36.2434], [-120.603, 36.2447], [-120.601, 36.2445], [-120.6001, 36.2431], [-120.6013, 36.2426], [-120.6015, 36.2419], [-120.5995, 36.2412], [-120.6011, 36.2403], [-120.5981, 36.2397], [-120.597, 36.2409], [-120.5959, 36.2407], [-120.5943, 36.2388], [-120.5922, 36.2388], [-120.5908, 36.2372], [-120.5892, 36.2372], [-120.5888, 36.2378], [-120.5881, 36.2374], [-120.5873, 36.2386], [-120.5865, 36.2377], [-120.5867, 36.236], [-120.5844, 36.2351], [-120.5827, 36.2321], [-120.5821, 36.2324], [-120.5763, 36.23], [-120.574, 36.23], [-120.5744, 36.229], [-120.5723, 36.2276], [-120.5683, 36.2281], [-120.5672, 36.2293], [-120.5655, 36.2297], [-120.5659, 36.2282], [-120.5651, 36.2267], [-120.5643, 36.2271], [-120.5647, 36.2308], [-120.5625, 36.231], [-120.5621, 36.2295], [-120.5596, 36.2293], [-120.559, 36.232], [-120.5548, 36.2337], [-120.5528, 36.2287], [-120.5535, 36.2284], [-120.553, 36.2271], [-120.5547, 36.2227], [-120.5544, 36.2218], [-120.5532, 36.2213], [-120.5508, 36.218], [-120.5451, 36.2131], [-120.5427, 36.2123], [-120.5416, 36.2084], [-120.5382, 36.2078], [-120.5382, 36.207], [-120.537, 36.2069], [-120.5367, 36.2062], [-120.5334, 36.2046], [-120.5338, 36.2039], [-120.5275, 36.2086], [-120.5266, 36.2049], [-120.5245, 36.204], [-120.5226, 36.2049], [-120.5214, 36.2025], [-120.5177, 36.1999], [-120.5158, 36.1964], [-120.5147, 36.1965], [-120.5142, 36.1957], [-120.5146, 36.1931], [-120.5134, 36.1911], [-120.5139, 36.1905], [-120.5131, 36.1899], [-120.5134, 36.1871], [-120.5117, 36.1867], [-120.5101, 36.1845], [-120.5118, 36.182], [-120.5124, 36.179], [-120.5156, 36.1735], [-120.5258, 36.1741], [-120.527, 36.1715], [-120.5267, 36.1689], [-120.5254, 36.1697], [-120.523, 36.1679], [-120.5194, 36.1685], [-120.5157, 36.1673], [-120.5147, 36.1638], [-120.51, 36.1607], [-120.5098, 36.1586], [-120.5077, 36.1567], [-120.5063, 36.1564], [-120.5043, 36.1535], [-120.5048, 36.1527], [-120.5042, 36.1516], [-120.5011, 36.1486], [-120.4978, 36.1472], [-120.498, 36.1466], [-120.4962, 36.1455], [-120.4971, 36.1421], [-120.4962, 36.1409], [-120.4962, 36.1393], [-120.4942, 36.138], [-120.4948, 36.1369], [-120.4932, 36.136], [-120.4933, 36.1339], [-120.4911, 36.1309], [-120.49, 36.1304], [-120.4894, 36.1281], [-120.4863, 36.1279], [-120.4869, 36.1265], [-120.484, 36.1236], [-120.4817, 36.1223], [-120.4827, 36.1202], [-120.4804, 36.1189], [-120.4794, 36.1175], [-120.4765, 36.1167], [-120.4777, 36.1187], [-120.4741, 36.1189], [-120.4677, 36.1137], [-120.4634, 36.1122], [-120.4617, 36.1108], [-120.4598, 36.1107], [-120.4568, 36.1083], [-120.4555, 36.1085], [-120.4553, 36.108], [-120.4525, 36.1077], [-120.4493, 36.1063], [-120.4454, 36.1067], [-120.4426, 36.1061], [-120.4407, 36.1029], [-120.4353, 36.0987], [-120.4347, 36.0953], [-120.4333, 36.094], [-120.4347, 36.0943], [-120.436, 36.0964], [-120.4394, 36.0969], [-120.4421, 36.0983], [-120.4416, 36.0999], [-120.4421, 36.1007], [-120.4479, 36.0986], [-120.4521, 36.0963], [-120.4562, 36.0994], [-120.458, 36.0994], [-120.4579, 36.0977], [-120.4586, 36.0967], [-120.4609, 36.0972], [-120.4614, 36.0982], [-120.4664, 36.0984], [-120.4748, 36.0959], [-120.4807, 36.0922], [-120.4816, 36.0903], [-120.4804, 36.0879], [-120.4801, 36.0828], [-120.4818, 36.0819], [-120.4872, 36.0835], [-120.489, 36.0859], [-120.4923, 36.0879], [-120.4988, 36.0893], [-120.5083, 36.0926], [-120.5129, 36.0918], [-120.5171, 36.094], [-120.5213, 36.0948], [-120.5218, 36.0981], [-120.5207, 36.1002], [-120.5211, 36.1027], [-120.5198, 36.1028], [-120.519, 36.1036], [-120.5207, 36.1041], [-120.5214, 36.1039], [-120.5211, 36.1032], [-120.5218, 36.1035], [-120.521, 36.1049], [-120.5219, 36.1046], [-120.5222, 36.105], [-120.5211, 36.1055], [-120.5222, 36.1053], [-120.5225, 36.1066], [-120.5211, 36.1073], [-120.5225, 36.1114], [-120.5211, 36.1124], [-120.5226, 36.1135], [-120.5229, 36.1158], [-120.5226, 36.1175], [-120.5212, 36.1187], [-120.522, 36.1189], [-120.5221, 36.123], [-120.5234, 36.1262], [-120.525, 36.1272], [-120.5263, 36.1293], [-120.5276, 36.1294], [-120.5277, 36.1307], [-120.5297, 36.1321], [-120.5336, 36.1321], [-120.5352, 36.1299], [-120.5379, 36.1294], [-120.538, 36.1305], [-120.5372, 36.1299], [-120.5358, 36.1306], [-120.5377, 36.131], [-120.5372, 36.1327], [-120.5393, 36.1321], [-120.5398, 36.1325], [-120.54, 36.1311], [-120.5408, 36.1321], [-120.5417, 36.1317], [-120.5427, 36.1324], [-120.5424, 36.1332], [-120.5435, 36.1354], [-120.5443, 36.1344], [-120.545, 36.1355], [-120.5469, 36.1363], [-120.5423, 36.1311], [-120.5479, 36.1263], [-120.549, 36.1264], [-120.5512, 36.1283], [-120.5526, 36.1307], [-120.5583, 36.1308], [-120.5604, 36.1325], [-120.5633, 36.1382], [-120.5633, 36.1405], [-120.5652, 36.1468], [-120.5647, 36.1492], [-120.5663, 36.1527], [-120.5649, 36.1534], [-120.565, 36.1543], [-120.5666, 36.1552], [-120.5678, 36.1546], [-120.5676, 36.1554], [-120.5692, 36.156], [-120.571, 36.1552], [-120.5719, 36.1563], [-120.5715, 36.1577], [-120.5724, 36.1579], [-120.5727, 36.159], [-120.5739, 36.1591], [-120.5734, 36.1599], [-120.5719, 36.1602], [-120.5727, 36.1652], [-120.5738, 36.1655], [-120.5734, 36.1666], [-120.5756, 36.1677], [-120.5758, 36.1687], [-120.5763, 36.1675], [-120.5773, 36.1679], [-120.5782, 36.1701], [-120.5772, 36.1713], [-120.5806, 36.1727], [-120.5822, 36.172], [-120.5835, 36.17], [-120.5845, 36.1708], [-120.5869, 36.1705], [-120.5883, 36.1712], [-120.5886, 36.1701], [-120.5898, 36.1742], [-120.588, 36.1754], [-120.588, 36.1771], [-120.5894, 36.1778], [-120.592, 36.1762], [-120.592, 36.1783], [-120.5929, 36.1794], [-120.5957, 36.1787], [-120.5974, 36.1797], [-120.598, 36.1822], [-120.5992, 36.1827]]]}, "properties": {"layer": "perimeter"}}, {"type": "Feature", "geometry": {"type": "MultiPolygon", "coordinates": [[[[-120.598, 36.1822], [-120.6028, 36.1824], [-120.6052, 36.1838], [-120.6068, 36.1867], [-120.6095, 36.1873], [-120.6119, 36.1904], [-120.6043, 36.1902], [-120.6042, 36.1939], [-120.5999, 36.1938], [-120.5999, 36.1903], [-120.5953, 36.1902], [-120.5954, 36.1865], [-120.5998, 36.1866], [-120.5999, 36.1829], [-120.5864, 36.1828], [-120.5864, 36.1974], [-120.5953, 36.1975], [-120.5954, 36.2048], [-120.6088, 36.2051], [-120.6089, 36.2194], [-120.6132, 36.2195], [-120.6132, 36.2124], [-120.6181, 36.2125], [-120.6181, 36.216], [-120.6358, 36.2161], [-120.6359, 36.2262], [-120.6348, 36.2263], [-120.6349, 36.2299], [-120.6514, 36.2296], [-120.6518, 36.2307], [-120.6537, 36.2311], [-120.6584, 36.2309], [-120.6586, 36.2272], [-120.6542, 36.2272], [-120.6537, 36.2129], [-120.6404, 36.2127], [-120.6404, 36.209], [-120.6359, 36.2089], [-120.636, 36.2054], [-120.6319, 36.2054], [-120.6319, 36.2019], [-120.6269, 36.2017], [-120.6269, 36.198], [-120.6132, 36.1977], [-120.6133, 36.1913], [-120.6199, 36.1928], [-120.6221, 36.1926], [-120.6231, 36.1913], [-120.6249, 36.1924], [-120.6263, 36.1919], [-120.6274, 36.1944], [-120.6272, 36.1962], [-120.6282, 36.197], [-120.6299, 36.197], [-120.63, 36.1961], [-120.6315, 36.1955], [-120.6297, 36.2], [-120.6301, 36.2009], [-120.634, 36.1982], [-120.6383, 36.1976], [-120.6394, 36.1964], [-120.6419, 36.1969], [-120.6485, 36.193], [-120.6492, 36.1939], [-120.6487, 36.1954], [-120.6504, 36.1956], [-120.6526, 36.1973], [-120.6536, 36.1996], [-120.6532, 36.2007], [-120.6541, 36.2009], [-120.6552, 36.2035], [-120.6564, 36.2039], [-120.655, 36.207], [-120.6568, 36.2071], [-120.6572, 36.2077], [-120.6583, 36.2067], [-120.6613, 36.2089], [-120.6635, 36.2078], [-120.6672, 36.2092], [-120.6677, 36.2105], [-120.6693, 36.2105], [-120.6704, 36.2116], [-120.6696, 36.2131], [-120.6706, 36.2139], [-120.6701, 36.2154], [-120.671, 36.2166], [-120.6679, 36.2227], [-120.6646, 36.2264], [-120.6642, 36.23], [-120.6662, 36.233], [-120.6641, 36.2356], [-120.6631, 36.2359], [-120.6568, 36.2341], [-120.6554, 36.232], [-120.6531, 36.2321], [-120.6513, 36.2309], [-120.649, 36.2335], [-120.6453, 36.2358], [-120.6434, 36.2381], [-120.6416, 36.2389], [-120.639, 36.2379], [-120.6347, 36.2398], [-120.6311, 36.2404], [-120.6316, 36.2414], [-120.6283, 36.2433], [-120.6258, 36.2463], [-120.6239, 36.2471], [-120.6203, 36.2464], [-120.6197, 36.2472], [-120.6125, 36.2453], [-120.6101, 36.2454], [-120.608, 36.2443], [-120.6059, 36.2452], [-120.6043, 36.2434], [-120.603, 36.2447], [-120.601, 36.2445], [-120.6001, 36.2431], [-120.6013, 36.2426], [-120.6015, 36.2419], [-120.5995, 36.2412], [-120.6011, 36.2403], [-120.5981, 36.2397], [-120.597, 36.2409], [-120.5959, 36.2407], [-120.5943, 36.2388], [-120.5922, 36.2388], [-120.5908, 36.2372], [-120.5892, 36.2372], [-120.5888, 36.2378], [-120.5881, 36.2374], [-120.5873, 36.2386], [-120.5865, 36.2377], [-120.5867, 36.236], [-120.5844, 36.2351], [-120.5827, 36.2321], [-120.5821, 36.2324], [-120.5763, 36.23], [-120.574, 36.23], [-120.5744, 36.229], [-120.5723, 36.2276], [-120.5683, 36.2281], [-120.5672, 36.2293], [-120.5655, 36.2297], [-120.5659, 36.2282], [-120.5651, 36.2267], [-120.5643, 36.2271], [-120.5647, 36.2308], [-120.5625, 36.231], [-120.5621, 36.2295], [-120.5596, 36.2293], [-120.559, 36.232], [-120.5547, 36.2337], [-120.5528, 36.2287], [-120.5535, 36.2284], [-120.553, 36.2271], [-120.5547, 36.223], [-120.5606, 36.223], [-120.5572, 36.212], [-120.56, 36.212], [-120.5599, 36.2048], [-120.5776, 36.2049], [-120.5776, 36.2085], [-120.5821, 36.2085], [-120.5821, 36.1975], [-120.5687, 36.1975], [-120.5687, 36.1829], [-120.5642, 36.1829], [-120.5641, 36.1792], [-120.5508, 36.1792], [-120.5507, 36.1757], [-120.5552, 36.1757], [-120.555, 36.1648], [-120.5595, 36.1648], [-120.5594, 36.1502], [-120.5549, 36.1502], [-120.5549, 36.1466], [-120.5414, 36.1465], [-120.5414, 36.1393], [-120.5593, 36.1394], [-120.5593, 36.143], [-120.5638, 36.143], [-120.5641, 36.1648], [-120.5685, 36.1647], [-120.5689, 36.1718], [-120.573, 36.1718], [-120.5729, 36.1754], [-120.5774, 36.1754], [-120.5774, 36.1718], [-120.5796, 36.1719], [-120.5809, 36.1727], [-120.5824, 36.1717], [-120.5835, 36.17], [-120.5845, 36.1708], [-120.5869, 36.1705], [-120.5883, 36.1712], [-120.5886, 36.1701], [-120.5898, 36.1742], [-120.588, 36.1754], [-120.588, 36.1771], [-120.5894, 36.1778], [-120.592, 36.1762], [-120.592, 36.1783], [-120.5929, 36.1794], [-120.5957, 36.1787], [-120.5974, 36.1797], [-120.598, 36.1822]]], [[[-120.5458, 36.2139], [-120.5451, 36.2131], [-120.5426, 36.212], [-120.5462, 36.212], [-120.5458, 36.2139]]], [[[-120.5422, 36.2103], [-120.5416, 36.2084], [-120.5382, 36.2078], [-120.5382, 36.207], [-120.537, 36.2069], [-120.5367, 36.2062], [-120.5334, 36.2046], [-120.5338, 36.2039], [-120.5275, 36.2086], [-120.5266, 36.2049], [-120.5245, 36.204], [-120.5226, 36.2049], [-120.5214, 36.2025], [-120.5177, 36.1999], [-120.5158, 36.1964], [-120.5146, 36.1964], [-120.514, 36.194], [-120.5145, 36.1929], [-120.513, 36.1896], [-120.5134, 36.1871], [-120.5117, 36.1867], [-120.5101, 36.1845], [-120.5141, 36.1763], [-120.5151, 36.1763], [-120.5151, 36.1793], [-120.5286, 36.1793], [-120.5285, 36.1757], [-120.533, 36.1757], [-120.5333, 36.1975], [-120.5377, 36.1975], [-120.5377, 36.2012], [-120.5421, 36.2011], [-120.5422, 36.2103]]], [[[-120.4845, 36.1248], [-120.484, 36.1236], [-120.4817, 36.1223], [-120.4827, 36.1202], [-120.4804, 36.1189], [-120.4794, 36.1175], [-120.4765, 36.1167], [-120.4777, 36.1187], [-120.4741, 36.1189], [-120.4698, 36.1153], [-120.4703, 36.1104], [-120.4882, 36.1105], [-120.4865, 36.1249], [-120.4845, 36.1248]]], [[[-120.4703, 36.1104], [-120.4598, 36.1107], [-120.4568, 36.1083], [-120.4555, 36.1085], [-120.4553, 36.108], [-120.4525, 36.1077], [-120.4493, 36.1063], [-120.4454, 36.1067], [-120.4426, 36.1061], [-120.4409, 36.1033], [-120.4441, 36.1032], [-120.4443, 36.0996], [-120.4479, 36.0986], [-120.452, 36.0963], [-120.4553, 36.0992], [-120.4575, 36.0995], [-120.4583, 36.0991], [-120.4579, 36.0977], [-120.4586, 36.0967], [-120.4609, 36.0972], [-120.4614, 36.0982], [-120.4664, 36.0984], [-120.4748, 36.0959], [-120.4807, 36.0922], [-120.4816, 36.0903], [-120.4804, 36.0879], [-120.4801, 36.0828], [-120.4812, 36.082], [-120.4838, 36.0821], [-120.4872, 36.0835], [-120.489, 36.0859], [-120.4923, 36.0879], [-120.4988, 36.0893], [-120.5083, 36.0926], [-120.5129, 36.0918], [-120.5171, 36.094], [-120.5213, 36.0948], [-120.5218, 36.0981], [-120.5207, 36.1002], [-120.5211, 36.1027], [-120.5198, 36.1028], [-120.519, 36.1036], [-120.5207, 36.1041], [-120.5214, 36.1039], [-120.5211, 36.1032], [-120.5218, 36.1035], [-120.521, 36.1049], [-120.5219, 36.1046], [-120.5222, 36.105], [-120.5211, 36.1055], [-120.5222, 36.1053], [-120.5225, 36.1066], [-120.5211, 36.1073], [-120.5225, 36.1114], [-120.5211, 36.1124], [-120.5226, 36.1135], [-120.5228, 36.1148], [-120.5226, 36.1175], [-120.5212, 36.1187], [-120.522, 36.1189], [-120.5228, 36.1249], [-120.5192, 36.1248], [-120.5192, 36.1071], [-120.5066, 36.107], [-120.5062, 36.1107], [-120.4882, 36.1105], [-120.4895, 36.0999], [-120.4851, 36.0999], [-120.4856, 36.0961], [-120.4756, 36.0961], [-120.4719, 36.0968], [-120.4703, 36.1104]]], [[[-120.4396, 36.1021], [-120.4353, 36.0987], [-120.4347, 36.0953], [-120.4333, 36.094], [-120.4347, 36.0943], [-120.436, 36.0964], [-120.4394, 36.0969], [-120.4421, 36.0983], [-120.4417, 36.0996], [-120.4401, 36.0996], [-120.4396, 36.1021]]], [[[-120.5237, 36.1265], [-120.525, 36.1272], [-120.5263, 36.1293], [-120.5276, 36.1294], [-120.5277, 36.1307], [-120.5297, 36.1321], [-120.5305, 36.1318], [-120.5333, 36.132], [-120.5326, 36.132], [-120.5325, 36.1538], [-120.5143, 36.1537], [-120.5145, 36.1392], [-120.5234, 36.1393], [-120.5237, 36.1265]]], [[[-120.5338, 36.132], [-120.5352, 36.1299], [-120.5379, 36.1294], [-120.538, 36.1305], [-120.5372, 36.1299], [-120.5358, 36.1306], [-120.5377, 36.131], [-120.5379, 36.132], [-120.5338, 36.132]]], [[[-120.5397, 36.1321], [-120.54, 36.1311], [-120.5408, 36.1321], [-120.5397, 36.1321]]], [[[-120.5412, 36.132], [-120.5427, 36.1324], [-120.5424, 36.1332], [-120.5435, 36.1354], [-120.5443, 36.1344], [-120.5454, 36.1358], [-120.5414, 36.1358], [-120.5412, 36.132]]], [[[-120.5464, 36.1354], [-120.5423, 36.1311], [-120.5444, 36.1298], [-120.5449, 36.1283], [-120.5486, 36.1262], [-120.5506, 36.1279], [-120.5505, 36.1358], [-120.5464, 36.1354]]], [[[-120.5773, 36.1679], [-120.5773, 36.1682], [-120.5773, 36.1684], [-120.5773, 36.1679]]], [[[-120.5369, 36.1393], [-120.537, 36.1375], [-120.5414, 36.1376], [-120.5414, 36.1393], [-120.5369, 36.1393]]], [[[-120.5326, 36.1575], [-120.5415, 36.1574], [-120.5415, 36.161], [-120.5459, 36.161], [-120.546, 36.1684], [-120.5417, 36.1683], [-120.5418, 36.172], [-120.5374, 36.172], [-120.5373, 36.1684], [-120.5327, 36.1684], [-120.5326, 36.1575]]]]}, "properties": {"layer": "retained"}}, {"type": "Feature", "geometry": {"type": "Polygon", "coordinates": [[[-120.5574, 36.1773], [-120.5584, 36.177], [-120.5574, 36.177], [-120.5574, 36.1773]]]}, "properties": {"layer": "high_severity"}}, {"type": "Feature", "geometry": {"type": "Polygon", "coordinates": [[[-120.5835, 36.1885], [-120.5838, 36.1882], [-120.5835, 36.1882], [-120.5835, 36.1885]]]}, "properties": {"layer": "interior"}}, {"type": "Feature", "geometry": {"type": "Polygon", "coordinates": [[[-120.5835, 36.1885], [-120.5838, 36.1882], [-120.5835, 36.1882], [-120.5835, 36.1885]]]}, "properties": {"layer": "cell", "cell_id": "163_3000", "seed_zone": "163", "elevation_band": "3000–3500 ft"}}]}
