{"type": "FeatureCollection", "features": [{"type": "Feature", "geometry": {"type": "Polygon", "coordinates": [[[-122.2822, 40.9439], [-122.2809, 40.9473], [-122.277, 40.9497], [-122.2758, 40.9524], [-122.2757, 40.956], [-122.2739, 40.9588], [-122.2697, 40.9599], [-122.2642, 40.9598], [-122.2563, 40.9631], [-122.2551, 40.9597], [-122.2501, 40.9564], [-122.2481, 40.9541], [-122.2406, 40.9517], [-122.2411, 40.9477], [-122.2424, 40.9471], [-122.2444, 40.9448], [-122.2456, 40.9404], [-122.2482, 40.9383], [-122.2486, 40.9351], [-122.2508, 40.9327], [-122.2512, 40.9311], [-122.2503, 40.9278], [-122.2489, 40.9271], [-122.2454, 40.919], [-122.245, 40.9173], [-122.2465, 40.9157], [-122.2431, 40.9149], [-122.2424, 40.9113], [-122.2483, 40.9082], [-122.2507, 40.9079], [-122.2533, 40.9067], [-122.2564, 40.9036], [-122.2591, 40.9025], [-122.2616, 40.8987], [-122.2629, 40.898], [-122.2635, 40.899], [-122.2659, 40.9], [-122.2704, 40.9001], [-122.2736, 40.9013], [-122.2778, 40.9001], [-122.2811, 40.9004], [-122.2827, 40.9025], [-122.2874, 40.9024], [-122.2853, 40.9042], [-122.2849, 40.9087], [-122.2859, 40.9123], [-122.2884, 40.9147], [-122.2916, 40.9146], [-122.2936, 40.9159], [-122.295, 40.921], [-122.2976, 40.9236], [-122.3022, 40.9262], [-122.303, 40.9278], [-122.3013, 40.9284], [-122.3014, 40.931], [-122.2986, 40.9325], [-122.2965, 40.9358], [-122.2925, 40.9383], [-122.2907, 40.9387], [-122.2877, 40.9413], [-122.2856, 40.9409], [-122.2822, 40.9439]]]}, "properties": {"layer": "perimeter"}}, {"type": "Feature", "geometry": {"type": "MultiPolygon", "coordinates": [[[[-122.2822, 40.9439], [-122.2809, 40.9473], [-122.277, 40.9497], [-122.275, 40.9578], [-122.2739, 40.9588], [-122.2697, 40.9599], [-122.2666, 40.9598], [-122.2666, 40.9459], [-122.2535, 40.9459], [-122.2531, 40.9316], [-122.2604, 40.9317], [-122.2603, 40.9098], [-122.2791, 40.9097], [-122.279, 40.9317], [-122.2981, 40.9317], [-122.2981, 40.9238], [-122.3022, 40.9262], [-122.303, 40.9278], [-122.3013, 40.9284], [-122.3014, 40.931], [-122.2986, 40.9325], [-122.2965, 40.9358], [-122.2925, 40.9383], [-122.2907, 40.9387], [-122.2877, 40.9413], [-122.2856, 40.9409], [-122.2822, 40.9439]]], [[[-122.2436, 40.9525], [-122.2406, 40.9517], [-122.2404, 40.9501], [-122.2414, 40.9491], [-122.2411, 40.9476], [-122.2437, 40.9458], [-122.2436, 40.9525]]], [[[-122.2437, 40.9458], [-122.2456, 40.9404], [-122.2485, 40.9387], [-122.2486, 40.9458], [-122.2437, 40.9458]]], [[[-122.2792, 40.9005], [-122.2811, 40.9004], [-122.2827, 40.9025], [-122.2874, 40.9024], [-122.2853, 40.9042], [-122.2853, 40.9097], [-122.2791, 40.9097], [-122.2792, 40.9005]]]]}, "properties": {"layer": "retained"}}, {"type": "Feature", "geometry": {"type": "MultiPolygon", "coordinates": [[[[-122.2715, 40.9588], [-122.2722, 40.9593], [-122.2722, 40.9588], [-122.2715, 40.9588]]], [[[-122.2746, 40.9568], [-122.2746, 40.9563], [-122.2739, 40.9563], [-122.2739, 40.9566], [-122.2746, 40.9568]]], [[[-122.2735, 40.9563], [-122.2739, 40.9561], [-122.2735, 40.9561], [-122.2735, 40.9563]]], [[[-122.2725, 40.9555], [-122.2732, 40.9553], [-122.2724, 40.9553], [-122.2725, 40.9555]]], [[[-122.2728, 40.9547], [-122.2731, 40.9544], [-122.2728, 40.9545], [-122.2728, 40.9547]]], [[[-122.275, 40.9563], [-122.276, 40.9555], [-122.2753, 40.9552], [-122.2756, 40.9539], [-122.2739, 40.955], [-122.275, 40.9563]]], [[[-122.2752, 40.9533], [-122.2756, 40.953], [-122.2752, 40.9531], [-122.2752, 40.9533]]], [[[-122.2759, 40.9522], [-122.2748, 40.9512], [-122.2734, 40.9515], [-122.2741, 40.952], [-122.2759, 40.9522]]], [[[-122.2674, 40.9532], [-122.267, 40.9519], [-122.2681, 40.9516], [-122.2677, 40.951], [-122.2666, 40.9513], [-122.2667, 40.9532], [-122.2674, 40.9532]]], [[[-122.2748, 40.9512], [-122.2752, 40.9509], [-122.2748, 40.9509], [-122.2748, 40.9512]]], [[[-122.2702, 40.9529], [-122.2705, 40.9515], [-122.2687, 40.9507], [-122.2691, 40.9518], [-122.2684, 40.9521], [-122.2695, 40.9523], [-122.2692, 40.9529], [-122.2702, 40.9529]], [[-122.2698, 40.9521], [-122.2695, 40.9523], [-122.2695, 40.9521], [-122.2698, 40.9521]]], [[[-122.2744, 40.9509], [-122.2748, 40.9506], [-122.2744, 40.9506], [-122.2744, 40.9509]]], [[[-122.2727, 40.9509], [-122.273, 40.9507], [-122.2727, 40.9507], [-122.2727, 40.9509]]], [[[-122.2727, 40.952], [-122.2734, 40.9512], [-122.2727, 40.9512], [-122.2727, 40.9509], [-122.2719, 40.951], [-122.2716, 40.9504], [-122.2713, 40.9518], [-122.2727, 40.952]]], [[[-122.2741, 40.9506], [-122.2744, 40.9504], [-122.2741, 40.9504], [-122.2741, 40.9506]]], [[[-122.2435, 40.9512], [-122.2438, 40.9509], [-122.2435, 40.9509], [-122.2435, 40.9512]]], [[[-122.2734, 40.9504], [-122.2741, 40.9498], [-122.2733, 40.9498], [-122.2734, 40.9504]]], [[[-122.2712, 40.9507], [-122.2716, 40.9501], [-122.2701, 40.9499], [-122.2702, 40.9504], [-122.2712, 40.9507]]], [[[-122.2666, 40.9502], [-122.2669, 40.9497], [-122.2666, 40.9497], [-122.2666, 40.9502]]], [[[-122.2758, 40.9498], [-122.2762, 40.9495], [-122.2758, 40.9495], [-122.2758, 40.9498]]], [[[-122.2751, 40.9498], [-122.2755, 40.9495], [-122.2751, 40.9495], [-122.2751, 40.9498]]], [[[-122.2698, 40.9499], [-122.2701, 40.9496], [-122.2698, 40.9496], [-122.2698, 40.9499]]], [[[-122.2765, 40.9495], [-122.2773, 40.9498], [-122.2772, 40.9492], [-122.2765, 40.9495]]], [[[-122.268, 40.9502], [-122.2687, 40.9497], [-122.2676, 40.9494], [-122.268, 40.9502]]], [[[-122.273, 40.9504], [-122.273, 40.949], [-122.2719, 40.9491], [-122.2716, 40.9501], [-122.273, 40.9504]]], [[[-122.2776, 40.9492], [-122.2779, 40.9489], [-122.2776, 40.949], [-122.2776, 40.9492]]], [[[-122.2712, 40.9493], [-122.2715, 40.9491], [-122.2712, 40.9491], [-122.2712, 40.9493]]], [[[-122.2673, 40.9494], [-122.2676, 40.9491], [-122.2673, 40.9491], [-122.2673, 40.9494]]], [[[-122.2772, 40.949], [-122.2776, 40.9487], [-122.2772, 40.9487], [-122.2772, 40.949]]], [[[-122.2701, 40.9488], [-122.2712, 40.9491], [-122.2712, 40.9485], [-122.2701, 40.9488]]], [[[-122.2765, 40.9484], [-122.2768, 40.9482], [-122.2765, 40.9482], [-122.2765, 40.9484]]], [[[-122.2434, 40.9496], [-122.2437, 40.9482], [-122.243, 40.9482], [-122.2434, 40.9496]]], [[[-122.2427, 40.9482], [-122.243, 40.948], [-122.2426, 40.948], [-122.2427, 40.9482]]], [[[-122.2804, 40.9473], [-122.2807, 40.9467], [-122.2804, 40.9467], [-122.2804, 40.9473]]], [[[-122.2547, 40.9459], [-122.255, 40.9456], [-122.2547, 40.9456], [-122.2547, 40.9459]]], [[[-122.2632, 40.946], [-122.2632, 40.9454], [-122.2621, 40.9452], [-122.2622, 40.9457], [-122.2632, 40.946]]], [[[-122.2611, 40.946], [-122.2611, 40.9452], [-122.2607, 40.9452], [-122.26, 40.946], [-122.2611, 40.946]]], [[[-122.2572, 40.9458], [-122.2568, 40.9453], [-122.2561, 40.9456], [-122.2561, 40.9458], [-122.2572, 40.9458]]], [[[-122.2803, 40.9451], [-122.2807, 40.9448], [-122.2803, 40.9449], [-122.2803, 40.9451]]], [[[-122.2582, 40.9455], [-122.2586, 40.9452], [-122.2582, 40.9453], [-122.2582, 40.9455]]], [[[-122.279, 40.9478], [-122.2786, 40.9468], [-122.28, 40.9467], [-122.2789, 40.9457], [-122.2803, 40.9457], [-122.2803, 40.9451], [-122.2796, 40.9446], [-122.2772, 40.9465], [-122.2772, 40.9473], [-122.279, 40.9478]], [[-122.2782, 40.9465], [-122.2779, 40.9468], [-122.2779, 40.9465], [-122.2782, 40.9465]]], [[[-122.2614, 40.9455], [-122.2618, 40.9449], [-122.2614, 40.9449], [-122.2614, 40.9455]]], [[[-122.2586, 40.9452], [-122.2589, 40.945], [-122.2586, 40.945], [-122.2586, 40.9452]]], [[[-122.2579, 40.9453], [-122.2582, 40.945], [-122.2579, 40.945], [-122.2579, 40.9453]]], [[[-122.26, 40.9452], [-122.2607, 40.9447], [-122.2604, 40.9447], [-122.26, 40.9452]]], [[[-122.2796, 40.9446], [-122.2799, 40.9443], [-122.2796, 40.9443], [-122.2796, 40.9446]]], [[[-122.2757, 40.9447], [-122.276, 40.9444], [-122.2757, 40.9444], [-122.2757, 40.9447]]], [[[-122.2572, 40.9455], [-122.2575, 40.9445], [-122.2571, 40.9445], [-122.2572, 40.9455]]], [[[-122.2582, 40.9447], [-122.2586, 40.9442], [-122.2582, 40.9442], [-122.2582, 40.9447]]], [[[-122.2561, 40.9445], [-122.2564, 40.9442], [-122.2561, 40.9442], [-122.2561, 40.9445]]], [[[-122.2803, 40.9435], [-122.2806, 40.943], [-122.2802, 40.943], [-122.2803, 40.9435]]], [[[-122.2767, 40.9436], [-122.2774, 40.9433], [-122.2767, 40.943], [-122.2767, 40.9436]]], [[[-122.2763, 40.943], [-122.2767, 40.9428], [-122.2763, 40.9428], [-122.2763, 40.943]]], [[[-122.2707, 40.9437], [-122.2706, 40.9431], [-122.271, 40.9429], [-122.2703, 40.9429], [-122.2707, 40.9437]]], [[[-122.2636, 40.9454], [-122.2639, 40.9446], [-122.2628, 40.9427], [-122.2607, 40.9436], [-122.2596, 40.9436], [-122.2596, 40.9428], [-122.2592, 40.9433], [-122.2585, 40.9431], [-122.2596, 40.9447], [-122.2603, 40.9439], [-122.2614, 40.9438], [-122.2614, 40.9447], [-122.2621, 40.9441], [-122.2636, 40.9454]]], [[[-122.2631, 40.943], [-122.2635, 40.9427], [-122.2631, 40.9427], [-122.2631, 40.943]]], [[[-122.2553, 40.9431], [-122.2557, 40.9429], [-122.2553, 40.9429], [-122.2553, 40.9431]]], [[[-122.2607, 40.9433], [-122.2606, 40.9425], [-122.2599, 40.9425], [-122.2599, 40.9431], [-122.2607, 40.9433]]], [[[-122.2802, 40.9424], [-122.2806, 40.9421], [-122.2802, 40.9421], [-122.2802, 40.9424]]], [[[-122.2628, 40.9427], [-122.2631, 40.9425], [-122.2628, 40.9425], [-122.2628, 40.9427]]], [[[-122.2589, 40.9428], [-122.2592, 40.9425], [-122.2589, 40.9425], [-122.2589, 40.9428]]], [[[-122.2546, 40.9429], [-122.2549, 40.9426], [-122.2546, 40.9426], [-122.2546, 40.9429]]], [[[-122.2617, 40.9428], [-122.2621, 40.9422], [-122.2617, 40.9422], [-122.2617, 40.9428]]], [[[-122.2809, 40.9419], [-122.2813, 40.9421], [-122.2816, 40.9419], [-122.2809, 40.9419]]], [[[-122.2792, 40.9422], [-122.2795, 40.9419], [-122.2791, 40.9419], [-122.2792, 40.9422]]], [[[-122.2621, 40.9422], [-122.2628, 40.9419], [-122.262, 40.9419], [-122.2621, 40.9422]]], [[[-122.2777, 40.9417], [-122.2781, 40.9414], [-122.2777, 40.9414], [-122.2777, 40.9417]]], [[[-122.2738, 40.9415], [-122.2741, 40.9412], [-122.2738, 40.9412], [-122.2738, 40.9415]]], [[[-122.277, 40.9417], [-122.2777, 40.9414], [-122.2773, 40.9408], [-122.2766, 40.9409], [-122.277, 40.9417]]], [[[-122.2795, 40.9416], [-122.2795, 40.9411], [-122.2798, 40.9408], [-122.2791, 40.9408], [-122.2795, 40.9416]]], [[[-122.2588, 40.9415], [-122.2592, 40.9409], [-122.2588, 40.9409], [-122.2588, 40.9415]]], [[[-122.2745, 40.9409], [-122.2748, 40.9406], [-122.2745, 40.9406], [-122.2745, 40.9409]]], [[[-122.2581, 40.9412], [-122.2585, 40.9409], [-122.2581, 40.9409], [-122.2581, 40.9412]]], [[[-122.2759, 40.9409], [-122.2762, 40.9403], [-122.2759, 40.9403], [-122.2759, 40.9409]]], [[[-122.2681, 40.941], [-122.2684, 40.9405], [-122.2681, 40.9405], [-122.2681, 40.941]]], [[[-122.2777, 40.9406], [-122.2784, 40.9403], [-122.2777, 40.9403], [-122.2777, 40.9406]]], [[[-122.2606, 40.9409], [-122.2609, 40.9406], [-122.2606, 40.9406], [-122.2606, 40.9409]]], [[[-122.2577, 40.9409], [-122.2581, 40.9407], [-122.2577, 40.9407], [-122.2577, 40.9409]]], [[[-122.2752, 40.9409], [-122.2755, 40.9401], [-122.2752, 40.9401], [-122.2752, 40.9409]]], [[[-122.2784, 40.9403], [-122.2791, 40.94], [-122.2784, 40.94], [-122.2784, 40.9403]]], [[[-122.2773, 40.9403], [-122.2777, 40.94], [-122.2773, 40.94], [-122.2773, 40.9403]]], [[[-122.2609, 40.9406], [-122.2613, 40.9403], [-122.2609, 40.9403], [-122.2609, 40.9406]]], [[[-122.2584, 40.9407], [-122.2591, 40.9404], [-122.2584, 40.9404], [-122.2584, 40.9407]]], [[[-122.2695, 40.9405], [-122.2691, 40.9399], [-122.2684, 40.9402], [-122.2684, 40.9405], [-122.2695, 40.9405]]], [[[-122.2891, 40.9398], [-122.2894, 40.9395], [-122.289, 40.9396], [-122.2891, 40.9398]]], [[[-122.262, 40.9403], [-122.2623, 40.94], [-122.262, 40.94], [-122.262, 40.9403]]], [[[-122.2684, 40.9399], [-122.2687, 40.9397], [-122.2684, 40.9397], [-122.2684, 40.9399]]], [[[-122.2769, 40.9398], [-122.2776, 40.9395], [-122.2769, 40.9392], [-122.2769, 40.9398]]], [[[-122.2737, 40.9396], [-122.2741, 40.9393], [-122.2737, 40.9393], [-122.2737, 40.9396]]], [[[-122.2663, 40.9397], [-122.2666, 40.9392], [-122.2662, 40.9392], [-122.2663, 40.9397]]], [[[-122.2613, 40.9401], [-122.2605, 40.939], [-122.2595, 40.939], [-122.2595, 40.9401], [-122.2598, 40.9395], [-122.2613, 40.9401]]], [[[-122.2687, 40.9397], [-122.2698, 40.9388], [-122.2687, 40.9388], [-122.2687, 40.9397]]], [[[-122.2808, 40.9389], [-122.2812, 40.9386], [-122.2808, 40.9386], [-122.2808, 40.9389]]], [[[-122.2659, 40.9392], [-122.2662, 40.9389], [-122.2659, 40.9389], [-122.2659, 40.9392]]], [[[-122.2821, 40.9451], [-122.2824, 40.9435], [-122.2849, 40.9423], [-122.2852, 40.941], [-122.2859, 40.941], [-122.2852, 40.9407], [-122.2851, 40.9391], [-122.283, 40.9397], [-122.2833, 40.9388], [-122.2823, 40.9389], [-122.2827, 40.9402], [-122.2819, 40.9402], [-122.2815, 40.9392], [-122.2808, 40.9389], [-122.2805, 40.9389], [-122.2801, 40.9392], [-122.2801, 40.9384], [-122.2794, 40.9384], [-122.2794, 40.9395], [-122.2783, 40.9387], [-122.2784, 40.9397], [-122.2809, 40.94], [-122.282, 40.941], [-122.283, 40.941], [-122.2827, 40.9424], [-122.2809, 40.9427], [-122.2806, 40.9435], [-122.2806, 40.944], [-122.2821, 40.9437], [-122.281, 40.9446], [-122.281, 40.9451], [-122.2821, 40.9451]]], [[[-122.2822, 40.9386], [-122.2826, 40.9383], [-122.2822, 40.9383], [-122.2822, 40.9386]]], [[[-122.2765, 40.9387], [-122.2773, 40.9384], [-122.2765, 40.9384], [-122.2765, 40.9387]]], [[[-122.2662, 40.9389], [-122.2666, 40.9386], [-122.2662, 40.9386], [-122.2662, 40.9389]]], [[[-122.2591, 40.939], [-122.2595, 40.9387], [-122.2591, 40.9387], [-122.2591, 40.939]]], [[[-122.2844, 40.9386], [-122.284, 40.938], [-122.2829, 40.938], [-122.2829, 40.9383], [-122.2844, 40.9386]]], [[[-122.2787, 40.9384], [-122.279, 40.9381], [-122.2787, 40.9381], [-122.2787, 40.9384]]], [[[-122.2587, 40.9388], [-122.2591, 40.9385], [-122.2587, 40.9385], [-122.2587, 40.9388]]], [[[-122.2594, 40.9385], [-122.2598, 40.9382], [-122.2594, 40.9382], [-122.2594, 40.9385]]], [[[-122.2776, 40.9381], [-122.2779, 40.9376], [-122.2776, 40.9376], [-122.2776, 40.9381]]], [[[-122.2858, 40.9377], [-122.2861, 40.9374], [-122.2858, 40.9375], [-122.2858, 40.9377]]], [[[-122.2783, 40.9379], [-122.2787, 40.9376], [-122.2783, 40.9376], [-122.2783, 40.9379]]], [[[-122.2584, 40.9382], [-122.2594, 40.9379], [-122.2584, 40.9379], [-122.2584, 40.9382]]], [[[-122.2577, 40.9404], [-122.2588, 40.9396], [-122.2566, 40.9377], [-122.2559, 40.9393], [-122.2577, 40.9404]], [[-122.2573, 40.9388], [-122.257, 40.9393], [-122.2566, 40.9388], [-122.2573, 40.9388]]], [[[-122.2772, 40.9376], [-122.2776, 40.9373], [-122.2772, 40.9373], [-122.2772, 40.9376]]], [[[-122.2687, 40.9388], [-122.269, 40.9378], [-122.2683, 40.9372], [-122.2676, 40.9381], [-122.2662, 40.9381], [-122.2687, 40.9388]]], [[[-122.2662, 40.9381], [-122.2662, 40.937], [-122.2648, 40.9376], [-122.2648, 40.9378], [-122.2662, 40.9381]]], [[[-122.2566, 40.9377], [-122.2566, 40.9372], [-122.2551, 40.9375], [-122.2551, 40.9377], [-122.2566, 40.9377]]], [[[-122.2676, 40.9372], [-122.2679, 40.937], [-122.2676, 40.937], [-122.2676, 40.9372]]], [[[-122.2544, 40.9375], [-122.2548, 40.9372], [-122.2544, 40.9372], [-122.2544, 40.9375]]], [[[-122.2722, 40.9369], [-122.2726, 40.9366], [-122.2722, 40.9366], [-122.2722, 40.9369]]], [[[-122.2818, 40.9367], [-122.2822, 40.9362], [-122.2818, 40.9362], [-122.2818, 40.9367]]], [[[-122.2658, 40.9367], [-122.2661, 40.9365], [-122.2658, 40.9365], [-122.2658, 40.9367]]], [[[-122.2957, 40.9359], [-122.296, 40.9356], [-122.2957, 40.9356], [-122.2957, 40.9359]]], [[[-122.2815, 40.9362], [-122.2818, 40.9359], [-122.2814, 40.9359], [-122.2815, 40.9362]]], [[[-122.2946, 40.9362], [-122.2957, 40.9354], [-122.2946, 40.9354], [-122.2946, 40.9362]]], [[[-122.2693, 40.9361], [-122.27, 40.9358], [-122.2693, 40.9359], [-122.2693, 40.9361]]], [[[-122.2651, 40.9362], [-122.2654, 40.9359], [-122.2651, 40.9359], [-122.2651, 40.9362]]], [[[-122.2562, 40.9369], [-122.2562, 40.9364], [-122.2569, 40.9361], [-122.2555, 40.9364], [-122.2562, 40.9369]]], [[[-122.2847, 40.9364], [-122.2846, 40.9356], [-122.2836, 40.9353], [-122.2836, 40.9361], [-122.2847, 40.9364]]], [[[-122.2647, 40.9359], [-122.2651, 40.9357], [-122.2647, 40.9357], [-122.2647, 40.9359]]], [[[-122.28, 40.9349], [-122.2803, 40.9346], [-122.28, 40.9346], [-122.28, 40.9349]]], [[[-122.296, 40.9348], [-122.296, 40.934], [-122.2953, 40.934], [-122.2949, 40.9346], [-122.296, 40.9348]]], [[[-122.2964, 40.9348], [-122.2971, 40.9343], [-122.2963, 40.934], [-122.2964, 40.9348]]], [[[-122.2796, 40.9346], [-122.28, 40.9343], [-122.2796, 40.9343], [-122.2796, 40.9346]]], [[[-122.2857, 40.9342], [-122.286, 40.9339], [-122.2857, 40.9339], [-122.2857, 40.9342]]], [[[-122.2543, 40.9348], [-122.2543, 40.9342], [-122.2536, 40.9343], [-122.2536, 40.9345], [-122.2543, 40.9348]]], [[[-122.286, 40.9339], [-122.2864, 40.9337], [-122.286, 40.9337], [-122.286, 40.9339]]], [[[-122.2728, 40.9334], [-122.2732, 40.9331], [-122.2728, 40.9331], [-122.2728, 40.9334]]], [[[-122.2963, 40.9327], [-122.297, 40.9335], [-122.2984, 40.9326], [-122.2963, 40.9327]]], [[[-122.2945, 40.9324], [-122.2949, 40.9321], [-122.2945, 40.9322], [-122.2945, 40.9324]]], [[[-122.2803, 40.9327], [-122.2806, 40.9319], [-122.2803, 40.9319], [-122.2803, 40.9327]]], [[[-122.2934, 40.9322], [-122.2941, 40.9316], [-122.2931, 40.9316], [-122.2934, 40.9322]]], [[[-122.2924, 40.9322], [-122.2927, 40.9316], [-122.2924, 40.9317], [-122.2924, 40.9322]]], [[[-122.2795, 40.9319], [-122.2802, 40.9316], [-122.2795, 40.9316], [-122.2795, 40.9319]]], [[[-122.2696, 40.9321], [-122.2699, 40.9315], [-122.2696, 40.9315], [-122.2696, 40.9321]]], [[[-122.2995, 40.931], [-122.2998, 40.9312], [-122.3009, 40.931], [-122.2995, 40.931]]], [[[-122.277, 40.9317], [-122.2774, 40.9314], [-122.277, 40.9314], [-122.277, 40.9317]]], [[[-122.2649, 40.9305], [-122.2652, 40.9303], [-122.2649, 40.9303], [-122.2649, 40.9305]]], [[[-122.3012, 40.9304], [-122.3012, 40.9296], [-122.2997, 40.9288], [-122.2991, 40.9299], [-122.3012, 40.9304]]], [[[-122.273, 40.929], [-122.2734, 40.9288], [-122.273, 40.9288], [-122.273, 40.929]]], [[[-122.298, 40.9297], [-122.2987, 40.9283], [-122.2979, 40.928], [-122.298, 40.9297]]], [[[-122.2737, 40.9287], [-122.2741, 40.9285], [-122.2737, 40.9285], [-122.2737, 40.9287]]], [[[-122.3019, 40.9282], [-122.3015, 40.9269], [-122.3, 40.9272], [-122.3008, 40.9283], [-122.3019, 40.9282]]], [[[-122.2701, 40.9269], [-122.2705, 40.9266], [-122.2701, 40.9267], [-122.2701, 40.9269]]], [[[-122.2701, 40.9264], [-122.2704, 40.9258], [-122.2701, 40.9258], [-122.2701, 40.9264]]], [[[-122.2665, 40.9259], [-122.2679, 40.9251], [-122.2661, 40.9251], [-122.2665, 40.9259]]], [[[-122.2665, 40.9246], [-122.2668, 40.9243], [-122.2665, 40.9243], [-122.2665, 40.9246]]], [[[-122.2743, 40.9233], [-122.2746, 40.9231], [-122.2743, 40.9231], [-122.2743, 40.9233]]], [[[-122.2617, 40.92], [-122.2624, 40.9198], [-122.2617, 40.9198], [-122.2617, 40.92]]], [[[-122.2695, 40.9175], [-122.2694, 40.9167], [-122.268, 40.9167], [-122.2684, 40.9172], [-122.2695, 40.9175]]], [[[-122.2666, 40.9156], [-122.2673, 40.9153], [-122.2666, 40.9154], [-122.2666, 40.9156]]], [[[-122.2694, 40.9161], [-122.2701, 40.915], [-122.269, 40.915], [-122.2694, 40.9161]]], [[[-122.2687, 40.9151], [-122.269, 40.9145], [-122.2687, 40.9145], [-122.2687, 40.9151]]], [[[-122.2701, 40.9145], [-122.2704, 40.9142], [-122.2701, 40.9142], [-122.2701, 40.9145]]], [[[-122.2611, 40.9125], [-122.2615, 40.9122], [-122.2611, 40.9122], [-122.2611, 40.9125]]], [[[-122.269, 40.914], [-122.2704, 40.9134], [-122.2696, 40.9118], [-122.269, 40.914]]], [[[-122.2669, 40.9137], [-122.2668, 40.9132], [-122.2679, 40.9134], [-122.2689, 40.9118], [-122.2661, 40.9129], [-122.2669, 40.9137]]], [[[-122.2689, 40.9118], [-122.2693, 40.9115], [-122.2689, 40.9115], [-122.2689, 40.9118]]], [[[-122.2667, 40.91], [-122.2671, 40.9097], [-122.2667, 40.9097], [-122.2667, 40.91]]], [[[-122.2851, 40.9053], [-122.2855, 40.905], [-122.2851, 40.905], [-122.2851, 40.9053]]], [[[-122.2851, 40.9045], [-122.285, 40.9034], [-122.2864, 40.9026], [-122.2861, 40.902], [-122.2843, 40.9037], [-122.2851, 40.9045]]]]}, "properties": {"layer": "high_severity"}}, {"type": "Feature", "geometry": {"type": "MultiPolygon", "coordinates": [[[[-122.2582, 40.9455], [-122.2586, 40.9452], [-122.2582, 40.9453], [-122.2582, 40.9455]]], [[[-122.2838, 40.9418], [-122.2841, 40.9413], [-122.2838, 40.9413], [-122.2838, 40.9418]]], [[[-122.2845, 40.9413], [-122.2844, 40.9404], [-122.2837, 40.9405], [-122.2837, 40.941], [-122.2845, 40.9413]]], [[[-122.2801, 40.9397], [-122.2805, 40.9394], [-122.2801, 40.9394], [-122.2801, 40.9397]]]]}, "properties": {"layer": "interior"}}, {"type": "Feature", "geometry": {"type": "Polygon", "coordinates": [[[-122.2582, 40.9455], [-122.2586, 40.9452], [-122.2582, 40.9453], [-122.2582, 40.9455]]]}, "properties": {"layer": "cell", "cell_id": "521_1500", "seed_zone": "521", "elevation_band": "1500–2000 ft"}}, {"type": "Feature", "geometry": {"type": "Polygon", "coordinates": [[[-122.2801, 40.9397], [-122.2805, 40.9394], [-122.2801, 40.9394], [-122.2801, 40.9397]]]}, "properties": {"layer": "cell", "cell_id": "521_3000", "seed_zone": "521", "elevation_band": "3000–3500 ft"}}, {"type": "Feature", "geometry": {"type": "MultiPolygon", "coordinates": [[[[-122.2838, 40.9418], [-122.2841, 40.9413], [-122.2838, 40.9413], [-122.2838, 40.9418]]], [[[-122.2845, 40.9413], [-122.2844, 40.9404], [-122.2837, 40.9405], [-122.2837, 40.941], [-122.2845, 40.9413]]]]}, "properties": {"layer": "cell", "cell_id": "521_3500", "seed_zone": "521", "elevation_band": "3500–4000 ft"}}]}
