{"type": "FeatureCollection", "features": [{"type": "Feature", "geometry": {"type": "Polygon", "coordinates": [[[-117.4424, 35.9956], [-117.4287, 35.995], [-117.4258, 35.9965], [-117.4225, 35.9963], [-117.4205, 35.9982], [-117.419, 35.9972], [-117.4163, 35.9981], [-117.415, 35.9994], [-117.4125, 35.9983], [-117.4196, 35.9946], [-117.4146, 35.9954], [-117.4116, 35.9947], [-117.4147, 35.9929], [-117.4145, 35.9904], [-117.4191, 35.9883], [-117.4191, 35.9873], [-117.4223, 35.9865], [-117.4218, 35.9859], [-117.4227, 35.9854], [-117.4242, 35.9853], [-117.4249, 35.9862], [-117.4242, 35.9865], [-117.426, 35.9875], [-117.4276, 35.9855], [-117.4276, 35.9833], [-117.425, 35.983], [-117.4277, 35.9817], [-117.4295, 35.9794], [-117.4265, 35.9781], [-117.4261, 35.9773], [-117.424, 35.9771], [-117.4243, 35.9759], [-117.4258, 35.9748], [-117.4238, 35.9737], [-117.4254, 35.9727], [-117.4288, 35.9737], [-117.4253, 35.9709], [-117.4275, 35.971], [-117.4277, 35.9701], [-117.4229, 35.9691], [-117.4271, 35.9679], [-117.4277, 35.9684], [-117.4288, 35.9678], [-117.4293, 35.9684], [-117.4302, 35.9682], [-117.4297, 35.9691], [-117.4315, 35.9688], [-117.4328, 35.9708], [-117.4345, 35.9706], [-117.4359, 35.9715], [-117.4387, 35.9688], [-117.4411, 35.9693], [-117.4412, 35.9684], [-117.4405, 35.9681], [-117.4411, 35.9678], [-117.4447, 35.9673], [-117.449, 35.9685], [-117.4484, 35.9694], [-117.4494, 35.9696], [-117.4489, 35.9705], [-117.45, 35.971], [-117.4486, 35.9726], [-117.4492, 35.9734], [-117.4518, 35.974], [-117.4527, 35.9731], [-117.4534, 35.9745], [-117.4544, 35.9739], [-117.4545, 35.9709], [-117.4568, 35.9697], [-117.4579, 35.9713], [-117.4567, 35.9719], [-117.4565, 35.9744], [-117.4586, 35.9749], [-117.458, 35.9759], [-117.4585, 35.9773], [-117.4572, 35.9791], [-117.4582, 35.9808], [-117.4621, 35.9828], [-117.4661, 35.9828], [-117.4671, 35.9816], [-117.4688, 35.9824], [-117.4691, 35.9834], [-117.4716, 35.9839], [-117.4713, 35.9852], [-117.4725, 35.9862], [-117.4736, 35.9855], [-117.4759, 35.9873], [-117.4792, 35.9887], [-117.4809, 35.9888], [-117.4818, 35.9878], [-117.483, 35.9889], [-117.4851, 35.9872], [-117.4869, 35.9889], [-117.4892, 35.9895], [-117.491, 35.989], [-117.4918, 35.9901], [-117.4947, 35.9906], [-117.4947, 35.9913], [-117.4961, 35.9906], [-117.4957, 35.9914], [-117.4964, 35.9918], [-117.4996, 35.9911], [-117.5005, 35.9901], [-117.5018, 35.9905], [-117.5018, 35.9918], [-117.5039, 35.992], [-117.5042, 35.993], [-117.503, 35.9938], [-117.5028, 35.9948], [-117.4991, 35.9955], [-117.4988, 35.9951], [-117.4976, 35.9963], [-117.4984, 35.9976], [-117.4988, 36.0016], [-117.4997, 36.0017], [-117.4991, 36.003], [-117.4999, 36.0064], [-117.4983, 36.0085], [-117.4985, 36.0055], [-117.4954, 36.0054], [-117.4956, 36.0102], [-117.4953, 36.0107], [-117.495, 36.0096], [-117.4941, 36.0106], [-117.4948, 36.0127], [-117.4931, 36.0155], [-117.4941, 36.0194], [-117.4962, 36.0202], [-117.4965, 36.0221], [-117.4954, 36.0231], [-117.4937, 36.0229], [-117.493, 36.0237], [-117.4953, 36.0248], [-117.4948, 36.0256], [-117.4962, 36.0272], [-117.496, 36.029], [-117.4969, 36.0299], [-117.4963, 36.0316], [-117.4941, 36.0328], [-117.4929, 36.0323], [-117.4899, 36.0335], [-117.4845, 36.0382], [-117.4829, 36.0343], [-117.4836, 36.0326], [-117.4802, 36.0296], [-117.4801, 36.0301], [-117.4789, 36.0301], [-117.4786, 36.0361], [-117.4804, 36.0368], [-117.4821, 36.039], [-117.4809, 36.0412], [-117.4828, 36.0431], [-117.4828, 36.0448], [-117.4797, 36.047], [-117.4773, 36.0476], [-117.4743, 36.0461], [-117.4729, 36.0469], [-117.4713, 36.0466], [-117.4719, 36.0481], [-117.4708, 36.0497], [-117.4733, 36.0499], [-117.474, 36.0522], [-117.4713, 36.0525], [-117.4697, 36.0516], [-117.4662, 36.053], [-117.4667, 36.0549], [-117.4694, 36.0537], [-117.4702, 36.0548], [-117.4705, 36.0585], [-117.4693, 36.0604], [-117.4699, 36.0615], [-117.4724, 36.0611], [-117.4728, 36.0618], [-117.4702, 36.0655], [-117.4687, 36.0662], [-117.4689, 36.0671], [-117.4701, 36.0668], [-117.4743, 36.0707], [-117.4722, 36.0705], [-117.4695, 36.0692], [-117.4646, 36.0703], [-117.4628, 36.0717], [-117.4611, 36.0717], [-117.4594, 36.0725], [-117.4592, 36.0738], [-117.4577, 36.0743], [-117.455, 36.0743], [-117.4541, 36.0726], [-117.4528, 36.0728], [-117.4519, 36.072], [-117.4508, 36.0754], [-117.4484, 36.0747], [-117.4472, 36.0758], [-117.4456, 36.0759], [-117.4387, 36.0723], [-117.436, 36.0721], [-117.4421, 36.0686], [-117.4446, 36.068], [-117.4436, 36.067], [-117.4378, 36.0672], [-117.4393, 36.0659], [-117.441, 36.0654], [-117.4435, 36.0656], [-117.4441, 36.065], [-117.4436, 36.0636], [-117.4444, 36.0629], [-117.4457, 36.0626], [-117.4474, 36.0645], [-117.4513, 36.0649], [-117.4507, 36.063], [-117.4512, 36.0603], [-117.4492, 36.061], [-117.4479, 36.0605], [-117.4472, 36.0556], [-117.4491, 36.0556], [-117.4526, 36.0567], [-117.4536, 36.056], [-117.4552, 36.0539], [-117.4545, 36.0509], [-117.4552, 36.0499], [-117.4542, 36.0492], [-117.4554, 36.0481], [-117.4543, 36.0465], [-117.454, 36.0435], [-117.4562, 36.0417], [-117.4576, 36.0385], [-117.4627, 36.038], [-117.4611, 36.0347], [-117.4599, 36.0289], [-117.4608, 36.0257], [-117.458, 36.0249], [-117.4613, 36.0242], [-117.4593, 36.0225], [-117.4578, 36.0222], [-117.4576, 36.0214], [-117.4601, 36.0205], [-117.4539, 36.0199], [-117.4528, 36.0206], [-117.4485, 36.0198], [-117.45, 36.0173], [-117.4484, 36.0162], [-117.449, 36.0154], [-117.4518, 36.0159], [-117.4545, 36.0153], [-117.456, 36.0113], [-117.4599, 36.0089], [-117.4648, 36.0086], [-117.4635, 36.007], [-117.4638, 36.005], [-117.4651, 36.0039], [-117.4632, 36.0032], [-117.4584, 36.0031], [-117.4555, 36.0051], [-117.4518, 36.0048], [-117.4507, 36.0039], [-117.4491, 36.0038], [-117.4508, 35.9964], [-117.4491, 35.9948], [-117.4448, 35.994], [-117.4429, 35.9943], [-117.4424, 35.9956]]]}, "properties": {"layer": "perimeter"}}]}
