{"type": "FeatureCollection", "features": [{"type": "Feature", "geometry": {"type": "MultiPolygon", "coordinates": [[[[-123.5821, 41.8126], [-123.5823, 41.8123], [-123.5824, 41.8125], [-123.5821, 41.8126]]], [[[-123.5905, 41.8201], [-123.5903, 41.8203], [-123.5903, 41.8201], [-123.5905, 41.8201]]], [[[-123.6471, 41.8454], [-123.6473, 41.8457], [-123.647, 41.8454], [-123.6471, 41.8454]]], [[[-123.6012, 41.8659], [-123.6018, 41.8658], [-123.6013, 41.866], [-123.6012, 41.8659]]], [[[-123.6024, 41.8667], [-123.6026, 41.866], [-123.6039, 41.8659], [-123.6036, 41.8672], [-123.6024, 41.8667]]], [[[-123.6389, 41.8741], [-123.6402, 41.8744], [-123.6394, 41.8745], [-123.6392, 41.8755], [-123.6382, 41.8751], [-123.6389, 41.8741]]], [[[-123.5591, 41.9965], [-123.5567, 41.9899], [-123.5518, 41.9888], [-123.5546, 41.9867], [-123.5543, 41.986], [-123.5534, 41.985], [-123.5499, 41.9834], [-123.5492, 41.9814], [-123.5471, 41.9811], [-123.5456, 41.982], [-123.5438, 41.981], [-123.5433, 41.9793], [-123.5439, 41.9781], [-123.541, 41.9748], [-123.5404, 41.9724], [-123.5397, 41.9725], [-123.5352, 41.9679], [-123.5335, 41.9652], [-123.5318, 41.9652], [-123.5269, 41.961], [-123.5255, 41.9613], [-123.5255, 41.963], [-123.5245, 41.9617], [-123.5229, 41.9623], [-123.5252, 41.9595], [-123.5235, 41.959], [-123.5229, 41.9559], [-123.5213, 41.9555], [-123.5193, 41.9536], [-123.5205, 41.9507], [-123.5188, 41.9503], [-123.5183, 41.9488], [-123.5172, 41.9482], [-123.5175, 41.9474], [-123.516, 41.9467], [-123.5178, 41.9456], [-123.52, 41.9462], [-123.52, 41.9449], [-123.5206, 41.9449], [-123.5222, 41.9461], [-123.5208, 41.9463], [-123.5209, 41.9475], [-123.5191, 41.9471], [-123.5198, 41.9477], [-123.5217, 41.9482], [-123.5215, 41.9477], [-123.5225, 41.9477], [-123.5233, 41.9484], [-123.5263, 41.947], [-123.5274, 41.9459], [-123.5256, 41.9463], [-123.5229, 41.9459], [-123.5209, 41.9446], [-123.5218, 41.9436], [-123.5251, 41.9422], [-123.5235, 41.9417], [-123.5242, 41.9409], [-123.5222, 41.941], [-123.5234, 41.9394], [-123.5242, 41.9394], [-123.5253, 41.94], [-123.5278, 41.9399], [-123.5297, 41.9413], [-123.5334, 41.9416], [-123.5324, 41.9388], [-123.5344, 41.9378], [-123.5325, 41.9372], [-123.5322, 41.9348], [-123.5308, 41.9351], [-123.5301, 41.9345], [-123.5267, 41.9363], [-123.5209, 41.9356], [-123.5211, 41.9396], [-123.5199, 41.9405], [-123.5166, 41.9402], [-123.5141, 41.9409], [-123.5136, 41.939], [-123.5148, 41.9369], [-123.5132, 41.9349], [-123.5122, 41.9347], [-123.512, 41.9319], [-123.5112, 41.9317], [-123.5117, 41.9311], [-123.5109, 41.9305], [-123.5127, 41.9281], [-123.5156, 41.927], [-123.5151, 41.9256], [-123.5113, 41.9255], [-123.5112, 41.9247], [-123.5144, 41.9248], [-123.5203, 41.9234], [-123.519, 41.9213], [-123.5197, 41.9206], [-123.5179, 41.9185], [-123.516, 41.9178], [-123.5102, 41.9181], [-123.5066, 41.9168], [-123.5069, 41.9152], [-123.5063, 41.9147], [-123.5084, 41.9129], [-123.5103, 41.9124], [-123.5118, 41.9132], [-123.5134, 41.9132], [-123.5112, 41.9115], [-123.5083, 41.9109], [-123.5077, 41.9101], [-123.5021, 41.9077], [-123.5005, 41.9057], [-123.4989, 41.9055], [-123.4982, 41.9038], [-123.4965, 41.9043], [-123.4943, 41.9039], [-123.4911, 41.9016], [-123.4834, 41.9004], [-123.4829, 41.8995], [-123.4834, 41.8975], [-123.4824, 41.8962], [-123.4827, 41.8936], [-123.4814, 41.8917], [-123.4819, 41.8894], [-123.4809, 41.8853], [-123.4836, 41.8814], [-123.4888, 41.8775], [-123.4903, 41.8748], [-123.4897, 41.8745], [-123.4911, 41.8746], [-123.493, 41.8729], [-123.4972, 41.872], [-123.5002, 41.8705], [-123.5085, 41.8706], [-123.5098, 41.8716], [-123.5107, 41.8702], [-123.5129, 41.8697], [-123.5107, 41.87], [-123.4987, 41.8691], [-123.4982, 41.8706], [-123.4949, 41.8713], [-123.4904, 41.8735], [-123.488, 41.8726], [-123.4864, 41.8696], [-123.4832, 41.8686], [-123.4828, 41.8669], [-123.4807, 41.8657], [-123.4809, 41.8596], [-123.4768, 41.8551], [-123.475, 41.8543], [-123.472, 41.8498], [-123.4696, 41.8486], [-123.4695, 41.8448], [-123.4683, 41.8433], [-123.4719, 41.8389], [-123.4752, 41.8364], [-123.4767, 41.834], [-123.4764, 41.833], [-123.4807, 41.827], [-123.4794, 41.8175], [-123.4762, 41.8168], [-123.4758, 41.8161], [-123.4797, 41.8116], [-123.4798, 41.805], [-123.4804, 41.8044], [-123.4813, 41.8062], [-123.4834, 41.8073], [-123.4902, 41.8041], [-123.4918, 41.8043], [-123.4922, 41.8029], [-123.4909, 41.8038], [-123.4889, 41.8036], [-123.489, 41.8029], [-123.4931, 41.7995], [-123.493, 41.8007], [-123.4939, 41.801], [-123.4976, 41.8011], [-123.5004, 41.8035], [-123.5022, 41.8029], [-123.5037, 41.8041], [-123.505, 41.8041], [-123.5081, 41.8084], [-123.513, 41.8102], [-123.5151, 41.8123], [-123.5197, 41.8136], [-123.5215, 41.8135], [-123.5219, 41.8123], [-123.5233, 41.8121], [-123.5241, 41.8125], [-123.5242, 41.8143], [-123.5258, 41.813], [-123.5265, 41.8133], [-123.5258, 41.814], [-123.5281, 41.8142], [-123.5294, 41.8154], [-123.5287, 41.8168], [-123.5293, 41.818], [-123.5275, 41.8187], [-123.5325, 41.8224], [-123.5322, 41.8248], [-123.5332, 41.8246], [-123.5326, 41.8239], [-123.5376, 41.822], [-123.5374, 41.8212], [-123.5337, 41.8216], [-123.5338, 41.8211], [-123.5355, 41.8208], [-123.5358, 41.8198], [-123.5335, 41.8188], [-123.5329, 41.8175], [-123.5372, 41.8159], [-123.5385, 41.816], [-123.5395, 41.8142], [-123.5367, 41.8149], [-123.5366, 41.8142], [-123.5382, 41.8131], [-123.5379, 41.8122], [-123.5367, 41.8124], [-123.5369, 41.811], [-123.5384, 41.8103], [-123.5438, 41.8108], [-123.546, 41.8091], [-123.5452, 41.8086], [-123.5458, 41.8078], [-123.5451, 41.8062], [-123.5471, 41.8044], [-123.5461, 41.8033], [-123.5479, 41.8018], [-123.5504, 41.8012], [-123.5487, 41.8007], [-123.5477, 41.7993], [-123.5476, 41.7977], [-123.5487, 41.7969], [-123.5451, 41.7975], [-123.5456, 41.7969], [-123.5423, 41.7962], [-123.5437, 41.7955], [-123.5471, 41.7956], [-123.5472, 41.7946], [-123.5489, 41.7936], [-123.5503, 41.7942], [-123.5507, 41.7931], [-123.5499, 41.7925], [-123.5506, 41.7922], [-123.5492, 41.7917], [-123.5496, 41.7913], [-123.5481, 41.7909], [-123.5457, 41.7913], [-123.5458, 41.7908], [-123.5502, 41.7898], [-123.5508, 41.791], [-123.5537, 41.7908], [-123.5524, 41.7921], [-123.5513, 41.7922], [-123.5517, 41.7945], [-123.5533, 41.7945], [-123.5543, 41.7931], [-123.5553, 41.7929], [-123.5583, 41.7935], [-123.5598, 41.7931], [-123.5625, 41.7945], [-123.5622, 41.7956], [-123.5598, 41.7946], [-123.5597, 41.7938], [-123.5584, 41.794], [-123.5596, 41.795], [-123.5598, 41.7967], [-123.5623, 41.7959], [-123.5655, 41.7962], [-123.5666, 41.7957], [-123.5653, 41.795], [-123.5682, 41.7939], [-123.5694, 41.7941], [-123.5712, 41.7957], [-123.5722, 41.7954], [-123.5728, 41.7975], [-123.5743, 41.7971], [-123.5766, 41.7974], [-123.5767, 41.7979], [-123.5785, 41.797], [-123.5816, 41.7984], [-123.5821, 41.7995], [-123.5808, 41.7998], [-123.5813, 41.8006], [-123.5798, 41.8028], [-123.5766, 41.8023], [-123.5754, 41.8031], [-123.5776, 41.8032], [-123.5779, 41.8038], [-123.5771, 41.8041], [-123.5795, 41.8055], [-123.5798, 41.8038], [-123.5812, 41.8035], [-123.5804, 41.8052], [-123.5809, 41.8055], [-123.5798, 41.8058], [-123.5804, 41.8064], [-123.5787, 41.8059], [-123.5778, 41.8072], [-123.5739, 41.8077], [-123.5733, 41.8087], [-123.572, 41.8091], [-123.5718, 41.8074], [-123.5691, 41.8061], [-123.5685, 41.8084], [-123.5688, 41.8097], [-123.5709, 41.8092], [-123.5738, 41.81], [-123.5766, 41.8092], [-123.5776, 41.8101], [-123.5794, 41.8095], [-123.5805, 41.8112], [-123.5818, 41.8111], [-123.5807, 41.8148], [-123.583, 41.8158], [-123.5808, 41.8204], [-123.5815, 41.8206], [-123.584, 41.8173], [-123.5853, 41.8182], [-123.5869, 41.8174], [-123.5883, 41.8176], [-123.5876, 41.8189], [-123.5864, 41.8192], [-123.5868, 41.8202], [-123.5881, 41.8201], [-123.5883, 41.8195], [-123.591, 41.8213], [-123.5898, 41.8219], [-123.5878, 41.8212], [-123.5873, 41.8218], [-123.589, 41.822], [-123.5886, 41.8237], [-123.5916, 41.8237], [-123.5905, 41.8243], [-123.5909, 41.8247], [-123.5891, 41.8245], [-123.5914, 41.8256], [-123.5914, 41.8268], [-123.5897, 41.8287], [-123.5884, 41.8286], [-123.587, 41.8304], [-123.5883, 41.8305], [-123.5887, 41.8316], [-123.5877, 41.8318], [-123.5866, 41.8306], [-123.5859, 41.8309], [-123.5866, 41.8328], [-123.5875, 41.8326], [-123.5902, 41.8354], [-123.5862, 41.8373], [-123.5865, 41.8387], [-123.5851, 41.8379], [-123.5842, 41.8385], [-123.5859, 41.8388], [-123.5846, 41.8418], [-123.5831, 41.8425], [-123.5843, 41.8432], [-123.5837, 41.8445], [-123.5851, 41.8458], [-123.5856, 41.8453], [-123.5888, 41.8463], [-123.5873, 41.8465], [-123.5915, 41.847], [-123.5924, 41.8449], [-123.5941, 41.8436], [-123.5965, 41.8438], [-123.597, 41.8432], [-123.5999, 41.8435], [-123.6028, 41.8458], [-123.6052, 41.8456], [-123.6057, 41.8444], [-123.6082, 41.8431], [-123.6068, 41.8433], [-123.6039, 41.8409], [-123.605, 41.8403], [-123.6059, 41.8407], [-123.6076, 41.8394], [-123.6074, 41.8416], [-123.6084, 41.8416], [-123.6084, 41.8423], [-123.6091, 41.8424], [-123.6102, 41.8407], [-123.6114, 41.8416], [-123.6107, 41.8428], [-123.6171, 41.8417], [-123.6191, 41.8399], [-123.6176, 41.8389], [-123.6175, 41.8371], [-123.62, 41.8381], [-123.6232, 41.8377], [-123.6226, 41.8363], [-123.6267, 41.8336], [-123.6288, 41.8302], [-123.6312, 41.8291], [-123.6396, 41.8324], [-123.6424, 41.8319], [-123.6434, 41.8323], [-123.6438, 41.8334], [-123.6469, 41.8343], [-123.6504, 41.8394], [-123.6507, 41.8413], [-123.6498, 41.8426], [-123.648, 41.8447], [-123.6424, 41.8475], [-123.6425, 41.8495], [-123.6451, 41.8495], [-123.6486, 41.8468], [-123.6502, 41.8467], [-123.6514, 41.8445], [-123.6561, 41.8437], [-123.6584, 41.8443], [-123.661, 41.8472], [-123.6598, 41.8518], [-123.6631, 41.8523], [-123.6616, 41.8531], [-123.6627, 41.854], [-123.656, 41.8547], [-123.6608, 41.8581], [-123.6603, 41.8593], [-123.6592, 41.8592], [-123.6578, 41.8607], [-123.6573, 41.8598], [-123.6532, 41.8592], [-123.6587, 41.8636], [-123.6578, 41.8654], [-123.6583, 41.8663], [-123.6566, 41.8682], [-123.6567, 41.869], [-123.6541, 41.8693], [-123.6541, 41.8705], [-123.6457, 41.8739], [-123.6424, 41.8741], [-123.6401, 41.8735], [-123.6417, 41.869], [-123.6433, 41.8678], [-123.6481, 41.8675], [-123.6451, 41.8657], [-123.6474, 41.8646], [-123.6458, 41.864], [-123.6449, 41.8628], [-123.643, 41.863], [-123.6429, 41.8646], [-123.6409, 41.8651], [-123.6372, 41.8643], [-123.633, 41.8657], [-123.6296, 41.8679], [-123.6282, 41.8677], [-123.6263, 41.8685], [-123.6257, 41.8701], [-123.6177, 41.8707], [-123.6139, 41.8689], [-123.6109, 41.8709], [-123.609, 41.8734], [-123.6073, 41.8736], [-123.6041, 41.8761], [-123.6024, 41.8761], [-123.6028, 41.8768], [-123.6009, 41.8777], [-123.5967, 41.8774], [-123.5927, 41.8787], [-123.5887, 41.8766], [-123.5866, 41.8768], [-123.5884, 41.8785], [-123.5902, 41.8774], [-123.5894, 41.8794], [-123.5909, 41.8803], [-123.5915, 41.88], [-123.5905, 41.8814], [-123.5893, 41.8812], [-123.5889, 41.882], [-123.5893, 41.8814], [-123.5894, 41.8819], [-123.5902, 41.8818], [-123.5909, 41.8812], [-123.592, 41.8814], [-123.5935, 41.8804], [-123.5973, 41.8822], [-123.5976, 41.8816], [-123.5997, 41.882], [-123.5998, 41.8825], [-123.6015, 41.88], [-123.604, 41.8791], [-123.6058, 41.8808], [-123.6044, 41.8822], [-123.605, 41.8827], [-123.6043, 41.8857], [-123.6047, 41.8881], [-123.5989, 41.8924], [-123.5981, 41.8939], [-123.5973, 41.8942], [-123.5963, 41.8937], [-123.5957, 41.8944], [-123.5946, 41.8937], [-123.5943, 41.8944], [-123.5957, 41.8948], [-123.5946, 41.8949], [-123.5949, 41.8954], [-123.5978, 41.8956], [-123.5992, 41.9006], [-123.5978, 41.9014], [-123.5977, 41.9004], [-123.5963, 41.9004], [-123.596, 41.9021], [-123.5946, 41.9029], [-123.5932, 41.9058], [-123.5858, 41.9041], [-123.5806, 41.904], [-123.5779, 41.9033], [-123.5721, 41.9041], [-123.5679, 41.9032], [-123.5644, 41.9033], [-123.5589, 41.9061], [-123.5578, 41.9111], [-123.5603, 41.9124], [-123.5608, 41.9136], [-123.561, 41.9132], [-123.563, 41.9141], [-123.5634, 41.9162], [-123.5675, 41.923], [-123.5693, 41.9308], [-123.5708, 41.9315], [-123.5714, 41.9344], [-123.5738, 41.9359], [-123.5731, 41.9382], [-123.5708, 41.9382], [-123.5693, 41.9403], [-123.5703, 41.9424], [-123.5696, 41.9439], [-123.571, 41.9454], [-123.572, 41.9509], [-123.5732, 41.9528], [-123.57, 41.9533], [-123.569, 41.9566], [-123.5658, 41.9586], [-123.5643, 41.9568], [-123.5603, 41.955], [-123.562, 41.9607], [-123.5615, 41.9624], [-123.5625, 41.9639], [-123.5613, 41.9645], [-123.5625, 41.9653], [-123.5626, 41.9669], [-123.5637, 41.9668], [-123.5639, 41.9674], [-123.5663, 41.9665], [-123.5674, 41.9668], [-123.5716, 41.9701], [-123.5724, 41.9715], [-123.5695, 41.9754], [-123.571, 41.9777], [-123.5706, 41.9785], [-123.5668, 41.9801], [-123.5654, 41.9817], [-123.5665, 41.9842], [-123.567, 41.9848], [-123.5706, 41.9852], [-123.5719, 41.9878], [-123.5761, 41.9883], [-123.5764, 41.989], [-123.5748, 41.991], [-123.5738, 41.9912], [-123.5731, 41.9951], [-123.5747, 41.9977], [-123.5739, 41.999], [-123.5725, 41.9992], [-123.5725, 41.9985], [-123.5698, 41.9976], [-123.5652, 41.997], [-123.5622, 41.9977], [-123.5591, 41.9965]], [[-123.5083, 41.8426], [-123.5078, 41.8421], [-123.5053, 41.843], [-123.5031, 41.8421], [-123.5027, 41.8411], [-123.5014, 41.8428], [-123.5032, 41.8427], [-123.5057, 41.8446], [-123.5083, 41.8426]], [[-123.506, 41.8517], [-123.5041, 41.8519], [-123.5022, 41.8536], [-123.5058, 41.8527], [-123.506, 41.8517]], [[-123.5256, 41.8401], [-123.5248, 41.839], [-123.5223, 41.8382], [-123.5242, 41.8377], [-123.5236, 41.8367], [-123.526, 41.8365], [-123.5253, 41.8337], [-123.5212, 41.8369], [-123.5158, 41.8367], [-123.5161, 41.8352], [-123.5155, 41.8344], [-123.5148, 41.8377], [-123.5164, 41.8392], [-123.5145, 41.8399], [-123.5174, 41.8412], [-123.5207, 41.8448], [-123.5232, 41.8439], [-123.5237, 41.8427], [-123.5253, 41.8419], [-123.5256, 41.8401]], [[-123.5709, 41.8151], [-123.5708, 41.8134], [-123.5722, 41.8124], [-123.5709, 41.811], [-123.5686, 41.8127], [-123.5668, 41.8129], [-123.5672, 41.8123], [-123.5658, 41.8122], [-123.565, 41.813], [-123.5677, 41.8131], [-123.5675, 41.814], [-123.5689, 41.8153], [-123.5676, 41.816], [-123.5717, 41.8153], [-123.5709, 41.8151]], [[-123.5817, 41.896], [-123.5799, 41.8953], [-123.5821, 41.8964], [-123.5817, 41.896]], [[-123.5847, 41.8843], [-123.5862, 41.8845], [-123.5861, 41.8841], [-123.5847, 41.8843]], [[-123.5891, 41.8821], [-123.5887, 41.8827], [-123.5894, 41.8827], [-123.5891, 41.8821]], [[-123.5975, 41.8887], [-123.5966, 41.8878], [-123.5954, 41.8882], [-123.5953, 41.8901], [-123.5933, 41.8896], [-123.5924, 41.8882], [-123.5915, 41.8884], [-123.5912, 41.8893], [-123.5945, 41.8922], [-123.5978, 41.891], [-123.5975, 41.8887]], [[-123.6115, 41.8679], [-123.6073, 41.866], [-123.6067, 41.8659], [-123.6069, 41.8665], [-123.6061, 41.8657], [-123.5988, 41.8642], [-123.5972, 41.864], [-123.5954, 41.8648], [-123.5966, 41.8652], [-123.5972, 41.867], [-123.5993, 41.8674], [-123.5988, 41.8687], [-123.6003, 41.8681], [-123.6008, 41.8661], [-123.6018, 41.8661], [-123.6024, 41.8677], [-123.6009, 41.8683], [-123.6025, 41.8683], [-123.6023, 41.8687], [-123.6028, 41.8684], [-123.6025, 41.8677], [-123.605, 41.8678], [-123.606, 41.8692], [-123.6056, 41.87], [-123.6042, 41.8703], [-123.6048, 41.871], [-123.6039, 41.8712], [-123.6053, 41.8717], [-123.6115, 41.8679]], [[-123.5974, 41.8877], [-123.5987, 41.8884], [-123.5984, 41.8887], [-123.5989, 41.8883], [-123.5992, 41.8873], [-123.5987, 41.8868], [-123.5974, 41.8877]], [[-123.5983, 41.8851], [-123.5993, 41.8854], [-123.6003, 41.8843], [-123.5991, 41.8843], [-123.5983, 41.8851]], [[-123.5978, 41.8572], [-123.5978, 41.8572], [-123.5978, 41.8572], [-123.5978, 41.8572]], [[-123.6234, 41.8564], [-123.6159, 41.8534], [-123.6139, 41.8539], [-123.6128, 41.8534], [-123.6139, 41.8522], [-123.6129, 41.8503], [-123.6121, 41.8497], [-123.6111, 41.8499], [-123.6103, 41.8483], [-123.6068, 41.8475], [-123.605, 41.8482], [-123.6041, 41.852], [-123.6032, 41.8525], [-123.6047, 41.8533], [-123.6055, 41.8531], [-123.6063, 41.8514], [-123.6075, 41.8516], [-123.608, 41.8507], [-123.6092, 41.852], [-123.6084, 41.8522], [-123.6087, 41.8538], [-123.6057, 41.854], [-123.6068, 41.8544], [-123.6062, 41.855], [-123.6067, 41.8564], [-123.6081, 41.8567], [-123.609, 41.8561], [-123.6106, 41.8571], [-123.6118, 41.857], [-123.613, 41.8554], [-123.6151, 41.8569], [-123.618, 41.8568], [-123.6191, 41.8558], [-123.6195, 41.8571], [-123.6235, 41.8574], [-123.6228, 41.8567], [-123.6234, 41.8564]]], [[[-123.5547, 41.7917], [-123.5545, 41.7923], [-123.554, 41.7917], [-123.5547, 41.7917]]], [[[-123.4958, 41.8006], [-123.4964, 41.8004], [-123.4963, 41.8007], [-123.4958, 41.8006]]], [[[-123.5302, 41.8183], [-123.531, 41.8178], [-123.531, 41.8184], [-123.5302, 41.8183]]], [[[-123.494, 41.9069], [-123.4946, 41.9065], [-123.4948, 41.9068], [-123.494, 41.9069]]], [[[-123.5103, 41.9225], [-123.5098, 41.9246], [-123.5085, 41.9226], [-123.5103, 41.9225]]], [[[-123.5124, 41.9244], [-123.5111, 41.9226], [-123.513, 41.9227], [-123.5124, 41.9244]]], [[[-123.536, 41.9701], [-123.5354, 41.9698], [-123.5362, 41.9699], [-123.536, 41.9701]]]]}, "properties": {"layer": "perimeter"}}, {"type": "Feature", "geometry": {"type": "MultiPolygon", "coordinates": [[[[-123.5256, 41.9474], [-123.5274, 41.9459], [-123.5256, 41.9463], [-123.5256, 41.9454], [-123.5304, 41.9454], [-123.5305, 41.9527], [-123.5258, 41.9528], [-123.5256, 41.9474]]], [[[-123.493, 41.8729], [-123.4962, 41.8724], [-123.4994, 41.871], [-123.4996, 41.8734], [-123.4947, 41.8731], [-123.4948, 41.8739], [-123.4924, 41.8739], [-123.493, 41.8729]]], [[[-123.5116, 41.8704], [-123.5129, 41.8697], [-123.5115, 41.8697], [-123.5115, 41.8661], [-123.516, 41.8662], [-123.5166, 41.8747], [-123.5116, 41.8744], [-123.5116, 41.8704]]], [[[-123.4963, 41.871], [-123.4949, 41.8713], [-123.4947, 41.8714], [-123.4963, 41.871]]], [[[-123.4896, 41.8589], [-123.4896, 41.8571], [-123.4933, 41.857], [-123.4933, 41.858], [-123.4944, 41.8579], [-123.4944, 41.8598], [-123.4956, 41.8597], [-123.4956, 41.8616], [-123.4934, 41.8618], [-123.4933, 41.8607], [-123.492, 41.8607], [-123.492, 41.8589], [-123.4896, 41.8589]]]]}, "properties": {"layer": "retained"}}, {"type": "Feature", "geometry": {"type": "MultiPolygon", "coordinates": [[[[-123.5263, 41.9515], [-123.527, 41.9512], [-123.5263, 41.9512], [-123.5263, 41.9515]]], [[[-123.5256, 41.9513], [-123.5259, 41.951], [-123.5256, 41.951], [-123.5256, 41.9513]]], [[[-123.5286, 41.9463], [-123.5289, 41.9457], [-123.5286, 41.9458], [-123.5286, 41.9463]]], [[[-123.5127, 41.8736], [-123.5131, 41.8734], [-123.5127, 41.8734], [-123.5127, 41.8736]]], [[[-123.4939, 41.8736], [-123.4946, 41.8731], [-123.4943, 41.8731], [-123.4939, 41.8736]]], [[[-123.5119, 41.8726], [-123.5123, 41.8723], [-123.5119, 41.8723], [-123.5119, 41.8726]]], [[[-123.4964, 41.8727], [-123.4968, 41.8725], [-123.4964, 41.8725], [-123.4964, 41.8727]]], [[[-123.5147, 41.8703], [-123.5151, 41.87], [-123.5147, 41.8701], [-123.5147, 41.8703]]]]}, "properties": {"layer": "high_severity"}}]}
