{"type": "FeatureCollection", "features": [{"type": "Feature", "geometry": {"type": "Polygon", "coordinates": [[[-120.0099, 39.884], [-119.9996, 39.8816], [-119.9953, 39.8775], [-119.9923, 39.8707], [-119.9923, 39.8636], [-119.989, 39.8607], [-119.9697, 39.8651], [-119.9693, 39.8628], [-119.9681, 39.8629], [-119.9682, 39.8636], [-119.9665, 39.8634], [-119.9665, 39.8627], [-119.9657, 39.8634], [-119.9632, 39.8631], [-119.9624, 39.8613], [-119.9601, 39.8638], [-119.9597, 39.8625], [-119.9584, 39.862], [-119.9613, 39.8603], [-119.9617, 39.8589], [-119.9605, 39.8582], [-119.9604, 39.8589], [-119.9593, 39.8592], [-119.9588, 39.8584], [-119.9603, 39.8577], [-119.9606, 39.8553], [-119.9585, 39.8523], [-119.9584, 39.8448], [-119.9599, 39.8425], [-119.9624, 39.8447], [-119.9664, 39.8434], [-119.9679, 39.8416], [-119.9677, 39.8404], [-119.9661, 39.8396], [-119.9683, 39.8361], [-119.9674, 39.8353], [-119.9637, 39.8381], [-119.9565, 39.8403], [-119.9552, 39.8421], [-119.9506, 39.8421], [-119.9503, 39.8429], [-119.9487, 39.8432], [-119.9477, 39.8456], [-119.9454, 39.8465], [-119.9446, 39.8478], [-119.9383, 39.8474], [-119.9351, 39.8453], [-119.9352, 39.8392], [-119.9358, 39.8381], [-119.936, 39.8393], [-119.9388, 39.8377], [-119.9373, 39.838], [-119.9362, 39.8373], [-119.9376, 39.8359], [-119.9387, 39.8368], [-119.94, 39.8364], [-119.9396, 39.8355], [-119.9405, 39.8354], [-119.9398, 39.8348], [-119.9415, 39.8312], [-119.945, 39.8346], [-119.9481, 39.8325], [-119.9501, 39.8326], [-119.9524, 39.8345], [-119.9627, 39.8316], [-119.9631, 39.8305], [-119.9621, 39.8286], [-119.9634, 39.8238], [-119.9676, 39.8217], [-119.9681, 39.8236], [-119.9694, 39.8225], [-119.9713, 39.8224], [-119.9738, 39.8259], [-119.9778, 39.8247], [-119.9793, 39.8251], [-119.9813, 39.8275], [-119.9852, 39.8285], [-119.9874, 39.8324], [-119.9888, 39.8322], [-119.9899, 39.8305], [-119.992, 39.8294], [-119.9914, 39.8274], [-119.9925, 39.8263], [-119.9963, 39.8282], [-119.9974, 39.8279], [-119.9985, 39.8284], [-119.9997, 39.8272], [-120.0005, 39.8275], [-120.0003, 39.8294], [-120.0039, 39.8301], [-120.0035, 39.8316], [-120.0054, 39.8317], [-120.0047, 39.8325], [-120.007, 39.8342], [-120.012, 39.8338], [-120.0125, 39.8344], [-120.0142, 39.8346], [-120.0146, 39.8336], [-120.0158, 39.8335], [-120.0187, 39.8351], [-120.0198, 39.8349], [-120.0203, 39.8364], [-120.0207, 39.836], [-120.0227, 39.8364], [-120.0239, 39.8356], [-120.0237, 39.8361], [-120.0264, 39.8349], [-120.0272, 39.8354], [-120.0316, 39.8333], [-120.0343, 39.8336], [-120.0379, 39.8326], [-120.0386, 39.8361], [-120.0369, 39.8382], [-120.0346, 39.8393], [-120.0315, 39.8424], [-120.0276, 39.8434], [-120.0274, 39.8449], [-120.0211, 39.8484], [-120.0209, 39.851], [-120.0164, 39.854], [-120.0148, 39.8548], [-120.0101, 39.855], [-120.011, 39.8569], [-120.0148, 39.8588], [-120.0165, 39.8608], [-120.0189, 39.8613], [-120.0195, 39.8632], [-120.0231, 39.8637], [-120.0269, 39.8728], [-120.0249, 39.8781], [-120.0236, 39.8789], [-120.0176, 39.8791], [-120.015, 39.8763], [-120.0127, 39.8771], [-120.0108, 39.8787], [-120.0108, 39.88], [-120.0123, 39.8824], [-120.0117, 39.8837], [-120.0099, 39.884]]]}, "properties": {"layer": "perimeter"}}, {"type": "Feature", "geometry": {"type": "MultiPolygon", "coordinates": [[[[-120.0333, 39.8333], [-120.038, 39.8327], [-120.0386, 39.8361], [-120.0369, 39.8383], [-120.0333, 39.8384], [-120.0333, 39.8333]]], [[[-120.025, 39.8674], [-120.0263, 39.871], [-120.0246, 39.871], [-120.0245, 39.8745], [-120.0264, 39.8745], [-120.0251, 39.8778], [-120.0247, 39.8784], [-120.0201, 39.878], [-120.0203, 39.8671], [-120.025, 39.8674]]]]}, "properties": {"layer": "retained"}}]}
