{"type": "FeatureCollection", "features": [{"type": "Feature", "geometry": {"type": "MultiPolygon", "coordinates": [[[[-120.6077, 39.2815], [-120.6094, 39.279], [-120.6121, 39.2795], [-120.6118, 39.2776], [-120.6139, 39.277], [-120.6144, 39.2759], [-120.6168, 39.2757], [-120.6172, 39.2752], [-120.6162, 39.2746], [-120.6173, 39.2737], [-120.6177, 39.272], [-120.6188, 39.2715], [-120.6172, 39.2709], [-120.6169, 39.2699], [-120.618, 39.2703], [-120.6188, 39.2696], [-120.6206, 39.2696], [-120.6206, 39.2687], [-120.6228, 39.2666], [-120.6235, 39.2677], [-120.6247, 39.267], [-120.6255, 39.2676], [-120.6267, 39.2671], [-120.6285, 39.2676], [-120.6286, 39.2694], [-120.6299, 39.2701], [-120.6286, 39.2706], [-120.6288, 39.2715], [-120.6298, 39.2718], [-120.6313, 39.2721], [-120.6326, 39.271], [-120.6334, 39.2685], [-120.6354, 39.268], [-120.638, 39.2697], [-120.6406, 39.2692], [-120.6435, 39.2706], [-120.6449, 39.2702], [-120.6458, 39.271], [-120.6466, 39.2706], [-120.6475, 39.2712], [-120.6513, 39.2714], [-120.6563, 39.2737], [-120.6549, 39.2771], [-120.6535, 39.2781], [-120.6519, 39.2776], [-120.6511, 39.2793], [-120.6502, 39.2789], [-120.6502, 39.2798], [-120.6476, 39.2809], [-120.6436, 39.2794], [-120.6398, 39.2801], [-120.6382, 39.2812], [-120.6368, 39.281], [-120.6362, 39.2818], [-120.6353, 39.2816], [-120.6359, 39.281], [-120.6351, 39.2808], [-120.6333, 39.2819], [-120.6303, 39.2819], [-120.6305, 39.2808], [-120.6299, 39.2818], [-120.6294, 39.2811], [-120.6272, 39.2814], [-120.6271, 39.2825], [-120.6256, 39.2834], [-120.6226, 39.2829], [-120.6194, 39.2838], [-120.6179, 39.2826], [-120.617, 39.283], [-120.6178, 39.2838], [-120.6162, 39.2843], [-120.6159, 39.2836], [-120.6149, 39.2839], [-120.6142, 39.2832], [-120.6177, 39.2816], [-120.6153, 39.2808], [-120.6136, 39.2804], [-120.6108, 39.2825], [-120.6074, 39.2831], [-120.6069, 39.2823], [-120.6077, 39.2815]]], [[[-120.6088, 39.2769], [-120.6082, 39.277], [-120.6083, 39.2766], [-120.6088, 39.2769]]], [[[-120.6075, 39.2813], [-120.6075, 39.2812], [-120.6077, 39.2812], [-120.6075, 39.2813]]], [[[-120.6135, 39.2853], [-120.6147, 39.285], [-120.6136, 39.2843], [-120.6152, 39.2847], [-120.6148, 39.2854], [-120.6135, 39.2853]]]]}, "properties": {"layer": "perimeter"}}, {"type": "Feature", "geometry": {"type": "MultiPolygon", "coordinates": [[[[-120.6077, 39.2814], [-120.6094, 39.279], [-120.6121, 39.2795], [-120.6118, 39.2776], [-120.6139, 39.277], [-120.6144, 39.2759], [-120.6168, 39.2757], [-120.6172, 39.2752], [-120.6162, 39.2746], [-120.6173, 39.2735], [-120.6237, 39.2735], [-120.6238, 39.2834], [-120.6226, 39.2829], [-120.6192, 39.2837], [-120.6179, 39.2826], [-120.617, 39.283], [-120.6178, 39.2836], [-120.6173, 39.2841], [-120.6159, 39.2842], [-120.6156, 39.2835], [-120.6149, 39.2839], [-120.6142, 39.2832], [-120.6177, 39.2816], [-120.6137, 39.2804], [-120.6108, 39.2825], [-120.6074, 39.2831], [-120.6069, 39.2823], [-120.6077, 39.2814]]], [[[-120.6473, 39.2734], [-120.6563, 39.2737], [-120.6556, 39.2765], [-120.6549, 39.2771], [-120.6521, 39.2771], [-120.6511, 39.2793], [-120.6502, 39.2789], [-120.6502, 39.2798], [-120.6474, 39.2809], [-120.6473, 39.2734]]], [[[-120.6088, 39.2769], [-120.6083, 39.2766], [-120.6087, 39.2766], [-120.6088, 39.2769]]], [[[-120.6075, 39.2813], [-120.6076, 39.2812], [-120.6077, 39.2812], [-120.6075, 39.2813]]], [[[-120.6136, 39.2853], [-120.6147, 39.285], [-120.6136, 39.2843], [-120.6152, 39.2847], [-120.6148, 39.2854], [-120.6136, 39.2853]]]]}, "properties": {"layer": "retained"}}, {"type": "Feature", "geometry": {"type": "MultiPolygon", "coordinates": [[[[-120.6164, 39.2841], [-120.6168, 39.2836], [-120.6175, 39.2839], [-120.6175, 39.283], [-120.6171, 39.2833], [-120.6161, 39.2831], [-120.6164, 39.2841]]], [[[-120.6077, 39.2823], [-120.608, 39.282], [-120.6077, 39.282], [-120.6077, 39.2823]]], [[[-120.6133, 39.2809], [-120.6136, 39.2806], [-120.6133, 39.2806], [-120.6133, 39.2809]]], [[[-120.6119, 39.2817], [-120.6119, 39.2804], [-120.6112, 39.2804], [-120.6105, 39.2815], [-120.6119, 39.2817]]], [[[-120.6133, 39.2806], [-120.6129, 39.2801], [-120.6122, 39.2804], [-120.6122, 39.2806], [-120.6133, 39.2806]]], [[[-120.6474, 39.2802], [-120.6477, 39.2799], [-120.6474, 39.2799], [-120.6474, 39.2802]]], [[[-120.6119, 39.2804], [-120.6122, 39.2801], [-120.6119, 39.2801], [-120.6119, 39.2804]]], [[[-120.6136, 39.2804], [-120.6136, 39.2798], [-120.6129, 39.2798], [-120.6129, 39.2801], [-120.6136, 39.2804]]], [[[-120.6101, 39.2817], [-120.6105, 39.2801], [-120.6094, 39.2798], [-120.6084, 39.2817], [-120.6101, 39.2817]], [[-120.6098, 39.2807], [-120.6094, 39.2812], [-120.6094, 39.2807], [-120.6098, 39.2807]]], [[[-120.6481, 39.2799], [-120.648, 39.2794], [-120.6474, 39.2794], [-120.6474, 39.2797], [-120.6481, 39.2799]]], [[[-120.6108, 39.2798], [-120.6108, 39.2793], [-120.6101, 39.279], [-120.6101, 39.2796], [-120.6108, 39.2798]]], [[[-120.6473, 39.2791], [-120.6477, 39.278], [-120.6473, 39.278], [-120.6473, 39.2791]]], [[[-120.6146, 39.2785], [-120.615, 39.2782], [-120.6146, 39.2782], [-120.6146, 39.2785]]], [[[-120.6157, 39.2782], [-120.616, 39.2777], [-120.615, 39.2774], [-120.6146, 39.2779], [-120.6157, 39.2782]]], [[[-120.6473, 39.2775], [-120.6477, 39.2772], [-120.6473, 39.2772], [-120.6473, 39.2775]]], [[[-120.6164, 39.2768], [-120.6171, 39.2768], [-120.6174, 39.2766], [-120.6164, 39.2768]]], [[[-120.616, 39.2768], [-120.6164, 39.2766], [-120.616, 39.2766], [-120.616, 39.2768]]], [[[-120.6146, 39.2769], [-120.615, 39.2763], [-120.6146, 39.2763], [-120.6146, 39.2769]]], [[[-120.6501, 39.2764], [-120.6505, 39.2761], [-120.6501, 39.2761], [-120.6501, 39.2764]]], [[[-120.6164, 39.2766], [-120.6167, 39.2763], [-120.6163, 39.2763], [-120.6164, 39.2766]]], [[[-120.617, 39.2758], [-120.6174, 39.2755], [-120.617, 39.2755], [-120.617, 39.2758]]], [[[-120.6181, 39.2758], [-120.6184, 39.2752], [-120.6181, 39.2752], [-120.6181, 39.2758]]], [[[-120.6477, 39.2767], [-120.6491, 39.2759], [-120.648, 39.2748], [-120.6473, 39.2748], [-120.6477, 39.2767]]], [[[-120.6181, 39.2749], [-120.6177, 39.2741], [-120.6167, 39.2741], [-120.6174, 39.2749], [-120.6181, 39.2749]]], [[[-120.6181, 39.2744], [-120.6191, 39.2741], [-120.6181, 39.2741], [-120.6181, 39.2744]]], [[[-120.6188, 39.2836], [-120.6237, 39.283], [-120.6237, 39.2795], [-120.6233, 39.28], [-120.6226, 39.2798], [-120.6237, 39.2792], [-120.6236, 39.2752], [-120.6226, 39.2738], [-120.6209, 39.2744], [-120.6205, 39.2752], [-120.6191, 39.2749], [-120.6188, 39.2763], [-120.6209, 39.2763], [-120.6209, 39.2771], [-120.6191, 39.2768], [-120.6181, 39.2774], [-120.6181, 39.2779], [-120.6202, 39.2782], [-120.6195, 39.279], [-120.6185, 39.279], [-120.6192, 39.2795], [-120.6188, 39.2803], [-120.6185, 39.2798], [-120.6164, 39.2798], [-120.6164, 39.2806], [-120.6157, 39.2806], [-120.6178, 39.2814], [-120.6164, 39.2831], [-120.6181, 39.2825], [-120.6188, 39.2836]], [[-120.6209, 39.2825], [-120.6206, 39.2828], [-120.6206, 39.2825], [-120.6209, 39.2825]], [[-120.622, 39.2822], [-120.6213, 39.2825], [-120.6213, 39.2822], [-120.622, 39.2822]], [[-120.6206, 39.2822], [-120.6202, 39.2825], [-120.6202, 39.2822], [-120.6206, 39.2822]], [[-120.6188, 39.2822], [-120.6185, 39.2825], [-120.6185, 39.2822], [-120.6188, 39.2822]], [[-120.6199, 39.2822], [-120.6188, 39.2822], [-120.6185, 39.2806], [-120.6213, 39.2814], [-120.6213, 39.2819], [-120.6199, 39.2817], [-120.6199, 39.2822]], [[-120.6174, 39.2803], [-120.6171, 39.2806], [-120.6171, 39.2803], [-120.6174, 39.2803]], [[-120.6219, 39.2782], [-120.6209, 39.2782], [-120.6209, 39.2779], [-120.6216, 39.2776], [-120.6219, 39.2782]], [[-120.6223, 39.276], [-120.6209, 39.276], [-120.6223, 39.2752], [-120.6223, 39.276]], [[-120.6233, 39.2752], [-120.6226, 39.2755], [-120.6226, 39.2752], [-120.6233, 39.2752]], [[-120.6219, 39.2747], [-120.6212, 39.2749], [-120.6212, 39.2747], [-120.6219, 39.2747]], [[-120.6223, 39.2744], [-120.6219, 39.2747], [-120.6219, 39.2744], [-120.6223, 39.2744]]], [[[-120.6473, 39.2743], [-120.6476, 39.2737], [-120.6473, 39.2737], [-120.6473, 39.2743]]], [[[-120.6519, 39.278], [-120.6512, 39.2769], [-120.6543, 39.2772], [-120.6543, 39.2766], [-120.6557, 39.2764], [-120.655, 39.2761], [-120.6557, 39.2742], [-120.655, 39.2737], [-120.6539, 39.2739], [-120.6539, 39.2734], [-120.6494, 39.2734], [-120.6491, 39.2753], [-120.6511, 39.275], [-120.6525, 39.2756], [-120.6494, 39.2772], [-120.6519, 39.278]], [[-120.6522, 39.2764], [-120.6519, 39.2767], [-120.6518, 39.2764], [-120.6522, 39.2764]], [[-120.655, 39.2756], [-120.6546, 39.2758], [-120.6546, 39.2756], [-120.655, 39.2756]], [[-120.655, 39.2748], [-120.6546, 39.2753], [-120.6543, 39.2748], [-120.655, 39.2748]], [[-120.6529, 39.2742], [-120.6525, 39.2745], [-120.6525, 39.2742], [-120.6529, 39.2742]], [[-120.6536, 39.2739], [-120.6532, 39.2742], [-120.6532, 39.274], [-120.6536, 39.2739]]], [[[-120.6229, 39.2738], [-120.6236, 39.2736], [-120.6229, 39.2736], [-120.6229, 39.2738]]], [[[-120.6212, 39.2738], [-120.6215, 39.2736], [-120.6212, 39.2736], [-120.6212, 39.2738]]]]}, "properties": {"layer": "high_severity"}}, {"type": "Feature", "geometry": {"type": "MultiPolygon", "coordinates": [[[[-120.623, 39.2825], [-120.6237, 39.2817], [-120.6227, 39.2814], [-120.6216, 39.2798], [-120.6219, 39.279], [-120.6202, 39.279], [-120.6199, 39.2801], [-120.622, 39.2809], [-120.622, 39.2825], [-120.623, 39.2825]]], [[[-120.6219, 39.279], [-120.6226, 39.2787], [-120.6219, 39.2787], [-120.6219, 39.279]]], [[[-120.6237, 39.279], [-120.6237, 39.276], [-120.6233, 39.276], [-120.6219, 39.2771], [-120.623, 39.2779], [-120.6226, 39.2787], [-120.6237, 39.279]]], [[[-120.6543, 39.2761], [-120.6539, 39.2756], [-120.6532, 39.2758], [-120.6532, 39.2761], [-120.6543, 39.2761]]], [[[-120.6532, 39.2756], [-120.6536, 39.275], [-120.6532, 39.275], [-120.6532, 39.2756]]], [[[-120.6515, 39.2745], [-120.6518, 39.2737], [-120.6525, 39.2734], [-120.6504, 39.2734], [-120.6515, 39.2745]]]]}, "properties": {"layer": "interior"}}, {"type": "Feature", "geometry": {"type": "MultiPolygon", "coordinates": [[[[-120.6543, 39.2761], [-120.6539, 39.2756], [-120.6532, 39.2758], [-120.6532, 39.2761], [-120.6543, 39.2761]]], [[[-120.6532, 39.2756], [-120.6536, 39.275], [-120.6532, 39.275], [-120.6532, 39.2756]]], [[[-120.6515, 39.2745], [-120.6518, 39.2737], [-120.6525, 39.2734], [-120.6504, 39.2734], [-120.6515, 39.2745]]]]}, "properties": {"layer": "cell", "cell_id": "525_4500", "seed_zone": "525", "elevation_band": "4500–5000 ft"}}, {"type": "Feature", "geometry": {"type": "MultiPolygon", "coordinates": [[[[-120.623, 39.2825], [-120.6237, 39.2817], [-120.6227, 39.2814], [-120.6216, 39.2798], [-120.6219, 39.279], [-120.6202, 39.279], [-120.6199, 39.2801], [-120.622, 39.2809], [-120.622, 39.2825], [-120.623, 39.2825]]], [[[-120.6219, 39.279], [-120.6226, 39.2787], [-120.6219, 39.2787], [-120.6219, 39.279]]], [[[-120.6237, 39.279], [-120.6237, 39.276], [-120.6233, 39.276], [-120.6219, 39.2771], [-120.623, 39.2779], [-120.6226, 39.2787], [-120.6237, 39.279]]]]}, "properties": {"layer": "cell", "cell_id": "525_6000", "seed_zone": "525", "elevation_band": "6000–6500 ft"}}]}
