{"type": "FeatureCollection", "features": [{"type": "Feature", "geometry": {"type": "Polygon", "coordinates": [[[-121.1515, 37.06], [-121.1456, 37.0347], [-121.1499, 37.0309], [-121.1551, 37.0316], [-121.1681, 37.03], [-121.1642, 37.0332], [-121.1687, 37.0384], [-121.1718, 37.035], [-121.1793, 37.0351], [-121.1845, 37.0407], [-121.186, 37.0442], [-121.1721, 37.0541], [-121.1744, 37.0566], [-121.1733, 37.0594], [-121.1585, 37.0657], [-121.1515, 37.06]]]}, "properties": {"layer": "perimeter"}}, {"type": "Feature", "geometry": {"type": "Polygon", "coordinates": [[[-121.1512, 37.0589], [-121.152, 37.0508], [-121.1498, 37.0488], [-121.1511, 37.0445], [-121.1575, 37.0398], [-121.1505, 37.0386], [-121.1536, 37.0323], [-121.1562, 37.0314], [-121.1681, 37.03], [-121.1642, 37.0332], [-121.1687, 37.0384], [-121.1718, 37.035], [-121.1793, 37.0351], [-121.1845, 37.0407], [-121.186, 37.0442], [-121.1721, 37.0541], [-121.1744, 37.0566], [-121.174, 37.0576], [-121.1711, 37.0562], [-121.1607, 37.0646], [-121.1577, 37.0639], [-121.1512, 37.0589]]]}, "properties": {"layer": "retained"}}]}
