{"type": "FeatureCollection", "features": [{"type": "Feature", "geometry": {"type": "Polygon", "coordinates": [[[-117.0323, 33.6488], [-117.0302, 33.6463], [-117.0304, 33.6452], [-117.0391, 33.6429], [-117.0426, 33.6412], [-117.0472, 33.6367], [-117.0495, 33.636], [-117.0518, 33.6367], [-117.0526, 33.6336], [-117.0601, 33.6292], [-117.0608, 33.6313], [-117.0589, 33.6334], [-117.0603, 33.6385], [-117.0641, 33.6403], [-117.0648, 33.6417], [-117.0647, 33.6447], [-117.062, 33.6484], [-117.0636, 33.6531], [-117.0625, 33.6574], [-117.0587, 33.6566], [-117.0522, 33.6574], [-117.0474, 33.657], [-117.0469, 33.6501], [-117.0448, 33.6501], [-117.0438, 33.6521], [-117.0387, 33.6531], [-117.0382, 33.652], [-117.0388, 33.651], [-117.0413, 33.6493], [-117.041, 33.6476], [-117.0377, 33.6474], [-117.0345, 33.6485], [-117.0344, 33.6515], [-117.0323, 33.6506], [-117.0323, 33.6488]]]}, "properties": {"layer": "perimeter"}}, {"type": "Feature", "geometry": {"type": "Polygon", "coordinates": [[[-117.0323, 33.6488], [-117.0302, 33.6463], [-117.0304, 33.6452], [-117.0391, 33.6429], [-117.0426, 33.6412], [-117.0472, 33.6367], [-117.0495, 33.636], [-117.0518, 33.6367], [-117.0526, 33.6336], [-117.0601, 33.6292], [-117.0608, 33.6313], [-117.0589, 33.6334], [-117.0603, 33.6385], [-117.0641, 33.6403], [-117.0648, 33.6417], [-117.0647, 33.6447], [-117.062, 33.6484], [-117.0636, 33.6531], [-117.0625, 33.6574], [-117.0587, 33.6566], [-117.0522, 33.6574], [-117.0474, 33.657], [-117.0469, 33.6501], [-117.0448, 33.6501], [-117.0438, 33.6521], [-117.0387, 33.6531], [-117.0382, 33.652], [-117.0388, 33.651], [-117.0413, 33.6493], [-117.041, 33.6476], [-117.0377, 33.6474], [-117.0345, 33.6485], [-117.0344, 33.6515], [-117.0323, 33.6506], [-117.0323, 33.6488]]]}, "properties": {"layer": "retained"}}]}
