{"type": "FeatureCollection", "features": [{"type": "Feature", "geometry": {"type": "MultiPolygon", "coordinates": [[[[-123.6744, 40.663], [-123.6708, 40.6615], [-123.6719, 40.6605], [-123.6734, 40.6615], [-123.6755, 40.6595], [-123.6752, 40.6586], [-123.674, 40.6602], [-123.6733, 40.66], [-123.674, 40.6592], [-123.6729, 40.6581], [-123.6745, 40.655], [-123.6757, 40.6554], [-123.6767, 40.6548], [-123.6768, 40.656], [-123.6811, 40.656], [-123.6812, 40.657], [-123.6821, 40.6573], [-123.6813, 40.6591], [-123.6775, 40.6617], [-123.6745, 40.6616], [-123.6744, 40.663]]], [[[-123.6607, 40.6622], [-123.6609, 40.6623], [-123.6607, 40.6624], [-123.6607, 40.6622]]], [[[-123.6666, 40.6828], [-123.6607, 40.6789], [-123.6595, 40.6761], [-123.6598, 40.6737], [-123.6574, 40.6719], [-123.6575, 40.6694], [-123.6557, 40.6674], [-123.6563, 40.6669], [-123.6574, 40.6674], [-123.6584, 40.6658], [-123.6572, 40.6653], [-123.6588, 40.6647], [-123.6588, 40.6633], [-123.66, 40.6625], [-123.663, 40.6632], [-123.6653, 40.6627], [-123.6661, 40.6633], [-123.669, 40.6623], [-123.6725, 40.6639], [-123.6737, 40.665], [-123.6735, 40.6659], [-123.6747, 40.6658], [-123.6745, 40.6668], [-123.6758, 40.6673], [-123.6772, 40.6695], [-123.677, 40.6707], [-123.6756, 40.6718], [-123.6766, 40.6716], [-123.6795, 40.6733], [-123.6827, 40.6762], [-123.6835, 40.6803], [-123.6796, 40.6812], [-123.6787, 40.683], [-123.6755, 40.6839], [-123.674, 40.6867], [-123.6725, 40.6876], [-123.6712, 40.6859], [-123.6684, 40.6858], [-123.6685, 40.6867], [-123.6675, 40.6861], [-123.6683, 40.6843], [-123.6667, 40.6842], [-123.6666, 40.6828]]]]}, "properties": {"layer": "perimeter"}}, {"type": "Feature", "geometry": {"type": "MultiPolygon", "coordinates": [[[[-123.6735, 40.6632], [-123.6708, 40.6615], [-123.6719, 40.6605], [-123.6734, 40.6615], [-123.6755, 40.6595], [-123.6752, 40.6586], [-123.674, 40.6602], [-123.6733, 40.66], [-123.674, 40.6592], [-123.6729, 40.6581], [-123.6745, 40.655], [-123.6757, 40.6554], [-123.6767, 40.6548], [-123.6768, 40.656], [-123.6811, 40.656], [-123.6812, 40.657], [-123.6821, 40.6573], [-123.6813, 40.6591], [-123.6775, 40.6617], [-123.6745, 40.6616], [-123.6744, 40.663], [-123.6735, 40.6632]]], [[[-123.6607, 40.6622], [-123.6609, 40.6623], [-123.6607, 40.6624], [-123.6607, 40.6622]]], [[[-123.6666, 40.6828], [-123.6631, 40.681], [-123.6607, 40.6789], [-123.6595, 40.6761], [-123.6598, 40.6737], [-123.6574, 40.6719], [-123.6575, 40.6694], [-123.6557, 40.6674], [-123.6563, 40.6669], [-123.6574, 40.6674], [-123.6584, 40.6658], [-123.6572, 40.6653], [-123.6588, 40.6647], [-123.6588, 40.6633], [-123.66, 40.6625], [-123.663, 40.6632], [-123.659, 40.6633], [-123.659, 40.6671], [-123.6643, 40.6671], [-123.6641, 40.6632], [-123.6631, 40.6632], [-123.6653, 40.6627], [-123.6661, 40.6633], [-123.669, 40.6623], [-123.6711, 40.6631], [-123.6696, 40.6632], [-123.6701, 40.6787], [-123.6834, 40.6783], [-123.6835, 40.6803], [-123.6796, 40.6812], [-123.6787, 40.683], [-123.6755, 40.6839], [-123.674, 40.6867], [-123.6725, 40.6876], [-123.6712, 40.6859], [-123.6684, 40.6858], [-123.6685, 40.6867], [-123.6675, 40.6861], [-123.6673, 40.6853], [-123.6684, 40.6845], [-123.6667, 40.6841], [-123.6666, 40.6828]]]]}, "properties": {"layer": "retained"}}, {"type": "Feature", "geometry": {"type": "MultiPolygon", "coordinates": [[[[-123.6697, 40.6789], [-123.6701, 40.6786], [-123.67, 40.6775], [-123.6686, 40.6781], [-123.6697, 40.6789]], [[-123.6697, 40.6781], [-123.6694, 40.6784], [-123.6694, 40.6781], [-123.6697, 40.6781]]], [[[-123.6686, 40.6781], [-123.669, 40.6776], [-123.6682, 40.6773], [-123.6693, 40.6773], [-123.67, 40.6765], [-123.6699, 40.6756], [-123.6677, 40.6744], [-123.6675, 40.6768], [-123.6686, 40.6781]], [[-123.6689, 40.6765], [-123.6682, 40.6768], [-123.6682, 40.6765], [-123.6689, 40.6765]], [[-123.6696, 40.6762], [-123.6693, 40.6765], [-123.6693, 40.6762], [-123.6696, 40.6762]]], [[[-123.666, 40.6747], [-123.667, 40.6741], [-123.6677, 40.6744], [-123.6677, 40.6738], [-123.6659, 40.6739], [-123.666, 40.6747]]], [[[-123.6624, 40.6732], [-123.6623, 40.6724], [-123.6616, 40.6724], [-123.6613, 40.6732], [-123.6624, 40.6732]]], [[[-123.6694, 40.6716], [-123.6693, 40.6708], [-123.6679, 40.6711], [-123.6683, 40.6716], [-123.6694, 40.6716]]], [[[-123.6605, 40.6711], [-123.6611, 40.6702], [-123.6601, 40.6697], [-123.6594, 40.6705], [-123.6604, 40.6702], [-123.6605, 40.6711]]], [[[-123.6619, 40.6702], [-123.6618, 40.6694], [-123.6622, 40.6691], [-123.6608, 40.6697], [-123.6619, 40.6702]]], [[[-123.6614, 40.6683], [-123.6621, 40.6686], [-123.6628, 40.668], [-123.6614, 40.6683]]], [[[-123.6631, 40.6677], [-123.6631, 40.6672], [-123.6617, 40.6672], [-123.6617, 40.6678], [-123.6631, 40.6677]]]]}, "properties": {"layer": "high_severity"}}, {"type": "Feature", "geometry": {"type": "Polygon", "coordinates": [[[-123.6689, 40.6765], [-123.6693, 40.6762], [-123.6689, 40.6762], [-123.6689, 40.6765]]]}, "properties": {"layer": "interior"}}, {"type": "Feature", "geometry": {"type": "Polygon", "coordinates": [[[-123.6689, 40.6765], [-123.6693, 40.6762], [-123.6689, 40.6762], [-123.6689, 40.6765]]]}, "properties": {"layer": "cell", "cell_id": "303_3500", "seed_zone": "303", "elevation_band": "3500–4000 ft"}}]}
