{"type": "FeatureCollection", "features": [{"type": "Feature", "geometry": {"type": "Polygon", "coordinates": [[[-119.7946, 34.9615], [-119.7941, 34.9666], [-119.7926, 34.9685], [-119.7921, 34.9663], [-119.7913, 34.9662], [-119.7901, 34.9697], [-119.7893, 34.9648], [-119.7918, 34.963], [-119.7905, 34.96], [-119.7916, 34.9573], [-119.7905, 34.9574], [-119.7898, 34.9593], [-119.7899, 34.9574], [-119.7886, 34.956], [-119.7893, 34.9529], [-119.7888, 34.9498], [-119.79, 34.9485], [-119.7888, 34.9483], [-119.7892, 34.9476], [-119.7864, 34.9487], [-119.788, 34.9508], [-119.7857, 34.9539], [-119.7828, 34.9564], [-119.7802, 34.9574], [-119.7813, 34.9561], [-119.7802, 34.9561], [-119.7804, 34.9543], [-119.779, 34.9549], [-119.7792, 34.9541], [-119.7779, 34.9537], [-119.7777, 34.9521], [-119.7754, 34.9515], [-119.7732, 34.9494], [-119.7732, 34.9517], [-119.7703, 34.9495], [-119.7681, 34.9412], [-119.7687, 34.94], [-119.7674, 34.939], [-119.7655, 34.9285], [-119.7643, 34.9275], [-119.7623, 34.9223], [-119.7624, 34.9157], [-119.7613, 34.9153], [-119.7598, 34.916], [-119.7594, 34.9184], [-119.758, 34.9172], [-119.7575, 34.9146], [-119.7596, 34.9124], [-119.761, 34.9121], [-119.7603, 34.9077], [-119.7631, 34.9076], [-119.7645, 34.9068], [-119.7652, 34.9051], [-119.7647, 34.9024], [-119.768, 34.9008], [-119.77, 34.9016], [-119.7706, 34.903], [-119.7699, 34.9036], [-119.7715, 34.9044], [-119.7748, 34.9029], [-119.783, 34.9031], [-119.7868, 34.9019], [-119.7895, 34.9022], [-119.7902, 34.9015], [-119.7926, 34.9024], [-119.7934, 34.9015], [-119.794, 34.9033], [-119.7954, 34.9025], [-119.7975, 34.9027], [-119.7989, 34.9091], [-119.7985, 34.9101], [-119.7993, 34.9104], [-119.7993, 34.9097], [-119.7998, 34.9102], [-119.7989, 34.9117], [-119.7973, 34.9114], [-119.7984, 34.9132], [-119.7993, 34.9135], [-119.798, 34.9157], [-119.7972, 34.9154], [-119.7971, 34.9115], [-119.7956, 34.9124], [-119.7968, 34.914], [-119.7952, 34.9129], [-119.7937, 34.9136], [-119.7941, 34.9155], [-119.795, 34.916], [-119.7939, 34.9171], [-119.7947, 34.9183], [-119.7938, 34.9185], [-119.7936, 34.9192], [-119.7959, 34.919], [-119.7964, 34.9198], [-119.7979, 34.9191], [-119.7985, 34.9191], [-119.797, 34.92], [-119.7986, 34.9214], [-119.797, 34.9228], [-119.7972, 34.9234], [-119.8006, 34.9217], [-119.8057, 34.9215], [-119.8035, 34.9271], [-119.8057, 34.9273], [-119.8074, 34.9291], [-119.8089, 34.929], [-119.8082, 34.9302], [-119.8068, 34.9305], [-119.8111, 34.9328], [-119.8122, 34.9362], [-119.8139, 34.938], [-119.8137, 34.9395], [-119.8128, 34.9399], [-119.8138, 34.94], [-119.8147, 34.9381], [-119.8169, 34.9382], [-119.8166, 34.9489], [-119.8151, 34.9491], [-119.8159, 34.9483], [-119.8149, 34.948], [-119.8145, 34.947], [-119.8128, 34.9479], [-119.8123, 34.949], [-119.8072, 34.9491], [-119.8037, 34.9512], [-119.811, 34.9529], [-119.8122, 34.9535], [-119.8122, 34.9555], [-119.8135, 34.9563], [-119.8122, 34.9563], [-119.8118, 34.9591], [-119.8131, 34.9597], [-119.8133, 34.963], [-119.8124, 34.9631], [-119.8118, 34.9642], [-119.813, 34.9667], [-119.8123, 34.9691], [-119.8133, 34.9697], [-119.8126, 34.9704], [-119.812, 34.9744], [-119.8102, 34.9732], [-119.8088, 34.9702], [-119.8089, 34.9665], [-119.805, 34.9654], [-119.7969, 34.9587], [-119.7951, 34.9612], [-119.7946, 34.9569], [-119.7935, 34.9578], [-119.7924, 34.9576], [-119.7946, 34.9615]], [[-119.8038, 34.9579], [-119.8025, 34.9521], [-119.7997, 34.9562], [-119.8038, 34.9579]]]}, "properties": {"layer": "perimeter"}}, {"type": "Feature", "geometry": {"type": "MultiPolygon", "coordinates": [[[[-119.7945, 34.9617], [-119.7941, 34.9666], [-119.7926, 34.9685], [-119.7921, 34.9663], [-119.7913, 34.9662], [-119.7901, 34.9697], [-119.7893, 34.9648], [-119.7918, 34.963], [-119.7905, 34.96], [-119.7916, 34.9573], [-119.7905, 34.9574], [-119.7898, 34.9593], [-119.7899, 34.9574], [-119.7886, 34.956], [-119.7893, 34.9529], [-119.7888, 34.9498], [-119.79, 34.9485], [-119.7888, 34.9483], [-119.7892, 34.9476], [-119.7864, 34.9487], [-119.788, 34.9508], [-119.7857, 34.9539], [-119.7828, 34.9564], [-119.7802, 34.9574], [-119.7813, 34.9561], [-119.7802, 34.9561], [-119.7804, 34.9543], [-119.779, 34.9549], [-119.7792, 34.9541], [-119.7779, 34.9537], [-119.7777, 34.9521], [-119.7754, 34.9515], [-119.7732, 34.9494], [-119.7732, 34.9517], [-119.7703, 34.9495], [-119.7681, 34.9412], [-119.7687, 34.94], [-119.7674, 34.939], [-119.7655, 34.9285], [-119.7643, 34.9275], [-119.7623, 34.9223], [-119.7624, 34.9157], [-119.7613, 34.9153], [-119.7598, 34.916], [-119.7597, 34.9185], [-119.7579, 34.9168], [-119.7577, 34.914], [-119.7599, 34.9122], [-119.761, 34.9121], [-119.7603, 34.9077], [-119.7631, 34.9076], [-119.7644, 34.9068], [-119.7645, 34.9075], [-119.7691, 34.9073], [-119.7692, 34.9113], [-119.7974, 34.9114], [-119.7984, 34.9132], [-119.7993, 34.9134], [-119.7984, 34.9155], [-119.7973, 34.9156], [-119.7968, 34.9115], [-119.7956, 34.9127], [-119.7966, 34.913], [-119.7968, 34.914], [-119.7952, 34.9129], [-119.7935, 34.9139], [-119.795, 34.916], [-119.7939, 34.9171], [-119.7947, 34.9183], [-119.7938, 34.9185], [-119.7936, 34.9192], [-119.7959, 34.919], [-119.7964, 34.9198], [-119.7984, 34.919], [-119.797, 34.92], [-119.7986, 34.9214], [-119.797, 34.9233], [-119.7999, 34.9222], [-119.7999, 34.926], [-119.8038, 34.9263], [-119.8035, 34.9271], [-119.8057, 34.9273], [-119.8061, 34.9282], [-119.807, 34.9283], [-119.8068, 34.9289], [-119.8089, 34.929], [-119.8082, 34.9302], [-119.8068, 34.9305], [-119.8111, 34.9328], [-119.8122, 34.9362], [-119.8139, 34.938], [-119.8137, 34.9395], [-119.8128, 34.9399], [-119.8138, 34.94], [-119.8147, 34.9381], [-119.8169, 34.9382], [-119.8166, 34.9489], [-119.8151, 34.9491], [-119.8159, 34.9483], [-119.8149, 34.948], [-119.8145, 34.947], [-119.8128, 34.9479], [-119.8123, 34.949], [-119.8072, 34.9491], [-119.8037, 34.9512], [-119.811, 34.9529], [-119.8122, 34.9535], [-119.8122, 34.9555], [-119.8135, 34.9563], [-119.8122, 34.9563], [-119.8118, 34.9591], [-119.8131, 34.9597], [-119.8133, 34.963], [-119.8124, 34.9631], [-119.8118, 34.9642], [-119.813, 34.9667], [-119.8123, 34.9691], [-119.8133, 34.9697], [-119.8126, 34.9704], [-119.812, 34.9744], [-119.8102, 34.9732], [-119.8088, 34.9702], [-119.8089, 34.9665], [-119.805, 34.9654], [-119.7969, 34.9587], [-119.7951, 34.9612], [-119.7946, 34.9569], [-119.7935, 34.9578], [-119.7924, 34.9576], [-119.7945, 34.9617]], [[-119.8025, 34.9548], [-119.8025, 34.9521], [-119.7997, 34.9562], [-119.8038, 34.9579], [-119.8025, 34.9548]], [[-119.7868, 34.9186], [-119.791, 34.9186], [-119.7911, 34.9148], [-119.7868, 34.9148], [-119.7868, 34.9186]]], [[[-119.7989, 34.9114], [-119.7984, 34.9118], [-119.7979, 34.9114], [-119.7989, 34.9114]]]]}, "properties": {"layer": "retained"}}]}
