{"type": "FeatureCollection", "features": [{"type": "Feature", "geometry": {"type": "Polygon", "coordinates": [[[-118.4258, 37.4181], [-118.4124, 37.4162], [-118.4092, 37.4146], [-118.4084, 37.4151], [-118.4047, 37.4146], [-118.4021, 37.4153], [-118.4004, 37.4149], [-118.3998, 37.4153], [-118.3958, 37.4152], [-118.3956, 37.4162], [-118.3955, 37.414], [-118.3939, 37.4138], [-118.3929, 37.4146], [-118.3931, 37.4138], [-118.3921, 37.4134], [-118.3896, 37.4141], [-118.3888, 37.4136], [-118.3864, 37.4146], [-118.3854, 37.4144], [-118.385, 37.4133], [-118.3834, 37.4138], [-118.3841, 37.413], [-118.3821, 37.4123], [-118.3829, 37.4119], [-118.3821, 37.4116], [-118.376, 37.4111], [-118.3753, 37.4106], [-118.3763, 37.4102], [-118.3755, 37.4088], [-118.3778, 37.4092], [-118.3798, 37.4084], [-118.3819, 37.4091], [-118.3826, 37.4081], [-118.383, 37.4087], [-118.3845, 37.4085], [-118.385, 37.4063], [-118.3842, 37.404], [-118.3858, 37.4044], [-118.3869, 37.4033], [-118.3876, 37.404], [-118.3862, 37.4062], [-118.3882, 37.4074], [-118.3884, 37.409], [-118.3909, 37.4087], [-118.3909, 37.4094], [-118.3901, 37.4096], [-118.3911, 37.4099], [-118.3916, 37.4093], [-118.3931, 37.4094], [-118.3965, 37.4065], [-118.398, 37.407], [-118.3983, 37.4086], [-118.4018, 37.4078], [-118.4064, 37.4094], [-118.4094, 37.4086], [-118.4118, 37.4089], [-118.4118, 37.408], [-118.4065, 37.4057], [-118.4027, 37.4053], [-118.4034, 37.4037], [-118.4022, 37.4039], [-118.4016, 37.403], [-118.4023, 37.4016], [-118.4033, 37.4014], [-118.4054, 37.4024], [-118.4064, 37.4012], [-118.4068, 37.4036], [-118.4183, 37.406], [-118.4236, 37.4095], [-118.4255, 37.4099], [-118.4275, 37.4088], [-118.4291, 37.4094], [-118.4304, 37.4083], [-118.4329, 37.4088], [-118.4329, 37.4083], [-118.4358, 37.4086], [-118.4412, 37.4076], [-118.4505, 37.408], [-118.4508, 37.4073], [-118.4552, 37.4067], [-118.4582, 37.4053], [-118.4648, 37.4061], [-118.4728, 37.4042], [-118.4778, 37.4043], [-118.479, 37.4049], [-118.4808, 37.4043], [-118.4861, 37.4046], [-118.4914, 37.4037], [-118.4935, 37.4039], [-118.4983, 37.4025], [-118.5023, 37.4042], [-118.5026, 37.4036], [-118.506, 37.4038], [-118.5154, 37.4118], [-118.5151, 37.4132], [-118.5111, 37.4105], [-118.503, 37.407], [-118.4983, 37.4069], [-118.4885, 37.4084], [-118.4875, 37.4074], [-118.4826, 37.4088], [-118.4827, 37.4095], [-118.4788, 37.4102], [-118.4751, 37.4099], [-118.4699, 37.411], [-118.4686, 37.4108], [-118.4687, 37.4101], [-118.4682, 37.41], [-118.4684, 37.4105], [-118.4636, 37.4117], [-118.462, 37.4118], [-118.462, 37.4108], [-118.4608, 37.4112], [-118.4598, 37.4124], [-118.4493, 37.4132], [-118.4461, 37.4142], [-118.4465, 37.4136], [-118.4457, 37.4126], [-118.4421, 37.4142], [-118.4389, 37.4138], [-118.4368, 37.4162], [-118.4358, 37.4158], [-118.4346, 37.4165], [-118.4336, 37.4157], [-118.4316, 37.4165], [-118.4303, 37.4163], [-118.4301, 37.4181], [-118.4258, 37.4181]]]}, "properties": {"layer": "perimeter"}}, {"type": "Feature", "geometry": {"type": "Polygon", "coordinates": [[[-118.4254, 37.4181], [-118.4124, 37.4162], [-118.4092, 37.4146], [-118.4084, 37.4151], [-118.4047, 37.4146], [-118.4021, 37.4153], [-118.4004, 37.4149], [-118.3998, 37.4153], [-118.3958, 37.4152], [-118.3956, 37.4162], [-118.3955, 37.414], [-118.3939, 37.4138], [-118.3929, 37.4146], [-118.3931, 37.4138], [-118.3921, 37.4134], [-118.3896, 37.4141], [-118.3888, 37.4136], [-118.3864, 37.4146], [-118.3854, 37.4144], [-118.385, 37.4133], [-118.3834, 37.4138], [-118.3841, 37.413], [-118.3821, 37.4123], [-118.3829, 37.4119], [-118.3821, 37.4116], [-118.376, 37.4111], [-118.3753, 37.4106], [-118.3763, 37.4102], [-118.3755, 37.4088], [-118.3778, 37.4092], [-118.3798, 37.4084], [-118.3819, 37.4091], [-118.3826, 37.4081], [-118.383, 37.4087], [-118.3845, 37.4085], [-118.385, 37.4063], [-118.3842, 37.404], [-118.3858, 37.4044], [-118.3869, 37.4033], [-118.3876, 37.404], [-118.3862, 37.4062], [-118.3882, 37.4074], [-118.3884, 37.409], [-118.3909, 37.4087], [-118.3909, 37.4094], [-118.3901, 37.4096], [-118.3911, 37.4099], [-118.3916, 37.4093], [-118.3931, 37.4094], [-118.3965, 37.4065], [-118.398, 37.407], [-118.3983, 37.4086], [-118.4018, 37.4078], [-118.4064, 37.4094], [-118.4094, 37.4086], [-118.4118, 37.4089], [-118.4118, 37.408], [-118.4065, 37.4057], [-118.4027, 37.4053], [-118.4034, 37.4037], [-118.4022, 37.4039], [-118.4016, 37.403], [-118.4023, 37.4016], [-118.4033, 37.4014], [-118.4054, 37.4024], [-118.4064, 37.4012], [-118.4068, 37.4036], [-118.4183, 37.406], [-118.4236, 37.4095], [-118.4255, 37.4099], [-118.4275, 37.4088], [-118.4291, 37.4094], [-118.4304, 37.4083], [-118.4329, 37.4088], [-118.4329, 37.4083], [-118.4358, 37.4086], [-118.4412, 37.4076], [-118.4505, 37.408], [-118.4508, 37.4073], [-118.4552, 37.4067], [-118.4582, 37.4053], [-118.4648, 37.4061], [-118.4728, 37.4042], [-118.4778, 37.4043], [-118.479, 37.4049], [-118.4808, 37.4043], [-118.4861, 37.4046], [-118.4914, 37.4037], [-118.4935, 37.4039], [-118.4983, 37.4025], [-118.5023, 37.4042], [-118.5026, 37.4036], [-118.5049, 37.4038], [-118.5049, 37.4049], [-118.5071, 37.4049], [-118.5154, 37.4118], [-118.5151, 37.4132], [-118.5111, 37.4105], [-118.503, 37.407], [-118.4983, 37.4069], [-118.4885, 37.4084], [-118.4875, 37.4074], [-118.4826, 37.4088], [-118.4827, 37.4095], [-118.4788, 37.4102], [-118.4751, 37.4099], [-118.4699, 37.411], [-118.4686, 37.4108], [-118.4687, 37.4101], [-118.4682, 37.41], [-118.4684, 37.4105], [-118.4636, 37.4117], [-118.462, 37.4118], [-118.462, 37.4108], [-118.4608, 37.4112], [-118.4608, 37.4118], [-118.4592, 37.4124], [-118.4592, 37.4115], [-118.4501, 37.4118], [-118.45, 37.4133], [-118.4461, 37.4142], [-118.4458, 37.4126], [-118.4434, 37.4132], [-118.4421, 37.4142], [-118.4389, 37.4138], [-118.4375, 37.4157], [-118.4353, 37.4164], [-118.4343, 37.4164], [-118.4341, 37.4157], [-118.4316, 37.4165], [-118.4303, 37.4163], [-118.4301, 37.4181], [-118.4254, 37.4181]]]}, "properties": {"layer": "retained"}}]}
