{"type": "FeatureCollection", "features": [{"type": "Feature", "geometry": {"type": "Polygon", "coordinates": [[[-120.4381, 35.4124], [-120.4359, 35.4088], [-120.4338, 35.4098], [-120.4342, 35.409], [-120.4325, 35.4079], [-120.4301, 35.4076], [-120.4299, 35.4065], [-120.4273, 35.4057], [-120.4266, 35.4041], [-120.4241, 35.4018], [-120.424, 35.4001], [-120.4226, 35.3987], [-120.4234, 35.398], [-120.4212, 35.3976], [-120.4207, 35.3962], [-120.4217, 35.3949], [-120.4202, 35.3927], [-120.4228, 35.3914], [-120.42, 35.3908], [-120.4185, 35.389], [-120.4194, 35.3884], [-120.419, 35.3878], [-120.4173, 35.3875], [-120.4174, 35.3862], [-120.416, 35.3843], [-120.4144, 35.3846], [-120.4134, 35.3833], [-120.4139, 35.3817], [-120.4125, 35.3811], [-120.4126, 35.3797], [-120.4113, 35.3789], [-120.412, 35.379], [-120.4122, 35.3778], [-120.4106, 35.3771], [-120.4106, 35.3747], [-120.4095, 35.3746], [-120.4101, 35.3742], [-120.4094, 35.3728], [-120.4108, 35.3725], [-120.4116, 35.3709], [-120.4152, 35.3701], [-120.4153, 35.3716], [-120.418, 35.3705], [-120.4176, 35.3728], [-120.4169, 35.3732], [-120.4175, 35.3736], [-120.4159, 35.3744], [-120.4176, 35.3766], [-120.4162, 35.3796], [-120.4215, 35.3797], [-120.4263, 35.3783], [-120.4266, 35.3798], [-120.429, 35.3802], [-120.4302, 35.3815], [-120.43, 35.3822], [-120.431, 35.3818], [-120.433, 35.3845], [-120.4328, 35.3854], [-120.4337, 35.385], [-120.435, 35.3861], [-120.4338, 35.3848], [-120.4352, 35.3837], [-120.4365, 35.3838], [-120.4381, 35.3858], [-120.4383, 35.3878], [-120.4373, 35.3905], [-120.4427, 35.3909], [-120.4428, 35.3932], [-120.4448, 35.3955], [-120.444, 35.3973], [-120.4448, 35.3989], [-120.4456, 35.3992], [-120.4463, 35.3986], [-120.4477, 35.4006], [-120.4473, 35.4016], [-120.4529, 35.4032], [-120.4525, 35.4038], [-120.4536, 35.4057], [-120.4524, 35.4066], [-120.4541, 35.4082], [-120.4548, 35.4114], [-120.4558, 35.4125], [-120.4552, 35.4152], [-120.4534, 35.4154], [-120.452, 35.4145], [-120.4457, 35.4152], [-120.4453, 35.4136], [-120.4381, 35.4124]]]}, "properties": {"layer": "perimeter"}}, {"type": "Feature", "geometry": {"type": "Polygon", "coordinates": [[[-120.438, 35.4124], [-120.4367, 35.4099], [-120.4367, 35.3961], [-120.4281, 35.3964], [-120.428, 35.4034], [-120.4256, 35.4035], [-120.4226, 35.3987], [-120.4234, 35.398], [-120.4216, 35.398], [-120.4208, 35.3966], [-120.4217, 35.3949], [-120.4202, 35.3927], [-120.4228, 35.3914], [-120.4212, 35.3913], [-120.419, 35.3899], [-120.4185, 35.3889], [-120.4194, 35.3884], [-120.419, 35.3878], [-120.4173, 35.3875], [-120.4174, 35.3862], [-120.416, 35.3843], [-120.414, 35.3844], [-120.4133, 35.383], [-120.4139, 35.3817], [-120.4125, 35.3811], [-120.4126, 35.3797], [-120.4113, 35.3791], [-120.412, 35.379], [-120.4122, 35.3778], [-120.4106, 35.3771], [-120.4106, 35.3747], [-120.4096, 35.375], [-120.4101, 35.3741], [-120.4094, 35.3728], [-120.4108, 35.3725], [-120.4116, 35.3709], [-120.4152, 35.3701], [-120.4153, 35.3716], [-120.418, 35.3705], [-120.4176, 35.3728], [-120.4169, 35.3732], [-120.4175, 35.3736], [-120.4159, 35.3744], [-120.4176, 35.3766], [-120.4162, 35.3796], [-120.4215, 35.3797], [-120.4263, 35.3783], [-120.4266, 35.3798], [-120.429, 35.3802], [-120.4302, 35.3815], [-120.43, 35.3822], [-120.431, 35.3818], [-120.433, 35.3845], [-120.4328, 35.3854], [-120.4337, 35.385], [-120.435, 35.3861], [-120.4338, 35.3848], [-120.4352, 35.3837], [-120.4365, 35.3838], [-120.4381, 35.3858], [-120.4383, 35.3878], [-120.4373, 35.3905], [-120.4427, 35.3909], [-120.4428, 35.3932], [-120.4448, 35.3955], [-120.444, 35.3973], [-120.4448, 35.3989], [-120.4456, 35.3992], [-120.4463, 35.3986], [-120.4477, 35.4006], [-120.4473, 35.4016], [-120.4529, 35.4032], [-120.4525, 35.4038], [-120.4536, 35.4057], [-120.4524, 35.4066], [-120.4541, 35.4082], [-120.4548, 35.4114], [-120.4558, 35.4125], [-120.4552, 35.4152], [-120.4534, 35.4154], [-120.452, 35.4145], [-120.4457, 35.4152], [-120.4453, 35.4136], [-120.438, 35.4124]]]}, "properties": {"layer": "retained"}}, {"type": "Feature", "geometry": {"type": "Polygon", "coordinates": [[[-120.433, 35.3901], [-120.433, 35.3895], [-120.432, 35.3896], [-120.432, 35.3898], [-120.433, 35.3901]]]}, "properties": {"layer": "high_severity"}}]}
