{"type": "FeatureCollection", "features": [{"type": "Feature", "geometry": {"type": "Polygon", "coordinates": [[[-117.9056, 34.1658], [-117.9068, 34.1649], [-117.9074, 34.1631], [-117.9102, 34.1611], [-117.912, 34.1633], [-117.9139, 34.164], [-117.9138, 34.1652], [-117.9155, 34.1676], [-117.917, 34.1677], [-117.9183, 34.1711], [-117.9176, 34.174], [-117.9199, 34.1772], [-117.9195, 34.1798], [-117.9204, 34.1817], [-117.9201, 34.1828], [-117.9223, 34.1881], [-117.9213, 34.1896], [-117.9196, 34.1878], [-117.9172, 34.1888], [-117.9159, 34.188], [-117.913, 34.1879], [-117.9132, 34.1893], [-117.9141, 34.1895], [-117.9141, 34.1917], [-117.9134, 34.1916], [-117.9146, 34.1935], [-117.9122, 34.193], [-117.9114, 34.1939], [-117.9131, 34.1951], [-117.9162, 34.1949], [-117.9161, 34.1962], [-117.9153, 34.1965], [-117.9162, 34.1973], [-117.914, 34.1988], [-117.9147, 34.2028], [-117.9125, 34.2042], [-117.9112, 34.2036], [-117.9119, 34.2029], [-117.9117, 34.2027], [-117.9106, 34.2033], [-117.9094, 34.2027], [-117.9105, 34.2015], [-117.9098, 34.2013], [-117.9085, 34.202], [-117.9077, 34.2038], [-117.91, 34.2066], [-117.9108, 34.2057], [-117.9123, 34.2058], [-117.9124, 34.2052], [-117.9146, 34.2058], [-117.915, 34.205], [-117.9164, 34.2056], [-117.9176, 34.2047], [-117.9193, 34.206], [-117.9211, 34.2059], [-117.9226, 34.2078], [-117.9259, 34.2091], [-117.9282, 34.2083], [-117.9283, 34.2107], [-117.9275, 34.2107], [-117.9265, 34.2123], [-117.9293, 34.2128], [-117.9302, 34.2137], [-117.9302, 34.216], [-117.9292, 34.2173], [-117.9311, 34.2231], [-117.9287, 34.2244], [-117.9213, 34.2249], [-117.9159, 34.2273], [-117.9103, 34.2271], [-117.9086, 34.2262], [-117.9087, 34.2254], [-117.9012, 34.2238], [-117.8999, 34.2221], [-117.8992, 34.2174], [-117.9021, 34.2157], [-117.8997, 34.2156], [-117.8971, 34.2169], [-117.893, 34.2147], [-117.8908, 34.2126], [-117.8903, 34.2106], [-117.889, 34.209], [-117.8895, 34.2082], [-117.8885, 34.2072], [-117.892, 34.1993], [-117.8917, 34.1978], [-117.8898, 34.196], [-117.8914, 34.1951], [-117.8907, 34.1941], [-117.8924, 34.1938], [-117.8915, 34.1916], [-117.8929, 34.1915], [-117.8947, 34.1893], [-117.8974, 34.1889], [-117.8966, 34.188], [-117.8952, 34.1886], [-117.8939, 34.1855], [-117.8971, 34.1798], [-117.8963, 34.1796], [-117.8966, 34.1779], [-117.8952, 34.177], [-117.8941, 34.1733], [-117.893, 34.1723], [-117.8913, 34.1725], [-117.89, 34.1717], [-117.8923, 34.1704], [-117.8919, 34.1646], [-117.8942, 34.1643], [-117.8965, 34.1653], [-117.899, 34.1638], [-117.902, 34.166], [-117.9056, 34.1658]]]}, "properties": {"layer": "perimeter"}}, {"type": "Feature", "geometry": {"type": "MultiPolygon", "coordinates": [[[[-117.9175, 34.1727], [-117.9175, 34.1732], [-117.8937, 34.173], [-117.893, 34.1723], [-117.9175, 34.1727]]], [[[-117.892, 34.1723], [-117.8913, 34.1725], [-117.8909, 34.1723], [-117.892, 34.1723]]], [[[-117.89, 34.1717], [-117.89, 34.1717], [-117.89, 34.1717], [-117.89, 34.1717]]], [[[-117.8925, 34.166], [-117.8921, 34.1654], [-117.892, 34.1651], [-117.8925, 34.166]]]]}, "properties": {"layer": "retained"}}]}
