{"type": "FeatureCollection", "features": [{"type": "Feature", "geometry": {"type": "Polygon", "coordinates": [[[-122.644, 40.0702], [-122.6448, 40.0753], [-122.6429, 40.0762], [-122.6406, 40.0749], [-122.64, 40.0737], [-122.637, 40.0738], [-122.6362, 40.073], [-122.634, 40.0734], [-122.63, 40.0716], [-122.6273, 40.0686], [-122.6249, 40.0681], [-122.623, 40.066], [-122.6206, 40.0665], [-122.6162, 40.0648], [-122.6116, 40.0654], [-122.6094, 40.0642], [-122.6093, 40.0627], [-122.6067, 40.0618], [-122.6137, 40.0554], [-122.6163, 40.0501], [-122.6194, 40.0478], [-122.6221, 40.0469], [-122.6219, 40.0442], [-122.6182, 40.0407], [-122.624, 40.0397], [-122.6275, 40.0378], [-122.6335, 40.0374], [-122.6374, 40.0353], [-122.6399, 40.0347], [-122.6433, 40.0357], [-122.6442, 40.038], [-122.6435, 40.0418], [-122.6417, 40.044], [-122.6395, 40.0448], [-122.6415, 40.0466], [-122.6393, 40.0458], [-122.6381, 40.0492], [-122.6365, 40.0503], [-122.6376, 40.0528], [-122.6391, 40.0518], [-122.6415, 40.0479], [-122.6431, 40.0473], [-122.6443, 40.0482], [-122.6458, 40.0472], [-122.6485, 40.0474], [-122.6505, 40.049], [-122.6502, 40.0531], [-122.6526, 40.0561], [-122.6521, 40.0572], [-122.6527, 40.06], [-122.6514, 40.0616], [-122.6494, 40.0627], [-122.6497, 40.0643], [-122.6517, 40.0633], [-122.6536, 40.0664], [-122.652, 40.0693], [-122.6481, 40.0697], [-122.6464, 40.0687], [-122.6448, 40.0689], [-122.644, 40.0702]]]}, "properties": {"layer": "perimeter"}}, {"type": "Feature", "geometry": {"type": "MultiPolygon", "coordinates": [[[[-122.6445, 40.0708], [-122.6445, 40.0757], [-122.6429, 40.0762], [-122.6406, 40.0749], [-122.64, 40.0737], [-122.637, 40.0738], [-122.6363, 40.0731], [-122.634, 40.0734], [-122.6323, 40.0726], [-122.6321, 40.0708], [-122.6445, 40.0708]]], [[[-122.6295, 40.0708], [-122.6272, 40.0685], [-122.6249, 40.0681], [-122.623, 40.066], [-122.6206, 40.0665], [-122.6162, 40.0648], [-122.6116, 40.0654], [-122.6094, 40.0642], [-122.6093, 40.0627], [-122.607, 40.0623], [-122.6067, 40.0616], [-122.6143, 40.0544], [-122.6143, 40.0568], [-122.628, 40.0565], [-122.6284, 40.0448], [-122.6396, 40.0447], [-122.6416, 40.0465], [-122.6392, 40.0459], [-122.6381, 40.0492], [-122.6365, 40.0503], [-122.6376, 40.0528], [-122.6391, 40.0518], [-122.6412, 40.0481], [-122.6431, 40.0473], [-122.6445, 40.0482], [-122.6457, 40.0472], [-122.6471, 40.0472], [-122.6467, 40.0563], [-122.6321, 40.0564], [-122.6321, 40.0708], [-122.6295, 40.0708]]], [[[-122.622, 40.0448], [-122.6182, 40.0407], [-122.6236, 40.0398], [-122.6283, 40.0378], [-122.6284, 40.0448], [-122.622, 40.0448]]], [[[-122.6524, 40.0564], [-122.6527, 40.06], [-122.6507, 40.0621], [-122.6507, 40.0563], [-122.6524, 40.0564]]], [[[-122.6507, 40.0634], [-122.6517, 40.0633], [-122.6536, 40.0663], [-122.6519, 40.0693], [-122.6508, 40.0693], [-122.6507, 40.0634]]]]}, "properties": {"layer": "retained"}}, {"type": "Feature", "geometry": {"type": "MultiPolygon", "coordinates": [[[[-122.6369, 40.0716], [-122.6373, 40.0713], [-122.6369, 40.0713], [-122.6369, 40.0716]]], [[[-122.6293, 40.0548], [-122.6296, 40.0545], [-122.6293, 40.0545], [-122.6293, 40.0548]]]]}, "properties": {"layer": "high_severity"}}]}
