{"type": "FeatureCollection", "features": [{"type": "Feature", "geometry": {"type": "MultiPolygon", "coordinates": [[[[-118.4073, 36.3601], [-118.407, 36.3602], [-118.407, 36.3601], [-118.4073, 36.3601]]], [[[-118.4022, 36.3608], [-118.4024, 36.3607], [-118.4024, 36.3608], [-118.4022, 36.3608]]], [[[-118.4282, 36.3888], [-118.428, 36.3888], [-118.428, 36.3888], [-118.4282, 36.3888]]], [[[-118.4388, 36.3963], [-118.439, 36.3967], [-118.4388, 36.3967], [-118.4388, 36.3963]]], [[[-118.4373, 36.3969], [-118.4375, 36.3968], [-118.4373, 36.397], [-118.4373, 36.3969]]], [[[-118.3936, 36.3549], [-118.4024, 36.3554], [-118.4069, 36.3589], [-118.4067, 36.3604], [-118.4077, 36.3617], [-118.4073, 36.3644], [-118.4095, 36.3664], [-118.4104, 36.3713], [-118.4118, 36.3697], [-118.4118, 36.3738], [-118.4132, 36.3739], [-118.4141, 36.3733], [-118.4146, 36.3739], [-118.4147, 36.3749], [-118.4141, 36.3746], [-118.4135, 36.3762], [-118.412, 36.3761], [-118.4117, 36.3776], [-118.4138, 36.3765], [-118.4142, 36.3772], [-118.4133, 36.3778], [-118.4144, 36.3777], [-118.4141, 36.3785], [-118.4154, 36.3787], [-118.4153, 36.3794], [-118.4161, 36.3795], [-118.4158, 36.3808], [-118.4143, 36.3802], [-118.4131, 36.3814], [-118.4143, 36.3812], [-118.415, 36.382], [-118.4143, 36.3826], [-118.4174, 36.3838], [-118.4178, 36.3849], [-118.416, 36.3856], [-118.4167, 36.387], [-118.4203, 36.3883], [-118.4254, 36.3855], [-118.4259, 36.3863], [-118.4276, 36.3866], [-118.4285, 36.386], [-118.4283, 36.3865], [-118.4297, 36.3868], [-118.4311, 36.3853], [-118.4322, 36.3855], [-118.4315, 36.3868], [-118.4335, 36.3871], [-118.4359, 36.3864], [-118.44, 36.387], [-118.4396, 36.3879], [-118.4415, 36.391], [-118.4401, 36.3911], [-118.439, 36.3898], [-118.4382, 36.3907], [-118.4386, 36.3912], [-118.4376, 36.3916], [-118.4389, 36.3934], [-118.4383, 36.3939], [-118.4392, 36.3937], [-118.4401, 36.3943], [-118.4402, 36.3949], [-118.4387, 36.3942], [-118.439, 36.3954], [-118.4382, 36.395], [-118.4379, 36.3957], [-118.4368, 36.3938], [-118.4364, 36.3958], [-118.4348, 36.397], [-118.4337, 36.3943], [-118.4346, 36.3936], [-118.4342, 36.3931], [-118.4331, 36.3925], [-118.4333, 36.3929], [-118.431, 36.3932], [-118.4326, 36.3915], [-118.4315, 36.3892], [-118.4301, 36.3884], [-118.4296, 36.3894], [-118.428, 36.3887], [-118.4272, 36.3871], [-118.4264, 36.3873], [-118.4269, 36.3881], [-118.4252, 36.3872], [-118.4249, 36.3887], [-118.425, 36.39], [-118.4276, 36.3908], [-118.4269, 36.3917], [-118.4286, 36.393], [-118.4279, 36.3937], [-118.4271, 36.3933], [-118.4276, 36.3944], [-118.4265, 36.3946], [-118.4268, 36.3963], [-118.4251, 36.3946], [-118.4246, 36.3952], [-118.426, 36.3963], [-118.4217, 36.3946], [-118.4223, 36.3941], [-118.4217, 36.393], [-118.4213, 36.3938], [-118.4203, 36.3936], [-118.4199, 36.3909], [-118.418, 36.3894], [-118.418, 36.3885], [-118.4156, 36.3881], [-118.416, 36.3889], [-118.4147, 36.3889], [-118.4152, 36.3895], [-118.4146, 36.3892], [-118.4135, 36.3906], [-118.413, 36.3928], [-118.415, 36.3918], [-118.4141, 36.3909], [-118.4146, 36.3908], [-118.4179, 36.3919], [-118.4177, 36.3926], [-118.4151, 36.3929], [-118.4149, 36.3937], [-118.4155, 36.3941], [-118.4171, 36.3932], [-118.4189, 36.394], [-118.4184, 36.3951], [-118.42, 36.3952], [-118.4192, 36.397], [-118.4211, 36.3964], [-118.4242, 36.3969], [-118.4256, 36.3966], [-118.4259, 36.3987], [-118.423, 36.398], [-118.4227, 36.3985], [-118.4244, 36.3989], [-118.426, 36.4003], [-118.4249, 36.4007], [-118.4248, 36.4032], [-118.4258, 36.4019], [-118.4275, 36.4031], [-118.4288, 36.4019], [-118.4302, 36.4021], [-118.427, 36.4], [-118.4277, 36.3992], [-118.4267, 36.398], [-118.4275, 36.3965], [-118.4289, 36.3962], [-118.4285, 36.3956], [-118.4293, 36.3952], [-118.4295, 36.3957], [-118.4291, 36.3944], [-118.43, 36.393], [-118.4313, 36.3944], [-118.4318, 36.3942], [-118.43, 36.3956], [-118.431, 36.3965], [-118.4306, 36.3972], [-118.4315, 36.397], [-118.4314, 36.3965], [-118.4321, 36.397], [-118.4324, 36.3984], [-118.431, 36.3991], [-118.4321, 36.399], [-118.4314, 36.4011], [-118.4322, 36.4002], [-118.4346, 36.4006], [-118.4347, 36.3991], [-118.4375, 36.3994], [-118.438, 36.3987], [-118.4396, 36.3988], [-118.4413, 36.398], [-118.4415, 36.3987], [-118.4423, 36.3987], [-118.4419, 36.3991], [-118.4425, 36.3992], [-118.4426, 36.3995], [-118.442, 36.3992], [-118.4405, 36.4004], [-118.441, 36.3996], [-118.4404, 36.3995], [-118.4392, 36.4005], [-118.4408, 36.4015], [-118.443, 36.4011], [-118.4426, 36.4022], [-118.4439, 36.4034], [-118.4438, 36.4046], [-118.4432, 36.4045], [-118.4446, 36.4051], [-118.4441, 36.4056], [-118.4429, 36.406], [-118.4423, 36.4054], [-118.4428, 36.4052], [-118.4422, 36.4053], [-118.4421, 36.4057], [-118.4412, 36.4053], [-118.4423, 36.4063], [-118.4406, 36.4073], [-118.4374, 36.407], [-118.4371, 36.4077], [-118.4369, 36.4068], [-118.436, 36.4068], [-118.4358, 36.4077], [-118.4372, 36.4082], [-118.4375, 36.4094], [-118.4359, 36.4087], [-118.4359, 36.4096], [-118.4351, 36.4091], [-118.4328, 36.4101], [-118.4329, 36.4108], [-118.4313, 36.4115], [-118.4296, 36.4113], [-118.4293, 36.4119], [-118.4277, 36.4107], [-118.4279, 36.4122], [-118.4311, 36.4121], [-118.4317, 36.413], [-118.4327, 36.4124], [-118.4329, 36.413], [-118.4341, 36.4128], [-118.4364, 36.411], [-118.4389, 36.4111], [-118.4393, 36.4097], [-118.4405, 36.4115], [-118.443, 36.4109], [-118.4445, 36.4095], [-118.4433, 36.4075], [-118.4439, 36.4069], [-118.4457, 36.4077], [-118.4458, 36.4087], [-118.4449, 36.4093], [-118.4463, 36.41], [-118.4477, 36.4093], [-118.4485, 36.408], [-118.4488, 36.4092], [-118.4522, 36.4081], [-118.4543, 36.4081], [-118.4546, 36.4091], [-118.4538, 36.4095], [-118.4581, 36.4126], [-118.4545, 36.4168], [-118.4546, 36.4185], [-118.4569, 36.4238], [-118.4478, 36.4243], [-118.4472, 36.4254], [-118.4422, 36.4277], [-118.4423, 36.4286], [-118.4461, 36.4301], [-118.4481, 36.4274], [-118.4489, 36.4276], [-118.4488, 36.4266], [-118.4498, 36.4268], [-118.4501, 36.428], [-118.451, 36.4279], [-118.45, 36.4281], [-118.4488, 36.4296], [-118.4492, 36.4315], [-118.4486, 36.4331], [-118.4523, 36.4365], [-118.4531, 36.4382], [-118.4525, 36.4389], [-118.4518, 36.4384], [-118.4452, 36.4387], [-118.44, 36.4371], [-118.439, 36.4358], [-118.4367, 36.4358], [-118.4337, 36.4344], [-118.4292, 36.4347], [-118.426, 36.4363], [-118.4239, 36.4363], [-118.4206, 36.4334], [-118.4209, 36.4287], [-118.419, 36.4235], [-118.4233, 36.4199], [-118.4229, 36.4177], [-118.4172, 36.4217], [-118.4153, 36.4245], [-118.414, 36.4232], [-118.4135, 36.4272], [-118.4154, 36.4406], [-118.4129, 36.4446], [-118.4104, 36.4515], [-118.4106, 36.4565], [-118.4087, 36.462], [-118.4097, 36.4675], [-118.4104, 36.4674], [-118.4103, 36.4659], [-118.4115, 36.4656], [-118.4115, 36.467], [-118.4104, 36.4685], [-118.4118, 36.4697], [-118.4108, 36.4712], [-118.4124, 36.4713], [-118.4105, 36.4717], [-118.412, 36.4722], [-118.4105, 36.4724], [-118.4093, 36.4707], [-118.4076, 36.4717], [-118.4052, 36.476], [-118.4052, 36.4814], [-118.4071, 36.4863], [-118.4074, 36.4907], [-118.4087, 36.4949], [-118.4085, 36.4991], [-118.413, 36.5058], [-118.4148, 36.5068], [-118.4153, 36.5083], [-118.4146, 36.5102], [-118.4165, 36.5112], [-118.417, 36.5124], [-118.4158, 36.5122], [-118.4156, 36.5128], [-118.4168, 36.513], [-118.4124, 36.5155], [-118.4142, 36.5174], [-118.4135, 36.5172], [-118.413, 36.5181], [-118.4136, 36.5191], [-118.4124, 36.5185], [-118.411, 36.5192], [-118.4084, 36.5189], [-118.4045, 36.52], [-118.403, 36.5213], [-118.4048, 36.5222], [-118.4051, 36.5243], [-118.4039, 36.5225], [-118.4019, 36.5224], [-118.4025, 36.5215], [-118.401, 36.522], [-118.396, 36.5208], [-118.3928, 36.5187], [-118.3909, 36.5186], [-118.3907, 36.5174], [-118.3919, 36.517], [-118.3917, 36.5132], [-118.3883, 36.514], [-118.3917, 36.5125], [-118.392, 36.509], [-118.3911, 36.5085], [-118.3909, 36.51], [-118.3906, 36.5088], [-118.3894, 36.5098], [-118.3882, 36.509], [-118.389, 36.5089], [-118.3893, 36.5072], [-118.3911, 36.5075], [-118.3905, 36.508], [-118.3916, 36.5086], [-118.3964, 36.506], [-118.4008, 36.5001], [-118.4041, 36.4875], [-118.4027, 36.4825], [-118.402, 36.474], [-118.4002, 36.4683], [-118.3994, 36.4676], [-118.3946, 36.4698], [-118.3898, 36.4703], [-118.3873, 36.4698], [-118.3868, 36.4685], [-118.3882, 36.4657], [-118.3881, 36.4617], [-118.389, 36.4594], [-118.3856, 36.4561], [-118.3855, 36.4551], [-118.3916, 36.4505], [-118.3952, 36.4439], [-118.3969, 36.443], [-118.3974, 36.4419], [-118.3962, 36.4397], [-118.3963, 36.4378], [-118.4039, 36.4324], [-118.4069, 36.4292], [-118.4073, 36.4278], [-118.4069, 36.417], [-118.4084, 36.4107], [-118.4054, 36.398], [-118.4067, 36.3958], [-118.4062, 36.3964], [-118.4051, 36.3951], [-118.407, 36.3951], [-118.4077, 36.3945], [-118.4061, 36.3942], [-118.4057, 36.393], [-118.4063, 36.3917], [-118.4057, 36.3915], [-118.407, 36.3908], [-118.4067, 36.3899], [-118.408, 36.3896], [-118.408, 36.3878], [-118.4072, 36.3873], [-118.4082, 36.3865], [-118.4076, 36.3855], [-118.4086, 36.3847], [-118.4078, 36.3818], [-118.4072, 36.381], [-118.4064, 36.3814], [-118.4061, 36.381], [-118.4069, 36.3793], [-118.4061, 36.379], [-118.4049, 36.3803], [-118.4058, 36.3781], [-118.4052, 36.3773], [-118.4062, 36.3761], [-118.4053, 36.3752], [-118.4055, 36.3718], [-118.4063, 36.3718], [-118.4055, 36.3714], [-118.4063, 36.3711], [-118.4056, 36.3705], [-118.4075, 36.3702], [-118.4055, 36.3691], [-118.406, 36.3688], [-118.4054, 36.3664], [-118.4036, 36.3647], [-118.404, 36.364], [-118.4048, 36.3642], [-118.4051, 36.363], [-118.4038, 36.363], [-118.4048, 36.362], [-118.4041, 36.3615], [-118.4047, 36.3614], [-118.4042, 36.3605], [-118.403, 36.3607], [-118.4027, 36.3595], [-118.4017, 36.3606], [-118.4016, 36.3614], [-118.4024, 36.3616], [-118.4012, 36.3622], [-118.4024, 36.3622], [-118.4032, 36.3633], [-118.403, 36.3652], [-118.4041, 36.3667], [-118.4022, 36.3683], [-118.4019, 36.3672], [-118.4013, 36.3678], [-118.4003, 36.3675], [-118.4005, 36.3684], [-118.3999, 36.368], [-118.3992, 36.3689], [-118.4003, 36.3705], [-118.3983, 36.372], [-118.3969, 36.3717], [-118.3974, 36.3708], [-118.3961, 36.3688], [-118.3955, 36.3685], [-118.3936, 36.3696], [-118.392, 36.3688], [-118.3936, 36.3677], [-118.3931, 36.3668], [-118.3919, 36.3671], [-118.3918, 36.3662], [-118.3902, 36.3672], [-118.3848, 36.3665], [-118.3856, 36.3653], [-118.3875, 36.3649], [-118.388, 36.3638], [-118.3818, 36.3655], [-118.3798, 36.3674], [-118.379, 36.3657], [-118.3792, 36.3632], [-118.3806, 36.3606], [-118.3913, 36.3542], [-118.3936, 36.3549]]], [[[-118.3936, 36.44], [-118.3956, 36.4409], [-118.3938, 36.4426], [-118.393, 36.4411], [-118.3936, 36.44]], [[-118.3942, 36.4416], [-118.3942, 36.442], [-118.3943, 36.4417], [-118.3942, 36.4416]]]]}, "properties": {"layer": "perimeter"}}]}
