{"type": "FeatureCollection", "features": [{"type": "Feature", "geometry": {"type": "MultiPolygon", "coordinates": [[[[-123.5142, 40.9882], [-123.516, 40.9883], [-123.5155, 40.9897], [-123.5146, 40.99], [-123.5142, 40.9882]]], [[[-123.3962, 41.0062], [-123.3968, 41.0068], [-123.3961, 41.0072], [-123.3953, 41.0066], [-123.3962, 41.0062]]], [[[-123.4888, 41.0065], [-123.4886, 41.0062], [-123.4888, 41.0062], [-123.4888, 41.0065]]], [[[-123.3516, 41.014], [-123.3514, 41.0149], [-123.35, 41.0145], [-123.3502, 41.0142], [-123.3516, 41.014]]], [[[-123.3781, 41.0153], [-123.3772, 41.0149], [-123.378, 41.0141], [-123.3789, 41.0144], [-123.3781, 41.0153]]], [[[-123.3724, 41.0141], [-123.3741, 41.0151], [-123.3733, 41.0162], [-123.3712, 41.0151], [-123.3724, 41.0141]]], [[[-123.3511, 41.0217], [-123.3535, 41.0215], [-123.3536, 41.022], [-123.3522, 41.0231], [-123.3511, 41.0217]]], [[[-123.4949, 41.0191], [-123.4951, 41.019], [-123.4952, 41.0192], [-123.4949, 41.0191]]], [[[-123.5932, 41.0331], [-123.5924, 41.0308], [-123.5935, 41.0299], [-123.5948, 41.0315], [-123.5932, 41.0331]]], [[[-123.5949, 41.0321], [-123.5951, 41.032], [-123.5951, 41.0322], [-123.5949, 41.0321]]], [[[-123.3116, 41.0543], [-123.3118, 41.0545], [-123.3115, 41.0545], [-123.3116, 41.0543]]], [[[-123.2961, 41.0686], [-123.2959, 41.0687], [-123.2959, 41.0686], [-123.2961, 41.0686]]], [[[-123.2961, 41.0689], [-123.2959, 41.0689], [-123.2959, 41.0688], [-123.2961, 41.0689]]], [[[-123.5697, 41.0788], [-123.5703, 41.0777], [-123.5716, 41.0784], [-123.5706, 41.0791], [-123.5697, 41.0788]]], [[[-123.2885, 41.0111], [-123.289, 41.0117], [-123.2897, 41.0114], [-123.2893, 41.0104], [-123.2903, 41.0098], [-123.2895, 41.0095], [-123.291, 41.009], [-123.2897, 41.0089], [-123.2886, 41.0072], [-123.2905, 41.0038], [-123.2897, 41.0029], [-123.2886, 41.0036], [-123.2886, 41.0027], [-123.2878, 41.0028], [-123.2901, 40.9966], [-123.2918, 40.9958], [-123.2913, 40.9951], [-123.2927, 40.9943], [-123.2927, 40.9934], [-123.298, 40.9893], [-123.3006, 40.9883], [-123.3017, 40.9888], [-123.3015, 40.9874], [-123.3025, 40.9871], [-123.3019, 40.9861], [-123.3057, 40.986], [-123.3056, 40.9867], [-123.3083, 40.9859], [-123.3109, 40.9836], [-123.316, 40.9821], [-123.3198, 40.983], [-123.3203, 40.9821], [-123.3214, 40.9821], [-123.3272, 40.9787], [-123.3321, 40.9781], [-123.3329, 40.9787], [-123.3335, 40.978], [-123.3365, 40.977], [-123.3377, 40.9774], [-123.3383, 40.9767], [-123.3406, 40.9768], [-123.3438, 40.9749], [-123.345, 40.9749], [-123.3455, 40.9739], [-123.346, 40.9772], [-123.3481, 40.9795], [-123.3439, 40.9814], [-123.3441, 40.9864], [-123.3416, 40.9896], [-123.3426, 40.9905], [-123.3423, 40.9923], [-123.3433, 40.9944], [-123.342, 40.999], [-123.3421, 41.0], [-123.3443, 41.0017], [-123.3444, 41.0046], [-123.3475, 41.0055], [-123.3473, 41.0092], [-123.3453, 41.011], [-123.3479, 41.0161], [-123.3466, 41.017], [-123.3477, 41.018], [-123.3475, 41.0174], [-123.3489, 41.0172], [-123.3484, 41.018], [-123.3491, 41.0183], [-123.3481, 41.0194], [-123.3498, 41.0203], [-123.3482, 41.0244], [-123.3489, 41.0246], [-123.3485, 41.0261], [-123.3495, 41.027], [-123.348, 41.0286], [-123.3487, 41.0301], [-123.3516, 41.0267], [-123.3558, 41.0276], [-123.3582, 41.0271], [-123.3595, 41.0248], [-123.364, 41.0239], [-123.3643, 41.0245], [-123.3682, 41.0234], [-123.3691, 41.0214], [-123.3707, 41.0203], [-123.3745, 41.0197], [-123.3752, 41.0183], [-123.3778, 41.0181], [-123.38, 41.0198], [-123.3789, 41.0209], [-123.3807, 41.0234], [-123.382, 41.0232], [-123.3829, 41.024], [-123.3847, 41.0235], [-123.3873, 41.0246], [-123.3889, 41.0228], [-123.389, 41.0234], [-123.3912, 41.0237], [-123.3912, 41.0257], [-123.3919, 41.0257], [-123.3922, 41.0247], [-123.3936, 41.0245], [-123.3934, 41.026], [-123.3945, 41.0267], [-123.3948, 41.0242], [-123.3939, 41.0235], [-123.3942, 41.0228], [-123.3969, 41.0238], [-123.3975, 41.0247], [-123.3969, 41.0253], [-123.4001, 41.0252], [-123.4, 41.0265], [-123.4004, 41.0271], [-123.401, 41.0252], [-123.4022, 41.0255], [-123.4014, 41.0247], [-123.4024, 41.0233], [-123.4034, 41.0229], [-123.4039, 41.0243], [-123.4051, 41.0241], [-123.4055, 41.0229], [-123.4068, 41.0231], [-123.4071, 41.0236], [-123.4054, 41.0256], [-123.4066, 41.0253], [-123.4076, 41.0259], [-123.4085, 41.0254], [-123.4098, 41.0274], [-123.413, 41.0271], [-123.411, 41.0289], [-123.4115, 41.0302], [-123.41, 41.0317], [-123.4089, 41.0311], [-123.4105, 41.0346], [-123.4143, 41.0341], [-123.4134, 41.0334], [-123.4156, 41.0334], [-123.4131, 41.0324], [-123.4156, 41.0315], [-123.4161, 41.0294], [-123.4188, 41.0281], [-123.4191, 41.0261], [-123.4218, 41.0255], [-123.4229, 41.0259], [-123.4233, 41.0274], [-123.4254, 41.0273], [-123.4216, 41.0327], [-123.4264, 41.0316], [-123.4288, 41.0338], [-123.43, 41.0335], [-123.4294, 41.0324], [-123.4306, 41.0322], [-123.4332, 41.0341], [-123.4331, 41.0348], [-123.4362, 41.0344], [-123.4371, 41.0355], [-123.439, 41.0354], [-123.446, 41.0317], [-123.4465, 41.0304], [-123.4472, 41.0311], [-123.4475, 41.0302], [-123.4482, 41.0306], [-123.4504, 41.0289], [-123.4516, 41.0287], [-123.4527, 41.0273], [-123.4534, 41.0274], [-123.4555, 41.0255], [-123.4537, 41.0234], [-123.4553, 41.0215], [-123.4575, 41.0218], [-123.4578, 41.0206], [-123.4545, 41.0197], [-123.455, 41.0192], [-123.4574, 41.0198], [-123.4575, 41.0186], [-123.4553, 41.0168], [-123.4552, 41.0157], [-123.4523, 41.0144], [-123.4535, 41.0146], [-123.4537, 41.0135], [-123.4531, 41.0136], [-123.4538, 41.013], [-123.4531, 41.0122], [-123.4541, 41.0122], [-123.4531, 41.0102], [-123.4534, 41.009], [-123.4541, 41.009], [-123.4546, 41.0071], [-123.4564, 41.007], [-123.4564, 41.0077], [-123.4605, 41.0083], [-123.4593, 41.0075], [-123.4597, 41.0065], [-123.4607, 41.0059], [-123.4616, 41.0062], [-123.4617, 41.0048], [-123.463, 41.004], [-123.4627, 41.0028], [-123.4639, 41.0035], [-123.4653, 41.0028], [-123.4646, 41.0023], [-123.4655, 40.9999], [-123.468, 40.9998], [-123.4691, 41.0009], [-123.4713, 41.0015], [-123.4735, 41.0], [-123.4736, 41.0018], [-123.474, 41.0011], [-123.4753, 41.003], [-123.4761, 41.0023], [-123.4772, 41.003], [-123.4762, 41.0049], [-123.4797, 41.0053], [-123.4782, 41.0074], [-123.4768, 41.0068], [-123.4761, 41.0088], [-123.482, 41.0092], [-123.4835, 41.0099], [-123.4862, 41.0088], [-123.4863, 41.0075], [-123.4884, 41.0067], [-123.4878, 41.0081], [-123.4907, 41.0068], [-123.4906, 41.0059], [-123.4913, 41.0062], [-123.4919, 41.0051], [-123.4927, 41.0055], [-123.4924, 41.0045], [-123.491, 41.0046], [-123.4912, 41.0038], [-123.4934, 41.0048], [-123.4944, 41.0038], [-123.495, 41.0043], [-123.4943, 41.0025], [-123.4951, 41.0006], [-123.4964, 41.0004], [-123.496, 40.9996], [-123.4976, 40.9999], [-123.4966, 40.9993], [-123.4976, 40.9992], [-123.4971, 40.9975], [-123.4985, 40.9974], [-123.5001, 40.9985], [-123.5037, 40.9981], [-123.5052, 40.9983], [-123.5055, 40.9991], [-123.5084, 40.9989], [-123.5163, 41.0038], [-123.5172, 41.0069], [-123.5191, 41.0086], [-123.5195, 41.0111], [-123.5212, 41.0112], [-123.5204, 41.0125], [-123.5234, 41.013], [-123.523, 41.0147], [-123.524, 41.0151], [-123.5238, 41.0169], [-123.5257, 41.0166], [-123.5282, 41.0186], [-123.5335, 41.0195], [-123.5339, 41.0203], [-123.536, 41.0205], [-123.5376, 41.0217], [-123.5404, 41.0214], [-123.5438, 41.0235], [-123.5465, 41.0229], [-123.5507, 41.0235], [-123.5524, 41.0225], [-123.5547, 41.0221], [-123.5577, 41.0232], [-123.5665, 41.0227], [-123.5667, 41.0239], [-123.5695, 41.0237], [-123.5725, 41.0223], [-123.5789, 41.0217], [-123.579, 41.0199], [-123.5808, 41.0204], [-123.5838, 41.0196], [-123.5844, 41.0201], [-123.5863, 41.0191], [-123.5856, 41.0201], [-123.5863, 41.0205], [-123.5904, 41.0193], [-123.5898, 41.0183], [-123.5929, 41.018], [-123.5927, 41.0162], [-123.5953, 41.0172], [-123.5982, 41.0165], [-123.5989, 41.0178], [-123.6004, 41.0187], [-123.5989, 41.0192], [-123.6, 41.0193], [-123.6008, 41.0188], [-123.5993, 41.0167], [-123.6004, 41.0163], [-123.5993, 41.0161], [-123.6, 41.013], [-123.6018, 41.0109], [-123.6036, 41.0116], [-123.6036, 41.0108], [-123.6027, 41.0111], [-123.6032, 41.0107], [-123.6021, 41.0105], [-123.6029, 41.0097], [-123.604, 41.0098], [-123.6031, 41.009], [-123.6041, 41.0081], [-123.6045, 41.0086], [-123.6045, 41.0075], [-123.6061, 41.0073], [-123.6093, 41.0113], [-123.6065, 41.0151], [-123.6075, 41.0166], [-123.6076, 41.0187], [-123.6071, 41.0193], [-123.6071, 41.0194], [-123.6081, 41.0193], [-123.6085, 41.0199], [-123.6071, 41.0252], [-123.6049, 41.0275], [-123.6008, 41.0284], [-123.6008, 41.0288], [-123.5955, 41.0283], [-123.593, 41.0293], [-123.5911, 41.0315], [-123.5887, 41.0315], [-123.5844, 41.033], [-123.5787, 41.0331], [-123.5782, 41.0351], [-123.5774, 41.0332], [-123.5764, 41.0338], [-123.576, 41.0333], [-123.5744, 41.0333], [-123.5686, 41.0352], [-123.5654, 41.0346], [-123.5642, 41.037], [-123.5601, 41.0388], [-123.5634, 41.0426], [-123.5638, 41.0456], [-123.5631, 41.0461], [-123.568, 41.0459], [-123.5678, 41.0471], [-123.5695, 41.047], [-123.5673, 41.0508], [-123.568, 41.0527], [-123.5675, 41.0545], [-123.5695, 41.0583], [-123.573, 41.061], [-123.575, 41.0649], [-123.5741, 41.0694], [-123.571, 41.0717], [-123.5656, 41.0815], [-123.5639, 41.0824], [-123.5607, 41.0821], [-123.5571, 41.083], [-123.5558, 41.0849], [-123.5563, 41.0862], [-123.555, 41.092], [-123.5527, 41.0922], [-123.5531, 41.0899], [-123.5484, 41.0892], [-123.5459, 41.0874], [-123.5434, 41.0885], [-123.5429, 41.0977], [-123.5412, 41.0985], [-123.5409, 41.0976], [-123.5383, 41.0969], [-123.5363, 41.0968], [-123.5352, 41.0974], [-123.5377, 41.0988], [-123.5382, 41.1001], [-123.5414, 41.1011], [-123.5417, 41.1031], [-123.5392, 41.1044], [-123.539, 41.1063], [-123.5368, 41.1066], [-123.5376, 41.1083], [-123.5356, 41.1089], [-123.5349, 41.1111], [-123.5339, 41.1119], [-123.5306, 41.1109], [-123.5292, 41.1084], [-123.5273, 41.1104], [-123.5252, 41.1106], [-123.5255, 41.1121], [-123.5273, 41.1138], [-123.5263, 41.1163], [-123.5289, 41.1176], [-123.529, 41.1199], [-123.5255, 41.1226], [-123.5216, 41.1223], [-123.52, 41.1246], [-123.5159, 41.1268], [-123.5204, 41.1276], [-123.5231, 41.1272], [-123.5258, 41.1286], [-123.5284, 41.1283], [-123.5355, 41.1294], [-123.5422, 41.135], [-123.5425, 41.1378], [-123.5438, 41.1402], [-123.5434, 41.1423], [-123.5462, 41.1428], [-123.5479, 41.1453], [-123.5472, 41.1455], [-123.5457, 41.1442], [-123.5443, 41.1443], [-123.5436, 41.1454], [-123.542, 41.1457], [-123.5426, 41.1464], [-123.5416, 41.1469], [-123.5417, 41.1484], [-123.5407, 41.1481], [-123.5402, 41.1488], [-123.5394, 41.1482], [-123.5391, 41.1498], [-123.5332, 41.1517], [-123.5314, 41.1514], [-123.531, 41.15], [-123.5218, 41.1532], [-123.5177, 41.1509], [-123.5154, 41.1514], [-123.5128, 41.1537], [-123.5099, 41.1542], [-123.5066, 41.1529], [-123.5058, 41.1576], [-123.503, 41.1592], [-123.5038, 41.1602], [-123.5035, 41.1628], [-123.5068, 41.1652], [-123.5115, 41.1653], [-123.5133, 41.1671], [-123.5181, 41.1686], [-123.5218, 41.1684], [-123.5265, 41.17], [-123.5289, 41.1729], [-123.5304, 41.1732], [-123.5344, 41.1761], [-123.5363, 41.1763], [-123.5378, 41.1778], [-123.5418, 41.1743], [-123.5448, 41.1751], [-123.5475, 41.1768], [-123.5504, 41.1768], [-123.5514, 41.1775], [-123.5517, 41.1792], [-123.5543, 41.1788], [-123.5602, 41.1806], [-123.561, 41.1822], [-123.5637, 41.1825], [-123.5665, 41.1817], [-123.5669, 41.1828], [-123.5628, 41.1877], [-123.5615, 41.1888], [-123.5597, 41.1878], [-123.5582, 41.1883], [-123.5577, 41.1918], [-123.5552, 41.1931], [-123.5551, 41.1941], [-123.5567, 41.1959], [-123.5568, 41.2002], [-123.5557, 41.2038], [-123.5522, 41.2055], [-123.5507, 41.2046], [-123.5496, 41.205], [-123.5449, 41.2036], [-123.5426, 41.2018], [-123.5362, 41.2008], [-123.533, 41.2025], [-123.5296, 41.2032], [-123.5246, 41.2024], [-123.5219, 41.2035], [-123.5167, 41.2038], [-123.5133, 41.2029], [-123.5121, 41.2005], [-123.5094, 41.2007], [-123.5064, 41.1997], [-123.5048, 41.1998], [-123.5009, 41.1978], [-123.499, 41.1978], [-123.4935, 41.201], [-123.4879, 41.2074], [-123.4854, 41.2075], [-123.4752, 41.2108], [-123.4679, 41.2156], [-123.4675, 41.217], [-123.465, 41.2187], [-123.4599, 41.2178], [-123.454, 41.2111], [-123.4497, 41.2118], [-123.4467, 41.2163], [-123.4452, 41.2164], [-123.4446, 41.2172], [-123.4416, 41.2169], [-123.4368, 41.2176], [-123.4346, 41.2123], [-123.4307, 41.2096], [-123.4295, 41.2074], [-123.4265, 41.2075], [-123.4255, 41.2089], [-123.4215, 41.2101], [-123.4206, 41.2156], [-123.4188, 41.2191], [-123.4155, 41.2201], [-123.4138, 41.2226], [-123.4122, 41.2231], [-123.4124, 41.2244], [-123.4107, 41.2257], [-123.4105, 41.228], [-123.4075, 41.2279], [-123.4046, 41.2286], [-123.4039, 41.2281], [-123.402, 41.2297], [-123.4014, 41.2294], [-123.3984, 41.234], [-123.3965, 41.2349], [-123.3955, 41.2346], [-123.3953, 41.2334], [-123.3936, 41.2332], [-123.3921, 41.2338], [-123.393, 41.2343], [-123.3907, 41.2346], [-123.3945, 41.2395], [-123.3971, 41.2395], [-123.3962, 41.2403], [-123.3967, 41.2407], [-123.3957, 41.241], [-123.3975, 41.2445], [-123.3985, 41.2451], [-123.4003, 41.2446], [-123.4027, 41.2454], [-123.4076, 41.2434], [-123.4106, 41.2438], [-123.4094, 41.2453], [-123.4055, 41.2471], [-123.4045, 41.2485], [-123.402, 41.25], [-123.4016, 41.2516], [-123.3995, 41.2524], [-123.3994, 41.253], [-123.398, 41.2523], [-123.3963, 41.253], [-123.3967, 41.252], [-123.3954, 41.2512], [-123.3958, 41.2504], [-123.3946, 41.2484], [-123.3897, 41.2489], [-123.3893, 41.2504], [-123.3881, 41.2513], [-123.3853, 41.2506], [-123.385, 41.2495], [-123.3857, 41.2493], [-123.3844, 41.2475], [-123.3863, 41.2474], [-123.3872, 41.2446], [-123.3889, 41.2452], [-123.3893, 41.2438], [-123.3885, 41.2431], [-123.3863, 41.2429], [-123.3858, 41.2413], [-123.3803, 41.2396], [-123.38, 41.2385], [-123.3789, 41.2388], [-123.3792, 41.2377], [-123.3763, 41.2334], [-123.3774, 41.2307], [-123.3752, 41.2311], [-123.3744, 41.2318], [-123.3738, 41.2349], [-123.3659, 41.2363], [-123.3645, 41.2354], [-123.3588, 41.2369], [-123.3582, 41.2359], [-123.359, 41.2335], [-123.3571, 41.2305], [-123.3582, 41.2305], [-123.3598, 41.2278], [-123.361, 41.2277], [-123.3629, 41.2292], [-123.3592, 41.2235], [-123.358, 41.2227], [-123.3572, 41.2233], [-123.3569, 41.2224], [-123.3533, 41.2222], [-123.349, 41.2199], [-123.3456, 41.219], [-123.3412, 41.2189], [-123.339, 41.2219], [-123.3368, 41.2231], [-123.3356, 41.223], [-123.3341, 41.2248], [-123.3301, 41.2268], [-123.3265, 41.2271], [-123.3244, 41.2287], [-123.3217, 41.2326], [-123.3205, 41.2326], [-123.3185, 41.2348], [-123.3161, 41.2356], [-123.3142, 41.2354], [-123.3106, 41.2378], [-123.3072, 41.2388], [-123.305, 41.2391], [-123.302, 41.2385], [-123.2988, 41.2395], [-123.2977, 41.2412], [-123.2943, 41.2417], [-123.2932, 41.2414], [-123.2934, 41.2405], [-123.2965, 41.2372], [-123.2964, 41.2356], [-123.2917, 41.2382], [-123.2923, 41.2404], [-123.2891, 41.2418], [-123.288, 41.243], [-123.2852, 41.2417], [-123.284, 41.2424], [-123.2817, 41.2388], [-123.2773, 41.2382], [-123.2773, 41.2389], [-123.2732, 41.2395], [-123.2699, 41.2385], [-123.269, 41.2378], [-123.2693, 41.2336], [-123.2617, 41.2342], [-123.2595, 41.2316], [-123.2544, 41.2308], [-123.2542, 41.2286], [-123.2581, 41.2281], [-123.2593, 41.2267], [-123.2581, 41.2258], [-123.2535, 41.2255], [-123.2531, 41.2242], [-123.2537, 41.2226], [-123.253, 41.2222], [-123.2537, 41.2208], [-123.2546, 41.2208], [-123.2544, 41.2197], [-123.2568, 41.2147], [-123.2559, 41.2145], [-123.2561, 41.2158], [-123.2547, 41.2166], [-123.2544, 41.2182], [-123.253, 41.219], [-123.2533, 41.2196], [-123.252, 41.2208], [-123.2522, 41.2215], [-123.2502, 41.2214], [-123.2497, 41.222], [-123.2467, 41.2205], [-123.2465, 41.2196], [-123.2455, 41.2202], [-123.2444, 41.2194], [-123.2442, 41.2199], [-123.2423, 41.22], [-123.2387, 41.2189], [-123.2363, 41.2161], [-123.2372, 41.2147], [-123.2371, 41.211], [-123.2364, 41.2114], [-123.2299, 41.2104], [-123.2296, 41.2098], [-123.2304, 41.2095], [-123.2284, 41.2085], [-123.2276, 41.2043], [-123.2248, 41.2037], [-123.2249, 41.2023], [-123.2235, 41.2007], [-123.2211, 41.1981], [-123.2201, 41.1983], [-123.2196, 41.1962], [-123.2203, 41.1956], [-123.2195, 41.1944], [-123.2188, 41.1947], [-123.2185, 41.194], [-123.2181, 41.195], [-123.2166, 41.1952], [-123.218, 41.1937], [-123.2167, 41.1922], [-123.2174, 41.1908], [-123.2169, 41.1902], [-123.2192, 41.1884], [-123.2181, 41.1873], [-123.2148, 41.1868], [-123.2146, 41.1859], [-123.2184, 41.1861], [-123.2183, 41.1842], [-123.2192, 41.1829], [-123.22, 41.1832], [-123.2197, 41.1825], [-123.2207, 41.1828], [-123.2191, 41.1808], [-123.2217, 41.176], [-123.2197, 41.1746], [-123.2205, 41.1723], [-123.22, 41.1697], [-123.2184, 41.168], [-123.2189, 41.1675], [-123.2182, 41.1679], [-123.218, 41.1667], [-123.2163, 41.1663], [-123.2176, 41.1641], [-123.2161, 41.1635], [-123.2155, 41.165], [-123.2095, 41.1635], [-123.208, 41.1594], [-123.2086, 41.1584], [-123.2111, 41.1574], [-123.2119, 41.1542], [-123.2132, 41.1533], [-123.2129, 41.1524], [-123.2122, 41.1524], [-123.2106, 41.1538], [-123.2116, 41.1504], [-123.2146, 41.1502], [-123.2169, 41.1491], [-123.2169, 41.15], [-123.2175, 41.1496], [-123.2193, 41.1501], [-123.2199, 41.1498], [-123.2195, 41.1489], [-123.2203, 41.1497], [-123.2225, 41.1494], [-123.2236, 41.1489], [-123.223, 41.148], [-123.2252, 41.1482], [-123.2267, 41.1473], [-123.2271, 41.1461], [-123.2284, 41.1466], [-123.2295, 41.1449], [-123.2327, 41.144], [-123.2331, 41.1435], [-123.232, 41.1424], [-123.2352, 41.1438], [-123.2355, 41.1429], [-123.2336, 41.1419], [-123.2355, 41.1414], [-123.2361, 41.1424], [-123.2378, 41.1418], [-123.2384, 41.1424], [-123.2403, 41.1424], [-123.2421, 41.1417], [-123.2433, 41.1444], [-123.2454, 41.1427], [-123.2451, 41.142], [-123.2429, 41.1411], [-123.2381, 41.1406], [-123.2382, 41.14], [-123.2392, 41.1401], [-123.2393, 41.1391], [-123.2354, 41.1397], [-123.2361, 41.1387], [-123.2334, 41.1399], [-123.2322, 41.1388], [-123.2328, 41.138], [-123.2316, 41.1377], [-123.2341, 41.1359], [-123.2326, 41.1349], [-123.2345, 41.1337], [-123.2372, 41.1359], [-123.2367, 41.1341], [-123.2355, 41.1339], [-123.2356, 41.1322], [-123.2365, 41.1327], [-123.2384, 41.1313], [-123.2371, 41.1308], [-123.2361, 41.1314], [-123.2362, 41.1284], [-123.2389, 41.1274], [-123.2372, 41.1272], [-123.2383, 41.1265], [-123.2383, 41.1242], [-123.2419, 41.1235], [-123.2431, 41.1224], [-123.2477, 41.1241], [-123.2469, 41.1252], [-123.25, 41.1244], [-123.2498, 41.1266], [-123.2487, 41.1273], [-123.2501, 41.1279], [-123.2485, 41.1291], [-123.2482, 41.1314], [-123.2469, 41.1321], [-123.2485, 41.1326], [-123.2488, 41.1343], [-123.251, 41.1343], [-123.2513, 41.1359], [-123.2507, 41.1362], [-123.2511, 41.1368], [-123.2525, 41.1366], [-123.2511, 41.1381], [-123.2518, 41.1382], [-123.253, 41.1367], [-123.2526, 41.1393], [-123.2543, 41.1392], [-123.2539, 41.1387], [-123.2546, 41.1385], [-123.2559, 41.1396], [-123.2549, 41.1412], [-123.2579, 41.142], [-123.2582, 41.143], [-123.2594, 41.1417], [-123.2577, 41.1415], [-123.2587, 41.1401], [-123.2601, 41.1414], [-123.2606, 41.1407], [-123.2627, 41.1418], [-123.2632, 41.1413], [-123.2642, 41.1415], [-123.2648, 41.142], [-123.2636, 41.1427], [-123.2648, 41.1432], [-123.2653, 41.1419], [-123.2668, 41.1424], [-123.2671, 41.1418], [-123.2663, 41.1413], [-123.2675, 41.1397], [-123.2695, 41.1414], [-123.2699, 41.1407], [-123.2711, 41.1414], [-123.2732, 41.1394], [-123.2752, 41.1403], [-123.2764, 41.1393], [-123.2743, 41.1385], [-123.2756, 41.1377], [-123.2767, 41.136], [-123.2782, 41.1367], [-123.2797, 41.1365], [-123.278, 41.1329], [-123.279, 41.1328], [-123.2784, 41.1324], [-123.2789, 41.1316], [-123.2802, 41.1316], [-123.2798, 41.1308], [-123.2821, 41.1304], [-123.284, 41.1283], [-123.2828, 41.1281], [-123.2828, 41.1272], [-123.2845, 41.1268], [-123.2846, 41.1255], [-123.2835, 41.1246], [-123.284, 41.1232], [-123.28, 41.1232], [-123.2791, 41.1239], [-123.2784, 41.1234], [-123.279, 41.1245], [-123.2783, 41.1248], [-123.2774, 41.1233], [-123.2743, 41.1233], [-123.2741, 41.1222], [-123.271, 41.124], [-123.2709, 41.1249], [-123.2689, 41.1246], [-123.2674, 41.1253], [-123.2668, 41.1276], [-123.2648, 41.127], [-123.2617, 41.1295], [-123.2598, 41.13], [-123.2573, 41.1296], [-123.2569, 41.1301], [-123.2556, 41.13], [-123.2557, 41.1293], [-123.2565, 41.1289], [-123.2573, 41.1293], [-123.2585, 41.1263], [-123.2578, 41.1267], [-123.2556, 41.1255], [-123.2537, 41.1255], [-123.2526, 41.1231], [-123.2544, 41.1216], [-123.2555, 41.1218], [-123.2552, 41.1202], [-123.2568, 41.1204], [-123.257, 41.1186], [-123.2586, 41.1183], [-123.2587, 41.1189], [-123.259, 41.1177], [-123.2616, 41.1179], [-123.2619, 41.119], [-123.2631, 41.1195], [-123.2645, 41.1178], [-123.2672, 41.1163], [-123.2709, 41.1169], [-123.2706, 41.1162], [-123.2722, 41.116], [-123.2716, 41.1151], [-123.2698, 41.1151], [-123.2703, 41.1143], [-123.2687, 41.1133], [-123.2684, 41.1113], [-123.2663, 41.1104], [-123.265, 41.1109], [-123.2657, 41.1101], [-123.264, 41.1097], [-123.2642, 41.1091], [-123.2626, 41.1085], [-123.2621, 41.1071], [-123.2648, 41.1061], [-123.2639, 41.1054], [-123.2651, 41.1051], [-123.2643, 41.1045], [-123.2624, 41.1048], [-123.2623, 41.1037], [-123.2638, 41.1036], [-123.2611, 41.1027], [-123.2618, 41.1013], [-123.2614, 41.1006], [-123.2631, 41.1003], [-123.263, 41.0998], [-123.2601, 41.0997], [-123.2602, 41.0982], [-123.2609, 41.0987], [-123.2615, 41.0982], [-123.2606, 41.0978], [-123.2606, 41.096], [-123.2629, 41.0966], [-123.2628, 41.096], [-123.2641, 41.0958], [-123.2656, 41.0971], [-123.2665, 41.0969], [-123.2653, 41.0962], [-123.2658, 41.0951], [-123.2665, 41.0951], [-123.2661, 41.094], [-123.268, 41.0929], [-123.2683, 41.0919], [-123.2666, 41.0911], [-123.2649, 41.0913], [-123.2664, 41.0904], [-123.2657, 41.0902], [-123.2662, 41.089], [-123.2655, 41.0884], [-123.2622, 41.0879], [-123.2618, 41.0889], [-123.2608, 41.0861], [-123.2595, 41.0869], [-123.2602, 41.0879], [-123.2591, 41.0882], [-123.2579, 41.0874], [-123.2571, 41.0879], [-123.256, 41.086], [-123.2568, 41.0854], [-123.2582, 41.0863], [-123.2588, 41.0849], [-123.2594, 41.0854], [-123.2588, 41.0824], [-123.258, 41.0819], [-123.2573, 41.0824], [-123.2577, 41.0813], [-123.2603, 41.0801], [-123.2611, 41.076], [-123.2629, 41.0762], [-123.2632, 41.0781], [-123.264, 41.078], [-123.2649, 41.077], [-123.2662, 41.077], [-123.2683, 41.074], [-123.2707, 41.0736], [-123.2712, 41.0743], [-123.2716, 41.0732], [-123.2751, 41.0727], [-123.2775, 41.0712], [-123.2806, 41.0716], [-123.2828, 41.0701], [-123.2856, 41.0696], [-123.2886, 41.0679], [-123.2897, 41.0684], [-123.2907, 41.0673], [-123.2924, 41.0677], [-123.2946, 41.0664], [-123.2947, 41.0674], [-123.296, 41.0677], [-123.2956, 41.0693], [-123.2958, 41.0695], [-123.2966, 41.0684], [-123.2976, 41.0683], [-123.2984, 41.0665], [-123.2994, 41.0669], [-123.3001, 41.0664], [-123.3012, 41.0674], [-123.3011, 41.0668], [-123.3027, 41.0669], [-123.3031, 41.0664], [-123.3024, 41.0656], [-123.3033, 41.0665], [-123.3041, 41.0662], [-123.3022, 41.0649], [-123.3011, 41.0654], [-123.301, 41.0638], [-123.3025, 41.0639], [-123.3028, 41.0636], [-123.3002, 41.0628], [-123.2995, 41.0612], [-123.2974, 41.061], [-123.2989, 41.0602], [-123.2993, 41.0593], [-123.2988, 41.0597], [-123.2972, 41.0589], [-123.2984, 41.0577], [-123.2967, 41.0568], [-123.2956, 41.0571], [-123.2945, 41.0555], [-123.2936, 41.0554], [-123.2919, 41.0565], [-123.2896, 41.0562], [-123.289, 41.0548], [-123.287, 41.0552], [-123.2871, 41.054], [-123.2852, 41.0535], [-123.2851, 41.0524], [-123.2869, 41.0521], [-123.2888, 41.0529], [-123.2887, 41.0514], [-123.2905, 41.052], [-123.2903, 41.0505], [-123.2944, 41.0529], [-123.2938, 41.052], [-123.2951, 41.0515], [-123.2946, 41.0498], [-123.2959, 41.0482], [-123.2927, 41.047], [-123.2889, 41.0483], [-123.2866, 41.0467], [-123.2865, 41.0459], [-123.2843, 41.048], [-123.2838, 41.0466], [-123.2804, 41.0455], [-123.2802, 41.046], [-123.2778, 41.0466], [-123.2773, 41.047], [-123.2782, 41.0477], [-123.2767, 41.0482], [-123.2777, 41.0491], [-123.2785, 41.0487], [-123.2781, 41.05], [-123.2794, 41.0508], [-123.279, 41.0535], [-123.2779, 41.0522], [-123.2767, 41.0519], [-123.2752, 41.0525], [-123.2748, 41.0517], [-123.2727, 41.0513], [-123.2728, 41.0499], [-123.2738, 41.0499], [-123.2741, 41.0494], [-123.2735, 41.0495], [-123.2738, 41.0482], [-123.2729, 41.0471], [-123.2722, 41.0476], [-123.2726, 41.0487], [-123.2718, 41.0493], [-123.2703, 41.0491], [-123.2688, 41.0465], [-123.2701, 41.047], [-123.2711, 41.0458], [-123.2702, 41.0452], [-123.2696, 41.046], [-123.2681, 41.0448], [-123.2689, 41.0441], [-123.2693, 41.0451], [-123.271, 41.0445], [-123.2706, 41.0427], [-123.2726, 41.0422], [-123.2734, 41.041], [-123.2743, 41.0418], [-123.2733, 41.0422], [-123.2737, 41.0425], [-123.2759, 41.0419], [-123.275, 41.0413], [-123.2772, 41.0396], [-123.2776, 41.0384], [-123.2793, 41.0378], [-123.2788, 41.037], [-123.278, 41.0371], [-123.2787, 41.0355], [-123.2809, 41.0353], [-123.2827, 41.0328], [-123.2846, 41.0332], [-123.2848, 41.034], [-123.2855, 41.0334], [-123.2875, 41.0333], [-123.2878, 41.0323], [-123.287, 41.0316], [-123.288, 41.032], [-123.2884, 41.0313], [-123.2892, 41.0323], [-123.29, 41.0308], [-123.2916, 41.0308], [-123.2908, 41.03], [-123.2896, 41.0306], [-123.2896, 41.0298], [-123.2908, 41.0295], [-123.2908, 41.0283], [-123.2893, 41.028], [-123.2869, 41.0289], [-123.2882, 41.0299], [-123.2875, 41.0308], [-123.2865, 41.0306], [-123.2866, 41.0313], [-123.2849, 41.0317], [-123.2846, 41.0301], [-123.2858, 41.0303], [-123.2869, 41.0292], [-123.2846, 41.0294], [-123.2858, 41.0283], [-123.285, 41.0272], [-123.2866, 41.0253], [-123.2852, 41.0248], [-123.2846, 41.0251], [-123.2854, 41.0259], [-123.2845, 41.0263], [-123.2833, 41.0251], [-123.2822, 41.025], [-123.2826, 41.0242], [-123.2818, 41.0244], [-123.2812, 41.0234], [-123.2837, 41.0202], [-123.2844, 41.0212], [-123.2857, 41.0213], [-123.2857, 41.0203], [-123.2871, 41.02], [-123.2866, 41.0213], [-123.2873, 41.0221], [-123.2883, 41.0218], [-123.2903, 41.0234], [-123.2927, 41.0234], [-123.2942, 41.0245], [-123.2945, 41.0256], [-123.2938, 41.0262], [-123.2951, 41.0264], [-123.2962, 41.0256], [-123.296, 41.0214], [-123.295, 41.0212], [-123.2951, 41.0202], [-123.2936, 41.0199], [-123.2945, 41.0195], [-123.2931, 41.0183], [-123.2925, 41.0186], [-123.293, 41.0174], [-123.2919, 41.0164], [-123.2928, 41.0151], [-123.2944, 41.0151], [-123.295, 41.0145], [-123.2905, 41.0145], [-123.2894, 41.0136], [-123.2884, 41.0137], [-123.2874, 41.0116], [-123.285, 41.0115], [-123.2853, 41.0109], [-123.2885, 41.0111]], [[-123.23, 41.1485], [-123.2273, 41.1479], [-123.2269, 41.1481], [-123.2275, 41.1492], [-123.2295, 41.1492], [-123.23, 41.1485]], [[-123.2291, 41.1572], [-123.2318, 41.1552], [-123.2332, 41.155], [-123.2339, 41.1553], [-123.2334, 41.1565], [-123.2344, 41.1561], [-123.2345, 41.1568], [-123.2358, 41.1571], [-123.2359, 41.1548], [-123.2375, 41.1539], [-123.236, 41.1532], [-123.2363, 41.1519], [-123.2341, 41.1512], [-123.2335, 41.1502], [-123.2329, 41.1508], [-123.2313, 41.149], [-123.2308, 41.15], [-123.2318, 41.1505], [-123.2322, 41.1516], [-123.2311, 41.1526], [-123.231, 41.1539], [-123.2276, 41.1553], [-123.2291, 41.1572]], [[-123.2566, 41.1708], [-123.2558, 41.1691], [-123.2543, 41.1692], [-123.2553, 41.168], [-123.2537, 41.1669], [-123.255, 41.1664], [-123.2566, 41.1628], [-123.2586, 41.1632], [-123.2588, 41.1623], [-123.2601, 41.1619], [-123.2598, 41.1608], [-123.2613, 41.1586], [-123.2595, 41.1587], [-123.26, 41.1575], [-123.2616, 41.1567], [-123.2598, 41.1552], [-123.262, 41.1561], [-123.2617, 41.1551], [-123.2596, 41.1542], [-123.2595, 41.1531], [-123.2583, 41.1523], [-123.2596, 41.1506], [-123.2592, 41.1501], [-123.2563, 41.1492], [-123.2557, 41.15], [-123.2536, 41.1483], [-123.2541, 41.1505], [-123.2523, 41.1493], [-123.2515, 41.1499], [-123.2529, 41.1535], [-123.252, 41.1536], [-123.2535, 41.1538], [-123.2525, 41.1547], [-123.2549, 41.1569], [-123.2563, 41.1619], [-123.253, 41.1671], [-123.254, 41.1699], [-123.2532, 41.171], [-123.2549, 41.1712], [-123.2558, 41.1704], [-123.2566, 41.1708]], [[-123.2932, 41.121], [-123.2922, 41.1191], [-123.2915, 41.1205], [-123.2902, 41.1206], [-123.29, 41.1196], [-123.2909, 41.1182], [-123.293, 41.1176], [-123.292, 41.1169], [-123.2934, 41.1157], [-123.2934, 41.1133], [-123.2927, 41.1126], [-123.2897, 41.1122], [-123.2889, 41.11], [-123.2869, 41.1112], [-123.2863, 41.1125], [-123.2876, 41.1132], [-123.2861, 41.1135], [-123.2876, 41.1179], [-123.2856, 41.1218], [-123.2867, 41.122], [-123.287, 41.1228], [-123.2908, 41.123], [-123.2932, 41.121]], [[-123.2981, 41.1378], [-123.2952, 41.1384], [-123.2944, 41.1373], [-123.2941, 41.1378], [-123.2916, 41.135], [-123.2918, 41.1359], [-123.2905, 41.1368], [-123.2897, 41.1352], [-123.2883, 41.1354], [-123.2891, 41.136], [-123.2868, 41.138], [-123.2876, 41.1381], [-123.2885, 41.1368], [-123.2894, 41.1366], [-123.2891, 41.1372], [-123.2904, 41.1376], [-123.2893, 41.1378], [-123.2893, 41.1389], [-123.2911, 41.1373], [-123.2921, 41.139], [-123.2931, 41.1387], [-123.2928, 41.138], [-123.297, 41.1406], [-123.2986, 41.1395], [-123.2992, 41.1387], [-123.2979, 41.1388], [-123.2981, 41.1378]], [[-123.2908, 41.0263], [-123.2898, 41.0245], [-123.2884, 41.025], [-123.2908, 41.0263]], [[-123.29, 41.024], [-123.2903, 41.0236], [-123.2897, 41.0235], [-123.29, 41.024]], [[-123.3126, 41.0544], [-123.3152, 41.0533], [-123.3129, 41.052], [-123.3115, 41.053], [-123.3113, 41.0538], [-123.3121, 41.0538], [-123.3107, 41.0545], [-123.3106, 41.0557], [-123.3127, 41.0554], [-123.3126, 41.0544]], [[-123.3153, 41.0718], [-123.3189, 41.0719], [-123.319, 41.0711], [-123.3176, 41.071], [-123.3199, 41.069], [-123.3179, 41.0678], [-123.3191, 41.0673], [-123.3204, 41.0685], [-123.322, 41.0678], [-123.3188, 41.0665], [-123.3196, 41.0655], [-123.3181, 41.0648], [-123.3184, 41.0666], [-123.3165, 41.0659], [-123.3168, 41.068], [-123.3154, 41.0689], [-123.3144, 41.0683], [-123.3138, 41.0701], [-123.3155, 41.07], [-123.3159, 41.0714], [-123.3144, 41.0724], [-123.3133, 41.0719], [-123.3132, 41.0729], [-123.3146, 41.073], [-123.3153, 41.0718]], [[-123.3409, 41.0009], [-123.3397, 40.9999], [-123.3398, 41.0014], [-123.3386, 41.0015], [-123.3388, 41.0027], [-123.3401, 41.0022], [-123.3409, 41.0009]], [[-123.4988, 41.0284], [-123.5012, 41.0264], [-123.5021, 41.0267], [-123.5029, 41.0262], [-123.5031, 41.0246], [-123.505, 41.0255], [-123.5058, 41.0242], [-123.5071, 41.0244], [-123.507, 41.0237], [-123.5087, 41.0241], [-123.5055, 41.0229], [-123.5053, 41.0219], [-123.5104, 41.0225], [-123.5107, 41.0253], [-123.5117, 41.0252], [-123.5143, 41.0269], [-123.5156, 41.0237], [-123.5173, 41.0226], [-123.5162, 41.0217], [-123.5142, 41.0226], [-123.5137, 41.022], [-123.5138, 41.0226], [-123.5129, 41.0226], [-123.5113, 41.0244], [-123.5101, 41.0214], [-123.5132, 41.0172], [-123.5119, 41.0174], [-123.5112, 41.019], [-123.5091, 41.0193], [-123.5073, 41.0189], [-123.505, 41.0168], [-123.503, 41.0187], [-123.4984, 41.018], [-123.498, 41.017], [-123.495, 41.0178], [-123.4918, 41.0154], [-123.492, 41.0134], [-123.491, 41.0131], [-123.491, 41.0144], [-123.4897, 41.0144], [-123.4888, 41.0156], [-123.4879, 41.0155], [-123.4888, 41.0176], [-123.4881, 41.0171], [-123.4871, 41.0182], [-123.4878, 41.019], [-123.4889, 41.0187], [-123.489, 41.0198], [-123.4903, 41.0195], [-123.4896, 41.0219], [-123.4917, 41.0203], [-123.4914, 41.0197], [-123.4932, 41.0197], [-123.493, 41.021], [-123.4938, 41.0213], [-123.494, 41.0192], [-123.4948, 41.019], [-123.4946, 41.0222], [-123.4932, 41.0222], [-123.4927, 41.0247], [-123.4935, 41.0253], [-123.4953, 41.0245], [-123.4948, 41.0258], [-123.4965, 41.0277], [-123.4957, 41.0291], [-123.4977, 41.0291], [-123.497, 41.03], [-123.4981, 41.0303], [-123.4976, 41.0311], [-123.4983, 41.0316], [-123.4997, 41.0313], [-123.5001, 41.032], [-123.5014, 41.0292], [-123.501, 41.0282], [-123.4988, 41.0284]], [[-123.4973, 41.015], [-123.4972, 41.012], [-123.4983, 41.0134], [-123.4989, 41.0126], [-123.5012, 41.0139], [-123.5026, 41.0136], [-123.5018, 41.0117], [-123.5001, 41.0115], [-123.4996, 41.0107], [-123.5, 41.0089], [-123.4988, 41.0088], [-123.4987, 41.0079], [-123.4968, 41.0089], [-123.4924, 41.0088], [-123.4924, 41.0107], [-123.4939, 41.0123], [-123.4955, 41.0121], [-123.4954, 41.0133], [-123.4973, 41.015]], [[-123.5603, 41.055], [-123.5593, 41.0545], [-123.5586, 41.055], [-123.5595, 41.0552], [-123.5603, 41.055]], [[-123.5595, 41.0564], [-123.5596, 41.0575], [-123.5611, 41.0578], [-123.5604, 41.0567], [-123.5595, 41.0564]], [[-123.5628, 41.054], [-123.5622, 41.0516], [-123.5628, 41.0505], [-123.5622, 41.0497], [-123.5617, 41.0535], [-123.5628, 41.054]], [[-123.5706, 41.0331], [-123.5699, 41.0322], [-123.5704, 41.0314], [-123.5687, 41.0302], [-123.57, 41.0298], [-123.5692, 41.0282], [-123.568, 41.0296], [-123.5682, 41.0306], [-123.5672, 41.03], [-123.5672, 41.0306], [-123.5657, 41.0306], [-123.5652, 41.032], [-123.5667, 41.0334], [-123.5656, 41.0338], [-123.567, 41.0341], [-123.5669, 41.0332], [-123.5677, 41.0331], [-123.5688, 41.0348], [-123.5706, 41.0331]]], [[[-123.2752, 41.0407], [-123.275, 41.0412], [-123.275, 41.0407], [-123.2752, 41.0407]]], [[[-123.2863, 41.0475], [-123.2859, 41.0474], [-123.2862, 41.0472], [-123.2863, 41.0475]]], [[[-123.2914, 41.0575], [-123.2902, 41.0578], [-123.2896, 41.0567], [-123.2905, 41.0565], [-123.2914, 41.0575]]], [[[-123.2628, 41.0889], [-123.2629, 41.0891], [-123.2626, 41.0891], [-123.2628, 41.0889]]], [[[-123.2636, 41.0943], [-123.2652, 41.0944], [-123.265, 41.0949], [-123.2636, 41.0943]]], [[[-123.2634, 41.0948], [-123.2636, 41.0946], [-123.2638, 41.0949], [-123.2634, 41.0948]]], [[[-123.2642, 41.0954], [-123.2655, 41.0951], [-123.2651, 41.0956], [-123.2642, 41.0954]]], [[[-123.2637, 41.1102], [-123.2638, 41.1107], [-123.2636, 41.1107], [-123.2637, 41.1102]]], [[[-123.2679, 41.1134], [-123.2675, 41.1132], [-123.2678, 41.1132], [-123.2679, 41.1134]]], [[[-123.2685, 41.1134], [-123.2685, 41.1141], [-123.268, 41.1141], [-123.2685, 41.1134]]], [[[-123.2689, 41.1147], [-123.2692, 41.1149], [-123.2689, 41.1149], [-123.2689, 41.1147]]], [[[-123.2626, 41.1188], [-123.263, 41.1189], [-123.263, 41.1192], [-123.2626, 41.1188]]], [[[-123.2693, 41.1249], [-123.2691, 41.1251], [-123.2691, 41.1249], [-123.2693, 41.1249]]], [[[-123.2966, 41.1389], [-123.2961, 41.1391], [-123.2964, 41.1388], [-123.2966, 41.1389]]], [[[-123.2979, 41.1395], [-123.2975, 41.1392], [-123.2981, 41.1394], [-123.2979, 41.1395]]], [[[-123.2615, 41.1002], [-123.2614, 41.1003], [-123.2613, 41.1001], [-123.2615, 41.1002]]], [[[-123.2607, 41.1009], [-123.2602, 41.1006], [-123.261, 41.1008], [-123.2607, 41.1009]]], [[[-123.2618, 41.1044], [-123.2612, 41.1038], [-123.2615, 41.1037], [-123.2618, 41.1044]]], [[[-123.2477, 41.1132], [-123.2461, 41.1136], [-123.245, 41.1119], [-123.2443, 41.1118], [-123.2441, 41.1101], [-123.2408, 41.1125], [-123.239, 41.1102], [-123.2357, 41.109], [-123.2366, 41.1073], [-123.2358, 41.1072], [-123.2359, 41.1057], [-123.2387, 41.1045], [-123.2372, 41.1043], [-123.2381, 41.1043], [-123.2376, 41.1035], [-123.2358, 41.1042], [-123.2355, 41.1033], [-123.237, 41.1027], [-123.2358, 41.1016], [-123.2371, 41.1016], [-123.2371, 41.1011], [-123.2357, 41.1014], [-123.2351, 41.1004], [-123.2362, 41.0998], [-123.2361, 41.0993], [-123.2347, 41.1001], [-123.2352, 41.0979], [-123.2368, 41.0977], [-123.2374, 41.0983], [-123.2391, 41.0977], [-123.2399, 41.0982], [-123.2405, 41.0972], [-123.2416, 41.0977], [-123.2424, 41.0978], [-123.2415, 41.0971], [-123.2424, 41.0965], [-123.2455, 41.097], [-123.2457, 41.0962], [-123.2469, 41.0962], [-123.248, 41.0983], [-123.2471, 41.0994], [-123.2489, 41.1009], [-123.2517, 41.0975], [-123.2538, 41.0967], [-123.2545, 41.0982], [-123.2551, 41.098], [-123.255, 41.0967], [-123.2567, 41.0953], [-123.2586, 41.0951], [-123.2601, 41.0982], [-123.2593, 41.0997], [-123.2577, 41.0993], [-123.2574, 41.1013], [-123.2601, 41.1026], [-123.2603, 41.1018], [-123.2613, 41.102], [-123.261, 41.1032], [-123.2573, 41.1037], [-123.2605, 41.1058], [-123.259, 41.1073], [-123.2554, 41.1072], [-123.2556, 41.1094], [-123.2548, 41.1096], [-123.2559, 41.1106], [-123.2551, 41.1112], [-123.2546, 41.1108], [-123.2538, 41.1118], [-123.2546, 41.1133], [-123.2518, 41.114], [-123.2514, 41.1129], [-123.2504, 41.1132], [-123.2505, 41.1127], [-123.2502, 41.1132], [-123.2506, 41.1136], [-123.2494, 41.1134], [-123.2488, 41.114], [-123.2477, 41.1132]]], [[[-123.2608, 41.1043], [-123.2605, 41.1044], [-123.2606, 41.1042], [-123.2608, 41.1043]]], [[[-123.26, 41.1046], [-123.2602, 41.1049], [-123.2597, 41.1044], [-123.26, 41.1046]]], [[[-123.2614, 41.1058], [-123.2612, 41.1057], [-123.2614, 41.1056], [-123.2614, 41.1058]]], [[[-123.2622, 41.1185], [-123.2625, 41.1183], [-123.2625, 41.1185], [-123.2622, 41.1185]]], [[[-123.257, 41.1286], [-123.2574, 41.1283], [-123.2574, 41.1286], [-123.257, 41.1286]]], [[[-123.2571, 41.1506], [-123.2586, 41.1506], [-123.2582, 41.1518], [-123.2571, 41.1506]]], [[[-123.2565, 41.1527], [-123.257, 41.1528], [-123.2569, 41.153], [-123.2565, 41.1527]]], [[[-123.2566, 41.1544], [-123.2558, 41.1544], [-123.2556, 41.1542], [-123.2565, 41.1539], [-123.2566, 41.1544]]], [[[-123.2143, 41.1868], [-123.2141, 41.187], [-123.2141, 41.1868], [-123.2143, 41.1868]]], [[[-123.2137, 41.1873], [-123.2137, 41.1875], [-123.2136, 41.1874], [-123.2137, 41.1873]]], [[[-123.2171, 41.1959], [-123.2181, 41.1957], [-123.2173, 41.1962], [-123.2171, 41.1959]]]]}, "properties": {"layer": "perimeter"}}, {"type": "Feature", "geometry": {"type": "MultiPolygon", "coordinates": [[[[-123.3418, 40.9868], [-123.342, 40.9923], [-123.3375, 40.9923], [-123.3374, 40.9867], [-123.3418, 40.9868]]], [[[-123.6074, 41.0089], [-123.6076, 41.0091], [-123.6074, 41.0091], [-123.6074, 41.0089]]], [[[-123.2617, 41.0759], [-123.2619, 41.076], [-123.2619, 41.0762], [-123.2617, 41.0759]]], [[[-123.262, 41.0763], [-123.2629, 41.0762], [-123.2628, 41.077], [-123.2624, 41.0771], [-123.262, 41.0763]]], [[[-123.2674, 41.0755], [-123.2668, 41.0754], [-123.2674, 41.0754], [-123.2674, 41.0755]]], [[[-123.3059, 41.2136], [-123.3076, 41.212], [-123.3094, 41.2104], [-123.3105, 41.2121], [-123.3075, 41.2142], [-123.3059, 41.2136]]], [[[-123.2638, 41.2321], [-123.2659, 41.2309], [-123.267, 41.2317], [-123.2651, 41.2324], [-123.2638, 41.2321]]]]}, "properties": {"layer": "retained"}}, {"type": "Feature", "geometry": {"type": "MultiPolygon", "coordinates": [[[[-123.3375, 40.9871], [-123.3379, 40.9873], [-123.3382, 40.987], [-123.3375, 40.9871]]], [[[-123.3382, 40.987], [-123.3385, 40.9868], [-123.3382, 40.9868], [-123.3382, 40.987]]]]}, "properties": {"layer": "high_severity"}}]}
