{"type": "FeatureCollection", "features": [{"type": "Feature", "geometry": {"type": "Polygon", "coordinates": [[[-122.7215, 40.1948], [-122.7242, 40.1982], [-122.7244, 40.2005], [-122.7234, 40.2027], [-122.7213, 40.203], [-122.7136, 40.2012], [-122.7039, 40.201], [-122.6913, 40.1917], [-122.6785, 40.1809], [-122.6763, 40.1783], [-122.675, 40.1781], [-122.6731, 40.1789], [-122.6732, 40.1818], [-122.6704, 40.1831], [-122.6629, 40.1814], [-122.6559, 40.1784], [-122.6555, 40.1779], [-122.6574, 40.1754], [-122.66, 40.1745], [-122.6609, 40.1726], [-122.6607, 40.1712], [-122.6592, 40.1706], [-122.6581, 40.1691], [-122.6578, 40.1631], [-122.6509, 40.1621], [-122.6466, 40.16], [-122.6427, 40.1624], [-122.6395, 40.1628], [-122.638, 40.1623], [-122.6364, 40.1596], [-122.6325, 40.1563], [-122.6297, 40.1552], [-122.6314, 40.1514], [-122.6345, 40.1486], [-122.6355, 40.1468], [-122.6334, 40.1449], [-122.6334, 40.1434], [-122.6361, 40.1411], [-122.6338, 40.1397], [-122.6347, 40.138], [-122.6389, 40.1362], [-122.6372, 40.1354], [-122.6373, 40.1338], [-122.6352, 40.1318], [-122.632, 40.1304], [-122.632, 40.1272], [-122.6305, 40.126], [-122.6308, 40.1248], [-122.629, 40.1234], [-122.6287, 40.1214], [-122.6294, 40.121], [-122.6319, 40.1218], [-122.6338, 40.121], [-122.6358, 40.1229], [-122.6399, 40.1232], [-122.6405, 40.1262], [-122.6424, 40.1258], [-122.6429, 40.1227], [-122.6481, 40.1236], [-122.65, 40.1256], [-122.6511, 40.125], [-122.6555, 40.1254], [-122.6563, 40.1245], [-122.6545, 40.1226], [-122.6551, 40.1217], [-122.6585, 40.1204], [-122.6616, 40.1182], [-122.6633, 40.1185], [-122.6625, 40.1196], [-122.6625, 40.1207], [-122.6653, 40.1219], [-122.6675, 40.1207], [-122.6683, 40.1195], [-122.6706, 40.1202], [-122.6705, 40.1192], [-122.6716, 40.1193], [-122.6725, 40.1185], [-122.6716, 40.1169], [-122.6754, 40.115], [-122.6759, 40.1139], [-122.6764, 40.115], [-122.6756, 40.1163], [-122.6766, 40.1177], [-122.6778, 40.1175], [-122.6781, 40.1166], [-122.6793, 40.1171], [-122.6794, 40.1152], [-122.682, 40.1156], [-122.6792, 40.1178], [-122.6767, 40.1231], [-122.6785, 40.125], [-122.6797, 40.125], [-122.6787, 40.1299], [-122.6771, 40.1325], [-122.6774, 40.1335], [-122.6786, 40.1339], [-122.6794, 40.1379], [-122.6811, 40.1389], [-122.6818, 40.1382], [-122.6836, 40.1402], [-122.6828, 40.1417], [-122.6801, 40.1427], [-122.6833, 40.145], [-122.6856, 40.1453], [-122.6838, 40.1473], [-122.6857, 40.1474], [-122.6868, 40.1469], [-122.6858, 40.1462], [-122.6868, 40.1447], [-122.6894, 40.145], [-122.6904, 40.1436], [-122.6931, 40.1421], [-122.6945, 40.143], [-122.6931, 40.1461], [-122.6934, 40.1478], [-122.6915, 40.1486], [-122.6919, 40.1493], [-122.6936, 40.1489], [-122.6924, 40.151], [-122.6903, 40.1524], [-122.6879, 40.152], [-122.6877, 40.153], [-122.6867, 40.1531], [-122.6881, 40.158], [-122.6867, 40.1583], [-122.6865, 40.1595], [-122.6886, 40.1602], [-122.69, 40.1593], [-122.6924, 40.1599], [-122.6919, 40.158], [-122.693, 40.156], [-122.6963, 40.1553], [-122.6991, 40.1564], [-122.7036, 40.157], [-122.704, 40.1584], [-122.7056, 40.1597], [-122.7103, 40.1605], [-122.7141, 40.1604], [-122.7181, 40.1624], [-122.7176, 40.1641], [-122.714, 40.1668], [-122.715, 40.1683], [-122.7137, 40.1717], [-122.7155, 40.1724], [-122.7186, 40.1767], [-122.718, 40.1772], [-122.7125, 40.1767], [-122.7117, 40.1791], [-122.7135, 40.1799], [-122.7116, 40.1813], [-122.7118, 40.1859], [-122.7128, 40.1876], [-122.7157, 40.1892], [-122.7156, 40.1902], [-122.7215, 40.1948]]]}, "properties": {"layer": "perimeter"}}, {"type": "Feature", "geometry": {"type": "MultiPolygon", "coordinates": [[[[-122.7234, 40.1968], [-122.7245, 40.1998], [-122.7234, 40.2027], [-122.7213, 40.203], [-122.7136, 40.2012], [-122.7039, 40.201], [-122.6913, 40.1917], [-122.6785, 40.1809], [-122.6763, 40.1783], [-122.675, 40.1781], [-122.6731, 40.1789], [-122.6732, 40.1818], [-122.6704, 40.1831], [-122.6629, 40.1814], [-122.6559, 40.1784], [-122.6555, 40.1779], [-122.6574, 40.1754], [-122.66, 40.1745], [-122.6609, 40.1726], [-122.6607, 40.1712], [-122.6592, 40.1706], [-122.6581, 40.1691], [-122.6578, 40.1631], [-122.6509, 40.1621], [-122.6466, 40.16], [-122.6427, 40.1624], [-122.6395, 40.1628], [-122.638, 40.1623], [-122.6364, 40.1596], [-122.6325, 40.1563], [-122.6297, 40.1552], [-122.6314, 40.1514], [-122.6345, 40.1486], [-122.6355, 40.1468], [-122.6334, 40.1449], [-122.6334, 40.1434], [-122.6361, 40.1411], [-122.6338, 40.1397], [-122.6347, 40.138], [-122.6389, 40.1362], [-122.6372, 40.1354], [-122.6373, 40.1338], [-122.6352, 40.1318], [-122.6322, 40.1306], [-122.632, 40.1272], [-122.6305, 40.126], [-122.6308, 40.1248], [-122.629, 40.1234], [-122.6287, 40.1214], [-122.6294, 40.121], [-122.6319, 40.1218], [-122.6338, 40.121], [-122.6358, 40.1229], [-122.6399, 40.1232], [-122.6402, 40.1261], [-122.642, 40.1262], [-122.6429, 40.1227], [-122.6481, 40.1236], [-122.65, 40.1256], [-122.6511, 40.125], [-122.6559, 40.1252], [-122.6563, 40.1245], [-122.6545, 40.1226], [-122.6551, 40.1217], [-122.6621, 40.1181], [-122.6633, 40.1185], [-122.6625, 40.1196], [-122.6625, 40.1207], [-122.6644, 40.122], [-122.6672, 40.121], [-122.6683, 40.1195], [-122.6699, 40.1202], [-122.6699, 40.1288], [-122.6787, 40.1289], [-122.6771, 40.1325], [-122.6774, 40.1335], [-122.6786, 40.1339], [-122.6792, 40.1377], [-122.6808, 40.1389], [-122.6818, 40.1382], [-122.6835, 40.1398], [-122.6833, 40.1414], [-122.6801, 40.1427], [-122.681, 40.1434], [-122.6793, 40.1433], [-122.6795, 40.1504], [-122.6889, 40.1503], [-122.6888, 40.1448], [-122.6919, 40.1425], [-122.6935, 40.1422], [-122.6945, 40.143], [-122.6931, 40.1461], [-122.6934, 40.1478], [-122.6915, 40.1486], [-122.6919, 40.1493], [-122.6936, 40.1489], [-122.6924, 40.151], [-122.6903, 40.1524], [-122.6879, 40.152], [-122.6877, 40.153], [-122.6867, 40.1531], [-122.6881, 40.158], [-122.6867, 40.1583], [-122.6865, 40.1595], [-122.6886, 40.1602], [-122.69, 40.1593], [-122.6924, 40.1599], [-122.6919, 40.158], [-122.693, 40.156], [-122.6963, 40.1553], [-122.6991, 40.1564], [-122.7036, 40.157], [-122.704, 40.1584], [-122.7056, 40.1597], [-122.7103, 40.1605], [-122.7141, 40.1604], [-122.7181, 40.1624], [-122.7176, 40.1641], [-122.714, 40.1668], [-122.7148, 40.1693], [-122.7068, 40.1711], [-122.7069, 40.175], [-122.7157, 40.1728], [-122.7174, 40.1748], [-122.7186, 40.1767], [-122.718, 40.1772], [-122.7125, 40.1767], [-122.7117, 40.1791], [-122.7135, 40.1799], [-122.7116, 40.1813], [-122.7118, 40.1859], [-122.7128, 40.1876], [-122.7157, 40.1892], [-122.7156, 40.1902], [-122.7196, 40.1929], [-122.7234, 40.1968]], [[-122.6699, 40.1288], [-122.6509, 40.1287], [-122.6515, 40.143], [-122.6611, 40.1431], [-122.6606, 40.1362], [-122.6704, 40.1363], [-122.6699, 40.1288]]], [[[-122.6757, 40.1143], [-122.6761, 40.114], [-122.6762, 40.1143], [-122.6757, 40.1143]]]]}, "properties": {"layer": "retained"}}, {"type": "Feature", "geometry": {"type": "MultiPolygon", "coordinates": [[[[-122.7208, 40.1981], [-122.7212, 40.1979], [-122.7208, 40.1979], [-122.7208, 40.1981]]], [[[-122.7136, 40.1929], [-122.7139, 40.1926], [-122.7136, 40.1926], [-122.7136, 40.1929]]], [[[-122.7142, 40.1907], [-122.7146, 40.1904], [-122.7142, 40.1904], [-122.7142, 40.1907]]], [[[-122.7092, 40.1879], [-122.7095, 40.1876], [-122.7092, 40.1876], [-122.7092, 40.1879]]], [[[-122.6974, 40.1832], [-122.6977, 40.183], [-122.6974, 40.183], [-122.6974, 40.1832]]], [[[-122.6871, 40.1624], [-122.6874, 40.1621], [-122.6871, 40.1621], [-122.6871, 40.1624]]], [[[-122.6864, 40.1619], [-122.6874, 40.1616], [-122.6863, 40.1613], [-122.6864, 40.1619]]], [[[-122.6848, 40.1589], [-122.6855, 40.1586], [-122.6848, 40.1587], [-122.6848, 40.1589]]], [[[-122.6813, 40.1587], [-122.6817, 40.1585], [-122.6813, 40.1585], [-122.6813, 40.1587]]], [[[-122.643, 40.1415], [-122.6433, 40.1412], [-122.643, 40.1412], [-122.643, 40.1415]]], [[[-122.6382, 40.1348], [-122.6385, 40.1345], [-122.6381, 40.1345], [-122.6382, 40.1348]]], [[[-122.6455, 40.1336], [-122.6458, 40.1333], [-122.6455, 40.1333], [-122.6455, 40.1336]]], [[[-122.6562, 40.1274], [-122.6565, 40.1271], [-122.6562, 40.1271], [-122.6562, 40.1274]]], [[[-122.6414, 40.1277], [-122.6418, 40.1274], [-122.6414, 40.1274], [-122.6414, 40.1277]]], [[[-122.6551, 40.1261], [-122.6554, 40.1258], [-122.6551, 40.1258], [-122.6551, 40.1261]]], [[[-122.6537, 40.1261], [-122.654, 40.1258], [-122.6537, 40.1258], [-122.6537, 40.1261]]], [[[-122.6375, 40.1262], [-122.6378, 40.1259], [-122.6375, 40.1259], [-122.6375, 40.1262]]], [[[-122.6382, 40.1262], [-122.6389, 40.1256], [-122.6385, 40.1256], [-122.6382, 40.1262]]], [[[-122.6367, 40.1248], [-122.6371, 40.1246], [-122.6367, 40.1246], [-122.6367, 40.1248]]], [[[-122.635, 40.1243], [-122.6353, 40.1238], [-122.6349, 40.1238], [-122.635, 40.1243]]], [[[-122.6367, 40.1235], [-122.637, 40.1232], [-122.6367, 40.1232], [-122.6367, 40.1235]]], [[[-122.6622, 40.1189], [-122.6629, 40.1186], [-122.6622, 40.1186], [-122.6622, 40.1189]]]]}, "properties": {"layer": "high_severity"}}, {"type": "Feature", "geometry": {"type": "Polygon", "coordinates": [[[-122.6562, 40.1274], [-122.6565, 40.1271], [-122.6562, 40.1271], [-122.6562, 40.1274]]]}, "properties": {"layer": "interior"}}, {"type": "Feature", "geometry": {"type": "Polygon", "coordinates": [[[-122.6562, 40.1274], [-122.6565, 40.1271], [-122.6562, 40.1271], [-122.6562, 40.1274]]]}, "properties": {"layer": "cell", "cell_id": "371_1500", "seed_zone": "371", "elevation_band": "1500–2000 ft"}}]}
