{"type": "FeatureCollection", "features": [{"type": "Feature", "geometry": {"type": "MultiPolygon", "coordinates": [[[[-119.5281, 37.6325], [-119.5267, 37.6318], [-119.5294, 37.6306], [-119.5291, 37.6317], [-119.5281, 37.6325]]], [[[-119.5381, 37.6336], [-119.5379, 37.6335], [-119.538, 37.6335], [-119.5381, 37.6336]]], [[[-119.53, 37.6342], [-119.5298, 37.6342], [-119.5299, 37.6341], [-119.53, 37.6342]]], [[[-119.53, 37.6345], [-119.5298, 37.6344], [-119.5298, 37.6343], [-119.53, 37.6345]]], [[[-119.5359, 37.6349], [-119.5357, 37.6348], [-119.5358, 37.6347], [-119.5359, 37.6349]]], [[[-119.5327, 37.6355], [-119.5327, 37.6356], [-119.5326, 37.6356], [-119.5327, 37.6355]]], [[[-119.5296, 37.6361], [-119.5288, 37.6358], [-119.5289, 37.6352], [-119.5296, 37.6361]]], [[[-119.5207, 37.6368], [-119.5205, 37.6369], [-119.5206, 37.6367], [-119.5207, 37.6368]]], [[[-119.5342, 37.6379], [-119.5343, 37.638], [-119.5341, 37.6379], [-119.5342, 37.6379]]], [[[-119.5348, 37.6389], [-119.5346, 37.639], [-119.5347, 37.6388], [-119.5348, 37.6389]]], [[[-119.5327, 37.6393], [-119.5325, 37.6392], [-119.5326, 37.6392], [-119.5327, 37.6393]]], [[[-119.5293, 37.6393], [-119.5292, 37.6393], [-119.5293, 37.6392], [-119.5293, 37.6393]]], [[[-119.5267, 37.6397], [-119.5266, 37.6396], [-119.5267, 37.6396], [-119.5267, 37.6397]]], [[[-119.5322, 37.6411], [-119.5307, 37.6415], [-119.5307, 37.6403], [-119.5324, 37.6402], [-119.5322, 37.6411]]], [[[-119.527, 37.6441], [-119.5277, 37.644], [-119.5272, 37.6444], [-119.527, 37.6441]]], [[[-119.5295, 37.6436], [-119.53, 37.6462], [-119.5287, 37.6464], [-119.5282, 37.6455], [-119.5289, 37.6448], [-119.528, 37.6441], [-119.5295, 37.6436]]], [[[-119.5246, 37.6459], [-119.5242, 37.6473], [-119.5237, 37.6478], [-119.5231, 37.6471], [-119.5246, 37.6459]]], [[[-119.5397, 37.6532], [-119.5398, 37.6533], [-119.5396, 37.6533], [-119.5397, 37.6532]]], [[[-119.5409, 37.653], [-119.5415, 37.6536], [-119.5407, 37.6536], [-119.5409, 37.653]]], [[[-119.5212, 37.6553], [-119.5226, 37.6548], [-119.5233, 37.6554], [-119.5212, 37.6553]]], [[[-119.5251, 37.657], [-119.525, 37.6569], [-119.5251, 37.6569], [-119.5251, 37.657]]], [[[-119.5263, 37.6602], [-119.5239, 37.6594], [-119.5239, 37.6583], [-119.5275, 37.6586], [-119.5276, 37.6594], [-119.5263, 37.6602]]], [[[-119.5318, 37.6604], [-119.5303, 37.6631], [-119.5286, 37.6635], [-119.5282, 37.6642], [-119.5262, 37.6641], [-119.5274, 37.6615], [-119.53, 37.6607], [-119.5281, 37.6606], [-119.5293, 37.66], [-119.5289, 37.6595], [-119.531, 37.6603], [-119.5315, 37.6593], [-119.5318, 37.6604]]], [[[-119.531, 37.663], [-119.5309, 37.6629], [-119.531, 37.6629], [-119.531, 37.663]]], [[[-119.5194, 37.6665], [-119.5193, 37.6664], [-119.5194, 37.6664], [-119.5194, 37.6665]]], [[[-119.496, 37.6206], [-119.4959, 37.6207], [-119.4959, 37.6206], [-119.496, 37.6206]]], [[[-119.4889, 37.6229], [-119.4881, 37.6231], [-119.4877, 37.6245], [-119.4864, 37.6214], [-119.4889, 37.6229]]], [[[-119.4968, 37.6233], [-119.4967, 37.6232], [-119.4968, 37.6232], [-119.4968, 37.6233]]], [[[-119.4926, 37.6234], [-119.4924, 37.6233], [-119.4926, 37.6232], [-119.4926, 37.6234]]], [[[-119.4958, 37.624], [-119.4958, 37.6241], [-119.4957, 37.6241], [-119.4958, 37.624]]], [[[-119.4898, 37.6246], [-119.4906, 37.6248], [-119.4907, 37.6254], [-119.4898, 37.6246]]], [[[-119.4882, 37.6255], [-119.4889, 37.6253], [-119.4889, 37.6258], [-119.4882, 37.6255]]], [[[-119.4897, 37.6255], [-119.4905, 37.626], [-119.4897, 37.6256], [-119.4897, 37.6255]]], [[[-119.5002, 37.6266], [-119.5001, 37.6265], [-119.5002, 37.6265], [-119.5002, 37.6266]]], [[[-119.5096, 37.6301], [-119.51, 37.63], [-119.5099, 37.6303], [-119.5096, 37.6301]]], [[[-119.5109, 37.6306], [-119.5107, 37.6307], [-119.5105, 37.6306], [-119.5109, 37.6306]]], [[[-119.5171, 37.6319], [-119.5173, 37.63], [-119.5187, 37.6314], [-119.5171, 37.6319]]], [[[-119.5186, 37.633], [-119.5186, 37.6332], [-119.5185, 37.6328], [-119.5186, 37.633]]], [[[-119.5046, 37.6355], [-119.5049, 37.6348], [-119.5052, 37.6354], [-119.5046, 37.6355]]], [[[-119.5055, 37.6391], [-119.5053, 37.639], [-119.5054, 37.639], [-119.5055, 37.6391]]], [[[-119.4841, 37.6391], [-119.4838, 37.6388], [-119.4842, 37.639], [-119.4841, 37.6391]]], [[[-119.519, 37.6637], [-119.5187, 37.664], [-119.5186, 37.6642], [-119.5185, 37.6642], [-119.5186, 37.6639], [-119.519, 37.6637]]], [[[-119.534, 37.6387], [-119.5306, 37.6389], [-119.53, 37.638], [-119.5305, 37.6379], [-119.5289, 37.6367], [-119.5288, 37.6391], [-119.5277, 37.6382], [-119.5268, 37.6384], [-119.5262, 37.6407], [-119.5251, 37.6408], [-119.5253, 37.6417], [-119.5261, 37.6409], [-119.5274, 37.6414], [-119.5265, 37.6417], [-119.5265, 37.6428], [-119.5254, 37.6426], [-119.527, 37.6434], [-119.5252, 37.6444], [-119.526, 37.6447], [-119.5256, 37.6462], [-119.5238, 37.645], [-119.5233, 37.6461], [-119.5204, 37.6462], [-119.5195, 37.645], [-119.5184, 37.6461], [-119.5201, 37.6458], [-119.5191, 37.6485], [-119.5204, 37.6486], [-119.5211, 37.6496], [-119.519, 37.6498], [-119.5188, 37.6515], [-119.5204, 37.6521], [-119.5187, 37.6525], [-119.5225, 37.6534], [-119.5199, 37.6541], [-119.5182, 37.6531], [-119.5187, 37.6549], [-119.5182, 37.6555], [-119.5143, 37.6538], [-119.5122, 37.6536], [-119.509, 37.6559], [-119.5094, 37.6571], [-119.5086, 37.6585], [-119.507, 37.6594], [-119.5083, 37.6593], [-119.5085, 37.6603], [-119.5092, 37.6596], [-119.5106, 37.6599], [-119.5124, 37.6621], [-119.5125, 37.6637], [-119.5093, 37.6642], [-119.5088, 37.6637], [-119.5076, 37.6638], [-119.5046, 37.665], [-119.5012, 37.6644], [-119.4946, 37.667], [-119.4902, 37.6674], [-119.4895, 37.6681], [-119.493, 37.6709], [-119.4952, 37.6746], [-119.4973, 37.6753], [-119.4989, 37.6775], [-119.5034, 37.6799], [-119.503, 37.682], [-119.5011, 37.683], [-119.4989, 37.6858], [-119.5009, 37.6868], [-119.5014, 37.6878], [-119.5017, 37.6935], [-119.5032, 37.6947], [-119.5046, 37.6948], [-119.5054, 37.6958], [-119.5041, 37.6979], [-119.5003, 37.6996], [-119.4998, 37.7005], [-119.4974, 37.7007], [-119.496, 37.7016], [-119.4938, 37.7006], [-119.4929, 37.699], [-119.4936, 37.6982], [-119.4952, 37.698], [-119.4991, 37.6989], [-119.5007, 37.6964], [-119.5, 37.6952], [-119.4993, 37.6961], [-119.4978, 37.6962], [-119.4955, 37.6977], [-119.4929, 37.6982], [-119.4926, 37.6975], [-119.4914, 37.6976], [-119.4906, 37.6994], [-119.4857, 37.7047], [-119.4854, 37.7083], [-119.4846, 37.7088], [-119.4854, 37.7101], [-119.4837, 37.711], [-119.4832, 37.7101], [-119.4841, 37.7094], [-119.4815, 37.709], [-119.4806, 37.708], [-119.4805, 37.7065], [-119.4821, 37.7071], [-119.4827, 37.7063], [-119.4817, 37.7053], [-119.4816, 37.7029], [-119.479, 37.7], [-119.4767, 37.701], [-119.4766, 37.7026], [-119.4759, 37.7029], [-119.4751, 37.703], [-119.475, 37.7018], [-119.4733, 37.703], [-119.4688, 37.7023], [-119.4666, 37.7062], [-119.4642, 37.7064], [-119.4613, 37.7049], [-119.4626, 37.7044], [-119.4624, 37.7039], [-119.4634, 37.7041], [-119.464, 37.7023], [-119.4635, 37.7014], [-119.4652, 37.6986], [-119.4667, 37.6992], [-119.4674, 37.6979], [-119.4687, 37.6983], [-119.4698, 37.6976], [-119.4703, 37.6914], [-119.4672, 37.6933], [-119.4636, 37.6979], [-119.4598, 37.6979], [-119.4593, 37.6999], [-119.4578, 37.7007], [-119.4583, 37.7015], [-119.4558, 37.7029], [-119.4573, 37.7034], [-119.4568, 37.7042], [-119.454, 37.7041], [-119.454, 37.7032], [-119.453, 37.7033], [-119.4525, 37.7024], [-119.4531, 37.7023], [-119.453, 37.7005], [-119.455, 37.6991], [-119.4554, 37.7001], [-119.4565, 37.6991], [-119.4575, 37.6951], [-119.4589, 37.6932], [-119.4627, 37.692], [-119.4599, 37.6917], [-119.4575, 37.6932], [-119.4562, 37.6933], [-119.4559, 37.6926], [-119.4548, 37.6936], [-119.4523, 37.6927], [-119.4539, 37.6935], [-119.453, 37.694], [-119.4537, 37.6943], [-119.4523, 37.6961], [-119.4505, 37.696], [-119.4506, 37.695], [-119.4499, 37.6949], [-119.4505, 37.6939], [-119.4479, 37.6944], [-119.4468, 37.6923], [-119.4486, 37.6923], [-119.4487, 37.6915], [-119.4505, 37.6923], [-119.4498, 37.6929], [-119.4505, 37.693], [-119.4511, 37.6923], [-119.4501, 37.6898], [-119.4519, 37.6884], [-119.4518, 37.6872], [-119.4566, 37.6847], [-119.4543, 37.6847], [-119.4542, 37.6841], [-119.4506, 37.6845], [-119.4499, 37.6834], [-119.4483, 37.684], [-119.4481, 37.6835], [-119.4522, 37.6796], [-119.4522, 37.6778], [-119.4542, 37.6777], [-119.4541, 37.6742], [-119.4552, 37.6728], [-119.4575, 37.672], [-119.4578, 37.6745], [-119.4612, 37.6758], [-119.4604, 37.6734], [-119.4621, 37.6732], [-119.4612, 37.6725], [-119.4588, 37.6727], [-119.4572, 37.6711], [-119.456, 37.6694], [-119.4564, 37.6687], [-119.4575, 37.6686], [-119.4581, 37.6694], [-119.4586, 37.6683], [-119.4563, 37.6673], [-119.4569, 37.6665], [-119.4554, 37.6645], [-119.4544, 37.6648], [-119.4556, 37.6634], [-119.4515, 37.663], [-119.4526, 37.6625], [-119.4517, 37.6618], [-119.4541, 37.6608], [-119.4532, 37.6595], [-119.4539, 37.6589], [-119.4523, 37.6575], [-119.4496, 37.6569], [-119.4492, 37.6577], [-119.4476, 37.6576], [-119.4484, 37.6566], [-119.4493, 37.6566], [-119.448, 37.6566], [-119.4481, 37.6548], [-119.4502, 37.655], [-119.4525, 37.6543], [-119.4533, 37.6551], [-119.4553, 37.6548], [-119.4572, 37.6555], [-119.4581, 37.655], [-119.4569, 37.6547], [-119.4573, 37.6541], [-119.4564, 37.6536], [-119.457, 37.653], [-119.459, 37.6539], [-119.4612, 37.6539], [-119.4623, 37.6548], [-119.4632, 37.6545], [-119.4625, 37.6524], [-119.464, 37.6509], [-119.4631, 37.6496], [-119.4619, 37.6495], [-119.4627, 37.6484], [-119.4674, 37.6487], [-119.4704, 37.6506], [-119.4709, 37.6496], [-119.4722, 37.6517], [-119.4729, 37.6514], [-119.4748, 37.6527], [-119.4759, 37.652], [-119.4758, 37.6504], [-119.4766, 37.6497], [-119.4757, 37.6497], [-119.4756, 37.6491], [-119.4762, 37.6485], [-119.4746, 37.6484], [-119.4739, 37.6468], [-119.4719, 37.647], [-119.4715, 37.6458], [-119.4754, 37.6438], [-119.4771, 37.6442], [-119.4775, 37.6435], [-119.4768, 37.6435], [-119.4777, 37.643], [-119.4762, 37.6429], [-119.4764, 37.6422], [-119.4752, 37.6418], [-119.4753, 37.6434], [-119.4743, 37.6438], [-119.4734, 37.6433], [-119.4736, 37.6426], [-119.4727, 37.6425], [-119.4717, 37.6446], [-119.4709, 37.6444], [-119.4704, 37.6451], [-119.4672, 37.6437], [-119.4675, 37.6429], [-119.4666, 37.6416], [-119.4675, 37.6411], [-119.4686, 37.6428], [-119.4692, 37.6412], [-119.4713, 37.641], [-119.4711, 37.6403], [-119.4741, 37.64], [-119.4721, 37.6382], [-119.4741, 37.6377], [-119.4738, 37.6369], [-119.4745, 37.6368], [-119.4763, 37.6377], [-119.4764, 37.6384], [-119.4772, 37.6383], [-119.4772, 37.6391], [-119.4821, 37.6426], [-119.4826, 37.6424], [-119.4812, 37.6408], [-119.4781, 37.6391], [-119.4787, 37.6377], [-119.4795, 37.6377], [-119.4804, 37.6368], [-119.4812, 37.637], [-119.482, 37.6382], [-119.4837, 37.6383], [-119.4829, 37.6386], [-119.4835, 37.6402], [-119.4841, 37.6398], [-119.4858, 37.6404], [-119.4858, 37.6395], [-119.4842, 37.6396], [-119.4861, 37.6392], [-119.4858, 37.6377], [-119.4842, 37.6382], [-119.4842, 37.6373], [-119.4811, 37.6341], [-119.4833, 37.6336], [-119.4804, 37.6332], [-119.4817, 37.6329], [-119.4825, 37.6306], [-119.4828, 37.631], [-119.4841, 37.6304], [-119.4825, 37.6289], [-119.4835, 37.6283], [-119.4846, 37.629], [-119.4855, 37.6285], [-119.4845, 37.6268], [-119.4863, 37.6249], [-119.487, 37.6273], [-119.488, 37.6265], [-119.4893, 37.6279], [-119.4925, 37.6276], [-119.4928, 37.6286], [-119.4909, 37.6294], [-119.4934, 37.6304], [-119.4945, 37.6296], [-119.4935, 37.6288], [-119.4949, 37.6282], [-119.494, 37.6274], [-119.4947, 37.6266], [-119.4931, 37.6257], [-119.4936, 37.6248], [-119.4955, 37.625], [-119.4966, 37.6243], [-119.4992, 37.625], [-119.4996, 37.6276], [-119.5009, 37.6284], [-119.5022, 37.6283], [-119.501, 37.6293], [-119.504, 37.6305], [-119.5039, 37.6318], [-119.503, 37.6319], [-119.5034, 37.6327], [-119.5014, 37.6318], [-119.5028, 37.6332], [-119.5022, 37.6345], [-119.5035, 37.6348], [-119.5023, 37.6361], [-119.5016, 37.6354], [-119.501, 37.637], [-119.5031, 37.6383], [-119.5038, 37.6376], [-119.5046, 37.6394], [-119.5055, 37.6397], [-119.5067, 37.6391], [-119.5067, 37.6383], [-119.5054, 37.6381], [-119.5055, 37.6366], [-119.5064, 37.6359], [-119.5057, 37.6356], [-119.5079, 37.6346], [-119.509, 37.6319], [-119.5105, 37.6308], [-119.5115, 37.6309], [-119.5131, 37.6294], [-119.5142, 37.6317], [-119.5136, 37.6334], [-119.5141, 37.6339], [-119.5145, 37.6332], [-119.5164, 37.6338], [-119.5167, 37.6333], [-119.5188, 37.6342], [-119.5195, 37.6355], [-119.518, 37.6357], [-119.519, 37.6368], [-119.5181, 37.6367], [-119.5198, 37.6379], [-119.5209, 37.6377], [-119.5219, 37.6385], [-119.5232, 37.6372], [-119.5213, 37.6366], [-119.5206, 37.6353], [-119.5224, 37.6356], [-119.5236, 37.6342], [-119.5248, 37.6346], [-119.5256, 37.634], [-119.526, 37.6348], [-119.5253, 37.6354], [-119.5274, 37.6354], [-119.5275, 37.6367], [-119.5288, 37.6366], [-119.5313, 37.6353], [-119.5326, 37.6361], [-119.534, 37.6387]], [[-119.5318, 37.6388], [-119.5318, 37.6388], [-119.5318, 37.6388], [-119.5318, 37.6388]], [[-119.5317, 37.6388], [-119.5318, 37.6388], [-119.5318, 37.6388], [-119.5317, 37.6388]]], [[[-119.5152, 37.6714], [-119.516, 37.672], [-119.5152, 37.6724], [-119.5147, 37.6722], [-119.5152, 37.6714]]], [[[-119.5022, 37.6906], [-119.5023, 37.6907], [-119.5021, 37.6907], [-119.5022, 37.6906]]], [[[-119.4921, 37.7011], [-119.4921, 37.7012], [-119.4919, 37.7011], [-119.4921, 37.7011]]], [[[-119.49, 37.7014], [-119.4904, 37.7015], [-119.4901, 37.7017], [-119.49, 37.7014]]], [[[-119.4897, 37.7017], [-119.4899, 37.7019], [-119.4897, 37.702], [-119.4897, 37.7017]]], [[[-119.4874, 37.7046], [-119.4874, 37.7049], [-119.4872, 37.7047], [-119.4874, 37.7046]]], [[[-119.4827, 37.7095], [-119.4828, 37.7095], [-119.4829, 37.7096], [-119.4827, 37.7095]]], [[[-119.4821, 37.6294], [-119.4813, 37.6297], [-119.4794, 37.6289], [-119.4808, 37.6286], [-119.4799, 37.6273], [-119.4808, 37.6275], [-119.4821, 37.6294]]], [[[-119.4818, 37.6336], [-119.4816, 37.6336], [-119.4816, 37.6335], [-119.4818, 37.6336]]], [[[-119.4809, 37.6366], [-119.4808, 37.6365], [-119.4809, 37.6365], [-119.4809, 37.6366]]], [[[-119.4657, 37.6432], [-119.4659, 37.6435], [-119.4657, 37.6435], [-119.4657, 37.6432]]], [[[-119.4667, 37.6482], [-119.4664, 37.6479], [-119.4667, 37.648], [-119.4667, 37.6482]]], [[[-119.4612, 37.6515], [-119.4613, 37.6515], [-119.4612, 37.6515], [-119.4612, 37.6515]]], [[[-119.4621, 37.6517], [-119.4619, 37.6516], [-119.4621, 37.6516], [-119.4621, 37.6517]]], [[[-119.4623, 37.6534], [-119.4624, 37.6535], [-119.4623, 37.6534], [-119.4623, 37.6534]]], [[[-119.4617, 37.6538], [-119.4615, 37.6535], [-119.4618, 37.6535], [-119.4617, 37.6538]]], [[[-119.4606, 37.6537], [-119.4608, 37.6538], [-119.4606, 37.6538], [-119.4606, 37.6537]]], [[[-119.452, 37.6581], [-119.4523, 37.6581], [-119.452, 37.6581], [-119.452, 37.6581]]], [[[-119.4524, 37.6624], [-119.4525, 37.6626], [-119.4523, 37.6625], [-119.4524, 37.6624]]], [[[-119.4531, 37.6636], [-119.453, 37.6635], [-119.453, 37.6635], [-119.4531, 37.6636]]], [[[-119.4535, 37.6636], [-119.4536, 37.6635], [-119.4536, 37.6636], [-119.4535, 37.6636]]], [[[-119.4535, 37.6639], [-119.4536, 37.6639], [-119.4536, 37.6639], [-119.4535, 37.6639]]], [[[-119.4548, 37.666], [-119.4547, 37.6658], [-119.4551, 37.6659], [-119.4548, 37.666]]], [[[-119.4468, 37.6939], [-119.4471, 37.6942], [-119.4469, 37.6941], [-119.4468, 37.6939]]], [[[-119.4532, 37.6962], [-119.4529, 37.696], [-119.4537, 37.696], [-119.4532, 37.6962]]], [[[-119.4469, 37.6977], [-119.4463, 37.6979], [-119.4461, 37.6977], [-119.4469, 37.6977]]], [[[-119.4442, 37.6981], [-119.444, 37.6978], [-119.4443, 37.6978], [-119.4442, 37.6981]]], [[[-119.4645, 37.6986], [-119.4647, 37.6991], [-119.4644, 37.6986], [-119.4645, 37.6986]]], [[[-119.4515, 37.7003], [-119.4513, 37.7001], [-119.4515, 37.7], [-119.4515, 37.7003]]], [[[-119.4575, 37.7044], [-119.4573, 37.7043], [-119.4575, 37.7042], [-119.4575, 37.7044]]], [[[-119.4534, 37.7048], [-119.4536, 37.7048], [-119.4534, 37.705], [-119.4534, 37.7048]]], [[[-119.4822, 37.7094], [-119.4822, 37.7093], [-119.4823, 37.7094], [-119.4822, 37.7094]]]]}, "properties": {"layer": "perimeter"}}]}
