{"type": "FeatureCollection", "features": [{"type": "Feature", "geometry": {"type": "MultiPolygon", "coordinates": [[[[-121.5249, 36.3692], [-121.5249, 36.3692], [-121.5252, 36.3689], [-121.5249, 36.3692]]], [[[-121.673, 36.5688], [-121.6747, 36.5676], [-121.6792, 36.5692], [-121.682, 36.5746], [-121.6833, 36.5718], [-121.6847, 36.5726], [-121.6859, 36.5725], [-121.6866, 36.5714], [-121.685, 36.5696], [-121.6901, 36.5717], [-121.6913, 36.5733], [-121.6922, 36.5772], [-121.6913, 36.5791], [-121.6939, 36.5852], [-121.6952, 36.5868], [-121.6948, 36.5909], [-121.6915, 36.5949], [-121.693, 36.6005], [-121.6923, 36.6033], [-121.6889, 36.6029], [-121.6885, 36.6035], [-121.6832, 36.6022], [-121.6805, 36.6023], [-121.6775, 36.6012], [-121.6767, 36.6025], [-121.6744, 36.6015], [-121.6731, 36.6043], [-121.6721, 36.6039], [-121.6704, 36.601], [-121.6702, 36.6019], [-121.6655, 36.6017], [-121.6631, 36.6029], [-121.6604, 36.6027], [-121.6572, 36.6015], [-121.6567, 36.5996], [-121.6542, 36.5979], [-121.6533, 36.5979], [-121.6527, 36.6001], [-121.6521, 36.5988], [-121.6481, 36.6002], [-121.6449, 36.5975], [-121.6451, 36.5956], [-121.6434, 36.5944], [-121.6437, 36.5916], [-121.6421, 36.5907], [-121.6384, 36.591], [-121.64, 36.5886], [-121.6377, 36.5885], [-121.6382, 36.5876], [-121.6377, 36.5873], [-121.637, 36.5885], [-121.6368, 36.5868], [-121.6347, 36.5861], [-121.6356, 36.5858], [-121.6365, 36.5842], [-121.6346, 36.5841], [-121.6332, 36.5827], [-121.6357, 36.5837], [-121.6361, 36.5833], [-121.6326, 36.5804], [-121.6333, 36.5801], [-121.6328, 36.5797], [-121.634, 36.5795], [-121.6327, 36.5787], [-121.6331, 36.5775], [-121.6311, 36.5783], [-121.629, 36.5766], [-121.6279, 36.5765], [-121.6236, 36.5786], [-121.6223, 36.5785], [-121.6163, 36.5758], [-121.611, 36.5753], [-121.6099, 36.5747], [-121.6095, 36.5726], [-121.6102, 36.5701], [-121.6081, 36.5694], [-121.6063, 36.5709], [-121.6061, 36.5724], [-121.598, 36.5766], [-121.5934, 36.5799], [-121.5884, 36.5762], [-121.5881, 36.5757], [-121.5898, 36.5747], [-121.5901, 36.5712], [-121.5871, 36.5742], [-121.5873, 36.57], [-121.5901, 36.5633], [-121.5923, 36.5627], [-121.5902, 36.5625], [-121.5867, 36.5645], [-121.587, 36.5606], [-121.5833, 36.5604], [-121.58, 36.5588], [-121.5754, 36.5549], [-121.5737, 36.5551], [-121.5746, 36.5519], [-121.5716, 36.5501], [-121.5697, 36.5499], [-121.5693, 36.5488], [-121.5691, 36.5479], [-121.5704, 36.546], [-121.5673, 36.5476], [-121.5652, 36.5479], [-121.5646, 36.546], [-121.5635, 36.5453], [-121.5576, 36.5466], [-121.5566, 36.5454], [-121.5593, 36.543], [-121.5594, 36.542], [-121.5567, 36.5427], [-121.5573, 36.5414], [-121.5546, 36.5361], [-121.5555, 36.5348], [-121.5522, 36.5343], [-121.5452, 36.5284], [-121.5444, 36.527], [-121.5446, 36.525], [-121.5423, 36.5224], [-121.5422, 36.5191], [-121.5369, 36.5148], [-121.5307, 36.513], [-121.5284, 36.5106], [-121.5291, 36.5108], [-121.5284, 36.5101], [-121.5293, 36.5096], [-121.5308, 36.51], [-121.5371, 36.5127], [-121.5442, 36.5171], [-121.5378, 36.513], [-121.5367, 36.5115], [-121.5373, 36.5109], [-121.5419, 36.5105], [-121.5355, 36.5096], [-121.5329, 36.5086], [-121.5328, 36.5075], [-121.5361, 36.5052], [-121.5331, 36.5062], [-121.5328, 36.5046], [-121.5303, 36.5038], [-121.53, 36.5027], [-121.5273, 36.5028], [-121.5245, 36.5005], [-121.5246, 36.4994], [-121.5285, 36.4985], [-121.5294, 36.4964], [-121.5244, 36.4983], [-121.523, 36.4975], [-121.5243, 36.4963], [-121.5223, 36.4969], [-121.5207, 36.4965], [-121.5197, 36.4939], [-121.5258, 36.4901], [-121.5207, 36.4926], [-121.519, 36.4928], [-121.5196, 36.4898], [-121.5158, 36.4897], [-121.5104, 36.4871], [-121.511, 36.4864], [-121.5145, 36.4859], [-121.5157, 36.4849], [-121.5075, 36.4841], [-121.5079, 36.4813], [-121.5043, 36.4809], [-121.5051, 36.4798], [-121.5088, 36.4769], [-121.5097, 36.475], [-121.51, 36.4673], [-121.5073, 36.4666], [-121.5062, 36.4672], [-121.508, 36.4714], [-121.5077, 36.4759], [-121.5065, 36.4778], [-121.5017, 36.4803], [-121.4993, 36.4792], [-121.4975, 36.476], [-121.5002, 36.4732], [-121.4994, 36.4732], [-121.4981, 36.4746], [-121.4965, 36.4735], [-121.4963, 36.4716], [-121.5008, 36.4705], [-121.5017, 36.4699], [-121.5018, 36.4684], [-121.5003, 36.4696], [-121.4991, 36.4689], [-121.498, 36.4703], [-121.4963, 36.4696], [-121.4939, 36.4699], [-121.4936, 36.4693], [-121.4962, 36.4664], [-121.5033, 36.4639], [-121.5019, 36.4635], [-121.5021, 36.4618], [-121.5003, 36.4616], [-121.4993, 36.4632], [-121.4969, 36.4644], [-121.4962, 36.4641], [-121.4961, 36.4629], [-121.4933, 36.4652], [-121.4923, 36.4645], [-121.4895, 36.4649], [-121.4894, 36.4636], [-121.487, 36.463], [-121.4863, 36.4619], [-121.4879, 36.4611], [-121.4906, 36.4611], [-121.4915, 36.4596], [-121.4894, 36.459], [-121.4865, 36.4603], [-121.4849, 36.4578], [-121.485, 36.4555], [-121.486, 36.4542], [-121.4827, 36.4537], [-121.4805, 36.451], [-121.4812, 36.4493], [-121.4806, 36.4484], [-121.4833, 36.4466], [-121.4808, 36.4472], [-121.4798, 36.4482], [-121.4757, 36.45], [-121.4722, 36.4488], [-121.4727, 36.4469], [-121.4718, 36.4466], [-121.4706, 36.4453], [-121.4707, 36.4442], [-121.4689, 36.4433], [-121.4686, 36.4421], [-121.467, 36.4411], [-121.4664, 36.4385], [-121.4674, 36.4368], [-121.4656, 36.4359], [-121.4657, 36.4343], [-121.4648, 36.4337], [-121.465, 36.4316], [-121.461, 36.423], [-121.4646, 36.4203], [-121.464, 36.4191], [-121.462, 36.4186], [-121.4592, 36.4213], [-121.4576, 36.4214], [-121.4524, 36.4155], [-121.4493, 36.4147], [-121.4489, 36.4096], [-121.4505, 36.403], [-121.4501, 36.4018], [-121.4437, 36.3961], [-121.4408, 36.3951], [-121.4445, 36.3928], [-121.4437, 36.3922], [-121.446, 36.3918], [-121.4464, 36.3896], [-121.4479, 36.3875], [-121.4473, 36.3871], [-121.4484, 36.3876], [-121.45, 36.3866], [-121.4503, 36.3837], [-121.4518, 36.3834], [-121.4532, 36.3808], [-121.4555, 36.3821], [-121.4578, 36.3817], [-121.4632, 36.3848], [-121.4655, 36.3849], [-121.4664, 36.3933], [-121.4682, 36.3945], [-121.4688, 36.3963], [-121.4774, 36.4018], [-121.4788, 36.4041], [-121.4814, 36.4061], [-121.4891, 36.4077], [-121.4914, 36.4073], [-121.4954, 36.4094], [-121.4971, 36.4134], [-121.5001, 36.4161], [-121.4998, 36.4184], [-121.5005, 36.4191], [-121.4993, 36.4198], [-121.5017, 36.4202], [-121.5069, 36.4227], [-121.507, 36.4216], [-121.5056, 36.422], [-121.5021, 36.4192], [-121.5081, 36.4195], [-121.5094, 36.4201], [-121.5118, 36.4171], [-121.5145, 36.4149], [-121.5194, 36.4126], [-121.5198, 36.4116], [-121.5183, 36.4113], [-121.5183, 36.4125], [-121.5174, 36.4124], [-121.5165, 36.4134], [-121.5124, 36.413], [-121.5118, 36.4111], [-121.5129, 36.4105], [-121.5128, 36.4096], [-121.5116, 36.4097], [-121.5112, 36.4084], [-121.5123, 36.4071], [-121.5124, 36.4054], [-121.5145, 36.4057], [-121.5142, 36.4064], [-121.516, 36.4068], [-121.5171, 36.4084], [-121.5187, 36.4081], [-121.5203, 36.4089], [-121.521, 36.4077], [-121.5211, 36.4096], [-121.5225, 36.4092], [-121.5233, 36.4075], [-121.525, 36.4082], [-121.5262, 36.4078], [-121.5237, 36.4059], [-121.5242, 36.4047], [-121.5262, 36.4046], [-121.5257, 36.4026], [-121.5273, 36.4008], [-121.5286, 36.3964], [-121.5255, 36.393], [-121.5225, 36.3926], [-121.5217, 36.3933], [-121.5217, 36.3909], [-121.5184, 36.3872], [-121.521, 36.3784], [-121.5197, 36.3748], [-121.5208, 36.373], [-121.5206, 36.3701], [-121.5209, 36.3706], [-121.5222, 36.3694], [-121.5248, 36.3693], [-121.5261, 36.37], [-121.5282, 36.3692], [-121.5285, 36.3705], [-121.5297, 36.3711], [-121.5299, 36.3729], [-121.5313, 36.3735], [-121.531, 36.3753], [-121.5318, 36.3777], [-121.5339, 36.3808], [-121.5364, 36.3817], [-121.5396, 36.3815], [-121.5396, 36.382], [-121.5403, 36.3812], [-121.5422, 36.3835], [-121.5415, 36.3845], [-121.5429, 36.3839], [-121.5455, 36.3846], [-121.5455, 36.3852], [-121.5469, 36.3854], [-121.5471, 36.3874], [-121.5483, 36.3876], [-121.5494, 36.3865], [-121.5529, 36.3866], [-121.5545, 36.388], [-121.557, 36.3928], [-121.5622, 36.3957], [-121.5647, 36.3995], [-121.5689, 36.4013], [-121.5689, 36.4035], [-121.565, 36.4084], [-121.565, 36.4096], [-121.566, 36.4104], [-121.5699, 36.4099], [-121.5716, 36.4107], [-121.5731, 36.4138], [-121.5709, 36.4161], [-121.5715, 36.4164], [-121.573, 36.4149], [-121.5742, 36.415], [-121.5747, 36.4163], [-121.5736, 36.4166], [-121.5725, 36.4184], [-121.5759, 36.4185], [-121.5805, 36.4241], [-121.5802, 36.4254], [-121.5787, 36.4263], [-121.5752, 36.4255], [-121.5725, 36.4274], [-121.5705, 36.4267], [-121.5735, 36.4291], [-121.5761, 36.4295], [-121.5831, 36.4269], [-121.5943, 36.4174], [-121.598, 36.4168], [-121.6008, 36.4184], [-121.6011, 36.4192], [-121.6001, 36.4202], [-121.594, 36.4231], [-121.5936, 36.4239], [-121.5951, 36.4267], [-121.597, 36.4251], [-121.5985, 36.4248], [-121.601, 36.4258], [-121.6029, 36.4279], [-121.6056, 36.4262], [-121.6109, 36.43], [-121.6108, 36.4314], [-121.6096, 36.4317], [-121.6054, 36.4298], [-121.602, 36.4295], [-121.6007, 36.4285], [-121.5999, 36.43], [-121.6018, 36.4305], [-121.6062, 36.4333], [-121.6061, 36.4341], [-121.6042, 36.4349], [-121.605, 36.4365], [-121.6083, 36.4396], [-121.6116, 36.4414], [-121.6159, 36.4457], [-121.6192, 36.4471], [-121.6206, 36.4467], [-121.6241, 36.4428], [-121.6252, 36.4426], [-121.6263, 36.4433], [-121.6254, 36.4473], [-121.6267, 36.4495], [-121.6271, 36.4569], [-121.6231, 36.4632], [-121.6265, 36.4647], [-121.6273, 36.4667], [-121.626, 36.4688], [-121.6187, 36.4723], [-121.6177, 36.4739], [-121.624, 36.4752], [-121.6268, 36.477], [-121.6268, 36.4813], [-121.6298, 36.4828], [-121.6294, 36.4851], [-121.6278, 36.4867], [-121.629, 36.4875], [-121.6281, 36.4918], [-121.6309, 36.4979], [-121.6305, 36.5002], [-121.6288, 36.5023], [-121.6194, 36.505], [-121.6106, 36.51], [-121.6135, 36.5108], [-121.6089, 36.5121], [-121.6056, 36.5161], [-121.6004, 36.5174], [-121.6011, 36.5189], [-121.5987, 36.5224], [-121.6007, 36.5257], [-121.6012, 36.5298], [-121.605, 36.5286], [-121.6128, 36.532], [-121.6132, 36.5329], [-121.6172, 36.5327], [-121.6184, 36.5331], [-121.6187, 36.5361], [-121.6211, 36.537], [-121.6235, 36.5391], [-121.6224, 36.5428], [-121.6306, 36.5485], [-121.6326, 36.5489], [-121.6346, 36.5473], [-121.6369, 36.5469], [-121.6412, 36.5472], [-121.6421, 36.5462], [-121.649, 36.5491], [-121.649, 36.5531], [-121.6498, 36.5545], [-121.656, 36.5559], [-121.6566, 36.5569], [-121.656, 36.5587], [-121.6592, 36.5575], [-121.6624, 36.558], [-121.6645, 36.5575], [-121.666, 36.5581], [-121.6677, 36.5592], [-121.6699, 36.5637], [-121.6692, 36.5656], [-121.6664, 36.5672], [-121.6664, 36.5688], [-121.6669, 36.5682], [-121.669, 36.5702], [-121.6699, 36.5691], [-121.6695, 36.567], [-121.6722, 36.5662], [-121.6754, 36.5662], [-121.675, 36.567], [-121.6705, 36.5677], [-121.6725, 36.568], [-121.6724, 36.5692], [-121.6729, 36.5694], [-121.6731, 36.5692], [-121.673, 36.5688]], [[-121.5746, 36.5519], [-121.5746, 36.5519], [-121.5746, 36.5519], [-121.5746, 36.5519]], [[-121.5058, 36.4794], [-121.5059, 36.4794], [-121.5059, 36.4793], [-121.5058, 36.4794]]], [[[-121.6729, 36.5688], [-121.673, 36.5688], [-121.6729, 36.5688], [-121.6729, 36.5688]]]]}, "properties": {"layer": "perimeter"}}, {"type": "Feature", "geometry": {"type": "MultiPolygon", "coordinates": [[[[-121.5248, 36.3693], [-121.5249, 36.3692], [-121.5252, 36.3689], [-121.5252, 36.3689], [-121.5249, 36.3692], [-121.5248, 36.3693]]], [[[-121.673, 36.5688], [-121.6747, 36.5676], [-121.6792, 36.5692], [-121.682, 36.5746], [-121.6833, 36.5718], [-121.6847, 36.5726], [-121.6859, 36.5725], [-121.6866, 36.5714], [-121.685, 36.5696], [-121.6901, 36.5717], [-121.6913, 36.5733], [-121.6922, 36.5772], [-121.6913, 36.5791], [-121.6939, 36.5852], [-121.6952, 36.5868], [-121.6948, 36.5909], [-121.6915, 36.5949], [-121.693, 36.6005], [-121.6923, 36.6033], [-121.6889, 36.6029], [-121.6885, 36.6035], [-121.6832, 36.6022], [-121.6805, 36.6023], [-121.6775, 36.6012], [-121.6767, 36.6025], [-121.6744, 36.6015], [-121.6731, 36.6043], [-121.6721, 36.6039], [-121.6704, 36.601], [-121.6702, 36.6019], [-121.6655, 36.6017], [-121.6631, 36.6029], [-121.6604, 36.6027], [-121.6572, 36.6015], [-121.6567, 36.5996], [-121.6542, 36.5979], [-121.6533, 36.5979], [-121.6527, 36.6001], [-121.6521, 36.5988], [-121.6481, 36.6002], [-121.6449, 36.5975], [-121.6451, 36.5956], [-121.6434, 36.5944], [-121.6437, 36.5916], [-121.6421, 36.5907], [-121.6384, 36.591], [-121.64, 36.5886], [-121.6377, 36.5885], [-121.6382, 36.5876], [-121.6377, 36.5873], [-121.637, 36.5885], [-121.6368, 36.5868], [-121.6347, 36.5861], [-121.6356, 36.5858], [-121.6365, 36.5842], [-121.6346, 36.5841], [-121.6332, 36.5827], [-121.6357, 36.5837], [-121.6361, 36.5833], [-121.6326, 36.5804], [-121.6333, 36.5801], [-121.6328, 36.5797], [-121.634, 36.5795], [-121.6327, 36.5787], [-121.6331, 36.5775], [-121.6311, 36.5783], [-121.629, 36.5766], [-121.6279, 36.5765], [-121.6236, 36.5786], [-121.6223, 36.5785], [-121.6163, 36.5758], [-121.611, 36.5753], [-121.6099, 36.5747], [-121.6095, 36.5726], [-121.6102, 36.5701], [-121.6081, 36.5694], [-121.6063, 36.5709], [-121.6061, 36.5724], [-121.598, 36.5766], [-121.5934, 36.5798], [-121.5884, 36.5762], [-121.5881, 36.5757], [-121.5898, 36.5747], [-121.5901, 36.5712], [-121.5871, 36.5742], [-121.5873, 36.57], [-121.5901, 36.5633], [-121.5923, 36.5627], [-121.5902, 36.5625], [-121.5867, 36.5645], [-121.587, 36.5606], [-121.5833, 36.5604], [-121.58, 36.5588], [-121.5754, 36.5549], [-121.5737, 36.5551], [-121.5746, 36.5519], [-121.5716, 36.5501], [-121.5697, 36.5499], [-121.5693, 36.5488], [-121.5691, 36.5479], [-121.5704, 36.546], [-121.5673, 36.5476], [-121.5652, 36.5479], [-121.5646, 36.546], [-121.5635, 36.5453], [-121.5576, 36.5466], [-121.5566, 36.5454], [-121.5593, 36.543], [-121.5594, 36.542], [-121.5567, 36.5427], [-121.5573, 36.5414], [-121.5546, 36.5361], [-121.5555, 36.5348], [-121.5522, 36.5343], [-121.5452, 36.5284], [-121.5444, 36.527], [-121.5446, 36.525], [-121.5423, 36.5224], [-121.5422, 36.5191], [-121.5369, 36.5148], [-121.5307, 36.513], [-121.5284, 36.5106], [-121.5291, 36.5108], [-121.5284, 36.5101], [-121.5293, 36.5096], [-121.5308, 36.51], [-121.5371, 36.5127], [-121.5442, 36.5171], [-121.5378, 36.513], [-121.5367, 36.5115], [-121.5373, 36.5109], [-121.5419, 36.5105], [-121.5355, 36.5096], [-121.5329, 36.5086], [-121.5328, 36.5075], [-121.5361, 36.5052], [-121.5331, 36.5062], [-121.5328, 36.5046], [-121.5303, 36.5038], [-121.53, 36.5027], [-121.5273, 36.5028], [-121.5245, 36.5005], [-121.5246, 36.4994], [-121.5285, 36.4985], [-121.5294, 36.4964], [-121.5244, 36.4983], [-121.523, 36.4975], [-121.5243, 36.4963], [-121.5223, 36.4969], [-121.5207, 36.4965], [-121.5197, 36.4939], [-121.5258, 36.4901], [-121.5207, 36.4926], [-121.519, 36.4928], [-121.5196, 36.4898], [-121.5158, 36.4897], [-121.5104, 36.4871], [-121.511, 36.4864], [-121.5145, 36.4859], [-121.5157, 36.4849], [-121.5075, 36.4841], [-121.5079, 36.4813], [-121.5043, 36.4809], [-121.5051, 36.4798], [-121.5088, 36.4769], [-121.5097, 36.475], [-121.51, 36.4673], [-121.5073, 36.4666], [-121.5062, 36.4672], [-121.508, 36.4714], [-121.5077, 36.4759], [-121.5065, 36.4778], [-121.5017, 36.4803], [-121.4993, 36.4792], [-121.4975, 36.476], [-121.5002, 36.4732], [-121.4994, 36.4732], [-121.4981, 36.4746], [-121.4965, 36.4735], [-121.4963, 36.4716], [-121.5008, 36.4705], [-121.5017, 36.4699], [-121.5018, 36.4684], [-121.5003, 36.4696], [-121.4991, 36.4689], [-121.498, 36.4703], [-121.4963, 36.4696], [-121.4939, 36.4699], [-121.4936, 36.4693], [-121.4962, 36.4664], [-121.5033, 36.4639], [-121.5019, 36.4635], [-121.5021, 36.4618], [-121.5003, 36.4616], [-121.4993, 36.4632], [-121.4969, 36.4644], [-121.4962, 36.4641], [-121.4961, 36.4629], [-121.4933, 36.4652], [-121.4923, 36.4645], [-121.4895, 36.4649], [-121.4894, 36.4636], [-121.487, 36.463], [-121.4863, 36.4619], [-121.4879, 36.4611], [-121.4906, 36.4611], [-121.4915, 36.4596], [-121.4894, 36.459], [-121.4865, 36.4603], [-121.4849, 36.4578], [-121.485, 36.4555], [-121.486, 36.4542], [-121.4827, 36.4537], [-121.4805, 36.451], [-121.4812, 36.4493], [-121.4806, 36.4484], [-121.4833, 36.4466], [-121.4808, 36.4472], [-121.4798, 36.4482], [-121.4757, 36.45], [-121.4722, 36.4488], [-121.4727, 36.4469], [-121.4718, 36.4466], [-121.4706, 36.4453], [-121.4707, 36.4442], [-121.4689, 36.4433], [-121.4686, 36.4421], [-121.467, 36.4411], [-121.4664, 36.4385], [-121.4674, 36.4368], [-121.4656, 36.4359], [-121.4646, 36.4308], [-121.4721, 36.4307], [-121.4721, 36.4417], [-121.4766, 36.4416], [-121.4766, 36.4453], [-121.4811, 36.4453], [-121.4811, 36.4344], [-121.4901, 36.4344], [-121.4902, 36.4199], [-121.4947, 36.4198], [-121.4947, 36.4162], [-121.4767, 36.4162], [-121.4768, 36.4047], [-121.4722, 36.4048], [-121.4722, 36.4009], [-121.4677, 36.401], [-121.4677, 36.3991], [-121.4665, 36.3991], [-121.4666, 36.3938], [-121.4622, 36.3938], [-121.4622, 36.3902], [-121.4578, 36.3902], [-121.4579, 36.3867], [-121.4494, 36.3868], [-121.4503, 36.3861], [-121.4503, 36.3837], [-121.4518, 36.3834], [-121.4532, 36.3808], [-121.4555, 36.3821], [-121.4578, 36.3817], [-121.4632, 36.3848], [-121.4655, 36.3849], [-121.4664, 36.3933], [-121.4682, 36.3945], [-121.4688, 36.3963], [-121.4774, 36.4018], [-121.4788, 36.4041], [-121.4814, 36.4061], [-121.4891, 36.4077], [-121.4914, 36.4073], [-121.4954, 36.4094], [-121.4971, 36.4134], [-121.5001, 36.4161], [-121.4998, 36.4184], [-121.5005, 36.4191], [-121.4993, 36.4198], [-121.5017, 36.4202], [-121.5069, 36.4227], [-121.507, 36.4216], [-121.5056, 36.422], [-121.5021, 36.4192], [-121.5081, 36.4195], [-121.5094, 36.4201], [-121.5118, 36.4171], [-121.5145, 36.4149], [-121.5194, 36.4126], [-121.5198, 36.4116], [-121.5183, 36.4113], [-121.5183, 36.4125], [-121.5174, 36.4124], [-121.5165, 36.4134], [-121.5124, 36.413], [-121.5118, 36.4111], [-121.5129, 36.4105], [-121.5128, 36.4096], [-121.5116, 36.4097], [-121.5112, 36.4084], [-121.5123, 36.4071], [-121.5124, 36.4054], [-121.5145, 36.4057], [-121.5142, 36.4064], [-121.516, 36.4068], [-121.5171, 36.4084], [-121.5187, 36.4081], [-121.5203, 36.4089], [-121.521, 36.4077], [-121.5211, 36.4096], [-121.5225, 36.4092], [-121.5233, 36.4075], [-121.525, 36.4082], [-121.5262, 36.4078], [-121.5237, 36.4059], [-121.5242, 36.4047], [-121.5262, 36.4046], [-121.5257, 36.4026], [-121.5273, 36.4008], [-121.5286, 36.3964], [-121.5255, 36.393], [-121.5225, 36.3926], [-121.5217, 36.3933], [-121.5217, 36.3909], [-121.5184, 36.3872], [-121.521, 36.3784], [-121.5197, 36.3748], [-121.5208, 36.373], [-121.5206, 36.3701], [-121.5209, 36.3706], [-121.5222, 36.3694], [-121.5248, 36.3693], [-121.5261, 36.37], [-121.5282, 36.3692], [-121.5285, 36.3705], [-121.5297, 36.3711], [-121.5299, 36.3729], [-121.5313, 36.3735], [-121.531, 36.3753], [-121.5318, 36.3777], [-121.5339, 36.3808], [-121.5364, 36.3817], [-121.5396, 36.3815], [-121.5396, 36.382], [-121.5403, 36.3812], [-121.5422, 36.3835], [-121.5415, 36.3845], [-121.5429, 36.3839], [-121.5455, 36.3846], [-121.5455, 36.3852], [-121.5469, 36.3854], [-121.5471, 36.3874], [-121.5483, 36.3876], [-121.5494, 36.3865], [-121.5529, 36.3866], [-121.5545, 36.388], [-121.557, 36.3928], [-121.5622, 36.3957], [-121.5647, 36.3995], [-121.5689, 36.4013], [-121.5689, 36.4035], [-121.565, 36.4084], [-121.565, 36.4096], [-121.566, 36.4104], [-121.5699, 36.4099], [-121.5716, 36.4107], [-121.5731, 36.4138], [-121.5709, 36.4161], [-121.5715, 36.4164], [-121.573, 36.4149], [-121.5742, 36.415], [-121.5747, 36.4163], [-121.5736, 36.4166], [-121.5725, 36.4184], [-121.5759, 36.4185], [-121.5805, 36.4241], [-121.5802, 36.4254], [-121.5787, 36.4263], [-121.5752, 36.4255], [-121.5725, 36.4274], [-121.5705, 36.4267], [-121.5735, 36.4291], [-121.5761, 36.4295], [-121.5831, 36.4269], [-121.5943, 36.4174], [-121.598, 36.4168], [-121.6008, 36.4184], [-121.6011, 36.4192], [-121.6001, 36.4202], [-121.594, 36.4231], [-121.5936, 36.4239], [-121.5951, 36.4267], [-121.597, 36.4251], [-121.5985, 36.4248], [-121.601, 36.4258], [-121.6029, 36.4279], [-121.6056, 36.4262], [-121.6109, 36.43], [-121.6108, 36.4314], [-121.6096, 36.4317], [-121.6054, 36.4298], [-121.602, 36.4295], [-121.6007, 36.4285], [-121.5999, 36.43], [-121.6018, 36.4305], [-121.6062, 36.4333], [-121.6061, 36.4341], [-121.6042, 36.4349], [-121.605, 36.4365], [-121.6083, 36.4396], [-121.6116, 36.4414], [-121.6159, 36.4457], [-121.6192, 36.4471], [-121.6206, 36.4467], [-121.6241, 36.4428], [-121.6252, 36.4426], [-121.6263, 36.4433], [-121.6254, 36.4473], [-121.6267, 36.4495], [-121.6271, 36.4569], [-121.6231, 36.4632], [-121.6265, 36.4647], [-121.6273, 36.4667], [-121.626, 36.4688], [-121.6187, 36.4723], [-121.6177, 36.4739], [-121.624, 36.4752], [-121.6268, 36.477], [-121.6268, 36.4813], [-121.6298, 36.4828], [-121.6294, 36.4851], [-121.6278, 36.4867], [-121.629, 36.4875], [-121.6281, 36.4918], [-121.6309, 36.4979], [-121.6305, 36.5002], [-121.6288, 36.5023], [-121.6194, 36.505], [-121.6106, 36.51], [-121.6135, 36.5108], [-121.6089, 36.5121], [-121.6056, 36.5161], [-121.6004, 36.5174], [-121.6011, 36.5189], [-121.5987, 36.5224], [-121.6007, 36.5257], [-121.6012, 36.5298], [-121.605, 36.5286], [-121.6128, 36.532], [-121.6132, 36.5329], [-121.6172, 36.5327], [-121.6184, 36.5331], [-121.6187, 36.5361], [-121.6211, 36.537], [-121.6235, 36.5391], [-121.6224, 36.5428], [-121.6306, 36.5485], [-121.6326, 36.5489], [-121.6346, 36.5473], [-121.6369, 36.5469], [-121.6412, 36.5472], [-121.6421, 36.5462], [-121.649, 36.5491], [-121.649, 36.5531], [-121.6498, 36.5545], [-121.656, 36.5559], [-121.6566, 36.5569], [-121.656, 36.5587], [-121.6592, 36.5575], [-121.6624, 36.558], [-121.6645, 36.5575], [-121.666, 36.5581], [-121.6677, 36.5592], [-121.6699, 36.5637], [-121.6692, 36.5656], [-121.6664, 36.5672], [-121.6664, 36.5688], [-121.6669, 36.5682], [-121.669, 36.5702], [-121.6699, 36.5691], [-121.6695, 36.567], [-121.6722, 36.5662], [-121.6754, 36.5662], [-121.675, 36.567], [-121.6705, 36.5677], [-121.6725, 36.568], [-121.6729, 36.5694], [-121.6731, 36.5692], [-121.673, 36.5688]], [[-121.5746, 36.5519], [-121.5746, 36.5519], [-121.5746, 36.5519], [-121.5746, 36.5519]], [[-121.5058, 36.4794], [-121.5059, 36.4794], [-121.5059, 36.4793], [-121.5058, 36.4794]], [[-121.5309, 36.4234], [-121.5308, 36.4269], [-121.5398, 36.4273], [-121.5399, 36.4236], [-121.5309, 36.4234]], [[-121.5575, 36.4533], [-121.5754, 36.4537], [-121.5753, 36.4486], [-121.5662, 36.4383], [-121.5662, 36.439], [-121.5619, 36.4389], [-121.5619, 36.4425], [-121.5575, 36.4424], [-121.5575, 36.4388], [-121.5488, 36.4386], [-121.5488, 36.4458], [-121.5575, 36.446], [-121.5575, 36.4533]]], [[[-121.462, 36.4186], [-121.4607, 36.4199], [-121.4586, 36.4199], [-121.4586, 36.4214], [-121.4576, 36.4214], [-121.4533, 36.4162], [-121.4586, 36.4162], [-121.4586, 36.4124], [-121.4631, 36.4124], [-121.4631, 36.4086], [-121.4676, 36.4086], [-121.4676, 36.4162], [-121.4631, 36.4162], [-121.4631, 36.4189], [-121.462, 36.4186]]], [[[-121.4497, 36.4147], [-121.4489, 36.4096], [-121.4496, 36.4086], [-121.4497, 36.4147]]], [[[-121.4463, 36.3899], [-121.4478, 36.3878], [-121.4473, 36.3871], [-121.4489, 36.3872], [-121.4489, 36.3903], [-121.4463, 36.3899]]], [[[-121.673, 36.5688], [-121.6729, 36.5688], [-121.6729, 36.5688], [-121.673, 36.5688]]]]}, "properties": {"layer": "retained"}}, {"type": "Feature", "geometry": {"type": "MultiPolygon", "coordinates": [[[[-121.6599, 36.5827], [-121.6602, 36.5824], [-121.6599, 36.5824], [-121.6599, 36.5827]]], [[[-121.6449, 36.5721], [-121.6459, 36.5718], [-121.6449, 36.5718], [-121.6449, 36.5721]]], [[[-121.6459, 36.5718], [-121.6469, 36.5715], [-121.6459, 36.5715], [-121.6459, 36.5718]]], [[[-121.6476, 36.5712], [-121.6482, 36.5709], [-121.6475, 36.5707], [-121.6476, 36.5712]]], [[[-121.6509, 36.5709], [-121.6506, 36.5704], [-121.6496, 36.5707], [-121.6496, 36.5709], [-121.6509, 36.5709]]], [[[-121.6479, 36.5707], [-121.6482, 36.5704], [-121.6479, 36.5704], [-121.6479, 36.5707]]], [[[-121.6516, 36.5704], [-121.6522, 36.5701], [-121.6516, 36.5701], [-121.6516, 36.5704]]], [[[-121.6291, 36.5699], [-121.6294, 36.5696], [-121.6291, 36.5696], [-121.6291, 36.5699]]], [[[-121.6287, 36.5696], [-121.6291, 36.5693], [-121.6287, 36.5693], [-121.6287, 36.5696]]], [[[-121.6274, 36.5696], [-121.6277, 36.5693], [-121.6274, 36.5693], [-121.6274, 36.5696]]], [[[-121.6267, 36.5691], [-121.627, 36.5688], [-121.6267, 36.5688], [-121.6267, 36.5691]]], [[[-121.627, 36.5688], [-121.6274, 36.5685], [-121.627, 36.5685], [-121.627, 36.5688]]], [[[-121.6586, 36.5681], [-121.6589, 36.5678], [-121.6586, 36.5678], [-121.6586, 36.5681]]], [[[-121.6639, 36.5669], [-121.6642, 36.5667], [-121.6639, 36.5667], [-121.6639, 36.5669]]], [[[-121.6656, 36.5661], [-121.6659, 36.5658], [-121.6656, 36.5658], [-121.6656, 36.5661]]], [[[-121.6666, 36.5653], [-121.6669, 36.565], [-121.6666, 36.565], [-121.6666, 36.5653]]], [[[-121.6669, 36.565], [-121.6672, 36.5647], [-121.6669, 36.5647], [-121.6669, 36.565]]], [[[-121.6347, 36.5655], [-121.635, 36.5652], [-121.6347, 36.5652], [-121.6347, 36.5655]]], [[[-121.635, 36.5652], [-121.6353, 36.5649], [-121.635, 36.5649], [-121.635, 36.5652]]], [[[-121.6172, 36.5652], [-121.6179, 36.5646], [-121.6175, 36.5646], [-121.6172, 36.5652]]], [[[-121.6665, 36.5639], [-121.6672, 36.5637], [-121.6665, 36.5634], [-121.6665, 36.5639]]], [[[-121.6306, 36.5636], [-121.6309, 36.5634], [-121.6306, 36.5634], [-121.6306, 36.5636]]], [[[-121.6215, 36.5619], [-121.6218, 36.5616], [-121.6215, 36.5616], [-121.6215, 36.5619]]], [[[-121.6218, 36.5608], [-121.6222, 36.5605], [-121.6218, 36.5605], [-121.6218, 36.5608]]], [[[-121.6222, 36.5605], [-121.6225, 36.56], [-121.6221, 36.56], [-121.6222, 36.5605]]], [[[-121.6248, 36.5591], [-121.6251, 36.5588], [-121.6248, 36.5589], [-121.6248, 36.5591]]], [[[-121.5942, 36.5568], [-121.5945, 36.5566], [-121.5942, 36.5566], [-121.5942, 36.5568]]], [[[-121.6093, 36.5564], [-121.6096, 36.5561], [-121.6093, 36.5561], [-121.6093, 36.5564]]], [[[-121.5938, 36.5541], [-121.5952, 36.5544], [-121.5952, 36.5539], [-121.5938, 36.5541]]], [[[-121.5948, 36.5528], [-121.5951, 36.5525], [-121.5948, 36.5525], [-121.5948, 36.5528]]], [[[-121.5951, 36.5525], [-121.5955, 36.5522], [-121.5951, 36.5522], [-121.5951, 36.5525]]], [[[-121.5941, 36.5525], [-121.5945, 36.5522], [-121.5941, 36.5523], [-121.5941, 36.5525]]], [[[-121.5948, 36.552], [-121.5951, 36.5517], [-121.5948, 36.5517], [-121.5948, 36.552]]], [[[-121.5951, 36.5517], [-121.5954, 36.5514], [-121.5951, 36.5514], [-121.5951, 36.5517]]], [[[-121.5954, 36.5512], [-121.5958, 36.5509], [-121.5954, 36.5509], [-121.5954, 36.5512]]], [[[-121.5951, 36.5509], [-121.5954, 36.5503], [-121.5951, 36.5503], [-121.5951, 36.5509]]], [[[-121.5847, 36.5505], [-121.5853, 36.5502], [-121.5847, 36.5499], [-121.5847, 36.5505]]], [[[-121.5991, 36.5495], [-121.5994, 36.5489], [-121.5991, 36.5489], [-121.5991, 36.5495]]], [[[-121.5863, 36.5494], [-121.5867, 36.5491], [-121.5863, 36.5491], [-121.5863, 36.5494]]], [[[-121.5904, 36.5493], [-121.5907, 36.5488], [-121.5904, 36.5488], [-121.5904, 36.5493]]], [[[-121.5903, 36.5485], [-121.5907, 36.5482], [-121.5903, 36.5483], [-121.5903, 36.5485]]], [[[-121.5913, 36.5482], [-121.5917, 36.548], [-121.5913, 36.548], [-121.5913, 36.5482]]], [[[-121.5973, 36.5463], [-121.5977, 36.546], [-121.5973, 36.546], [-121.5973, 36.5463]]], [[[-121.5923, 36.5461], [-121.5926, 36.5458], [-121.5923, 36.5458], [-121.5923, 36.5461]]], [[[-121.5983, 36.5454], [-121.599, 36.5452], [-121.5983, 36.5452], [-121.5983, 36.5454]]], [[[-121.5977, 36.5452], [-121.598, 36.5449], [-121.5977, 36.5449], [-121.5977, 36.5452]]], [[[-121.5854, 36.5381], [-121.5861, 36.5378], [-121.5854, 36.5378], [-121.5854, 36.5381]]], [[[-121.573, 36.5382], [-121.5733, 36.538], [-121.573, 36.538], [-121.573, 36.5382]]], [[[-121.5864, 36.5372], [-121.5868, 36.537], [-121.5864, 36.537], [-121.5864, 36.5372]]], [[[-121.5656, 36.5348], [-121.5659, 36.5345], [-121.5656, 36.5345], [-121.5656, 36.5348]]], [[[-121.5394, 36.5022], [-121.5397, 36.5019], [-121.5394, 36.502], [-121.5394, 36.5022]]], [[[-121.482, 36.4457], [-121.4823, 36.4455], [-121.482, 36.4455], [-121.482, 36.4457]]], [[[-121.484, 36.4449], [-121.4843, 36.4446], [-121.4839, 36.4446], [-121.484, 36.4449]]], [[[-121.5582, 36.4388], [-121.5586, 36.4385], [-121.5582, 36.4385], [-121.5582, 36.4388]]]]}, "properties": {"layer": "high_severity"}}, {"type": "Feature", "geometry": {"type": "MultiPolygon", "coordinates": [[[[-121.6175, 36.5649], [-121.6179, 36.5646], [-121.6175, 36.5646], [-121.6175, 36.5649]]], [[[-121.5941, 36.5525], [-121.5945, 36.5522], [-121.5941, 36.5523], [-121.5941, 36.5525]]]]}, "properties": {"layer": "interior"}}, {"type": "Feature", "geometry": {"type": "Polygon", "coordinates": [[[-121.6175, 36.5649], [-121.6179, 36.5646], [-121.6175, 36.5646], [-121.6175, 36.5649]]]}, "properties": {"layer": "cell", "cell_id": "120_500", "seed_zone": "120", "elevation_band": "500–1000 ft"}}, {"type": "Feature", "geometry": {"type": "Polygon", "coordinates": [[[-121.5941, 36.5525], [-121.5945, 36.5522], [-121.5941, 36.5523], [-121.5941, 36.5525]]]}, "properties": {"layer": "cell", "cell_id": "120_1000", "seed_zone": "120", "elevation_band": "1000–1500 ft"}}]}
