{"type": "FeatureCollection", "features": [{"type": "Feature", "geometry": {"type": "Polygon", "coordinates": [[[-123.0779, 39.1388], [-123.0767, 39.1451], [-123.0715, 39.1452], [-123.0683, 39.1466], [-123.0624, 39.1453], [-123.0574, 39.1412], [-123.0525, 39.1395], [-123.049, 39.1363], [-123.0477, 39.1366], [-123.0462, 39.1355], [-123.0439, 39.1352], [-123.0412, 39.1362], [-123.0389, 39.1362], [-123.0382, 39.1352], [-123.0373, 39.1352], [-123.0362, 39.1359], [-123.0333, 39.1358], [-123.029, 39.1366], [-123.0246, 39.1309], [-123.022, 39.1294], [-123.0196, 39.1307], [-123.0187, 39.1336], [-123.0167, 39.1348], [-123.0145, 39.1326], [-123.0091, 39.1301], [-122.9981, 39.1326], [-122.9954, 39.1264], [-122.9946, 39.1274], [-122.9931, 39.1258], [-122.9949, 39.1254], [-122.9935, 39.1234], [-122.9909, 39.1222], [-122.9921, 39.1229], [-122.9908, 39.1224], [-122.9892, 39.1228], [-122.9903, 39.1219], [-122.9884, 39.1208], [-122.9882, 39.117], [-122.982, 39.113], [-122.9763, 39.1108], [-122.9756, 39.1096], [-122.977, 39.1088], [-122.9768, 39.1076], [-122.9777, 39.107], [-122.9763, 39.104], [-122.9753, 39.1028], [-122.9734, 39.1024], [-122.9719, 39.103], [-122.9714, 39.1019], [-122.9729, 39.1011], [-122.9712, 39.1008], [-122.9723, 39.0998], [-122.9678, 39.0937], [-122.9694, 39.0922], [-122.9727, 39.0911], [-122.9718, 39.0902], [-122.9748, 39.0866], [-122.9737, 39.0856], [-122.9718, 39.0853], [-122.9718, 39.0841], [-122.97, 39.0825], [-122.9676, 39.0822], [-122.9656, 39.0828], [-122.964, 39.0822], [-122.9639, 39.0813], [-122.9669, 39.0769], [-122.9636, 39.0761], [-122.9607, 39.0764], [-122.9568, 39.0748], [-122.9563, 39.0739], [-122.9585, 39.0739], [-122.9602, 39.0732], [-122.9614, 39.0714], [-122.9586, 39.0715], [-122.9573, 39.0706], [-122.9586, 39.0692], [-122.9546, 39.0698], [-122.9544, 39.0692], [-122.9523, 39.0692], [-122.9521, 39.0658], [-122.9498, 39.0651], [-122.9496, 39.0627], [-122.948, 39.0614], [-122.9508, 39.0584], [-122.9509, 39.0573], [-122.95, 39.0572], [-122.9504, 39.0555], [-122.9517, 39.0537], [-122.9535, 39.0528], [-122.9544, 39.0497], [-122.9584, 39.0454], [-122.9643, 39.0445], [-122.9653, 39.0437], [-122.9649, 39.042], [-122.9606, 39.0395], [-122.9561, 39.0355], [-122.9522, 39.0345], [-122.9507, 39.0348], [-122.95, 39.0363], [-122.9476, 39.0356], [-122.9471, 39.0338], [-122.9484, 39.0332], [-122.9489, 39.032], [-122.9464, 39.0299], [-122.9446, 39.0293], [-122.9432, 39.0301], [-122.9415, 39.0294], [-122.9384, 39.0297], [-122.9373, 39.0292], [-122.9374, 39.0282], [-122.9354, 39.0255], [-122.9365, 39.024], [-122.9326, 39.0234], [-122.9309, 39.0212], [-122.9304, 39.0192], [-122.9312, 39.0185], [-122.9307, 39.0168], [-122.9314, 39.0156], [-122.9306, 39.0145], [-122.932, 39.0113], [-122.9283, 39.0113], [-122.9281, 39.0103], [-122.9265, 39.0106], [-122.9258, 39.0099], [-122.9261, 39.0086], [-122.9219, 39.0069], [-122.921, 39.0022], [-122.9198, 39.0023], [-122.9208, 39.0015], [-122.9202, 39.0002], [-122.9183, 38.9997], [-122.9157, 39.0002], [-122.9152, 39.0012], [-122.9142, 39.0001], [-122.9141, 38.9995], [-122.9184, 38.9984], [-122.9216, 38.9958], [-122.9239, 38.9956], [-122.9245, 38.995], [-122.9244, 38.9944], [-122.9214, 38.9946], [-122.9182, 38.9958], [-122.9164, 38.9945], [-122.9159, 38.992], [-122.9168, 38.991], [-122.9161, 38.9891], [-122.9124, 38.9889], [-122.9124, 38.9806], [-122.9135, 38.9761], [-122.9123, 38.9756], [-122.9063, 38.9771], [-122.9029, 38.9763], [-122.9005, 38.9747], [-122.9004, 38.9735], [-122.8979, 38.9743], [-122.897, 38.9739], [-122.8971, 38.9727], [-122.8957, 38.9716], [-122.8967, 38.9706], [-122.903, 38.9706], [-122.904, 38.9715], [-122.9055, 38.9714], [-122.9077, 38.9703], [-122.9073, 38.9691], [-122.9087, 38.9685], [-122.9049, 38.9684], [-122.9081, 38.9675], [-122.9104, 38.9655], [-122.9102, 38.964], [-122.9127, 38.9637], [-122.9145, 38.9644], [-122.9179, 38.9628], [-122.9286, 38.9654], [-122.9329, 38.9697], [-122.9338, 38.972], [-122.9375, 38.9743], [-122.939, 38.9741], [-122.9404, 38.9765], [-122.9451, 38.9777], [-122.9464, 38.982], [-122.9546, 38.9835], [-122.9553, 38.9843], [-122.955, 38.9861], [-122.9568, 38.9875], [-122.9589, 38.9883], [-122.9624, 38.9869], [-122.9618, 38.9884], [-122.9638, 38.9896], [-122.9653, 38.989], [-122.9675, 38.989], [-122.968, 38.9897], [-122.9719, 38.9884], [-122.9752, 38.9897], [-122.9797, 38.9883], [-122.9854, 38.9895], [-122.9856, 38.992], [-122.9872, 38.9948], [-122.9914, 38.9967], [-122.9921, 38.9988], [-122.9938, 38.9998], [-123.0028, 39.0031], [-123.0025, 39.0042], [-123.0034, 39.0046], [-123.0042, 39.0073], [-123.0061, 39.0096], [-123.0105, 39.0098], [-123.0115, 39.0106], [-123.0143, 39.0104], [-123.0193, 39.0135], [-123.0255, 39.0161], [-123.0273, 39.0142], [-123.0269, 39.0134], [-123.0336, 39.0087], [-123.035, 39.0083], [-123.0371, 39.0088], [-123.0378, 39.0083], [-123.0393, 39.0096], [-123.0402, 39.0088], [-123.0413, 39.0097], [-123.0452, 39.0081], [-123.0487, 39.0079], [-123.0478, 39.0074], [-123.0484, 39.0069], [-123.0477, 39.0058], [-123.0508, 39.004], [-123.0534, 39.0049], [-123.0545, 39.004], [-123.0553, 39.0048], [-123.0561, 39.0042], [-123.0589, 39.0043], [-123.0595, 39.0048], [-123.0554, 39.0058], [-123.056, 39.0062], [-123.0588, 39.0062], [-123.0627, 39.0049], [-123.0638, 39.0062], [-123.0656, 39.0063], [-123.0675, 39.0053], [-123.0752, 39.0054], [-123.0777, 39.0076], [-123.089, 39.0076], [-123.0916, 39.0096], [-123.0959, 39.0106], [-123.0983, 39.01], [-123.1005, 39.0109], [-123.1022, 39.0156], [-123.1023, 39.0182], [-123.1031, 39.0191], [-123.103, 39.0218], [-123.1071, 39.0244], [-123.1078, 39.0277], [-123.1106, 39.0277], [-123.1113, 39.0294], [-123.1131, 39.0303], [-123.1151, 39.0326], [-123.1164, 39.0357], [-123.1192, 39.0388], [-123.1241, 39.0405], [-123.1234, 39.0432], [-123.1276, 39.0475], [-123.1362, 39.0494], [-123.1415, 39.0576], [-123.1398, 39.0586], [-123.1384, 39.061], [-123.1337, 39.0599], [-123.1327, 39.0608], [-123.1315, 39.0607], [-123.1294, 39.0595], [-123.1286, 39.0615], [-123.1299, 39.0641], [-123.1301, 39.0666], [-123.1287, 39.0692], [-123.1254, 39.0689], [-123.1255, 39.0703], [-123.1264, 39.0712], [-123.1261, 39.0762], [-123.1239, 39.0773], [-123.1261, 39.079], [-123.1279, 39.0791], [-123.1287, 39.0801], [-123.1253, 39.0834], [-123.1228, 39.0837], [-123.1202, 39.083], [-123.1187, 39.084], [-123.1181, 39.0856], [-123.1151, 39.084], [-123.1139, 39.0854], [-123.1051, 39.086], [-123.1037, 39.0846], [-123.1006, 39.0848], [-123.0983, 39.0836], [-123.0963, 39.0833], [-123.0966, 39.0823], [-123.0949, 39.0812], [-123.0926, 39.081], [-123.091, 39.0799], [-123.0892, 39.0806], [-123.0911, 39.0837], [-123.0924, 39.0842], [-123.0928, 39.0851], [-123.094, 39.0851], [-123.0942, 39.0864], [-123.0934, 39.0877], [-123.0915, 39.0889], [-123.0895, 39.0883], [-123.0882, 39.0887], [-123.0835, 39.0922], [-123.0811, 39.0919], [-123.0804, 39.0931], [-123.0808, 39.0955], [-123.0831, 39.0992], [-123.0821, 39.0994], [-123.0869, 39.1057], [-123.0855, 39.1059], [-123.0855, 39.1075], [-123.0824, 39.1107], [-123.0828, 39.1112], [-123.0816, 39.1119], [-123.0797, 39.1165], [-123.0786, 39.1172], [-123.0842, 39.1215], [-123.0857, 39.1243], [-123.085, 39.1266], [-123.0825, 39.1275], [-123.0819, 39.1285], [-123.0806, 39.1283], [-123.0784, 39.13], [-123.0765, 39.1303], [-123.0764, 39.1316], [-123.0779, 39.132], [-123.079, 39.1342], [-123.0788, 39.1379], [-123.0779, 39.1388]]]}, "properties": {"layer": "perimeter"}}, {"type": "Feature", "geometry": {"type": "MultiPolygon", "coordinates": [[[[-123.0315, 39.1364], [-123.029, 39.1366], [-123.0274, 39.1348], [-123.0317, 39.1349], [-123.0315, 39.1364]]], [[[-123.0274, 39.1348], [-123.0253, 39.132], [-123.0248, 39.1311], [-123.0273, 39.1312], [-123.0274, 39.1348]]], [[[-123.0238, 39.1303], [-123.0217, 39.1294], [-123.0188, 39.1305], [-123.0187, 39.1161], [-123.0238, 39.1161], [-123.0238, 39.1303]]], [[[-123.0138, 39.1323], [-123.0091, 39.1301], [-122.9981, 39.1326], [-122.9954, 39.1264], [-122.9946, 39.1274], [-122.9931, 39.1258], [-122.9949, 39.1254], [-122.9935, 39.1234], [-122.9909, 39.1222], [-122.9921, 39.1229], [-122.9908, 39.1224], [-122.9892, 39.1228], [-122.9903, 39.1219], [-122.9884, 39.1208], [-122.9887, 39.1181], [-122.9873, 39.1161], [-122.9911, 39.1162], [-122.9911, 39.1198], [-123.0001, 39.1197], [-123.0001, 39.1233], [-123.0141, 39.1233], [-123.0138, 39.1323]], [[-122.9955, 39.1265], [-122.9958, 39.127], [-122.9962, 39.127], [-122.9962, 39.1265], [-122.9955, 39.1265]]], [[[-122.9863, 39.1155], [-122.9759, 39.1104], [-122.9756, 39.1096], [-122.9772, 39.1086], [-122.9775, 39.1062], [-122.9753, 39.1028], [-122.9734, 39.1024], [-122.972, 39.1031], [-122.9714, 39.102], [-122.9729, 39.1011], [-122.9712, 39.1008], [-122.9723, 39.0998], [-122.9678, 39.0937], [-122.9694, 39.0922], [-122.9727, 39.0911], [-122.9718, 39.0902], [-122.9748, 39.0866], [-122.9737, 39.0856], [-122.9718, 39.0853], [-122.9718, 39.0841], [-122.97, 39.0825], [-122.9676, 39.0822], [-122.9656, 39.0828], [-122.964, 39.0822], [-122.9639, 39.0813], [-122.9669, 39.0769], [-122.9595, 39.076], [-122.959, 39.0734], [-122.9609, 39.0727], [-122.9614, 39.0714], [-122.9582, 39.0713], [-122.9573, 39.0701], [-122.9588, 39.0693], [-122.9572, 39.0691], [-122.957, 39.0668], [-122.955, 39.0662], [-122.9528, 39.0631], [-122.9492, 39.0623], [-122.9482, 39.0614], [-122.9515, 39.0582], [-122.9517, 39.0537], [-122.9535, 39.0528], [-122.9551, 39.0496], [-122.9586, 39.0481], [-122.9573, 39.0468], [-122.9584, 39.0454], [-122.9643, 39.0445], [-122.9653, 39.0437], [-122.9649, 39.042], [-122.9606, 39.0395], [-122.9561, 39.0355], [-122.9522, 39.0345], [-122.9507, 39.0348], [-122.95, 39.0363], [-122.9476, 39.0356], [-122.9471, 39.0338], [-122.9484, 39.0332], [-122.9489, 39.032], [-122.9464, 39.0299], [-122.9446, 39.0293], [-122.9432, 39.0301], [-122.9415, 39.0294], [-122.9384, 39.0297], [-122.9373, 39.0292], [-122.9374, 39.0282], [-122.9354, 39.0255], [-122.9365, 39.024], [-122.9326, 39.0234], [-122.9309, 39.0212], [-122.9304, 39.0192], [-122.9312, 39.0185], [-122.9311, 39.0131], [-122.932, 39.0113], [-122.9283, 39.0113], [-122.9281, 39.0103], [-122.9265, 39.0106], [-122.9258, 39.0099], [-122.9261, 39.0086], [-122.9219, 39.0069], [-122.921, 39.0022], [-122.9198, 39.0023], [-122.9208, 39.0015], [-122.9202, 39.0002], [-122.9183, 38.9997], [-122.9157, 39.0002], [-122.9152, 39.0012], [-122.9142, 39.0001], [-122.9141, 38.9995], [-122.9184, 38.9984], [-122.9216, 38.9958], [-122.9239, 38.9956], [-122.9245, 38.995], [-122.9244, 38.9944], [-122.9214, 38.9946], [-122.9182, 38.9958], [-122.9164, 38.9945], [-122.9159, 38.992], [-122.9168, 38.991], [-122.9161, 38.9891], [-122.9124, 38.9889], [-122.9124, 38.9806], [-122.9135, 38.9761], [-122.9123, 38.9756], [-122.9063, 38.9771], [-122.9029, 38.9763], [-122.9005, 38.9747], [-122.9004, 38.9735], [-122.8973, 38.9742], [-122.8971, 38.9727], [-122.8957, 38.9716], [-122.897, 38.9705], [-122.8995, 38.971], [-122.903, 38.9706], [-122.904, 38.9715], [-122.9055, 38.9714], [-122.9077, 38.9703], [-122.9073, 38.9691], [-122.9087, 38.9685], [-122.9049, 38.9684], [-122.9081, 38.9675], [-122.9104, 38.9655], [-122.9102, 38.964], [-122.9127, 38.9637], [-122.9145, 38.9644], [-122.9179, 38.9628], [-122.9288, 38.9655], [-122.9329, 38.9697], [-122.9338, 38.972], [-122.9375, 38.9743], [-122.939, 38.9741], [-122.94, 38.9749], [-122.9405, 38.9787], [-122.9452, 38.9788], [-122.9449, 38.9932], [-122.9609, 38.9931], [-122.9668, 38.9948], [-122.9671, 38.9917], [-122.9679, 38.9894], [-122.9672, 38.9948], [-122.9666, 38.995], [-122.9632, 38.9941], [-122.963, 38.997], [-122.9495, 38.9968], [-122.9497, 39.0079], [-122.9542, 39.0079], [-122.9543, 39.0115], [-122.9588, 39.0116], [-122.9588, 39.0152], [-122.9634, 39.0153], [-122.9634, 39.0188], [-122.9772, 39.0189], [-122.9773, 39.0297], [-122.9819, 39.0297], [-122.982, 39.055], [-122.9867, 39.0549], [-122.9871, 39.0694], [-122.9868, 39.0765], [-122.9821, 39.0765], [-122.982, 39.08], [-122.9866, 39.08], [-122.9864, 39.0835], [-122.9819, 39.0835], [-122.982, 39.0942], [-122.9728, 39.0944], [-122.9729, 39.0981], [-122.9866, 39.098], [-122.9866, 39.1148], [-122.9863, 39.1155]]], [[[-122.973, 38.989], [-122.9752, 38.9897], [-122.9778, 38.9892], [-122.9787, 38.9883], [-122.9835, 38.9888], [-122.9856, 38.9897], [-122.9856, 38.992], [-122.9869, 38.9939], [-122.9777, 38.9937], [-122.9778, 38.9901], [-122.9729, 38.99], [-122.973, 38.989]]], [[[-122.9972, 39.0013], [-123.0028, 39.0031], [-123.0025, 39.0042], [-123.0034, 39.0046], [-123.0042, 39.0073], [-123.0061, 39.0096], [-123.0105, 39.0098], [-123.0115, 39.0106], [-123.0143, 39.0104], [-123.0193, 39.0135], [-123.0255, 39.0161], [-123.0273, 39.0142], [-123.0269, 39.0134], [-123.0336, 39.0087], [-123.035, 39.0083], [-123.0371, 39.0088], [-123.0378, 39.0083], [-123.0393, 39.0096], [-123.0402, 39.0088], [-123.0413, 39.0097], [-123.0452, 39.0081], [-123.0487, 39.0079], [-123.0478, 39.0074], [-123.0484, 39.0069], [-123.0477, 39.0058], [-123.0508, 39.004], [-123.0534, 39.0049], [-123.0545, 39.004], [-123.0553, 39.0048], [-123.0561, 39.0042], [-123.0589, 39.0043], [-123.0595, 39.0048], [-123.0554, 39.0058], [-123.056, 39.0062], [-123.0588, 39.0062], [-123.0627, 39.0049], [-123.0638, 39.0062], [-123.0656, 39.0063], [-123.0675, 39.0053], [-123.0752, 39.0054], [-123.0777, 39.0076], [-123.089, 39.0076], [-123.0916, 39.0096], [-123.0959, 39.0106], [-123.0983, 39.01], [-123.0999, 39.0106], [-123.1008, 39.0112], [-123.1008, 39.0131], [-123.1022, 39.0156], [-123.103, 39.0218], [-123.1071, 39.0244], [-123.1078, 39.0277], [-123.1106, 39.0277], [-123.1113, 39.0294], [-123.1131, 39.0303], [-123.1151, 39.0326], [-123.1164, 39.0357], [-123.1192, 39.0388], [-123.1241, 39.0405], [-123.1234, 39.0432], [-123.1276, 39.0475], [-123.1362, 39.0494], [-123.1415, 39.0576], [-123.1398, 39.0586], [-123.1384, 39.061], [-123.1337, 39.0599], [-123.1327, 39.0608], [-123.1315, 39.0607], [-123.1297, 39.0593], [-123.1286, 39.0615], [-123.1301, 39.0651], [-123.1295, 39.0686], [-123.128, 39.0694], [-123.1254, 39.0689], [-123.1255, 39.0703], [-123.1264, 39.0712], [-123.1262, 39.0734], [-123.1221, 39.0733], [-123.1221, 39.0697], [-123.1175, 39.0697], [-123.1175, 39.0589], [-123.1035, 39.0586], [-123.1035, 39.0513], [-123.1082, 39.0514], [-123.108, 39.0477], [-123.1034, 39.0476], [-123.1033, 39.0425], [-123.0839, 39.0425], [-123.0839, 39.0352], [-123.0515, 39.035], [-123.0515, 39.0315], [-123.0469, 39.0314], [-123.0469, 39.0279], [-123.0423, 39.028], [-123.0423, 39.0244], [-123.033, 39.0245], [-123.033, 39.0209], [-123.0143, 39.0207], [-123.0141, 39.0172], [-123.0094, 39.0172], [-123.0092, 39.0153], [-123.0001, 39.0153], [-123.0, 39.0118], [-122.9966, 39.0118], [-122.9972, 39.0013]]], [[[-123.1244, 39.0769], [-123.1245, 39.078], [-123.1261, 39.079], [-123.1279, 39.0791], [-123.1285, 39.0806], [-123.1253, 39.0834], [-123.1221, 39.0836], [-123.1221, 39.0769], [-123.1244, 39.0769]]], [[[-123.1187, 39.0847], [-123.1181, 39.0856], [-123.1174, 39.0853], [-123.1174, 39.0842], [-123.1187, 39.0847]]], [[[-123.0851, 39.1036], [-123.0869, 39.1057], [-123.0855, 39.1059], [-123.0851, 39.1079], [-123.0851, 39.1036]]], [[[-123.0811, 39.1135], [-123.0797, 39.1165], [-123.0782, 39.1171], [-123.0782, 39.1135], [-123.0811, 39.1135]]], [[[-123.0557, 39.0497], [-123.0511, 39.0497], [-123.0512, 39.046], [-123.0653, 39.0462], [-123.0653, 39.0499], [-123.0602, 39.0499], [-123.0603, 39.0534], [-123.0557, 39.0534], [-123.0557, 39.0497]]], [[[-123.0375, 39.0715], [-123.0374, 39.086], [-123.0282, 39.0859], [-123.0283, 39.0715], [-123.0375, 39.0715]]], [[[-123.0559, 39.0804], [-123.0513, 39.0804], [-123.0513, 39.0789], [-123.0559, 39.0789], [-123.0559, 39.0804]]], [[[-123.0712, 39.0911], [-123.0714, 39.0873], [-123.0724, 39.0872], [-123.0722, 39.091], [-123.0712, 39.0911]]], [[[-122.991, 39.0942], [-122.9911, 39.098], [-122.9866, 39.098], [-122.9865, 39.0942], [-122.991, 39.0942]]], [[[-123.0045, 39.098], [-123.0045, 39.1016], [-123.0, 39.1016], [-123.0, 39.098], [-123.0045, 39.098]]], [[[-123.0183, 39.1016], [-123.0187, 39.1161], [-123.014, 39.1161], [-123.0133, 39.1016], [-123.0183, 39.1016]]]]}, "properties": {"layer": "retained"}}, {"type": "Feature", "geometry": {"type": "MultiPolygon", "coordinates": [[[[-122.9994, 39.1309], [-122.9997, 39.1306], [-122.9994, 39.1306], [-122.9994, 39.1309]]], [[[-122.9994, 39.1303], [-123.0, 39.13], [-122.9994, 39.13], [-122.9994, 39.1303]]], [[[-123.0011, 39.1295], [-123.0014, 39.1292], [-123.0011, 39.1292], [-123.0011, 39.1295]]], [[[-123.0048, 39.1269], [-123.0051, 39.1267], [-123.0048, 39.1267], [-123.0048, 39.1269]]], [[[-123.0197, 39.1268], [-123.0193, 39.126], [-123.019, 39.126], [-123.0187, 39.1269], [-123.0197, 39.1268]]], [[[-123.0041, 39.1267], [-123.0044, 39.1264], [-123.0041, 39.1264], [-123.0041, 39.1267]]], [[[-123.002, 39.1267], [-123.0023, 39.1265], [-123.002, 39.1265], [-123.002, 39.1267]]], [[[-123.0113, 39.1241], [-123.0116, 39.1243], [-123.0123, 39.1241], [-123.0113, 39.1241]]], [[[-123.0113, 39.1238], [-123.0116, 39.1233], [-123.0112, 39.1233], [-123.0113, 39.1238]]], [[[-123.0102, 39.1233], [-123.0109, 39.1238], [-123.0109, 39.1233], [-123.0102, 39.1233]]], [[[-122.9899, 39.1203], [-122.9903, 39.12], [-122.9899, 39.12], [-122.9899, 39.1203]]], [[[-122.988, 39.1165], [-122.9884, 39.1163], [-122.988, 39.1163], [-122.988, 39.1165]]], [[[-122.9833, 39.1123], [-122.9837, 39.1121], [-122.9833, 39.1121], [-122.9833, 39.1123]]], [[[-122.9819, 39.1116], [-122.9823, 39.1113], [-122.9819, 39.1113], [-122.9819, 39.1116]]], [[[-122.9801, 39.1103], [-122.9805, 39.11], [-122.9801, 39.11], [-122.9801, 39.1103]]], [[[-122.9805, 39.11], [-122.9808, 39.1097], [-122.9805, 39.1097], [-122.9805, 39.11]]], [[[-122.9812, 39.1097], [-122.9815, 39.1094], [-122.9811, 39.1094], [-122.9812, 39.1097]]], [[[-122.9801, 39.1097], [-122.9804, 39.1094], [-122.9801, 39.1094], [-122.9801, 39.1097]]], [[[-123.0157, 39.1045], [-123.016, 39.1042], [-123.0157, 39.1043], [-123.0157, 39.1045]]], [[[-122.9857, 39.102], [-122.9867, 39.1017], [-122.9857, 39.1015], [-122.9857, 39.102]]], [[[-122.9883, 39.0963], [-122.9886, 39.096], [-122.9882, 39.096], [-122.9883, 39.0963]]], [[[-122.991, 39.0959], [-122.991, 39.0954], [-122.9903, 39.0954], [-122.9903, 39.0957], [-122.991, 39.0959]]], [[[-122.9889, 39.0957], [-122.9893, 39.0955], [-122.9889, 39.0955], [-122.9889, 39.0957]]], [[[-122.9899, 39.0944], [-122.9903, 39.0946], [-122.991, 39.0943], [-122.9899, 39.0944]]], [[[-122.9875, 39.0944], [-122.9878, 39.0941], [-122.9875, 39.0941], [-122.9875, 39.0944]]], [[[-122.976, 39.0944], [-122.9764, 39.0941], [-122.976, 39.0942], [-122.976, 39.0944]]], [[[-122.9739, 39.0945], [-122.9743, 39.0942], [-122.9739, 39.0942], [-122.9739, 39.0945]]], [[[-122.9732, 39.0934], [-122.9739, 39.0929], [-122.9735, 39.0929], [-122.9732, 39.0934]]], [[[-122.9763, 39.0923], [-122.9766, 39.092], [-122.9763, 39.092], [-122.9763, 39.0923]]], [[[-122.9773, 39.0917], [-122.9776, 39.0911], [-122.9773, 39.0912], [-122.9773, 39.0917]]], [[[-122.9738, 39.0912], [-122.9741, 39.091], [-122.9738, 39.091], [-122.9738, 39.0912]]], [[[-122.9813, 39.0886], [-122.9817, 39.0883], [-122.9813, 39.0884], [-122.9813, 39.0886]]], [[[-123.0299, 39.0861], [-123.0305, 39.0858], [-123.0298, 39.0858], [-123.0299, 39.0861]]], [[[-123.0288, 39.0856], [-123.0291, 39.0853], [-123.0288, 39.0853], [-123.0288, 39.0856]]], [[[-123.0291, 39.0853], [-123.0295, 39.085], [-123.0291, 39.085], [-123.0291, 39.0853]]], [[[-123.0308, 39.0844], [-123.0312, 39.0842], [-123.0308, 39.0842], [-123.0308, 39.0844]]], [[[-123.0305, 39.0842], [-123.0308, 39.0839], [-123.0305, 39.0839], [-123.0305, 39.0842]]], [[[-123.0301, 39.0842], [-123.0298, 39.0836], [-123.0291, 39.0837], [-123.0291, 39.0842], [-123.0301, 39.0842]]], [[[-123.0342, 39.083], [-123.0346, 39.0827], [-123.0342, 39.0827], [-123.0342, 39.083]]], [[[-123.0325, 39.0833], [-123.0321, 39.0825], [-123.0318, 39.0825], [-123.0315, 39.0831], [-123.0325, 39.0833]]], [[[-123.0335, 39.0827], [-123.0339, 39.0825], [-123.0335, 39.0825], [-123.0335, 39.0827]]], [[[-123.0308, 39.0828], [-123.0311, 39.0825], [-123.0308, 39.0825], [-123.0308, 39.0828]]], [[[-123.0283, 39.0829], [-123.0294, 39.0826], [-123.0283, 39.0826], [-123.0283, 39.0829]]], [[[-123.037, 39.0827], [-123.0373, 39.0821], [-123.037, 39.0821], [-123.037, 39.0827]]], [[[-123.037, 39.0818], [-123.0373, 39.0816], [-123.037, 39.0816], [-123.037, 39.0818]]], [[[-123.0363, 39.0816], [-123.0366, 39.0813], [-123.0363, 39.0813], [-123.0363, 39.0816]]], [[[-123.0297, 39.0815], [-123.03, 39.0812], [-123.0297, 39.0812], [-123.0297, 39.0815]]], [[[-123.03, 39.0812], [-123.0303, 39.0809], [-123.03, 39.0809], [-123.03, 39.0812]]], [[[-123.0546, 39.0803], [-123.055, 39.08], [-123.0546, 39.0801], [-123.0546, 39.0803]]], [[[-123.0349, 39.0808], [-123.0352, 39.0805], [-123.0348, 39.0806], [-123.0349, 39.0808]]], [[[-123.0345, 39.0806], [-123.0348, 39.08], [-123.0345, 39.08], [-123.0345, 39.0806]]], [[[-123.0345, 39.0798], [-123.0348, 39.0795], [-123.0345, 39.0795], [-123.0345, 39.0798]]], [[[-123.0365, 39.0781], [-123.0368, 39.0778], [-123.0365, 39.0778], [-123.0365, 39.0781]]], [[[-123.0364, 39.077], [-123.0371, 39.0767], [-123.0364, 39.0767], [-123.0364, 39.077]]], [[[-123.0371, 39.0767], [-123.0375, 39.0764], [-123.0371, 39.0764], [-123.0371, 39.0767]]], [[[-123.0357, 39.0767], [-123.0361, 39.0765], [-123.0357, 39.0765], [-123.0357, 39.0767]]], [[[-123.0312, 39.0766], [-123.0315, 39.0763], [-123.0312, 39.0763], [-123.0312, 39.0766]]], [[[-123.0361, 39.0762], [-123.0364, 39.0759], [-123.036, 39.0759], [-123.0361, 39.0762]]], [[[-123.0319, 39.0758], [-123.0322, 39.0755], [-123.0319, 39.0755], [-123.0319, 39.0758]]], [[[-123.036, 39.0751], [-123.0363, 39.0748], [-123.036, 39.0749], [-123.036, 39.0751]]], [[[-123.0329, 39.0749], [-123.0332, 39.0747], [-123.0329, 39.0747], [-123.0329, 39.0749]]], [[[-123.036, 39.0749], [-123.036, 39.074], [-123.0353, 39.0741], [-123.0353, 39.0746], [-123.036, 39.0749]]], [[[-123.0325, 39.0744], [-123.0328, 39.0741], [-123.0325, 39.0741], [-123.0325, 39.0744]]], [[[-123.0308, 39.0744], [-123.0311, 39.0739], [-123.0307, 39.0739], [-123.0308, 39.0744]]], [[[-123.0346, 39.0741], [-123.0353, 39.0738], [-123.0346, 39.0738], [-123.0346, 39.0741]]], [[[-123.0297, 39.0739], [-123.0304, 39.0736], [-123.0297, 39.0737], [-123.0297, 39.0739]]], [[[-122.9631, 39.0756], [-122.9634, 39.0753], [-122.9631, 39.0753], [-122.9631, 39.0756]]], [[[-123.036, 39.0738], [-123.0356, 39.0732], [-123.0349, 39.0733], [-123.0353, 39.0738], [-123.036, 39.0738]]], [[[-123.0294, 39.0737], [-123.0297, 39.0734], [-123.0293, 39.0734], [-123.0294, 39.0737]]], [[[-122.9621, 39.0753], [-122.9624, 39.075], [-122.962, 39.0751], [-122.9621, 39.0753]]], [[[-122.9783, 39.0747], [-122.979, 39.0744], [-122.9783, 39.0744], [-122.9783, 39.0747]]], [[[-122.9738, 39.0748], [-122.9742, 39.0745], [-122.9738, 39.0745], [-122.9738, 39.0748]]], [[[-122.9759, 39.0742], [-122.9762, 39.0739], [-122.9759, 39.0739], [-122.9759, 39.0742]]], [[[-123.0311, 39.0728], [-123.0314, 39.0723], [-123.031, 39.0723], [-123.0311, 39.0728]]], [[[-123.0293, 39.0729], [-123.0296, 39.0723], [-123.0293, 39.0723], [-123.0293, 39.0729]]], [[[-123.0317, 39.0725], [-123.0321, 39.0722], [-123.0317, 39.0723], [-123.0317, 39.0725]]], [[[-123.03, 39.0726], [-123.0303, 39.0723], [-123.03, 39.0723], [-123.03, 39.0726]]], [[[-123.0363, 39.073], [-123.0369, 39.0724], [-123.0373, 39.0718], [-123.0362, 39.0721], [-123.0363, 39.073]]], [[[-122.9807, 39.0735], [-122.9811, 39.0732], [-122.9807, 39.0732], [-122.9807, 39.0735]]], [[[-123.0296, 39.0718], [-123.03, 39.0715], [-123.0296, 39.0715], [-123.0296, 39.0718]]], [[[-122.979, 39.0725], [-122.9793, 39.0722], [-122.9789, 39.0722], [-122.979, 39.0725]]], [[[-122.9783, 39.0725], [-122.9786, 39.0722], [-122.9782, 39.0722], [-122.9783, 39.0725]]], [[[-123.1288, 39.0685], [-123.1291, 39.0682], [-123.1288, 39.0682], [-123.1288, 39.0685]]], [[[-122.9793, 39.0719], [-122.9796, 39.0717], [-122.9793, 39.0717], [-122.9793, 39.0719]]], [[[-122.9782, 39.072], [-122.9786, 39.0717], [-122.9782, 39.0717], [-122.9782, 39.072]]], [[[-122.9866, 39.0715], [-122.9869, 39.0712], [-122.9865, 39.0712], [-122.9866, 39.0715]]], [[[-122.9789, 39.0717], [-122.9793, 39.0714], [-122.9789, 39.0714], [-122.9789, 39.0717]]], [[[-122.9775, 39.0714], [-122.9779, 39.0712], [-122.9775, 39.0712], [-122.9775, 39.0714]]], [[[-122.9865, 39.0709], [-122.9869, 39.0707], [-122.9865, 39.0707], [-122.9865, 39.0709]]], [[[-123.1284, 39.0668], [-123.1287, 39.0671], [-123.1291, 39.0668], [-123.1284, 39.0668]]], [[[-122.9862, 39.0707], [-122.9865, 39.0704], [-122.9862, 39.0704], [-122.9862, 39.0707]]], [[[-122.9685, 39.0711], [-122.9688, 39.0708], [-122.9685, 39.0708], [-122.9685, 39.0711]]], [[[-123.1277, 39.0669], [-123.128, 39.0666], [-123.1277, 39.0666], [-123.1277, 39.0669]]], [[[-122.9709, 39.0708], [-122.9716, 39.0705], [-122.9709, 39.0705], [-122.9709, 39.0708]]], [[[-122.9688, 39.0706], [-122.9691, 39.0703], [-122.9688, 39.0703], [-122.9688, 39.0706]]], [[[-122.9716, 39.0702], [-122.9719, 39.0699], [-122.9716, 39.07], [-122.9716, 39.0702]]], [[[-122.9733, 39.0696], [-122.9736, 39.0694], [-122.9733, 39.0694], [-122.9733, 39.0696]]], [[[-123.1262, 39.065], [-123.1265, 39.0647], [-123.1262, 39.0647], [-123.1262, 39.065]]], [[[-123.1209, 39.063], [-123.1213, 39.0627], [-123.1209, 39.0627], [-123.1209, 39.063]]], [[[-123.1213, 39.0627], [-123.1216, 39.0624], [-123.1212, 39.0624], [-123.1213, 39.0627]]], [[[-123.1188, 39.0625], [-123.1192, 39.0622], [-123.1188, 39.0622], [-123.1188, 39.0625]]], [[[-123.1216, 39.0622], [-123.1219, 39.0619], [-123.1216, 39.0619], [-123.1216, 39.0622]]], [[[-122.9717, 39.0659], [-122.9721, 39.0656], [-122.9717, 39.0656], [-122.9717, 39.0659]]], [[[-123.1184, 39.0614], [-123.1188, 39.0611], [-123.1184, 39.0612], [-123.1184, 39.0614]]], [[[-123.1201, 39.0606], [-123.1208, 39.0603], [-123.1201, 39.0603], [-123.1201, 39.0606]]], [[[-122.9543, 39.0628], [-122.9546, 39.0625], [-122.9542, 39.0625], [-122.9543, 39.0628]]], [[[-122.9539, 39.0626], [-122.9542, 39.062], [-122.9539, 39.062], [-122.9539, 39.0626]]], [[[-123.1183, 39.0579], [-123.1186, 39.0576], [-123.1183, 39.0576], [-123.1183, 39.0579]]], [[[-123.1165, 39.058], [-123.1172, 39.0577], [-123.1165, 39.0577], [-123.1165, 39.058]]], [[[-122.9799, 39.0614], [-122.9802, 39.0611], [-122.9799, 39.0611], [-122.9799, 39.0614]]], [[[-122.9636, 39.0618], [-122.9639, 39.0615], [-122.9636, 39.0615], [-122.9636, 39.0618]]], [[[-123.1074, 39.0544], [-123.1077, 39.0539], [-123.1073, 39.0539], [-123.1074, 39.0544]]], [[[-123.107, 39.0539], [-123.1073, 39.0536], [-123.107, 39.0536], [-123.107, 39.0539]]], [[[-123.1135, 39.0524], [-123.1139, 39.0521], [-123.1135, 39.0521], [-123.1135, 39.0524]]], [[[-123.1121, 39.0524], [-123.1125, 39.0521], [-123.1121, 39.0521], [-123.1121, 39.0524]]], [[[-123.1139, 39.0521], [-123.1142, 39.0518], [-123.1139, 39.0518], [-123.1139, 39.0521]]], [[[-123.1087, 39.0522], [-123.109, 39.0519], [-123.1086, 39.052], [-123.1087, 39.0522]]], [[[-123.0594, 39.0535], [-123.0598, 39.0532], [-123.0594, 39.0532], [-123.0594, 39.0535]]], [[[-123.109, 39.0519], [-123.1093, 39.0514], [-123.109, 39.0514], [-123.109, 39.0519]]], [[[-123.0591, 39.0532], [-123.0594, 39.0527], [-123.059, 39.0527], [-123.0591, 39.0532]]], [[[-123.0566, 39.053], [-123.057, 39.0527], [-123.0566, 39.0527], [-123.0566, 39.053]]], [[[-123.1135, 39.0513], [-123.1138, 39.051], [-123.1135, 39.051], [-123.1135, 39.0513]]], [[[-123.1121, 39.0513], [-123.1124, 39.051], [-123.1121, 39.0511], [-123.1121, 39.0513]]], [[[-123.0563, 39.0527], [-123.0566, 39.0525], [-123.0563, 39.0525], [-123.0563, 39.0527]]], [[[-123.1138, 39.0507], [-123.1141, 39.0505], [-123.1138, 39.0505], [-123.1138, 39.0507]]], [[[-122.9564, 39.0547], [-122.9567, 39.0544], [-122.9564, 39.0544], [-122.9564, 39.0547]]], [[[-123.059, 39.0524], [-123.0593, 39.0516], [-123.0586, 39.0516], [-123.059, 39.0524]]], [[[-123.0559, 39.0519], [-123.0566, 39.0514], [-123.0562, 39.0514], [-123.0559, 39.0519]]], [[[-123.1082, 39.0501], [-123.1086, 39.0498], [-123.1082, 39.0498], [-123.1082, 39.0501]]], [[[-122.9782, 39.0528], [-122.9785, 39.0525], [-122.9781, 39.0525], [-122.9782, 39.0528]]], [[[-123.0572, 39.0511], [-123.0572, 39.0506], [-123.0558, 39.0503], [-123.0558, 39.0509], [-123.0572, 39.0511]]], [[[-123.0604, 39.0513], [-123.0603, 39.0507], [-123.0597, 39.051], [-123.06, 39.0502], [-123.0589, 39.0502], [-123.059, 39.0513], [-123.0604, 39.0513]]], [[[-122.9768, 39.0525], [-122.9771, 39.0523], [-122.9767, 39.0523], [-122.9768, 39.0525]]], [[[-123.1155, 39.0488], [-123.1158, 39.0485], [-123.1154, 39.0485], [-123.1155, 39.0488]]], [[[-123.06, 39.0502], [-123.0603, 39.0499], [-123.06, 39.0499], [-123.06, 39.0502]]], [[[-123.1116, 39.0486], [-123.112, 39.0484], [-123.1116, 39.0484], [-123.1116, 39.0486]]], [[[-123.052, 39.0496], [-123.0523, 39.0493], [-123.052, 39.0493], [-123.052, 39.0496]]], [[[-123.0638, 39.0496], [-123.0645, 39.0493], [-123.0644, 39.0488], [-123.0634, 39.049], [-123.0638, 39.0496]]], [[[-123.0533, 39.0493], [-123.054, 39.049], [-123.0533, 39.0488], [-123.0533, 39.0493]]], [[[-123.0606, 39.0488], [-123.0609, 39.0486], [-123.0606, 39.0486], [-123.0606, 39.0488]]], [[[-123.062, 39.0488], [-123.0623, 39.0483], [-123.062, 39.0483], [-123.062, 39.0488]]], [[[-123.1091, 39.0474], [-123.1095, 39.0471], [-123.1091, 39.0471], [-123.1091, 39.0474]]], [[[-123.1081, 39.0474], [-123.1088, 39.0471], [-123.1081, 39.0471], [-123.1081, 39.0474]]], [[[-123.1071, 39.0474], [-123.1074, 39.0471], [-123.1071, 39.0471], [-123.1071, 39.0474]]], [[[-123.0551, 39.0487], [-123.0554, 39.0484], [-123.055, 39.0484], [-123.0551, 39.0487]]], [[[-123.0537, 39.0488], [-123.054, 39.0485], [-123.0537, 39.0485], [-123.0537, 39.0488]]], [[[-123.0512, 39.0488], [-123.0519, 39.0483], [-123.0516, 39.0483], [-123.0512, 39.0488]]], [[[-123.1088, 39.0471], [-123.1091, 39.0468], [-123.1088, 39.0468], [-123.1088, 39.0471]]], [[[-123.1067, 39.0471], [-123.107, 39.0469], [-123.1067, 39.0469], [-123.1067, 39.0471]]], [[[-123.0613, 39.0483], [-123.0616, 39.048], [-123.0613, 39.048], [-123.0613, 39.0483]]], [[[-123.0512, 39.0483], [-123.0516, 39.048], [-123.0512, 39.048], [-123.0512, 39.0483]]], [[[-123.1088, 39.0465], [-123.1091, 39.0463], [-123.1088, 39.0463], [-123.1088, 39.0465]]], [[[-122.9645, 39.0501], [-122.9648, 39.0499], [-122.9645, 39.0499], [-122.9645, 39.0501]]], [[[-123.0565, 39.05], [-123.0565, 39.049], [-123.0578, 39.0486], [-123.0574, 39.0473], [-123.0571, 39.0487], [-123.0564, 39.0487], [-123.0564, 39.0479], [-123.0554, 39.0479], [-123.0561, 39.0492], [-123.0551, 39.0498], [-123.0565, 39.05]]], [[[-123.0647, 39.0477], [-123.0651, 39.0471], [-123.0647, 39.0471], [-123.0647, 39.0477]]], [[[-123.1091, 39.0463], [-123.1094, 39.046], [-123.1091, 39.046], [-123.1091, 39.0463]]], [[[-123.0512, 39.0477], [-123.0519, 39.0474], [-123.0512, 39.0472], [-123.0512, 39.0477]]], [[[-123.0651, 39.0471], [-123.0654, 39.0468], [-123.065, 39.0468], [-123.0651, 39.0471]]], [[[-123.0647, 39.0469], [-123.065, 39.0466], [-123.0647, 39.0466], [-123.0647, 39.0469]]], [[[-123.0655, 39.0485], [-123.0644, 39.0479], [-123.0636, 39.0463], [-123.0627, 39.048], [-123.064, 39.0474], [-123.0641, 39.0485], [-123.0655, 39.0485]]], [[[-123.0512, 39.0469], [-123.0515, 39.0464], [-123.0511, 39.0464], [-123.0512, 39.0469]]], [[[-123.1108, 39.0451], [-123.1111, 39.0449], [-123.1108, 39.0449], [-123.1108, 39.0451]]], [[[-123.0629, 39.0464], [-123.0633, 39.0461], [-123.0629, 39.0461], [-123.0629, 39.0464]]], [[[-123.0619, 39.0472], [-123.0619, 39.0461], [-123.0612, 39.0461], [-123.0612, 39.0469], [-123.0619, 39.0472]]], [[[-123.0595, 39.0481], [-123.0609, 39.0472], [-123.0608, 39.0461], [-123.0577, 39.0462], [-123.0571, 39.0468], [-123.0546, 39.0466], [-123.0542, 39.046], [-123.0532, 39.0463], [-123.0546, 39.0471], [-123.0533, 39.0471], [-123.054, 39.0479], [-123.0554, 39.0479], [-123.0553, 39.0471], [-123.0568, 39.0479], [-123.0567, 39.0471], [-123.0578, 39.047], [-123.0595, 39.0481]], [[-123.0595, 39.0473], [-123.0592, 39.0475], [-123.0592, 39.0473], [-123.0595, 39.0473]], [[-123.055, 39.0474], [-123.0547, 39.0476], [-123.0547, 39.0474], [-123.055, 39.0474]]], [[[-123.0553, 39.0463], [-123.0556, 39.046], [-123.0553, 39.046], [-123.0553, 39.0463]]], [[[-122.9606, 39.0486], [-122.961, 39.0483], [-122.9606, 39.0483], [-122.9606, 39.0486]]], [[[-123.1111, 39.0446], [-123.1115, 39.0443], [-123.1111, 39.0443], [-123.1111, 39.0446]]], [[[-123.1118, 39.0446], [-123.1125, 39.044], [-123.1121, 39.044], [-123.1118, 39.0446]]], [[[-123.1062, 39.0445], [-123.1069, 39.0442], [-123.1062, 39.0442], [-123.1062, 39.0445]]], [[[-123.1097, 39.0441], [-123.11, 39.0438], [-123.1097, 39.0438], [-123.1097, 39.0441]]], [[[-123.1118, 39.044], [-123.1121, 39.0435], [-123.1118, 39.0435], [-123.1118, 39.044]]], [[[-122.9665, 39.0474], [-122.9668, 39.0471], [-122.9665, 39.0471], [-122.9665, 39.0474]]], [[[-123.1107, 39.0435], [-123.111, 39.043], [-123.1107, 39.043], [-123.1107, 39.0435]]], [[[-123.1097, 39.0433], [-123.11, 39.043], [-123.1097, 39.043], [-123.1097, 39.0433]]], [[[-122.9644, 39.0469], [-122.9647, 39.0466], [-122.9644, 39.0466], [-122.9644, 39.0469]]], [[[-123.1135, 39.0432], [-123.1138, 39.0426], [-123.1135, 39.0426], [-123.1135, 39.0432]]], [[[-123.1118, 39.0432], [-123.1124, 39.0427], [-123.1117, 39.0427], [-123.1118, 39.0432]]], [[[-123.1086, 39.043], [-123.1093, 39.0428], [-123.1086, 39.0428], [-123.1086, 39.043]]], [[[-123.1038, 39.0432], [-123.1041, 39.0429], [-123.1038, 39.0429], [-123.1038, 39.0432]]], [[[-123.1065, 39.0428], [-123.1069, 39.0425], [-123.1065, 39.0426], [-123.1065, 39.0428]]], [[[-122.9755, 39.0461], [-122.9758, 39.0455], [-122.9754, 39.0456], [-122.9755, 39.0461]]], [[[-123.1093, 39.0425], [-123.1096, 39.0422], [-123.1093, 39.0422], [-123.1093, 39.0425]]], [[[-123.1048, 39.0426], [-123.1051, 39.0423], [-123.1048, 39.0423], [-123.1048, 39.0426]]], [[[-123.1089, 39.0422], [-123.1093, 39.0419], [-123.1089, 39.042], [-123.1089, 39.0422]]], [[[-122.9747, 39.0456], [-122.9751, 39.0453], [-122.9747, 39.0453], [-122.9747, 39.0456]]], [[[-123.1075, 39.042], [-123.1079, 39.0417], [-123.1075, 39.0417], [-123.1075, 39.042]]], [[[-123.1054, 39.0418], [-123.1058, 39.0415], [-123.1054, 39.0415], [-123.1054, 39.0418]]], [[[-123.11, 39.0422], [-123.1099, 39.0417], [-123.1103, 39.0411], [-123.1092, 39.0414], [-123.11, 39.0422]]], [[[-123.1086, 39.0414], [-123.1089, 39.0411], [-123.1085, 39.0412], [-123.1086, 39.0414]]], [[[-123.1079, 39.0414], [-123.1082, 39.0412], [-123.1078, 39.0412], [-123.1079, 39.0414]]], [[[-123.1137, 39.041], [-123.1141, 39.0407], [-123.1137, 39.0408], [-123.1137, 39.041]]], [[[-122.9806, 39.0444], [-122.9809, 39.0441], [-122.9806, 39.0441], [-122.9806, 39.0444]]], [[[-123.1099, 39.0408], [-123.1103, 39.0406], [-123.1099, 39.0406], [-123.1099, 39.0408]]], [[[-123.1092, 39.0409], [-123.1089, 39.0403], [-123.1082, 39.0404], [-123.1085, 39.0409], [-123.1092, 39.0409]]], [[[-123.1137, 39.0402], [-123.114, 39.0399], [-123.1137, 39.0399], [-123.1137, 39.0402]]], [[[-123.1075, 39.0406], [-123.1078, 39.0398], [-123.1057, 39.0401], [-123.1057, 39.0404], [-123.1075, 39.0406]]], [[[-123.0932, 39.0402], [-123.0936, 39.0399], [-123.0932, 39.0399], [-123.0932, 39.0402]]], [[[-123.1029, 39.0397], [-123.1033, 39.0394], [-123.1029, 39.0394], [-123.1029, 39.0397]]], [[[-123.1074, 39.0393], [-123.1078, 39.039], [-123.1074, 39.039], [-123.1074, 39.0393]]], [[[-123.1088, 39.0393], [-123.1091, 39.0387], [-123.1088, 39.0387], [-123.1088, 39.0393]]], [[[-123.1032, 39.0391], [-123.1039, 39.0388], [-123.1032, 39.0389], [-123.1032, 39.0391]]], [[[-123.1025, 39.0381], [-123.1028, 39.0378], [-123.1025, 39.0378], [-123.1025, 39.0381]]], [[[-123.1112, 39.0378], [-123.1115, 39.0373], [-123.1112, 39.0373], [-123.1112, 39.0378]]], [[[-123.1063, 39.0377], [-123.1066, 39.0374], [-123.1063, 39.0374], [-123.1063, 39.0377]]], [[[-123.106, 39.0374], [-123.1063, 39.0372], [-123.1059, 39.0372], [-123.106, 39.0374]]], [[[-123.1035, 39.0372], [-123.1042, 39.0367], [-123.1035, 39.0367], [-123.1035, 39.0372]]], [[[-123.1028, 39.0367], [-123.1035, 39.0364], [-123.1028, 39.0362], [-123.1028, 39.0367]]], [[[-123.1042, 39.0361], [-123.1045, 39.0359], [-123.1042, 39.0359], [-123.1042, 39.0361]]], [[[-123.1003, 39.036], [-123.1007, 39.0357], [-123.1003, 39.0357], [-123.1003, 39.036]]], [[[-123.1024, 39.0359], [-123.1031, 39.0354], [-123.1024, 39.0354], [-123.1024, 39.0359]]], [[[-123.0982, 39.0355], [-123.0986, 39.0352], [-123.0982, 39.0352], [-123.0982, 39.0355]]], [[[-123.1062, 39.035], [-123.1065, 39.0347], [-123.1062, 39.0347], [-123.1062, 39.035]]], [[[-123.0864, 39.0352], [-123.0868, 39.035], [-123.0864, 39.035], [-123.0864, 39.0352]]], [[[-122.9779, 39.0379], [-122.9782, 39.0377], [-122.9779, 39.0377], [-122.9779, 39.0379]]], [[[-123.1072, 39.035], [-123.1072, 39.0344], [-123.1065, 39.0342], [-123.1065, 39.0347], [-123.1072, 39.035]]], [[[-123.1048, 39.0345], [-123.1051, 39.0342], [-123.1048, 39.0342], [-123.1048, 39.0345]]], [[[-123.0663, 39.0349], [-123.0666, 39.0347], [-123.0663, 39.0347], [-123.0663, 39.0349]]], [[[-122.9748, 39.0372], [-122.9751, 39.0369], [-122.9747, 39.0369], [-122.9748, 39.0372]]], [[[-123.0604, 39.0354], [-123.0614, 39.0348], [-123.0604, 39.0345], [-123.0604, 39.0354]]], [[[-123.0992, 39.0338], [-123.0995, 39.0336], [-123.0992, 39.0336], [-123.0992, 39.0338]]], [[[-123.0878, 39.0341], [-123.0881, 39.0338], [-123.0878, 39.0339], [-123.0878, 39.0341]]], [[[-123.0867, 39.0341], [-123.0871, 39.0339], [-123.0867, 39.0339], [-123.0867, 39.0341]]], [[[-122.9737, 39.037], [-122.974, 39.0367], [-122.9737, 39.0367], [-122.9737, 39.037]]], [[[-122.9709, 39.037], [-122.9713, 39.0367], [-122.9709, 39.0368], [-122.9709, 39.037]]], [[[-123.1051, 39.0339], [-123.1051, 39.0331], [-123.1037, 39.0337], [-123.1037, 39.034], [-123.1051, 39.0339]]], [[[-123.0735, 39.0342], [-123.0739, 39.0339], [-123.0735, 39.0339], [-123.0735, 39.0342]]], [[[-122.974, 39.0367], [-122.9744, 39.0364], [-122.974, 39.0364], [-122.974, 39.0367]]], [[[-123.0999, 39.0335], [-123.1002, 39.033], [-123.0999, 39.033], [-123.0999, 39.0335]]], [[[-123.1051, 39.0331], [-123.1054, 39.0329], [-123.1051, 39.0329], [-123.1051, 39.0331]]], [[[-123.0857, 39.0336], [-123.086, 39.0334], [-123.0857, 39.0334], [-123.0857, 39.0336]]], [[[-123.0624, 39.0342], [-123.0628, 39.0337], [-123.0624, 39.0337], [-123.0624, 39.0342]]], [[[-123.1068, 39.0328], [-123.1071, 39.0325], [-123.1068, 39.0326], [-123.1068, 39.0328]]], [[[-123.104, 39.0329], [-123.1051, 39.0326], [-123.104, 39.0326], [-123.104, 39.0329]]], [[[-123.0732, 39.0337], [-123.0735, 39.0334], [-123.0732, 39.0334], [-123.0732, 39.0337]]], [[[-123.0562, 39.0341], [-123.0565, 39.0338], [-123.0562, 39.0338], [-123.0562, 39.0341]]], [[[-122.9768, 39.0361], [-122.9771, 39.0358], [-122.9768, 39.0358], [-122.9768, 39.0361]]], [[[-123.0853, 39.0331], [-123.0856, 39.0328], [-123.0853, 39.0328], [-123.0853, 39.0331]]], [[[-123.0728, 39.0334], [-123.0731, 39.0331], [-123.0728, 39.0331], [-123.0728, 39.0334]]], [[[-123.0617, 39.0334], [-123.0621, 39.0337], [-123.0624, 39.0334], [-123.0617, 39.0334]]], [[[-123.0531, 39.0339], [-123.0534, 39.0336], [-123.053, 39.0336], [-123.0531, 39.0339]]], [[[-122.9771, 39.0358], [-122.9775, 39.0355], [-122.9771, 39.0355], [-122.9771, 39.0358]]], [[[-123.0753, 39.0336], [-123.0756, 39.0328], [-123.0752, 39.0328], [-123.0753, 39.0336]]], [[[-123.0614, 39.034], [-123.061, 39.0332], [-123.0607, 39.0332], [-123.0607, 39.034], [-123.0614, 39.034]]], [[[-123.0822, 39.0329], [-123.0825, 39.0326], [-123.0822, 39.0326], [-123.0822, 39.0329]]], [[[-123.0745, 39.0331], [-123.0749, 39.0328], [-123.0745, 39.0328], [-123.0745, 39.0331]]], [[[-123.104, 39.0321], [-123.1043, 39.0318], [-123.104, 39.0318], [-123.104, 39.0321]]], [[[-123.1016, 39.0321], [-123.1019, 39.0319], [-123.1016, 39.0319], [-123.1016, 39.0321]]], [[[-123.0742, 39.0328], [-123.0745, 39.0326], [-123.0742, 39.0326], [-123.0742, 39.0328]]], [[[-123.0603, 39.0332], [-123.0606, 39.0329], [-123.0603, 39.0329], [-123.0603, 39.0332]]], [[[-123.1071, 39.032], [-123.1071, 39.0315], [-123.1064, 39.0315], [-123.1064, 39.0318], [-123.1071, 39.032]]], [[[-123.0922, 39.0321], [-123.0925, 39.0318], [-123.0922, 39.0318], [-123.0922, 39.0321]]], [[[-123.0818, 39.0324], [-123.0821, 39.0321], [-123.0818, 39.0321], [-123.0818, 39.0324]]], [[[-123.0613, 39.0329], [-123.0617, 39.0326], [-123.0613, 39.0326], [-123.0613, 39.0329]]], [[[-123.0586, 39.033], [-123.0589, 39.0327], [-123.0586, 39.0327], [-123.0586, 39.033]]], [[[-123.1015, 39.0316], [-123.1026, 39.0313], [-123.1015, 39.0313], [-123.1015, 39.0316]]], [[[-123.0814, 39.0321], [-123.0818, 39.0318], [-123.0814, 39.0319], [-123.0814, 39.0321]]], [[[-123.0731, 39.0323], [-123.0735, 39.0321], [-123.0731, 39.0321], [-123.0731, 39.0323]]], [[[-123.0586, 39.0335], [-123.0586, 39.033], [-123.0582, 39.033], [-123.0585, 39.0324], [-123.0575, 39.0322], [-123.0586, 39.0335]]], [[[-123.0998, 39.0311], [-123.1001, 39.0308], [-123.0998, 39.0308], [-123.0998, 39.0311]]], [[[-122.9573, 39.0344], [-122.9576, 39.0341], [-122.9573, 39.0341], [-122.9573, 39.0344]]], [[[-123.1032, 39.0305], [-123.1036, 39.0302], [-123.1032, 39.0302], [-123.1032, 39.0305]]], [[[-122.9729, 39.0335], [-122.9732, 39.0332], [-122.9729, 39.0332], [-122.9729, 39.0335]]], [[[-123.0599, 39.0308], [-123.0602, 39.0305], [-123.0599, 39.0305], [-123.0599, 39.0308]]], [[[-123.1004, 39.0295], [-123.1007, 39.0292], [-123.1004, 39.0292], [-123.1004, 39.0295]]], [[[-123.0734, 39.0302], [-123.0737, 39.0299], [-123.0734, 39.0299], [-123.0734, 39.0302]]], [[[-122.9552, 39.0331], [-122.9555, 39.0328], [-122.9551, 39.0328], [-122.9552, 39.0331]]], [[[-123.0567, 39.0303], [-123.0574, 39.03], [-123.0567, 39.03], [-123.0567, 39.0303]]], [[[-122.9718, 39.0324], [-122.9721, 39.0321], [-122.9718, 39.0321], [-122.9718, 39.0324]]], [[[-123.0986, 39.0287], [-123.099, 39.0284], [-123.0986, 39.0284], [-123.0986, 39.0287]]], [[[-123.056, 39.0298], [-123.0563, 39.0295], [-123.056, 39.0295], [-123.056, 39.0298]]], [[[-123.1021, 39.0286], [-123.1021, 39.0281], [-123.1014, 39.0281], [-123.1014, 39.0284], [-123.1021, 39.0286]]], [[[-123.1024, 39.0283], [-123.1028, 39.0281], [-123.1024, 39.0281], [-123.1024, 39.0283]]], [[[-123.0567, 39.0295], [-123.057, 39.0292], [-123.0567, 39.0292], [-123.0567, 39.0295]]], [[[-123.0598, 39.0294], [-123.0605, 39.0291], [-123.0598, 39.0289], [-123.0598, 39.0294]]], [[[-123.1049, 39.028], [-123.1052, 39.0277], [-123.1049, 39.0277], [-123.1049, 39.028]]], [[[-123.1021, 39.0281], [-123.1024, 39.0278], [-123.1021, 39.0278], [-123.1021, 39.0281]]], [[[-123.101, 39.0281], [-123.1014, 39.0278], [-123.101, 39.0278], [-123.101, 39.0281]]], [[[-123.0556, 39.029], [-123.056, 39.0287], [-123.0556, 39.0287], [-123.0556, 39.029]]], [[[-123.0567, 39.0287], [-123.057, 39.0284], [-123.0566, 39.0284], [-123.0567, 39.0287]]], [[[-123.0989, 39.0276], [-123.0996, 39.0273], [-123.0989, 39.0271], [-123.0989, 39.0276]]], [[[-123.057, 39.0284], [-123.0573, 39.0281], [-123.057, 39.0281], [-123.057, 39.0284]]], [[[-123.0556, 39.0285], [-123.0559, 39.0279], [-123.0556, 39.0279], [-123.0556, 39.0285]]], [[[-123.0563, 39.0282], [-123.0566, 39.0279], [-123.0563, 39.0279], [-123.0563, 39.0282]]], [[[-123.0604, 39.0278], [-123.0608, 39.0275], [-123.0604, 39.0275], [-123.0604, 39.0278]]], [[[-123.0549, 39.0279], [-123.0556, 39.0276], [-123.0549, 39.0277], [-123.0549, 39.0279]]], [[[-123.0521, 39.0277], [-123.0531, 39.0274], [-123.0521, 39.0275], [-123.0521, 39.0277]]], [[[-123.094, 39.0264], [-123.0944, 39.0261], [-123.094, 39.0261], [-123.094, 39.0264]]], [[[-123.0833, 39.0267], [-123.0836, 39.0264], [-123.0833, 39.0264], [-123.0833, 39.0267]]], [[[-123.0989, 39.026], [-123.0992, 39.0257], [-123.0989, 39.0257], [-123.0989, 39.026]]], [[[-123.0975, 39.026], [-123.0978, 39.0258], [-123.0975, 39.0258], [-123.0975, 39.026]]], [[[-123.0552, 39.0271], [-123.0555, 39.0268], [-123.0552, 39.0268], [-123.0552, 39.0271]]], [[[-123.0531, 39.0269], [-123.0534, 39.0266], [-123.0531, 39.0266], [-123.0531, 39.0269]]], [[[-123.0975, 39.0255], [-123.0982, 39.0252], [-123.0975, 39.0252], [-123.0975, 39.0255]]], [[[-123.1013, 39.0251], [-123.1016, 39.0249], [-123.1013, 39.0249], [-123.1013, 39.0251]]], [[[-122.9498, 39.0289], [-122.9505, 39.0286], [-122.9498, 39.0284], [-122.9498, 39.0289]]], [[[-123.0929, 39.0251], [-123.0933, 39.0248], [-123.0929, 39.0248], [-123.0929, 39.0251]]], [[[-123.0922, 39.0246], [-123.0929, 39.0248], [-123.0929, 39.0243], [-123.0922, 39.0246]]], [[[-123.0974, 39.0244], [-123.0978, 39.0241], [-123.0974, 39.0242], [-123.0974, 39.0244]]], [[[-123.0964, 39.0242], [-123.0967, 39.0239], [-123.0964, 39.0239], [-123.0964, 39.0242]]], [[[-123.0943, 39.024], [-123.0946, 39.0237], [-123.0943, 39.0237], [-123.0943, 39.024]]], [[[-123.0905, 39.0238], [-123.0908, 39.0235], [-123.0904, 39.0235], [-123.0905, 39.0238]]], [[[-123.0461, 39.0254], [-123.0464, 39.0246], [-123.0454, 39.0247], [-123.0454, 39.0252], [-123.0461, 39.0254]]], [[[-123.0447, 39.0249], [-123.045, 39.0247], [-123.0447, 39.0247], [-123.0447, 39.0249]]], [[[-123.0943, 39.0234], [-123.0946, 39.0231], [-123.0942, 39.0232], [-123.0943, 39.0234]]], [[[-123.0423, 39.0247], [-123.0429, 39.0244], [-123.0423, 39.0245], [-123.0423, 39.0247]]], [[[-123.0429, 39.0244], [-123.0433, 39.0242], [-123.0429, 39.0242], [-123.0429, 39.0244]]], [[[-123.0402, 39.0245], [-123.0405, 39.0242], [-123.0402, 39.0242], [-123.0402, 39.0245]]], [[[-123.0894, 39.023], [-123.0897, 39.0227], [-123.0894, 39.0227], [-123.0894, 39.023]]], [[[-123.0849, 39.0231], [-123.0852, 39.0228], [-123.0849, 39.0229], [-123.0849, 39.0231]]], [[[-123.0876, 39.0228], [-123.0883, 39.0225], [-123.0876, 39.0225], [-123.0876, 39.0228]]], [[[-123.054, 39.0236], [-123.0544, 39.0234], [-123.054, 39.0234], [-123.054, 39.0236]]], [[[-123.0443, 39.0239], [-123.0446, 39.0236], [-123.0443, 39.0236], [-123.0443, 39.0239]]], [[[-123.0904, 39.0224], [-123.0907, 39.0222], [-123.0904, 39.0222], [-123.0904, 39.0224]]], [[[-123.0415, 39.0237], [-123.0419, 39.0234], [-123.0415, 39.0234], [-123.0415, 39.0237]]], [[[-123.0859, 39.0226], [-123.0862, 39.022], [-123.0859, 39.022], [-123.0859, 39.0226]]], [[[-123.0935, 39.0221], [-123.0938, 39.0218], [-123.0935, 39.0218], [-123.0935, 39.0221]]], [[[-122.9628, 39.0251], [-122.9631, 39.0248], [-122.9628, 39.0248], [-122.9628, 39.0251]]], [[[-123.0637, 39.0226], [-123.064, 39.022], [-123.0637, 39.022], [-123.0637, 39.0226]]], [[[-123.0658, 39.0223], [-123.0661, 39.022], [-123.0657, 39.022], [-123.0658, 39.0223]]], [[[-123.0557, 39.023], [-123.0564, 39.0222], [-123.0557, 39.022], [-123.0557, 39.023]]], [[[-123.0914, 39.0213], [-123.0917, 39.0211], [-123.0914, 39.0211], [-123.0914, 39.0213]]], [[[-123.0546, 39.022], [-123.0553, 39.0217], [-123.0546, 39.0217], [-123.0546, 39.022]]], [[[-122.95, 39.0246], [-122.9506, 39.0243], [-122.9499, 39.0243], [-122.95, 39.0246]]], [[[-122.9499, 39.024], [-122.9503, 39.0238], [-122.9499, 39.0238], [-122.9499, 39.024]]], [[[-123.0414, 39.021], [-123.0417, 39.0207], [-123.0414, 39.0207], [-123.0414, 39.021]]], [[[-123.0431, 39.0207], [-123.0435, 39.0204], [-123.0431, 39.0204], [-123.0431, 39.0207]]], [[[-122.9752, 39.0229], [-122.9755, 39.0218], [-122.9752, 39.0218], [-122.9752, 39.0229]]], [[[-122.9762, 39.022], [-122.9766, 39.0218], [-122.9762, 39.0218], [-122.9762, 39.022]]], [[[-123.0227, 39.0206], [-123.023, 39.0204], [-123.0227, 39.0204], [-123.0227, 39.0206]]], [[[-122.9745, 39.0218], [-122.9748, 39.0215], [-122.9745, 39.0215], [-122.9745, 39.0218]]], [[[-123.0168, 39.0205], [-123.0171, 39.0202], [-123.0167, 39.0202], [-123.0168, 39.0205]]], [[[-122.9755, 39.0215], [-122.9758, 39.0212], [-122.9755, 39.0213], [-122.9755, 39.0215]]], [[[-123.0358, 39.0198], [-123.0361, 39.0195], [-123.0358, 39.0195], [-123.0358, 39.0198]]], [[[-123.023, 39.0198], [-123.0233, 39.0201], [-123.0237, 39.0198], [-123.023, 39.0198]]], [[[-123.0213, 39.0201], [-123.0216, 39.0198], [-123.0212, 39.0199], [-123.0213, 39.0201]]], [[[-122.9748, 39.0215], [-122.9751, 39.0207], [-122.9748, 39.0207], [-122.9748, 39.0215]]], [[[-123.0282, 39.0197], [-123.0285, 39.0194], [-123.0282, 39.0194], [-123.0282, 39.0197]]], [[[-123.0178, 39.0199], [-123.0185, 39.0197], [-123.0178, 39.0197], [-123.0178, 39.0199]]], [[[-123.0372, 39.0192], [-123.0379, 39.0189], [-123.0372, 39.0189], [-123.0372, 39.0192]]], [[[-123.0347, 39.0192], [-123.0354, 39.019], [-123.0347, 39.019], [-123.0347, 39.0192]]], [[[-123.0198, 39.0196], [-123.0205, 39.0193], [-123.0198, 39.0194], [-123.0198, 39.0196]]], [[[-123.0192, 39.0196], [-123.0195, 39.0194], [-123.0191, 39.0194], [-123.0192, 39.0196]]], [[[-123.0666, 39.0182], [-123.067, 39.0179], [-123.0666, 39.0179], [-123.0666, 39.0182]]], [[[-123.058, 39.0184], [-123.0583, 39.0181], [-123.058, 39.0181], [-123.058, 39.0184]]], [[[-123.0195, 39.0194], [-123.0198, 39.0191], [-123.0195, 39.0191], [-123.0195, 39.0194]]], [[[-123.0178, 39.0194], [-123.0181, 39.0191], [-123.0177, 39.0191], [-123.0178, 39.0194]]], [[[-123.0361, 39.0189], [-123.0361, 39.0184], [-123.0354, 39.0184], [-123.0354, 39.0187], [-123.0361, 39.0189]]], [[[-123.0281, 39.0189], [-123.0285, 39.0186], [-123.0281, 39.0186], [-123.0281, 39.0189]]], [[[-123.0202, 39.0191], [-123.0205, 39.0188], [-123.0202, 39.0188], [-123.0202, 39.0191]]], [[[-123.0181, 39.0191], [-123.0184, 39.0188], [-123.0181, 39.0189], [-123.0181, 39.0191]]], [[[-123.0188, 39.0194], [-123.0191, 39.0186], [-123.0188, 39.0186], [-123.0188, 39.0194]]], [[[-123.0368, 39.0187], [-123.0375, 39.0181], [-123.0371, 39.0181], [-123.0368, 39.0187]]], [[[-123.0167, 39.0189], [-123.0181, 39.0186], [-123.0167, 39.0186], [-123.0167, 39.0189]]], [[[-123.0364, 39.0181], [-123.0371, 39.0178], [-123.0364, 39.0179], [-123.0364, 39.0181]]], [[[-123.0354, 39.0182], [-123.0357, 39.0179], [-123.0354, 39.0179], [-123.0354, 39.0182]]], [[[-122.9723, 39.0197], [-122.9726, 39.0194], [-122.9723, 39.0194], [-122.9723, 39.0197]]], [[[-123.026, 39.0181], [-123.0264, 39.0178], [-123.026, 39.0178], [-123.026, 39.0181]]], [[[-123.0187, 39.0183], [-123.0191, 39.018], [-123.0187, 39.018], [-123.0187, 39.0183]]], [[[-123.0167, 39.0202], [-123.0167, 39.0189], [-123.0142, 39.0179], [-123.0146, 39.0192], [-123.0157, 39.0192], [-123.0147, 39.0203], [-123.0167, 39.0202]], [[-123.0153, 39.0184], [-123.0149, 39.0187], [-123.0149, 39.0184], [-123.0153, 39.0184]]], [[[-123.0174, 39.0181], [-123.018, 39.0178], [-123.0173, 39.0178], [-123.0174, 39.0181]]], [[[-123.0344, 39.0182], [-123.034, 39.0171], [-123.0333, 39.0171], [-123.0337, 39.0182], [-123.0344, 39.0182]]], [[[-122.9428, 39.0199], [-122.9431, 39.0193], [-122.9428, 39.0193], [-122.9428, 39.0199]]], [[[-123.026, 39.0176], [-123.0263, 39.0173], [-123.026, 39.0173], [-123.026, 39.0176]]], [[[-123.0153, 39.0178], [-123.0156, 39.0176], [-123.0152, 39.0176], [-123.0153, 39.0178]]], [[[-123.0156, 39.0178], [-123.017, 39.0181], [-123.0166, 39.0173], [-123.0156, 39.0178]]], [[[-123.0392, 39.017], [-123.0395, 39.0167], [-123.0392, 39.0167], [-123.0392, 39.017]]], [[[-123.0357, 39.0171], [-123.036, 39.0168], [-123.0357, 39.0168], [-123.0357, 39.0171]]], [[[-123.0142, 39.0173], [-123.0145, 39.0171], [-123.0142, 39.0171], [-123.0142, 39.0173]]], [[[-123.0163, 39.0173], [-123.0163, 39.0167], [-123.0156, 39.0168], [-123.0156, 39.017], [-123.0163, 39.0173]]], [[[-123.0225, 39.0169], [-123.0232, 39.0166], [-123.0225, 39.0166], [-123.0225, 39.0169]]], [[[-123.0492, 39.0159], [-123.0495, 39.0156], [-123.0492, 39.0156], [-123.0492, 39.0159]]], [[[-123.0371, 39.0162], [-123.0374, 39.0159], [-123.037, 39.016], [-123.0371, 39.0162]]], [[[-123.0152, 39.0168], [-123.0156, 39.0165], [-123.0152, 39.0165], [-123.0152, 39.0168]]], [[[-123.0131, 39.0168], [-123.0135, 39.0165], [-123.0131, 39.0165], [-123.0131, 39.0168]]], [[[-123.0325, 39.0163], [-123.0325, 39.0158], [-123.0318, 39.0158], [-123.0318, 39.0161], [-123.0325, 39.0163]]], [[[-123.0135, 39.0165], [-123.0145, 39.0162], [-123.0135, 39.0163], [-123.0135, 39.0165]]], [[[-123.0128, 39.0166], [-123.0131, 39.0163], [-123.0128, 39.0163], [-123.0128, 39.0166]]], [[[-123.0121, 39.0171], [-123.011, 39.0161], [-123.0103, 39.0161], [-123.0111, 39.0169], [-123.0093, 39.0169], [-123.0121, 39.0171]]], [[[-123.0613, 39.0151], [-123.0616, 39.0148], [-123.0613, 39.0148], [-123.0613, 39.0151]]], [[[-123.0353, 39.0155], [-123.0356, 39.0152], [-123.0353, 39.0152], [-123.0353, 39.0155]]], [[[-123.0117, 39.0158], [-123.012, 39.0155], [-123.0117, 39.0155], [-123.0117, 39.0158]]], [[[-123.0315, 39.015], [-123.0318, 39.0147], [-123.0314, 39.0147], [-123.0315, 39.015]]], [[[-123.0304, 39.015], [-123.0311, 39.0147], [-123.0304, 39.0148], [-123.0304, 39.015]]], [[[-123.0329, 39.0155], [-123.0339, 39.015], [-123.0328, 39.0144], [-123.0329, 39.0155]]], [[[-123.0093, 39.0153], [-123.0096, 39.015], [-123.0092, 39.015], [-123.0093, 39.0153]]], [[[-123.0086, 39.0153], [-123.0089, 39.015], [-123.0086, 39.015], [-123.0086, 39.0153]]], [[[-123.0075, 39.0151], [-123.0082, 39.0148], [-123.0075, 39.0148], [-123.0075, 39.0151]]], [[[-123.0033, 39.0149], [-123.0037, 39.0146], [-123.0033, 39.0146], [-123.0033, 39.0149]]], [[[-123.0027, 39.0149], [-123.003, 39.0146], [-123.0026, 39.0146], [-123.0027, 39.0149]]], [[[-123.0342, 39.0149], [-123.0342, 39.0144], [-123.0352, 39.0144], [-123.0349, 39.0138], [-123.0321, 39.0139], [-123.0321, 39.0147], [-123.0328, 39.0142], [-123.0338, 39.0141], [-123.0342, 39.0149]]], [[[-123.0151, 39.0149], [-123.0158, 39.0143], [-123.0148, 39.0141], [-123.0151, 39.0149]]], [[[-123.0408, 39.0137], [-123.0411, 39.0134], [-123.0408, 39.0134], [-123.0408, 39.0137]]], [[[-123.0065, 39.0146], [-123.0068, 39.0143], [-123.0064, 39.0143], [-123.0065, 39.0146]]], [[[-123.0352, 39.0138], [-123.0355, 39.0133], [-123.0352, 39.0133], [-123.0352, 39.0138]]], [[[-123.0311, 39.0139], [-123.031, 39.0134], [-123.0303, 39.0134], [-123.0304, 39.0137], [-123.0311, 39.0139]]], [[[-123.0331, 39.0136], [-123.0335, 39.0133], [-123.0331, 39.0133], [-123.0331, 39.0136]]], [[[-123.0089, 39.0142], [-123.0092, 39.0139], [-123.0089, 39.014], [-123.0089, 39.0142]]], [[[-123.0044, 39.0149], [-123.0047, 39.0143], [-123.0061, 39.014], [-123.0037, 39.0141], [-123.0044, 39.0149]]], [[[-123.0026, 39.0146], [-123.0026, 39.0138], [-123.0019, 39.0139], [-123.0016, 39.0144], [-123.0026, 39.0146]]], [[[-123.0366, 39.0133], [-123.0369, 39.013], [-123.0366, 39.013], [-123.0366, 39.0133]]], [[[-123.0283, 39.0135], [-123.0286, 39.0132], [-123.0283, 39.0132], [-123.0283, 39.0135]]], [[[-123.0064, 39.014], [-123.0068, 39.0137], [-123.0064, 39.0137], [-123.0064, 39.014]]], [[[-123.0342, 39.0133], [-123.0341, 39.0128], [-123.0334, 39.0128], [-123.0335, 39.0131], [-123.0342, 39.0133]]], [[[-123.0359, 39.013], [-123.0366, 39.0127], [-123.0359, 39.0127], [-123.0359, 39.013]]], [[[-123.0352, 39.013], [-123.0355, 39.0127], [-123.0352, 39.0128], [-123.0352, 39.013]]], [[[-123.0289, 39.0132], [-123.0293, 39.0129], [-123.0289, 39.0129], [-123.0289, 39.0132]]], [[[-123.0172, 39.0135], [-123.0175, 39.0132], [-123.0172, 39.0132], [-123.0172, 39.0135]]], [[[-123.012, 39.0136], [-123.0123, 39.0133], [-123.012, 39.0133], [-123.012, 39.0136]]], [[[-123.0036, 39.0138], [-123.004, 39.0135], [-123.0036, 39.0135], [-123.0036, 39.0138]]], [[[-123.03, 39.0132], [-123.0303, 39.0126], [-123.03, 39.0126], [-123.03, 39.0132]]], [[[-123.0355, 39.0127], [-123.0359, 39.0125], [-123.0355, 39.0125], [-123.0355, 39.0127]]], [[[-123.0317, 39.0128], [-123.0324, 39.0126], [-123.0317, 39.0126], [-123.0317, 39.0128]]], [[[-123.0282, 39.0129], [-123.0289, 39.0126], [-123.0282, 39.0127], [-123.0282, 39.0129]]], [[[-123.0165, 39.0132], [-123.0171, 39.0127], [-123.0168, 39.0127], [-123.0165, 39.0132]]], [[[-123.0002, 39.0136], [-123.0005, 39.0131], [-123.0001, 39.0131], [-123.0002, 39.0136]]], [[[-123.0449, 39.0122], [-123.0452, 39.012], [-123.0449, 39.012], [-123.0449, 39.0122]]], [[[-123.0438, 39.0123], [-123.0442, 39.012], [-123.0438, 39.012], [-123.0438, 39.0123]]], [[[-123.0289, 39.0126], [-123.0293, 39.0124], [-123.0289, 39.0124], [-123.0289, 39.0126]]], [[[-123.0161, 39.013], [-123.0164, 39.0127], [-123.0161, 39.0127], [-123.0161, 39.013]]], [[[-123.0123, 39.0131], [-123.0126, 39.0128], [-123.0123, 39.0128], [-123.0123, 39.0131]]], [[[-123.0171, 39.0127], [-123.0175, 39.0124], [-123.0171, 39.0124], [-123.0171, 39.0127]]], [[[-123.0351, 39.0117], [-123.0355, 39.0122], [-123.0362, 39.0117], [-123.0351, 39.0117]]], [[[-123.0327, 39.012], [-123.0331, 39.0117], [-123.0327, 39.0117], [-123.0327, 39.012]]], [[[-123.0331, 39.0117], [-123.0337, 39.0114], [-123.033, 39.0115], [-123.0331, 39.0117]]], [[[-123.0095, 39.0123], [-123.0098, 39.012], [-123.0095, 39.012], [-123.0095, 39.0123]]], [[[-123.0143, 39.0119], [-123.015, 39.0122], [-123.015, 39.0116], [-123.0143, 39.0119]]], [[[-123.0098, 39.012], [-123.0101, 39.0115], [-123.0098, 39.0115], [-123.0098, 39.012]]], [[[-123.0084, 39.0118], [-123.0095, 39.0115], [-123.0084, 39.0115], [-123.0084, 39.0118]]], [[[-123.0077, 39.0118], [-123.0081, 39.0115], [-123.0077, 39.0115], [-123.0077, 39.0118]]], [[[-123.0004, 39.012], [-123.0008, 39.0117], [-123.0004, 39.0117], [-123.0004, 39.012]]], [[[-123.0108, 39.0115], [-123.0112, 39.0112], [-123.0108, 39.0112], [-123.0108, 39.0115]]], [[[-123.0056, 39.0116], [-123.006, 39.0113], [-123.0056, 39.0113], [-123.0056, 39.0116]]], [[[-122.9994, 39.0118], [-123.0001, 39.0115], [-122.9994, 39.0115], [-122.9994, 39.0118]]], [[[-123.0472, 39.0103], [-123.0476, 39.01], [-123.0472, 39.01], [-123.0472, 39.0103]]], [[[-123.0386, 39.0105], [-123.0382, 39.0094], [-123.0378, 39.0095], [-123.0375, 39.0105], [-123.0386, 39.0105]]], [[[-123.0035, 39.0103], [-123.0038, 39.01], [-123.0035, 39.01], [-123.0035, 39.0103]]], [[[-123.0, 39.0093], [-123.0003, 39.009], [-123.0, 39.009], [-123.0, 39.0093]]], [[[-123.0021, 39.0087], [-123.0028, 39.009], [-123.0027, 39.0084], [-123.0021, 39.0087]]], [[[-123.053, 39.0075], [-123.0533, 39.0072], [-123.053, 39.0072], [-123.053, 39.0075]]], [[[-123.0526, 39.0072], [-123.053, 39.0069], [-123.0526, 39.0069], [-123.0526, 39.0072]]], [[[-122.9979, 39.008], [-122.9975, 39.0075], [-122.9982, 39.0072], [-122.9968, 39.007], [-122.9972, 39.008], [-122.9979, 39.008]]], [[[-122.9982, 39.0072], [-122.9985, 39.0069], [-122.9982, 39.0069], [-122.9982, 39.0072]]], [[[-122.9985, 39.0069], [-122.9988, 39.0066], [-122.9985, 39.0066], [-122.9985, 39.0069]]], [[[-122.9968, 39.0067], [-122.9971, 39.0064], [-122.9968, 39.0064], [-122.9968, 39.0067]]], [[[-123.0023, 39.0066], [-123.0033, 39.006], [-123.0023, 39.006], [-123.0023, 39.0066]]], [[[-122.9982, 39.0067], [-122.9988, 39.0058], [-122.9978, 39.0059], [-122.9982, 39.0067]]], [[[-122.9967, 39.0061], [-122.9974, 39.0059], [-122.9967, 39.0059], [-122.9967, 39.0061]]], [[[-123.0012, 39.0058], [-123.0026, 39.0052], [-123.0012, 39.0055], [-123.0012, 39.0058]]], [[[-123.0026, 39.0052], [-123.0029, 39.0049], [-123.0026, 39.0049], [-123.0026, 39.0052]]], [[[-123.0009, 39.0052], [-123.0016, 39.0049], [-123.0009, 39.005], [-123.0009, 39.0052]]], [[[-122.9988, 39.0053], [-122.9998, 39.005], [-122.9988, 39.0045], [-122.9988, 39.0053]]], [[[-122.9998, 39.0047], [-123.0001, 39.0044], [-122.9998, 39.0045], [-122.9998, 39.0047]]], [[[-122.9974, 39.0045], [-122.9984, 39.0042], [-122.9974, 39.0042], [-122.9974, 39.0045]]], [[[-122.998, 39.0037], [-122.9987, 39.0034], [-122.998, 39.0034], [-122.998, 39.0037]]], [[[-122.9987, 39.0029], [-122.9997, 39.0026], [-122.9987, 39.0026], [-122.9987, 39.0029]]], [[[-122.997, 39.0029], [-122.9973, 39.0024], [-122.9969, 39.0024], [-122.997, 39.0029]]], [[[-122.9987, 39.0023], [-122.9994, 39.002], [-122.9987, 39.0021], [-122.9987, 39.0023]]], [[[-122.9203, 38.9932], [-122.9209, 38.9929], [-122.9202, 38.9926], [-122.9203, 38.9932]]], [[[-122.9809, 38.9914], [-122.9812, 38.9911], [-122.9809, 38.9911], [-122.9809, 38.9914]]], [[[-122.9847, 38.9911], [-122.985, 38.9908], [-122.9847, 38.9908], [-122.9847, 38.9911]]], [[[-122.9816, 38.9911], [-122.9819, 38.9908], [-122.9816, 38.9909], [-122.9816, 38.9911]]], [[[-122.9216, 38.9926], [-122.922, 38.9923], [-122.9216, 38.9923], [-122.9216, 38.9926]]], [[[-122.9257, 38.9909], [-122.926, 38.9906], [-122.9257, 38.9906], [-122.9257, 38.9909]]], [[[-122.9212, 38.9904], [-122.9215, 38.9902], [-122.9212, 38.9902], [-122.9212, 38.9904]]], [[[-122.9222, 38.9901], [-122.9226, 38.9899], [-122.9222, 38.9899], [-122.9222, 38.9901]]], [[[-122.9264, 38.9895], [-122.9267, 38.9892], [-122.9263, 38.9892], [-122.9264, 38.9895]]], [[[-122.9232, 38.9888], [-122.9235, 38.9885], [-122.9232, 38.9885], [-122.9232, 38.9888]]], [[[-122.919, 38.9889], [-122.9194, 38.9886], [-122.919, 38.9886], [-122.919, 38.9889]]], [[[-122.9211, 38.9883], [-122.9207, 38.9877], [-122.92, 38.9878], [-122.9204, 38.9883], [-122.9211, 38.9883]]], [[[-122.9197, 38.987], [-122.9196, 38.9864], [-122.9189, 38.9864], [-122.919, 38.9867], [-122.9197, 38.987]]], [[[-122.9269, 38.9865], [-122.9266, 38.986], [-122.9259, 38.9863], [-122.9259, 38.9865], [-122.9269, 38.9865]]], [[[-122.9228, 38.9866], [-122.9235, 38.9863], [-122.9227, 38.9861], [-122.9228, 38.9866]]], [[[-122.9211, 38.9872], [-122.9221, 38.9866], [-122.9217, 38.9861], [-122.9207, 38.9867], [-122.9211, 38.9872]]], [[[-122.9213, 38.9853], [-122.9217, 38.9847], [-122.9213, 38.9848], [-122.9213, 38.9853]]], [[[-122.9449, 38.9845], [-122.9452, 38.9842], [-122.9449, 38.9842], [-122.9449, 38.9845]]], [[[-122.9168, 38.9849], [-122.9164, 38.9843], [-122.9158, 38.9846], [-122.9158, 38.9849], [-122.9168, 38.9849]]], [[[-122.9168, 38.9846], [-122.9171, 38.9843], [-122.9168, 38.9843], [-122.9168, 38.9846]]], [[[-122.9445, 38.9834], [-122.9448, 38.9831], [-122.9445, 38.9831], [-122.9445, 38.9834]]], [[[-122.9206, 38.9842], [-122.9202, 38.9834], [-122.9199, 38.9834], [-122.9199, 38.9843], [-122.9206, 38.9842]]], [[[-122.9195, 38.9832], [-122.9198, 38.9829], [-122.9195, 38.9829], [-122.9195, 38.9832]]], [[[-122.9198, 38.9829], [-122.9202, 38.9826], [-122.9198, 38.9826], [-122.9198, 38.9829]]], [[[-122.9184, 38.9819], [-122.9188, 38.9816], [-122.9184, 38.9816], [-122.9184, 38.9819]]], [[[-122.9177, 38.9819], [-122.9181, 38.9816], [-122.9177, 38.9816], [-122.9177, 38.9819]]], [[[-122.9179, 38.9775], [-122.9182, 38.9773], [-122.9179, 38.9773], [-122.9179, 38.9775]]], [[[-122.9169, 38.9776], [-122.9165, 38.977], [-122.9158, 38.9773], [-122.9158, 38.9776], [-122.9169, 38.9776]]], [[[-122.9182, 38.9773], [-122.9186, 38.9767], [-122.9182, 38.9767], [-122.9182, 38.9773]]], [[[-122.9203, 38.9767], [-122.9206, 38.9764], [-122.9203, 38.9764], [-122.9203, 38.9767]]], [[[-122.9362, 38.9755], [-122.9365, 38.9752], [-122.9362, 38.9752], [-122.9362, 38.9755]]], [[[-122.9365, 38.9749], [-122.9372, 38.9747], [-122.9365, 38.9747], [-122.9365, 38.9749]]], [[[-122.9175, 38.9751], [-122.9181, 38.9748], [-122.9174, 38.9749], [-122.9175, 38.9751]]], [[[-122.9147, 38.9749], [-122.9164, 38.9746], [-122.9147, 38.9747], [-122.9147, 38.9749]]], [[[-122.9323, 38.9726], [-122.9326, 38.9723], [-122.9323, 38.9723], [-122.9323, 38.9726]]], [[[-122.9302, 38.9719], [-122.9308, 38.9716], [-122.9301, 38.9716], [-122.9302, 38.9719]]], [[[-122.9308, 38.9716], [-122.9312, 38.971], [-122.9308, 38.971], [-122.9308, 38.9716]]], [[[-122.9128, 38.9717], [-122.9132, 38.9715], [-122.9128, 38.9715], [-122.9128, 38.9717]]], [[[-122.9128, 38.9712], [-122.9131, 38.9709], [-122.9128, 38.9709], [-122.9128, 38.9712]]], [[[-122.9135, 38.9706], [-122.9145, 38.9706], [-122.9155, 38.9703], [-122.9135, 38.9706]]], [[[-122.9128, 38.9706], [-122.9131, 38.9704], [-122.9128, 38.9704], [-122.9128, 38.9706]]], [[[-122.9131, 38.9704], [-122.9134, 38.9701], [-122.9131, 38.9701], [-122.9131, 38.9704]]], [[[-122.9308, 38.9697], [-122.9311, 38.9694], [-122.9308, 38.9694], [-122.9308, 38.9697]]], [[[-122.9103, 38.9699], [-122.9107, 38.9696], [-122.9103, 38.9696], [-122.9103, 38.9699]]], [[[-122.9283, 38.9689], [-122.9286, 38.9686], [-122.9283, 38.9687], [-122.9283, 38.9689]]]]}, "properties": {"layer": "high_severity"}}, {"type": "Feature", "geometry": {"type": "MultiPolygon", "coordinates": [[[[-123.0592, 39.0473], [-123.0595, 39.0464], [-123.0591, 39.0465], [-123.0592, 39.0473]]], [[[-123.0584, 39.0467], [-123.0588, 39.0465], [-123.0584, 39.0465], [-123.0584, 39.0467]]], [[[-123.1016, 39.0321], [-123.1019, 39.0319], [-123.1016, 39.0319], [-123.1016, 39.0321]]], [[[-123.0929, 39.0251], [-123.0933, 39.0248], [-123.0929, 39.0248], [-123.0929, 39.0251]]], [[[-123.0926, 39.0248], [-123.0929, 39.0245], [-123.0926, 39.0245], [-123.0926, 39.0248]]], [[[-123.0167, 39.0194], [-123.0167, 39.0189], [-123.016, 39.0186], [-123.016, 39.0192], [-123.0167, 39.0194]]], [[[-123.0167, 39.0189], [-123.0174, 39.0186], [-123.0167, 39.0186], [-123.0167, 39.0189]]], [[[-123.0153, 39.0187], [-123.0156, 39.0184], [-123.0153, 39.0184], [-123.0153, 39.0187]]], [[[-123.0146, 39.0184], [-123.0153, 39.0178], [-123.0142, 39.0179], [-123.0146, 39.0184]]], [[[-123.0174, 39.0181], [-123.0177, 39.0178], [-123.0173, 39.0178], [-123.0174, 39.0181]]], [[[-123.0153, 39.0178], [-123.0156, 39.0176], [-123.0152, 39.0176], [-123.0153, 39.0178]]], [[[-123.0156, 39.0178], [-123.017, 39.0181], [-123.0166, 39.0173], [-123.0156, 39.0178]]], [[[-123.0142, 39.0173], [-123.0145, 39.0171], [-123.0142, 39.0171], [-123.0142, 39.0173]]], [[[-123.0104, 39.0172], [-123.0111, 39.0169], [-123.0104, 39.0169], [-123.0104, 39.0172]]], [[[-123.0342, 39.0144], [-123.0349, 39.0141], [-123.0342, 39.0141], [-123.0342, 39.0144]]]]}, "properties": {"layer": "interior"}}, {"type": "Feature", "geometry": {"type": "Polygon", "coordinates": [[[-123.1016, 39.0321], [-123.1019, 39.0319], [-123.1016, 39.0319], [-123.1016, 39.0321]]]}, "properties": {"layer": "cell", "cell_id": "352_1000", "seed_zone": "352", "elevation_band": "1000–1500 ft"}}, {"type": "Feature", "geometry": {"type": "MultiPolygon", "coordinates": [[[[-123.0929, 39.0251], [-123.0933, 39.0248], [-123.0929, 39.0248], [-123.0929, 39.0251]]], [[[-123.0926, 39.0248], [-123.0929, 39.0245], [-123.0926, 39.0245], [-123.0926, 39.0248]]]]}, "properties": {"layer": "cell", "cell_id": "352_1500", "seed_zone": "352", "elevation_band": "1500–2000 ft"}}, {"type": "Feature", "geometry": {"type": "MultiPolygon", "coordinates": [[[[-123.0146, 39.0184], [-123.0149, 39.0181], [-123.0146, 39.0181], [-123.0146, 39.0184]]], [[[-123.0142, 39.0181], [-123.0146, 39.0179], [-123.0142, 39.0179], [-123.0142, 39.0181]]]]}, "properties": {"layer": "cell", "cell_id": "380_2000", "seed_zone": "380", "elevation_band": "2000–2500 ft"}}, {"type": "Feature", "geometry": {"type": "MultiPolygon", "coordinates": [[[[-123.0167, 39.0194], [-123.0167, 39.0189], [-123.016, 39.0186], [-123.016, 39.0192], [-123.0167, 39.0194]]], [[[-123.0167, 39.0189], [-123.0174, 39.0186], [-123.0167, 39.0186], [-123.0167, 39.0189]]], [[[-123.0153, 39.0187], [-123.0156, 39.0184], [-123.0153, 39.0184], [-123.0153, 39.0187]]], [[[-123.0153, 39.0184], [-123.0153, 39.0178], [-123.0146, 39.0179], [-123.0146, 39.0181], [-123.0153, 39.0184]]], [[[-123.0174, 39.0181], [-123.0177, 39.0178], [-123.0173, 39.0178], [-123.0174, 39.0181]]], [[[-123.0153, 39.0178], [-123.0156, 39.0176], [-123.0152, 39.0176], [-123.0153, 39.0178]]], [[[-123.0156, 39.0178], [-123.017, 39.0181], [-123.0166, 39.0173], [-123.0156, 39.0178]]], [[[-123.0142, 39.0173], [-123.0145, 39.0171], [-123.0142, 39.0171], [-123.0142, 39.0173]]], [[[-123.0104, 39.0172], [-123.0111, 39.0169], [-123.0104, 39.0169], [-123.0104, 39.0172]]], [[[-123.0342, 39.0144], [-123.0349, 39.0141], [-123.0342, 39.0141], [-123.0342, 39.0144]]]]}, "properties": {"layer": "cell", "cell_id": "380_2500", "seed_zone": "380", "elevation_band": "2500–3000 ft"}}, {"type": "Feature", "geometry": {"type": "MultiPolygon", "coordinates": [[[[-123.0592, 39.0473], [-123.0595, 39.0464], [-123.0591, 39.0465], [-123.0592, 39.0473]]], [[[-123.0584, 39.0467], [-123.0588, 39.0465], [-123.0584, 39.0465], [-123.0584, 39.0467]]]]}, "properties": {"layer": "cell", "cell_id": "380_3000", "seed_zone": "380", "elevation_band": "3000–3500 ft"}}]}
