{"type": "FeatureCollection", "features": [{"type": "Feature", "geometry": {"type": "Polygon", "coordinates": [[[-120.9903, 39.0844], [-120.9918, 39.0863], [-120.9939, 39.0868], [-120.993, 39.0872], [-120.9918, 39.0893], [-120.9931, 39.0914], [-120.9919, 39.0926], [-120.9919, 39.0961], [-120.9913, 39.0966], [-120.9924, 39.0979], [-120.9917, 39.0996], [-120.9926, 39.0999], [-120.9913, 39.1013], [-120.9923, 39.1032], [-120.9919, 39.1068], [-120.9932, 39.1071], [-120.9954, 39.1114], [-120.9944, 39.1136], [-120.9949, 39.1154], [-120.994, 39.1169], [-120.9922, 39.1179], [-120.9932, 39.1188], [-120.9919, 39.1231], [-120.9907, 39.1238], [-120.9904, 39.1275], [-120.989, 39.1281], [-120.9884, 39.1299], [-120.9871, 39.1305], [-120.988, 39.131], [-120.987, 39.1328], [-120.9882, 39.1337], [-120.9865, 39.1344], [-120.9863, 39.1332], [-120.9852, 39.135], [-120.9831, 39.1351], [-120.9814, 39.1361], [-120.9796, 39.139], [-120.9802, 39.1397], [-120.9779, 39.1401], [-120.9769, 39.1396], [-120.9777, 39.1389], [-120.9768, 39.139], [-120.9764, 39.1409], [-120.9749, 39.141], [-120.9765, 39.1431], [-120.9745, 39.1436], [-120.9747, 39.1451], [-120.9734, 39.1447], [-120.9726, 39.1452], [-120.974, 39.147], [-120.9726, 39.1481], [-120.9728, 39.1473], [-120.9712, 39.1472], [-120.9721, 39.1452], [-120.9704, 39.1445], [-120.9699, 39.1449], [-120.9693, 39.1436], [-120.9684, 39.1445], [-120.9671, 39.1437], [-120.9673, 39.1415], [-120.9698, 39.141], [-120.9705, 39.1418], [-120.9716, 39.1406], [-120.9697, 39.1406], [-120.9709, 39.1403], [-120.9694, 39.1397], [-120.9697, 39.1387], [-120.9688, 39.1395], [-120.9674, 39.1385], [-120.97, 39.1375], [-120.9707, 39.138], [-120.9701, 39.1365], [-120.9707, 39.1354], [-120.9695, 39.1343], [-120.9703, 39.1336], [-120.9699, 39.1326], [-120.9688, 39.1329], [-120.9682, 39.1322], [-120.9655, 39.1319], [-120.964, 39.1325], [-120.9629, 39.1322], [-120.9643, 39.1316], [-120.9648, 39.1288], [-120.9635, 39.1259], [-120.9647, 39.1228], [-120.9637, 39.1224], [-120.9632, 39.1199], [-120.9656, 39.1187], [-120.9658, 39.1172], [-120.967, 39.1164], [-120.966, 39.1155], [-120.9665, 39.1149], [-120.9656, 39.1132], [-120.9669, 39.113], [-120.9675, 39.1115], [-120.9689, 39.1112], [-120.972, 39.1086], [-120.9741, 39.1057], [-120.9773, 39.1044], [-120.9761, 39.103], [-120.9758, 39.0997], [-120.9769, 39.0989], [-120.9761, 39.0981], [-120.9797, 39.091], [-120.9818, 39.0895], [-120.9837, 39.0865], [-120.9903, 39.0844]]]}, "properties": {"layer": "perimeter"}}, {"type": "Feature", "geometry": {"type": "Polygon", "coordinates": [[[-120.9912, 39.0847], [-120.9918, 39.0863], [-120.9939, 39.0868], [-120.993, 39.0872], [-120.9918, 39.0893], [-120.9931, 39.0914], [-120.9919, 39.0926], [-120.9919, 39.0961], [-120.9913, 39.0966], [-120.9924, 39.0979], [-120.9917, 39.0996], [-120.9926, 39.0999], [-120.9913, 39.1013], [-120.9923, 39.1032], [-120.9919, 39.1068], [-120.9932, 39.1071], [-120.9937, 39.1089], [-120.99, 39.1088], [-120.9899, 39.1107], [-120.9917, 39.1107], [-120.9916, 39.1125], [-120.9954, 39.1125], [-120.9944, 39.1136], [-120.9949, 39.1154], [-120.994, 39.1169], [-120.9922, 39.1179], [-120.9932, 39.1188], [-120.9919, 39.1231], [-120.9907, 39.1238], [-120.9904, 39.1275], [-120.989, 39.1281], [-120.9884, 39.1299], [-120.9871, 39.1305], [-120.988, 39.131], [-120.987, 39.1328], [-120.9882, 39.1337], [-120.9865, 39.1344], [-120.9863, 39.1332], [-120.9852, 39.135], [-120.9831, 39.1351], [-120.9814, 39.1361], [-120.9796, 39.139], [-120.9802, 39.1397], [-120.9779, 39.1401], [-120.9769, 39.1396], [-120.9777, 39.1389], [-120.9768, 39.139], [-120.9764, 39.1409], [-120.9749, 39.141], [-120.9765, 39.1431], [-120.9745, 39.1436], [-120.9747, 39.1451], [-120.9734, 39.1447], [-120.9726, 39.1452], [-120.974, 39.147], [-120.9726, 39.1481], [-120.9728, 39.1473], [-120.9712, 39.1472], [-120.9721, 39.1452], [-120.9704, 39.1445], [-120.9699, 39.1449], [-120.9693, 39.1436], [-120.9684, 39.1445], [-120.9671, 39.1437], [-120.9673, 39.1415], [-120.9698, 39.141], [-120.9705, 39.1418], [-120.9716, 39.1406], [-120.9697, 39.1406], [-120.9709, 39.1403], [-120.9694, 39.1397], [-120.9697, 39.1387], [-120.9688, 39.1395], [-120.9674, 39.1385], [-120.97, 39.1375], [-120.9707, 39.138], [-120.9701, 39.1365], [-120.9707, 39.1354], [-120.9695, 39.1343], [-120.9703, 39.1336], [-120.9699, 39.1326], [-120.9688, 39.1329], [-120.9682, 39.1322], [-120.9655, 39.1319], [-120.964, 39.1325], [-120.9629, 39.1322], [-120.9643, 39.1316], [-120.9648, 39.1288], [-120.9635, 39.1259], [-120.9647, 39.1228], [-120.9637, 39.1224], [-120.9632, 39.1199], [-120.9656, 39.1187], [-120.9658, 39.1172], [-120.967, 39.1164], [-120.966, 39.1155], [-120.9665, 39.1149], [-120.9656, 39.1132], [-120.9669, 39.113], [-120.9675, 39.1115], [-120.9689, 39.1112], [-120.972, 39.1086], [-120.9741, 39.1057], [-120.9773, 39.1044], [-120.9761, 39.103], [-120.9758, 39.0997], [-120.9769, 39.0989], [-120.9761, 39.0981], [-120.9797, 39.091], [-120.9818, 39.0895], [-120.9837, 39.0865], [-120.988, 39.0854], [-120.9886, 39.0846], [-120.9912, 39.0847]], [[-120.9671, 39.1236], [-120.968, 39.1236], [-120.968, 39.1231], [-120.9671, 39.1236]], [[-120.9867, 39.1197], [-120.9869, 39.1161], [-120.9755, 39.1163], [-120.9727, 39.1197], [-120.9726, 39.1235], [-120.9771, 39.1235], [-120.9773, 39.1199], [-120.9867, 39.1197]], [[-120.9872, 39.1088], [-120.9873, 39.11], [-120.9875, 39.1088], [-120.9872, 39.1088]]]}, "properties": {"layer": "retained"}}, {"type": "Feature", "geometry": {"type": "MultiPolygon", "coordinates": [[[[-120.9703, 39.1428], [-120.9706, 39.1423], [-120.9703, 39.1423], [-120.9703, 39.1428]]], [[[-120.971, 39.1423], [-120.9713, 39.142], [-120.971, 39.142], [-120.971, 39.1423]]], [[[-120.9761, 39.1371], [-120.9765, 39.1368], [-120.9761, 39.1368], [-120.9761, 39.1371]]], [[[-120.9778, 39.1352], [-120.9782, 39.1349], [-120.9778, 39.1349], [-120.9778, 39.1352]]], [[[-120.9754, 39.1349], [-120.9757, 39.1347], [-120.9754, 39.1347], [-120.9754, 39.1349]]], [[[-120.966, 39.131], [-120.9663, 39.1307], [-120.966, 39.1307], [-120.966, 39.131]]], [[[-120.9642, 39.1307], [-120.9646, 39.1304], [-120.9642, 39.1304], [-120.9642, 39.1307]]], [[[-120.9698, 39.1304], [-120.9701, 39.1301], [-120.9698, 39.1301], [-120.9698, 39.1304]]], [[[-120.9677, 39.1299], [-120.968, 39.1293], [-120.9677, 39.1293], [-120.9677, 39.1299]]], [[[-120.9795, 39.1295], [-120.9798, 39.1292], [-120.9795, 39.1292], [-120.9795, 39.1295]]], [[[-120.9711, 39.1296], [-120.9715, 39.1293], [-120.9711, 39.1293], [-120.9711, 39.1296]]], [[[-120.9711, 39.129], [-120.9715, 39.1288], [-120.9711, 39.1288], [-120.9711, 39.129]]], [[[-120.9673, 39.1291], [-120.9677, 39.1288], [-120.9673, 39.1288], [-120.9673, 39.1291]]], [[[-120.985, 39.1287], [-120.9854, 39.1281], [-120.985, 39.1281], [-120.985, 39.1287]]], [[[-120.9843, 39.1284], [-120.9847, 39.1281], [-120.9843, 39.1281], [-120.9843, 39.1284]]], [[[-120.9784, 39.1284], [-120.9788, 39.1282], [-120.9784, 39.1282], [-120.9784, 39.1284]]], [[[-120.967, 39.1304], [-120.9677, 39.1299], [-120.967, 39.1299], [-120.9666, 39.1288], [-120.9677, 39.1283], [-120.9666, 39.128], [-120.9656, 39.1296], [-120.967, 39.1304]]], [[[-120.9854, 39.1281], [-120.9857, 39.1278], [-120.9854, 39.1278], [-120.9854, 39.1281]]], [[[-120.968, 39.1282], [-120.9687, 39.128], [-120.968, 39.128], [-120.968, 39.1282]]], [[[-120.967, 39.128], [-120.9673, 39.1274], [-120.967, 39.1274], [-120.967, 39.128]]], [[[-120.9753, 39.1274], [-120.9756, 39.1276], [-120.976, 39.1274], [-120.9753, 39.1274]]], [[[-120.9694, 39.1277], [-120.9697, 39.1274], [-120.9694, 39.1274], [-120.9694, 39.1277]]], [[[-120.9781, 39.1279], [-120.9781, 39.1271], [-120.9763, 39.1274], [-120.9763, 39.1276], [-120.9781, 39.1279]]], [[[-120.968, 39.1277], [-120.9687, 39.1274], [-120.968, 39.1272], [-120.968, 39.1277]]], [[[-120.9652, 39.1277], [-120.9656, 39.1272], [-120.9652, 39.1272], [-120.9652, 39.1277]]], [[[-120.9673, 39.1274], [-120.9676, 39.1269], [-120.9673, 39.1269], [-120.9673, 39.1274]]], [[[-120.9802, 39.1276], [-120.9805, 39.1268], [-120.9787, 39.1265], [-120.9788, 39.1268], [-120.9802, 39.1276]]], [[[-120.9669, 39.1269], [-120.9673, 39.1266], [-120.9669, 39.1266], [-120.9669, 39.1269]]], [[[-120.9808, 39.1268], [-120.9812, 39.1263], [-120.9808, 39.1263], [-120.9808, 39.1268]]], [[[-120.9815, 39.1265], [-120.9822, 39.1262], [-120.9815, 39.1263], [-120.9815, 39.1265]]], [[[-120.9687, 39.1266], [-120.969, 39.1264], [-120.9687, 39.1264], [-120.9687, 39.1266]]], [[[-120.9659, 39.1272], [-120.9666, 39.1261], [-120.9655, 39.1256], [-120.9652, 39.1269], [-120.9659, 39.1272]]], [[[-120.9871, 39.1257], [-120.9874, 39.1254], [-120.9871, 39.1254], [-120.9871, 39.1257]]], [[[-120.9805, 39.1254], [-120.9808, 39.1257], [-120.9815, 39.1254], [-120.9805, 39.1254]]], [[[-120.9798, 39.1257], [-120.9801, 39.1255], [-120.9798, 39.1255], [-120.9798, 39.1257]]], [[[-120.9833, 39.126], [-120.9832, 39.1252], [-120.9829, 39.1252], [-120.9826, 39.1257], [-120.9833, 39.126]]], [[[-120.9819, 39.1254], [-120.9822, 39.1252], [-120.9819, 39.1252], [-120.9819, 39.1254]]], [[[-120.9659, 39.1256], [-120.9662, 39.1253], [-120.9659, 39.1253], [-120.9659, 39.1256]]], [[[-120.9826, 39.1252], [-120.9829, 39.1249], [-120.9825, 39.1249], [-120.9826, 39.1252]]], [[[-120.9687, 39.1253], [-120.969, 39.125], [-120.9687, 39.125], [-120.9687, 39.1253]]], [[[-120.9666, 39.1253], [-120.9669, 39.125], [-120.9666, 39.125], [-120.9666, 39.1253]]], [[[-120.9881, 39.1248], [-120.9884, 39.1243], [-120.9881, 39.1243], [-120.9881, 39.1248]]], [[[-120.9659, 39.1245], [-120.9662, 39.1242], [-120.9659, 39.1242], [-120.9659, 39.1245]]], [[[-120.9659, 39.1239], [-120.9662, 39.1237], [-120.9659, 39.1237], [-120.9659, 39.1239]]], [[[-120.97, 39.1236], [-120.9704, 39.1234], [-120.97, 39.1234], [-120.97, 39.1236]]], [[[-120.9662, 39.1237], [-120.9666, 39.1234], [-120.9662, 39.1234], [-120.9662, 39.1237]]], [[[-120.9655, 39.1237], [-120.9659, 39.1234], [-120.9655, 39.1234], [-120.9655, 39.1237]]], [[[-120.9704, 39.1234], [-120.9714, 39.1228], [-120.9704, 39.1228], [-120.9704, 39.1234]]], [[[-120.9669, 39.1234], [-120.9672, 39.1229], [-120.9662, 39.1226], [-120.9659, 39.1231], [-120.9669, 39.1234]]], [[[-120.9797, 39.1228], [-120.9804, 39.1225], [-120.9797, 39.1225], [-120.9797, 39.1228]]], [[[-120.9891, 39.1229], [-120.9895, 39.1221], [-120.9891, 39.1221], [-120.9891, 39.1229]]], [[[-120.9863, 39.123], [-120.9863, 39.1224], [-120.9856, 39.1222], [-120.9856, 39.1227], [-120.9863, 39.123]]], [[[-120.9721, 39.1228], [-120.9728, 39.1223], [-120.9724, 39.1217], [-120.9714, 39.122], [-120.9721, 39.1228]]], [[[-120.9881, 39.1219], [-120.9884, 39.1216], [-120.9881, 39.1216], [-120.9881, 39.1219]]], [[[-120.9672, 39.122], [-120.9676, 39.1218], [-120.9672, 39.1218], [-120.9672, 39.122]]], [[[-120.9846, 39.1208], [-120.9849, 39.1206], [-120.9846, 39.1206], [-120.9846, 39.1208]]], [[[-120.9683, 39.121], [-120.9686, 39.1207], [-120.9683, 39.1207], [-120.9683, 39.121]]], [[[-120.9689, 39.1207], [-120.9693, 39.1204], [-120.9689, 39.1204], [-120.9689, 39.1207]]], [[[-120.9811, 39.1217], [-120.9807, 39.12], [-120.9801, 39.1201], [-120.9794, 39.1214], [-120.9811, 39.1217]], [[-120.9804, 39.1211], [-120.9801, 39.1214], [-120.9801, 39.1211], [-120.9804, 39.1211]], [[-120.9804, 39.1206], [-120.9801, 39.1209], [-120.9801, 39.1206], [-120.9804, 39.1206]]], [[[-120.9891, 39.1211], [-120.9887, 39.12], [-120.9877, 39.12], [-120.9881, 39.1211], [-120.9891, 39.1211]]], [[[-120.9867, 39.1203], [-120.987, 39.12], [-120.9866, 39.12], [-120.9867, 39.1203]]], [[[-120.9856, 39.1203], [-120.986, 39.12], [-120.9856, 39.12], [-120.9856, 39.1203]]], [[[-120.9797, 39.1201], [-120.98, 39.1198], [-120.9797, 39.1198], [-120.9797, 39.1201]]], [[[-120.971, 39.1199], [-120.9714, 39.1196], [-120.971, 39.1196], [-120.971, 39.1199]]], [[[-120.9898, 39.1194], [-120.9901, 39.1192], [-120.9898, 39.1192], [-120.9898, 39.1194]]], [[[-120.9887, 39.12], [-120.9894, 39.1192], [-120.9887, 39.1189], [-120.9887, 39.12]]], [[[-120.9714, 39.1193], [-120.9727, 39.1193], [-120.9727, 39.1188], [-120.9714, 39.1193]]], [[[-120.9894, 39.1189], [-120.9898, 39.1186], [-120.9894, 39.1186], [-120.9894, 39.1189]]], [[[-120.987, 39.1184], [-120.9873, 39.1181], [-120.987, 39.1181], [-120.987, 39.1184]]], [[[-120.9689, 39.1183], [-120.9693, 39.118], [-120.9689, 39.118], [-120.9689, 39.1183]]], [[[-120.9734, 39.1188], [-120.9734, 39.1177], [-120.9731, 39.1177], [-120.9727, 39.1188], [-120.9734, 39.1188]]], [[[-120.9717, 39.118], [-120.972, 39.1177], [-120.9717, 39.1177], [-120.9717, 39.118]]], [[[-120.9682, 39.118], [-120.9689, 39.1177], [-120.9682, 39.1177], [-120.9682, 39.118]]], [[[-120.9873, 39.1178], [-120.9877, 39.1173], [-120.9873, 39.1173], [-120.9873, 39.1178]]], [[[-120.9925, 39.117], [-120.9929, 39.1167], [-120.9925, 39.1167], [-120.9925, 39.117]]], [[[-120.9727, 39.118], [-120.9731, 39.1163], [-120.971, 39.1163], [-120.971, 39.1169], [-120.972, 39.1169], [-120.9724, 39.1171], [-120.9724, 39.118], [-120.9727, 39.118]], [[-120.9727, 39.1169], [-120.9724, 39.1171], [-120.9724, 39.1169], [-120.9727, 39.1169]]], [[[-120.988, 39.1165], [-120.9883, 39.1162], [-120.988, 39.1162], [-120.988, 39.1165]]], [[[-120.9935, 39.1164], [-120.9932, 39.1159], [-120.9918, 39.1162], [-120.9918, 39.1164], [-120.9935, 39.1164]]], [[[-120.9883, 39.1162], [-120.9887, 39.1159], [-120.9883, 39.1159], [-120.9883, 39.1162]]], [[[-120.979, 39.1163], [-120.9793, 39.116], [-120.979, 39.116], [-120.979, 39.1163]]], [[[-120.9779, 39.1163], [-120.9786, 39.116], [-120.9779, 39.1158], [-120.9779, 39.1163]]], [[[-120.9856, 39.116], [-120.9859, 39.1157], [-120.9855, 39.1157], [-120.9856, 39.116]]], [[[-120.9786, 39.116], [-120.979, 39.1157], [-120.9786, 39.1157], [-120.9786, 39.116]]], [[[-120.971, 39.1161], [-120.9717, 39.1158], [-120.971, 39.1158], [-120.971, 39.1161]]], [[[-120.9852, 39.1162], [-120.9852, 39.1154], [-120.9849, 39.1154], [-120.9845, 39.116], [-120.9852, 39.1162]]], [[[-120.9894, 39.1157], [-120.9897, 39.1154], [-120.9894, 39.1154], [-120.9894, 39.1157]]], [[[-120.9727, 39.1158], [-120.973, 39.1155], [-120.9727, 39.1155], [-120.9727, 39.1158]]], [[[-120.9717, 39.1158], [-120.972, 39.1155], [-120.9717, 39.1155], [-120.9717, 39.1158]]], [[[-120.9876, 39.1154], [-120.988, 39.1151], [-120.9876, 39.1151], [-120.9876, 39.1154]]], [[[-120.972, 39.1155], [-120.9723, 39.1153], [-120.972, 39.1153], [-120.972, 39.1155]]], [[[-120.9703, 39.1155], [-120.9706, 39.1153], [-120.9703, 39.1153], [-120.9703, 39.1155]]], [[[-120.9928, 39.1156], [-120.9925, 39.1148], [-120.9921, 39.1148], [-120.9918, 39.1154], [-120.9928, 39.1156]]], [[[-120.9939, 39.1156], [-120.9946, 39.1153], [-120.9942, 39.1148], [-120.9935, 39.1151], [-120.9939, 39.1156]]], [[[-120.9723, 39.1153], [-120.9727, 39.115], [-120.9723, 39.115], [-120.9723, 39.1153]]], [[[-120.9692, 39.1153], [-120.9703, 39.115], [-120.9692, 39.115], [-120.9692, 39.1153]]], [[[-120.988, 39.1151], [-120.9883, 39.1146], [-120.988, 39.1146], [-120.988, 39.1151]]], [[[-120.9762, 39.1152], [-120.9769, 39.1149], [-120.9762, 39.1147], [-120.9762, 39.1152]]], [[[-120.9852, 39.1149], [-120.9855, 39.1146], [-120.9852, 39.1146], [-120.9852, 39.1149]]], [[[-120.9845, 39.1162], [-120.9838, 39.1144], [-120.9835, 39.1149], [-120.9817, 39.1146], [-120.9807, 39.1157], [-120.981, 39.1163], [-120.9845, 39.1162]], [[-120.9831, 39.116], [-120.9821, 39.116], [-120.9817, 39.1155], [-120.9828, 39.1154], [-120.9831, 39.116]], [[-120.9835, 39.1152], [-120.9828, 39.1154], [-120.9828, 39.1152], [-120.9835, 39.1152]]], [[[-120.9727, 39.115], [-120.973, 39.1144], [-120.9727, 39.1144], [-120.9727, 39.115]]], [[[-120.9855, 39.1146], [-120.9859, 39.1143], [-120.9855, 39.1143], [-120.9855, 39.1146]]], [[[-120.9772, 39.1147], [-120.9775, 39.1144], [-120.9772, 39.1144], [-120.9772, 39.1147]]], [[[-120.9692, 39.1147], [-120.9696, 39.1145], [-120.9692, 39.1145], [-120.9692, 39.1147]]], [[[-120.9911, 39.1148], [-120.9914, 39.1143], [-120.9918, 39.1146], [-120.9925, 39.1143], [-120.9921, 39.114], [-120.9904, 39.1143], [-120.9911, 39.1148]]], [[[-120.9765, 39.1147], [-120.9768, 39.1141], [-120.9765, 39.1141], [-120.9765, 39.1147]]], [[[-120.9775, 39.1144], [-120.9779, 39.1141], [-120.9775, 39.1141], [-120.9775, 39.1144]]], [[[-120.9696, 39.1145], [-120.9699, 39.1142], [-120.9696, 39.1142], [-120.9696, 39.1145]]], [[[-120.9727, 39.1142], [-120.973, 39.1136], [-120.9727, 39.1136], [-120.9727, 39.1142]]], [[[-120.99, 39.1138], [-120.9904, 39.1135], [-120.99, 39.1135], [-120.99, 39.1138]]], [[[-120.9779, 39.1139], [-120.9782, 39.1136], [-120.9779, 39.1136], [-120.9779, 39.1139]]], [[[-120.9834, 39.1144], [-120.9841, 39.1133], [-120.9831, 39.1138], [-120.9824, 39.1133], [-120.9821, 39.1141], [-120.9834, 39.1144]]], [[[-120.9699, 39.1137], [-120.9702, 39.1134], [-120.9699, 39.1134], [-120.9699, 39.1137]]], [[[-120.9723, 39.1136], [-120.9727, 39.1131], [-120.9723, 39.1131], [-120.9723, 39.1136]]], [[[-120.9768, 39.1133], [-120.9772, 39.1128], [-120.9768, 39.1128], [-120.9768, 39.1133]]], [[[-120.9713, 39.1131], [-120.9716, 39.1128], [-120.9713, 39.1128], [-120.9713, 39.1131]]], [[[-120.982, 39.1133], [-120.9824, 39.1125], [-120.9817, 39.1125], [-120.982, 39.1133]]], [[[-120.9845, 39.113], [-120.9845, 39.1125], [-120.9838, 39.1125], [-120.9838, 39.1127], [-120.9845, 39.113]]], [[[-120.9852, 39.1127], [-120.9855, 39.1125], [-120.9852, 39.1125], [-120.9852, 39.1127]]], [[[-120.9793, 39.1128], [-120.9796, 39.1122], [-120.9793, 39.1122], [-120.9793, 39.1128]]], [[[-120.9855, 39.1125], [-120.9858, 39.1122], [-120.9855, 39.1122], [-120.9855, 39.1125]]], [[[-120.9779, 39.1125], [-120.9782, 39.1122], [-120.9779, 39.1122], [-120.9779, 39.1125]]], [[[-120.9709, 39.1128], [-120.9706, 39.112], [-120.9699, 39.112], [-120.9699, 39.1126], [-120.9709, 39.1128]]], [[[-120.981, 39.1122], [-120.9817, 39.1125], [-120.9817, 39.1119], [-120.981, 39.1122]]], [[[-120.9838, 39.1122], [-120.9841, 39.1119], [-120.9838, 39.1119], [-120.9838, 39.1122]]], [[[-120.9786, 39.1122], [-120.9789, 39.112], [-120.9786, 39.112], [-120.9786, 39.1122]]], [[[-120.9747, 39.1123], [-120.9751, 39.112], [-120.9747, 39.112], [-120.9747, 39.1123]]], [[[-120.9723, 39.1131], [-120.9723, 39.1123], [-120.9709, 39.1118], [-120.9709, 39.1123], [-120.9723, 39.1131]]], [[[-120.9796, 39.112], [-120.9799, 39.1117], [-120.9796, 39.1117], [-120.9796, 39.112]]], [[[-120.9695, 39.112], [-120.9699, 39.1118], [-120.9695, 39.1118], [-120.9695, 39.112]]], [[[-120.9738, 39.1166], [-120.9755, 39.1136], [-120.9726, 39.1115], [-120.9723, 39.1123], [-120.9737, 39.1125], [-120.9734, 39.1131], [-120.9741, 39.1134], [-120.9741, 39.1147], [-120.973, 39.1153], [-120.9738, 39.1166]]], [[[-120.982, 39.1119], [-120.9827, 39.1117], [-120.982, 39.1114], [-120.982, 39.1119]]], [[[-120.9761, 39.1117], [-120.9765, 39.1114], [-120.9761, 39.1114], [-120.9761, 39.1117]]], [[[-120.972, 39.1117], [-120.9723, 39.1115], [-120.9719, 39.1115], [-120.972, 39.1117]]], [[[-120.9761, 39.1112], [-120.9765, 39.1109], [-120.9761, 39.1109], [-120.9761, 39.1112]]], [[[-120.9699, 39.1112], [-120.9719, 39.1115], [-120.9723, 39.1107], [-120.9699, 39.1112]]], [[[-120.9744, 39.1109], [-120.9747, 39.1106], [-120.9744, 39.1107], [-120.9744, 39.1109]]], [[[-120.9765, 39.1109], [-120.9771, 39.1104], [-120.9764, 39.1104], [-120.9765, 39.1109]]], [[[-120.9782, 39.1106], [-120.9785, 39.1103], [-120.9782, 39.1104], [-120.9782, 39.1106]]], [[[-120.9747, 39.1106], [-120.9751, 39.1104], [-120.9747, 39.1104], [-120.9747, 39.1106]]], [[[-120.9723, 39.1107], [-120.973, 39.1104], [-120.9723, 39.1104], [-120.9723, 39.1107]]], [[[-120.9862, 39.1108], [-120.9876, 39.1105], [-120.9865, 39.11], [-120.9862, 39.1108]]], [[[-120.9695, 39.1104], [-120.9709, 39.1107], [-120.9709, 39.1101], [-120.9695, 39.1104]]], [[[-120.9785, 39.1103], [-120.9789, 39.1101], [-120.9785, 39.1101], [-120.9785, 39.1103]]], [[[-120.99, 39.1084], [-120.9903, 39.1081], [-120.99, 39.1081], [-120.99, 39.1084]]], [[[-120.9865, 39.1084], [-120.9872, 39.1081], [-120.9865, 39.1081], [-120.9865, 39.1084]]], [[[-120.9872, 39.1078], [-120.9872, 39.1073], [-120.9865, 39.107], [-120.9861, 39.1079], [-120.9872, 39.1078]]], [[[-120.974, 39.1107], [-120.9747, 39.1104], [-120.974, 39.1101], [-120.9744, 39.1096], [-120.9761, 39.1093], [-120.975, 39.109], [-120.975, 39.1082], [-120.9782, 39.109], [-120.9778, 39.1082], [-120.9771, 39.1085], [-120.9771, 39.1074], [-120.9761, 39.1071], [-120.9761, 39.1079], [-120.975, 39.1077], [-120.974, 39.109], [-120.9723, 39.1085], [-120.9726, 39.1093], [-120.9709, 39.1093], [-120.9709, 39.1101], [-120.9723, 39.1104], [-120.9726, 39.1096], [-120.974, 39.1107]], [[-120.9737, 39.1093], [-120.9733, 39.1098], [-120.9733, 39.1093], [-120.9737, 39.1093]], [[-120.9764, 39.1079], [-120.9761, 39.1082], [-120.9761, 39.1079], [-120.9764, 39.1079]]], [[[-120.9785, 39.1074], [-120.9788, 39.1071], [-120.9785, 39.1071], [-120.9785, 39.1074]]], [[[-120.982, 39.1071], [-120.9823, 39.1068], [-120.982, 39.1068], [-120.982, 39.1071]]], [[[-120.9806, 39.1079], [-120.9802, 39.1074], [-120.9813, 39.1074], [-120.9809, 39.1065], [-120.9792, 39.1071], [-120.9795, 39.1079], [-120.9806, 39.1079]]], [[[-120.9788, 39.1071], [-120.9792, 39.1066], [-120.9788, 39.1066], [-120.9788, 39.1071]]], [[[-120.9872, 39.1068], [-120.9875, 39.1065], [-120.9872, 39.1065], [-120.9872, 39.1068]]], [[[-120.9743, 39.1082], [-120.975, 39.1077], [-120.9747, 39.1063], [-120.9736, 39.1066], [-120.9743, 39.1069], [-120.9743, 39.1082]]], [[[-120.99, 39.1081], [-120.991, 39.107], [-120.99, 39.1073], [-120.9889, 39.1062], [-120.9886, 39.107], [-120.99, 39.1081]]], [[[-120.9903, 39.1062], [-120.991, 39.1062], [-120.9913, 39.1059], [-120.9903, 39.1062]]], [[[-120.9903, 39.1059], [-120.9906, 39.1057], [-120.9903, 39.1057], [-120.9903, 39.1059]]], [[[-120.9795, 39.106], [-120.9799, 39.1057], [-120.9795, 39.1058], [-120.9795, 39.106]]], [[[-120.9899, 39.1057], [-120.9903, 39.1054], [-120.9899, 39.1054], [-120.9899, 39.1057]]], [[[-120.976, 39.1063], [-120.9767, 39.1052], [-120.9743, 39.1055], [-120.9747, 39.1063], [-120.976, 39.1063]]], [[[-120.9865, 39.11], [-120.9872, 39.1087], [-120.9868, 39.1089], [-120.9865, 39.1084], [-120.9861, 39.1084], [-120.9858, 39.1087], [-120.9854, 39.1079], [-120.9865, 39.107], [-120.9858, 39.1068], [-120.9865, 39.1065], [-120.9861, 39.1057], [-120.9851, 39.1065], [-120.9847, 39.1052], [-120.984, 39.106], [-120.9823, 39.106], [-120.9819, 39.1049], [-120.9813, 39.106], [-120.9802, 39.1055], [-120.9802, 39.1066], [-120.9813, 39.1063], [-120.9813, 39.1068], [-120.9837, 39.1063], [-120.984, 39.1073], [-120.9823, 39.1071], [-120.982, 39.1076], [-120.9841, 39.1076], [-120.9841, 39.1084], [-120.9855, 39.1087], [-120.9855, 39.1095], [-120.9865, 39.11]], [[-120.9865, 39.1089], [-120.9862, 39.1092], [-120.9862, 39.1089], [-120.9865, 39.1089]], [[-120.9851, 39.1076], [-120.9844, 39.1079], [-120.9844, 39.1076], [-120.9851, 39.1076]]], [[[-120.9785, 39.1071], [-120.9774, 39.106], [-120.9792, 39.1058], [-120.9792, 39.1052], [-120.9778, 39.105], [-120.9764, 39.1066], [-120.9785, 39.1071]]], [[[-120.9861, 39.1054], [-120.9861, 39.1043], [-120.9857, 39.1044], [-120.9854, 39.1054], [-120.9861, 39.1054]]], [[[-120.9819, 39.1047], [-120.9823, 39.1044], [-120.9819, 39.1044], [-120.9819, 39.1047]]], [[[-120.9854, 39.1044], [-120.9857, 39.1041], [-120.9854, 39.1041], [-120.9854, 39.1044]]], [[[-120.9795, 39.1049], [-120.9791, 39.1041], [-120.9774, 39.1036], [-120.9771, 39.1047], [-120.9795, 39.1049]], [[-120.9785, 39.1041], [-120.9778, 39.1044], [-120.9778, 39.1041], [-120.9785, 39.1041]]], [[[-120.984, 39.1041], [-120.984, 39.1033], [-120.9826, 39.1033], [-120.9826, 39.1036], [-120.984, 39.1041]]], [[[-120.9798, 39.1041], [-120.9795, 39.1033], [-120.9784, 39.1036], [-120.9784, 39.1039], [-120.9798, 39.1041]]], [[[-120.992, 39.1038], [-120.992, 39.1032], [-120.9909, 39.1035], [-120.9909, 39.1038], [-120.992, 39.1038]]], [[[-120.9882, 39.1035], [-120.9885, 39.1032], [-120.9882, 39.1033], [-120.9882, 39.1035]]], [[[-120.9816, 39.1038], [-120.9819, 39.103], [-120.9816, 39.103], [-120.9816, 39.1038]]], [[[-120.9909, 39.1032], [-120.9913, 39.103], [-120.9909, 39.103], [-120.9909, 39.1032]]], [[[-120.9857, 39.1033], [-120.9861, 39.103], [-120.9857, 39.103], [-120.9857, 39.1033]]], [[[-120.9764, 39.1031], [-120.977, 39.1028], [-120.9763, 39.1028], [-120.9764, 39.1031]]], [[[-120.9913, 39.1027], [-120.992, 39.1024], [-120.9913, 39.1024], [-120.9913, 39.1027]]], [[[-120.9847, 39.1035], [-120.9847, 39.103], [-120.9857, 39.103], [-120.9857, 39.1022], [-120.9847, 39.1022], [-120.984, 39.103], [-120.9847, 39.1035]]], [[[-120.9774, 39.1023], [-120.9777, 39.102], [-120.9774, 39.102], [-120.9774, 39.1023]]], [[[-120.9899, 39.1024], [-120.9909, 39.1016], [-120.9892, 39.1016], [-120.9899, 39.1024]]], [[[-120.9795, 39.1022], [-120.9798, 39.1017], [-120.9788, 39.1012], [-120.9784, 39.102], [-120.9795, 39.1022]]], [[[-120.986, 39.1008], [-120.9864, 39.1006], [-120.986, 39.1006], [-120.986, 39.1008]]], [[[-120.9829, 39.1009], [-120.9833, 39.1006], [-120.9829, 39.1006], [-120.9829, 39.1009]]], [[[-120.9833, 39.1006], [-120.9836, 39.0998], [-120.9833, 39.0998], [-120.9833, 39.1006]]], [[[-120.9777, 39.1004], [-120.9777, 39.0998], [-120.9767, 39.0998], [-120.9767, 39.1001], [-120.9777, 39.1004]]], [[[-120.9794, 39.1001], [-120.9798, 39.0998], [-120.9794, 39.0998], [-120.9794, 39.1001]]], [[[-120.9812, 39.1033], [-120.9809, 39.1025], [-120.9823, 39.103], [-120.9836, 39.1014], [-120.9836, 39.1011], [-120.9829, 39.1011], [-120.9829, 39.1009], [-120.9822, 39.1006], [-120.9829, 39.1003], [-120.9826, 39.0992], [-120.9815, 39.1001], [-120.9805, 39.1001], [-120.9805, 39.1009], [-120.9808, 39.1009], [-120.9808, 39.1012], [-120.9798, 39.1014], [-120.9802, 39.1017], [-120.9798, 39.103], [-120.9812, 39.1033]], [[-120.9826, 39.1014], [-120.9822, 39.1017], [-120.9822, 39.1014], [-120.9826, 39.1014]], [[-120.9829, 39.1011], [-120.9826, 39.1014], [-120.9826, 39.1011], [-120.9829, 39.1011]], [[-120.9815, 39.1003], [-120.9808, 39.1009], [-120.9808, 39.1003], [-120.9815, 39.1003]]], [[[-120.9784, 39.099], [-120.9787, 39.0993], [-120.9791, 39.099], [-120.9784, 39.099]]], [[[-120.9857, 39.1], [-120.9857, 39.0987], [-120.9853, 39.0987], [-120.985, 39.0992], [-120.9857, 39.1]]], [[[-120.978, 39.099], [-120.9784, 39.0987], [-120.978, 39.0987], [-120.978, 39.099]]], [[[-120.9819, 39.0995], [-120.9825, 39.099], [-120.9825, 39.0984], [-120.9808, 39.0993], [-120.9819, 39.0995]]], [[[-120.9777, 39.0987], [-120.978, 39.0985], [-120.9777, 39.0985], [-120.9777, 39.0987]]], [[[-120.9808, 39.0982], [-120.9811, 39.0979], [-120.9808, 39.0979], [-120.9808, 39.0982]]], [[[-120.9822, 39.0984], [-120.9829, 39.0982], [-120.9825, 39.0976], [-120.9818, 39.0979], [-120.9822, 39.0984]]], [[[-120.9815, 39.0979], [-120.9818, 39.0976], [-120.9815, 39.0976], [-120.9815, 39.0979]]], [[[-120.978, 39.0985], [-120.9787, 39.0979], [-120.9801, 39.0982], [-120.9801, 39.0976], [-120.9784, 39.0974], [-120.978, 39.0985]]], [[[-120.9804, 39.0976], [-120.9815, 39.0974], [-120.9804, 39.0974], [-120.9804, 39.0976]]], [[[-120.977, 39.0977], [-120.9773, 39.0974], [-120.977, 39.0974], [-120.977, 39.0977]]], [[[-120.9797, 39.0971], [-120.9801, 39.0968], [-120.9797, 39.0968], [-120.9797, 39.0971]]], [[[-120.9791, 39.0971], [-120.9794, 39.0968], [-120.979, 39.0968], [-120.9791, 39.0971]]], [[[-120.9801, 39.0968], [-120.9804, 39.0966], [-120.9801, 39.0966], [-120.9801, 39.0968]]], [[[-120.9794, 39.0968], [-120.9797, 39.0966], [-120.9794, 39.0966], [-120.9794, 39.0968]]], [[[-120.9787, 39.0968], [-120.979, 39.0966], [-120.9787, 39.0966], [-120.9787, 39.0968]]], [[[-120.9884, 39.0965], [-120.9888, 39.0962], [-120.9884, 39.0962], [-120.9884, 39.0965]]], [[[-120.987, 39.096], [-120.9874, 39.0957], [-120.987, 39.0957], [-120.987, 39.096]]], [[[-120.9808, 39.096], [-120.9808, 39.0955], [-120.9797, 39.0955], [-120.9797, 39.096], [-120.9808, 39.096]]], [[[-120.9867, 39.0957], [-120.987, 39.0954], [-120.9867, 39.0954], [-120.9867, 39.0957]]], [[[-120.9863, 39.096], [-120.986, 39.0952], [-120.9856, 39.0952], [-120.9856, 39.096], [-120.9863, 39.096]]], [[[-120.9846, 39.0976], [-120.985, 39.0971], [-120.9843, 39.0968], [-120.9849, 39.0968], [-120.9853, 39.0954], [-120.9828, 39.0952], [-120.9829, 39.0957], [-120.9842, 39.096], [-120.9832, 39.0971], [-120.9846, 39.0976]]], [[[-120.9822, 39.0957], [-120.9825, 39.0952], [-120.9822, 39.0952], [-120.9822, 39.0957]]], [[[-120.9891, 39.0954], [-120.9898, 39.0951], [-120.9891, 39.0951], [-120.9891, 39.0954]]], [[[-120.979, 39.0955], [-120.9794, 39.0952], [-120.979, 39.0952], [-120.979, 39.0955]]], [[[-120.9811, 39.0952], [-120.9815, 39.0949], [-120.9811, 39.0949], [-120.9811, 39.0952]]], [[[-120.9815, 39.0949], [-120.9818, 39.0947], [-120.9814, 39.0947], [-120.9815, 39.0949]]], [[[-120.9801, 39.0949], [-120.9804, 39.0947], [-120.9801, 39.0947], [-120.9801, 39.0949]]], [[[-120.9818, 39.0939], [-120.9825, 39.0936], [-120.9818, 39.0933], [-120.9818, 39.0939]]], [[[-120.9825, 39.0936], [-120.9828, 39.0933], [-120.9825, 39.0933], [-120.9825, 39.0936]]], [[[-120.9839, 39.0933], [-120.9842, 39.093], [-120.9839, 39.093], [-120.9839, 39.0933]]], [[[-120.9828, 39.0933], [-120.9832, 39.093], [-120.9828, 39.093], [-120.9828, 39.0933]]], [[[-120.9793, 39.0933], [-120.9797, 39.0931], [-120.9793, 39.0931], [-120.9793, 39.0933]]], [[[-120.9905, 39.093], [-120.9908, 39.0927], [-120.9904, 39.0927], [-120.9905, 39.093]]], [[[-120.9908, 39.0922], [-120.9911, 39.0924], [-120.9915, 39.0922], [-120.9908, 39.0922]]], [[[-120.9839, 39.0928], [-120.9831, 39.092], [-120.9825, 39.0922], [-120.9825, 39.0928], [-120.9839, 39.0928]]], [[[-120.9915, 39.0922], [-120.9918, 39.0919], [-120.9915, 39.0919], [-120.9915, 39.0922]]], [[[-120.9884, 39.0919], [-120.9887, 39.0914], [-120.9883, 39.0914], [-120.9884, 39.0919]]], [[[-120.9911, 39.0916], [-120.9915, 39.0913], [-120.9911, 39.0913], [-120.9911, 39.0916]]], [[[-120.9863, 39.0917], [-120.9866, 39.0914], [-120.9863, 39.0914], [-120.9863, 39.0917]]], [[[-120.9897, 39.0914], [-120.9901, 39.0911], [-120.9897, 39.0911], [-120.9897, 39.0914]]], [[[-120.987, 39.0914], [-120.9873, 39.0911], [-120.987, 39.0911], [-120.987, 39.0914]]], [[[-120.9859, 39.0914], [-120.9863, 39.0911], [-120.9859, 39.0911], [-120.9859, 39.0914]]], [[[-120.9838, 39.0914], [-120.9842, 39.0911], [-120.9838, 39.0911], [-120.9838, 39.0914]]], [[[-120.9831, 39.0911], [-120.9835, 39.0909], [-120.9831, 39.0909], [-120.9831, 39.0911]]], [[[-120.9863, 39.0908], [-120.9866, 39.0906], [-120.9863, 39.0906], [-120.9863, 39.0908]]], [[[-120.9835, 39.0909], [-120.9838, 39.0903], [-120.9835, 39.0903], [-120.9835, 39.0909]]], [[[-120.9863, 39.0903], [-120.9866, 39.09], [-120.9862, 39.09], [-120.9863, 39.0903]]], [[[-120.9852, 39.0909], [-120.9856, 39.09], [-120.9849, 39.0898], [-120.9845, 39.0906], [-120.9852, 39.0909]]], [[[-120.9866, 39.09], [-120.9869, 39.0898], [-120.9866, 39.0898], [-120.9866, 39.09]]], [[[-120.9859, 39.09], [-120.9862, 39.0898], [-120.9859, 39.0898], [-120.9859, 39.09]]], [[[-120.9831, 39.0901], [-120.9835, 39.0898], [-120.9831, 39.0898], [-120.9831, 39.0901]]], [[[-120.9852, 39.0898], [-120.9855, 39.0895], [-120.9852, 39.0895], [-120.9852, 39.0898]]], [[[-120.9828, 39.0898], [-120.9831, 39.0895], [-120.9828, 39.0895], [-120.9828, 39.0898]]], [[[-120.9911, 39.0895], [-120.9914, 39.0892], [-120.9911, 39.0892], [-120.9911, 39.0895]]], [[[-120.9876, 39.0895], [-120.988, 39.0892], [-120.9876, 39.0892], [-120.9876, 39.0895]]], [[[-120.9845, 39.0895], [-120.9848, 39.0892], [-120.9845, 39.0892], [-120.9845, 39.0895]]], [[[-120.9842, 39.0901], [-120.9842, 39.089], [-120.9838, 39.089], [-120.9835, 39.0898], [-120.9842, 39.0901]]], [[[-120.9848, 39.089], [-120.9852, 39.0887], [-120.9848, 39.0887], [-120.9848, 39.089]]], [[[-120.9862, 39.0887], [-120.9866, 39.0884], [-120.9862, 39.0884], [-120.9862, 39.0887]]], [[[-120.9852, 39.0887], [-120.9855, 39.0884], [-120.9852, 39.0884], [-120.9852, 39.0887]]], [[[-120.9862, 39.0879], [-120.9866, 39.0876], [-120.9862, 39.0876], [-120.9862, 39.0879]]], [[[-120.9911, 39.087], [-120.9914, 39.0868], [-120.9911, 39.0868], [-120.9911, 39.087]]]]}, "properties": {"layer": "high_severity"}}, {"type": "Feature", "geometry": {"type": "MultiPolygon", "coordinates": [[[[-120.9673, 39.1301], [-120.967, 39.1293], [-120.9666, 39.1293], [-120.9663, 39.1302], [-120.9673, 39.1301]]], [[[-120.968, 39.1277], [-120.9683, 39.1274], [-120.968, 39.1274], [-120.968, 39.1277]]], [[[-120.9687, 39.1266], [-120.969, 39.1264], [-120.9687, 39.1264], [-120.9687, 39.1266]]], [[[-120.97, 39.1236], [-120.9704, 39.1234], [-120.97, 39.1234], [-120.97, 39.1236]]], [[[-120.9704, 39.1234], [-120.9714, 39.1228], [-120.9704, 39.1228], [-120.9704, 39.1234]]], [[[-120.9714, 39.122], [-120.9728, 39.1223], [-120.9724, 39.1217], [-120.9714, 39.122]]], [[[-120.9801, 39.1217], [-120.9801, 39.1211], [-120.9794, 39.1211], [-120.9794, 39.1214], [-120.9801, 39.1217]]], [[[-120.9845, 39.116], [-120.9849, 39.1157], [-120.9845, 39.1157], [-120.9845, 39.116]]], [[[-120.981, 39.1163], [-120.9845, 39.116], [-120.9842, 39.116], [-120.9842, 39.1152], [-120.9838, 39.1152], [-120.9838, 39.1144], [-120.9835, 39.1149], [-120.9817, 39.1146], [-120.9807, 39.1157], [-120.981, 39.1163]], [[-120.9831, 39.116], [-120.9821, 39.116], [-120.9817, 39.1155], [-120.9828, 39.1154], [-120.9831, 39.116]], [[-120.9835, 39.1152], [-120.9828, 39.1154], [-120.9828, 39.1152], [-120.9835, 39.1152]]], [[[-120.9834, 39.1144], [-120.9834, 39.1138], [-120.9821, 39.1138], [-120.9824, 39.1144], [-120.9834, 39.1144]]], [[[-120.981, 39.1125], [-120.9813, 39.1122], [-120.981, 39.1122], [-120.981, 39.1125]]], [[[-120.9813, 39.1122], [-120.9817, 39.1119], [-120.9813, 39.1119], [-120.9813, 39.1122]]], [[[-120.9747, 39.1088], [-120.975, 39.1085], [-120.9747, 39.1085], [-120.9747, 39.1088]]], [[[-120.975, 39.1082], [-120.9754, 39.1077], [-120.975, 39.1077], [-120.975, 39.1082]]], [[[-120.9844, 39.1073], [-120.9847, 39.1071], [-120.9844, 39.1071], [-120.9844, 39.1073]]], [[[-120.9774, 39.1068], [-120.9785, 39.1066], [-120.9774, 39.1063], [-120.9774, 39.1068]]], [[[-120.9826, 39.1063], [-120.983, 39.106], [-120.9826, 39.106], [-120.9826, 39.1063]]], [[[-120.983, 39.106], [-120.9837, 39.1057], [-120.983, 39.1057], [-120.983, 39.106]]], [[[-120.9823, 39.106], [-120.9823, 39.1055], [-120.9812, 39.1055], [-120.9812, 39.1057], [-120.9823, 39.106]]], [[[-120.9771, 39.1063], [-120.9781, 39.1058], [-120.9771, 39.1055], [-120.9771, 39.1063]]], [[[-120.9781, 39.1058], [-120.9785, 39.1055], [-120.9781, 39.1055], [-120.9781, 39.1058]]], [[[-120.9847, 39.1068], [-120.9851, 39.1062], [-120.9844, 39.1052], [-120.9837, 39.1063], [-120.9847, 39.1068]]], [[[-120.9816, 39.1036], [-120.9819, 39.103], [-120.9816, 39.103], [-120.9816, 39.1036]]], [[[-120.9812, 39.1033], [-120.9809, 39.1025], [-120.9822, 39.1014], [-120.9798, 39.1025], [-120.9798, 39.103], [-120.9812, 39.1033]]], [[[-120.9833, 39.1014], [-120.9836, 39.1011], [-120.9833, 39.1011], [-120.9833, 39.1014]]], [[[-120.9822, 39.1009], [-120.9826, 39.1011], [-120.9829, 39.1009], [-120.9822, 39.1009]]], [[[-120.9826, 39.1003], [-120.9826, 39.0992], [-120.9822, 39.0993], [-120.9819, 39.0998], [-120.9826, 39.1003]]], [[[-120.9832, 39.0968], [-120.9836, 39.0965], [-120.9832, 39.0965], [-120.9832, 39.0968]]]]}, "properties": {"layer": "interior"}}, {"type": "Feature", "geometry": {"type": "MultiPolygon", "coordinates": [[[[-120.981, 39.1125], [-120.9813, 39.1122], [-120.981, 39.1122], [-120.981, 39.1125]]], [[[-120.9813, 39.1122], [-120.9817, 39.1119], [-120.9813, 39.1119], [-120.9813, 39.1122]]]]}, "properties": {"layer": "cell", "cell_id": "525_1500", "seed_zone": "525", "elevation_band": "1500–2000 ft"}}, {"type": "Feature", "geometry": {"type": "MultiPolygon", "coordinates": [[[[-120.9673, 39.1301], [-120.967, 39.1293], [-120.9666, 39.1293], [-120.9663, 39.1302], [-120.9673, 39.1301]]], [[[-120.968, 39.1277], [-120.9683, 39.1274], [-120.968, 39.1274], [-120.968, 39.1277]]], [[[-120.9687, 39.1266], [-120.969, 39.1264], [-120.9687, 39.1264], [-120.9687, 39.1266]]], [[[-120.97, 39.1236], [-120.9704, 39.1234], [-120.97, 39.1234], [-120.97, 39.1236]]], [[[-120.9704, 39.1234], [-120.9714, 39.1228], [-120.9704, 39.1228], [-120.9704, 39.1234]]], [[[-120.9714, 39.122], [-120.9728, 39.1223], [-120.9724, 39.1217], [-120.9714, 39.122]]], [[[-120.9801, 39.1217], [-120.9801, 39.1211], [-120.9794, 39.1211], [-120.9794, 39.1214], [-120.9801, 39.1217]]], [[[-120.9845, 39.116], [-120.9849, 39.1157], [-120.9845, 39.1157], [-120.9845, 39.116]]], [[[-120.981, 39.1163], [-120.9845, 39.116], [-120.9842, 39.116], [-120.9842, 39.1152], [-120.9838, 39.1152], [-120.9838, 39.1144], [-120.9835, 39.1149], [-120.9817, 39.1146], [-120.9807, 39.1157], [-120.981, 39.1163]], [[-120.9831, 39.116], [-120.9821, 39.116], [-120.9817, 39.1155], [-120.9828, 39.1154], [-120.9831, 39.116]], [[-120.9835, 39.1152], [-120.9828, 39.1154], [-120.9828, 39.1152], [-120.9835, 39.1152]]], [[[-120.9834, 39.1144], [-120.9834, 39.1138], [-120.9821, 39.1138], [-120.9824, 39.1144], [-120.9834, 39.1144]]], [[[-120.9747, 39.1088], [-120.975, 39.1085], [-120.9747, 39.1085], [-120.9747, 39.1088]]], [[[-120.975, 39.1082], [-120.9754, 39.1077], [-120.975, 39.1077], [-120.975, 39.1082]]], [[[-120.9844, 39.1073], [-120.9847, 39.1071], [-120.9844, 39.1071], [-120.9844, 39.1073]]], [[[-120.9774, 39.1068], [-120.9785, 39.1066], [-120.9774, 39.1063], [-120.9774, 39.1068]]], [[[-120.9826, 39.1063], [-120.983, 39.106], [-120.9826, 39.106], [-120.9826, 39.1063]]], [[[-120.983, 39.106], [-120.9837, 39.1057], [-120.983, 39.1057], [-120.983, 39.106]]], [[[-120.9823, 39.106], [-120.9823, 39.1055], [-120.9812, 39.1055], [-120.9812, 39.1057], [-120.9823, 39.106]]], [[[-120.9771, 39.1063], [-120.9781, 39.1058], [-120.9771, 39.1055], [-120.9771, 39.1063]]], [[[-120.9781, 39.1058], [-120.9785, 39.1055], [-120.9781, 39.1055], [-120.9781, 39.1058]]], [[[-120.9847, 39.1068], [-120.9851, 39.1062], [-120.9844, 39.1052], [-120.9837, 39.1063], [-120.9847, 39.1068]]], [[[-120.9816, 39.1036], [-120.9819, 39.103], [-120.9816, 39.103], [-120.9816, 39.1036]]], [[[-120.9812, 39.1033], [-120.9809, 39.1025], [-120.9822, 39.1014], [-120.9798, 39.1025], [-120.9798, 39.103], [-120.9812, 39.1033]]], [[[-120.9833, 39.1014], [-120.9836, 39.1011], [-120.9833, 39.1011], [-120.9833, 39.1014]]], [[[-120.9822, 39.1009], [-120.9826, 39.1011], [-120.9829, 39.1009], [-120.9822, 39.1009]]], [[[-120.9826, 39.1003], [-120.9826, 39.0992], [-120.9822, 39.0993], [-120.9819, 39.0998], [-120.9826, 39.1003]]], [[[-120.9832, 39.0968], [-120.9836, 39.0965], [-120.9832, 39.0965], [-120.9832, 39.0968]]]]}, "properties": {"layer": "cell", "cell_id": "525_2000", "seed_zone": "525", "elevation_band": "2000–2500 ft"}}]}
