{"type": "FeatureCollection", "features": [{"type": "Feature", "geometry": {"type": "Polygon", "coordinates": [[[-121.2521, 37.4656], [-121.2539, 37.4651], [-121.2517, 37.4621], [-121.255, 37.4589], [-121.2573, 37.4579], [-121.261, 37.4597], [-121.2618, 37.4621], [-121.267, 37.4679], [-121.268, 37.4675], [-121.2692, 37.465], [-121.2703, 37.4646], [-121.2753, 37.4677], [-121.2773, 37.472], [-121.2772, 37.4755], [-121.2743, 37.4753], [-121.2745, 37.4769], [-121.2833, 37.4833], [-121.2833, 37.4843], [-121.28, 37.4867], [-121.2757, 37.4832], [-121.271, 37.4878], [-121.2687, 37.4884], [-121.2673, 37.4898], [-121.2574, 37.4859], [-121.254, 37.4854], [-121.2442, 37.4875], [-121.2421, 37.4872], [-121.238, 37.4846], [-121.2321, 37.4832], [-121.2305, 37.4809], [-121.2298, 37.476], [-121.2334, 37.4758], [-121.2356, 37.4739], [-121.2389, 37.4742], [-121.2405, 37.4731], [-121.2468, 37.4657], [-121.2498, 37.4647], [-121.2521, 37.4656]]]}, "properties": {"layer": "perimeter"}}, {"type": "Feature", "geometry": {"type": "Polygon", "coordinates": [[[-121.2529, 37.4658], [-121.2539, 37.4651], [-121.2517, 37.4621], [-121.255, 37.4589], [-121.2573, 37.4579], [-121.261, 37.4597], [-121.2618, 37.4621], [-121.267, 37.4679], [-121.27, 37.4645], [-121.275, 37.4675], [-121.2773, 37.472], [-121.2773, 37.4752], [-121.2766, 37.4756], [-121.2748, 37.475], [-121.2742, 37.4763], [-121.275, 37.4775], [-121.2833, 37.4833], [-121.283, 37.4846], [-121.28, 37.4867], [-121.2757, 37.4832], [-121.271, 37.4878], [-121.2687, 37.4884], [-121.2673, 37.4898], [-121.2574, 37.4859], [-121.254, 37.4854], [-121.2442, 37.4875], [-121.2421, 37.4872], [-121.238, 37.4846], [-121.2321, 37.4832], [-121.2305, 37.4809], [-121.2298, 37.476], [-121.2334, 37.4758], [-121.2356, 37.4739], [-121.2384, 37.4744], [-121.2401, 37.4735], [-121.2468, 37.4657], [-121.2498, 37.4647], [-121.2529, 37.4658]]]}, "properties": {"layer": "retained"}}]}
