{"type": "FeatureCollection", "features": [{"type": "Feature", "geometry": {"type": "MultiPolygon", "coordinates": [[[[-119.524, 37.9463], [-119.5241, 37.9461], [-119.5241, 37.9463], [-119.524, 37.9463]]], [[[-119.5154, 37.9475], [-119.5152, 37.9479], [-119.5145, 37.948], [-119.5145, 37.9476], [-119.5154, 37.9475]]], [[[-119.5133, 37.9476], [-119.5136, 37.9477], [-119.5136, 37.9478], [-119.5133, 37.9476]]], [[[-119.556, 37.948], [-119.5563, 37.9481], [-119.5561, 37.9482], [-119.556, 37.948]]], [[[-119.5246, 37.9491], [-119.525, 37.949], [-119.525, 37.9491], [-119.5246, 37.9491]]], [[[-119.5556, 37.9502], [-119.5558, 37.9502], [-119.5556, 37.9503], [-119.5556, 37.9502]]], [[[-119.5574, 37.9516], [-119.5573, 37.9515], [-119.5574, 37.9516], [-119.5574, 37.9516]]], [[[-119.5322, 37.9524], [-119.5318, 37.9523], [-119.5321, 37.9523], [-119.5322, 37.9524]]], [[[-119.5301, 37.9796], [-119.5259, 37.9787], [-119.5253, 37.9764], [-119.5226, 37.9781], [-119.5215, 37.9775], [-119.5209, 37.979], [-119.5196, 37.9791], [-119.5202, 37.9784], [-119.5193, 37.9779], [-119.5203, 37.9774], [-119.5203, 37.9751], [-119.5189, 37.9744], [-119.516, 37.9745], [-119.5185, 37.9742], [-119.5187, 37.9723], [-119.5205, 37.9716], [-119.5185, 37.9713], [-119.5183, 37.9702], [-119.5195, 37.9693], [-119.5184, 37.9685], [-119.5164, 37.9702], [-119.5167, 37.9707], [-119.5147, 37.9709], [-119.5147, 37.9702], [-119.5122, 37.9705], [-119.511, 37.9699], [-119.5118, 37.9695], [-119.5107, 37.9698], [-119.5117, 37.9706], [-119.5109, 37.971], [-119.5093, 37.971], [-119.5097, 37.9705], [-119.5095, 37.9703], [-119.507, 37.9708], [-119.5059, 37.9704], [-119.508, 37.9696], [-119.508, 37.9686], [-119.5095, 37.9686], [-119.5095, 37.9681], [-119.5082, 37.9678], [-119.5091, 37.9663], [-119.5112, 37.9653], [-119.5107, 37.9637], [-119.5145, 37.9627], [-119.5131, 37.9625], [-119.5136, 37.9618], [-119.5102, 37.9621], [-119.5114, 37.9613], [-119.51, 37.9609], [-119.511, 37.9592], [-119.5154, 37.9582], [-119.5151, 37.9577], [-119.5122, 37.958], [-119.5119, 37.9561], [-119.5099, 37.9557], [-119.5071, 37.9573], [-119.5067, 37.9584], [-119.5055, 37.9581], [-119.5036, 37.9602], [-119.5029, 37.9591], [-119.5023, 37.9605], [-119.5002, 37.9607], [-119.5006, 37.9599], [-119.4982, 37.9605], [-119.4976, 37.9618], [-119.4996, 37.9609], [-119.5014, 37.9613], [-119.4985, 37.9624], [-119.5009, 37.9663], [-119.5003, 37.9666], [-119.4989, 37.9657], [-119.4976, 37.9657], [-119.4976, 37.9664], [-119.4988, 37.9665], [-119.4985, 37.967], [-119.4956, 37.9673], [-119.4946, 37.9688], [-119.4937, 37.9687], [-119.4944, 37.9684], [-119.4939, 37.9674], [-119.4955, 37.967], [-119.4938, 37.9668], [-119.4936, 37.9662], [-119.4971, 37.9646], [-119.4966, 37.9647], [-119.4963, 37.963], [-119.4949, 37.9637], [-119.4956, 37.9622], [-119.4904, 37.9624], [-119.4919, 37.9628], [-119.4905, 37.9641], [-119.4921, 37.9644], [-119.4912, 37.9655], [-119.4897, 37.9651], [-119.4896, 37.9643], [-119.4886, 37.9643], [-119.4872, 37.9655], [-119.4852, 37.9659], [-119.4868, 37.9652], [-119.4858, 37.9651], [-119.4857, 37.9644], [-119.4872, 37.9645], [-119.4886, 37.9633], [-119.4883, 37.9629], [-119.4868, 37.9633], [-119.4889, 37.962], [-119.4871, 37.9614], [-119.4889, 37.9607], [-119.4892, 37.9598], [-119.492, 37.959], [-119.4905, 37.9579], [-119.492, 37.956], [-119.4951, 37.9554], [-119.4938, 37.9561], [-119.494, 37.9567], [-119.4929, 37.9568], [-119.4936, 37.9569], [-119.4933, 37.9585], [-119.4979, 37.9558], [-119.4966, 37.9557], [-119.4976, 37.954], [-119.499, 37.9542], [-119.498, 37.9554], [-119.4995, 37.9552], [-119.4986, 37.9556], [-119.4985, 37.9567], [-119.5007, 37.9556], [-119.502, 37.9558], [-119.5021, 37.9547], [-119.5006, 37.9547], [-119.5021, 37.9545], [-119.5, 37.9538], [-119.5006, 37.9529], [-119.5002, 37.9524], [-119.5025, 37.9517], [-119.5015, 37.9512], [-119.5023, 37.9509], [-119.5027, 37.9492], [-119.5048, 37.9486], [-119.5048, 37.9481], [-119.5087, 37.9475], [-119.509, 37.9481], [-119.5081, 37.9485], [-119.5098, 37.9484], [-119.5083, 37.9489], [-119.5088, 37.9491], [-119.5125, 37.9477], [-119.5146, 37.9482], [-119.5203, 37.9451], [-119.5209, 37.9466], [-119.5239, 37.9458], [-119.5236, 37.9461], [-119.5252, 37.9469], [-119.5257, 37.9483], [-119.5239, 37.9487], [-119.5222, 37.9481], [-119.5224, 37.9476], [-119.5176, 37.9484], [-119.5194, 37.9487], [-119.5153, 37.95], [-119.5161, 37.9496], [-119.5155, 37.9494], [-119.5148, 37.9508], [-119.5216, 37.95], [-119.5239, 37.9508], [-119.5248, 37.9518], [-119.5274, 37.952], [-119.5291, 37.9533], [-119.5294, 37.9526], [-119.533, 37.9529], [-119.5343, 37.9517], [-119.5343, 37.9509], [-119.5332, 37.9508], [-119.5353, 37.9465], [-119.5347, 37.9457], [-119.5369, 37.9466], [-119.5406, 37.9459], [-119.5442, 37.9437], [-119.5449, 37.945], [-119.5469, 37.9446], [-119.5479, 37.9459], [-119.5528, 37.9459], [-119.5542, 37.947], [-119.5567, 37.9465], [-119.5561, 37.9476], [-119.5552, 37.9477], [-119.5559, 37.9488], [-119.5547, 37.9514], [-119.5556, 37.9512], [-119.556, 37.9519], [-119.5582, 37.9516], [-119.5575, 37.9523], [-119.5584, 37.9546], [-119.5549, 37.954], [-119.556, 37.9559], [-119.5537, 37.9581], [-119.551, 37.9585], [-119.5507, 37.9614], [-119.5499, 37.9611], [-119.5475, 37.9622], [-119.5467, 37.9637], [-119.5447, 37.964], [-119.5435, 37.9631], [-119.5426, 37.964], [-119.5395, 37.9641], [-119.5394, 37.9653], [-119.5405, 37.9662], [-119.5389, 37.967], [-119.5383, 37.9686], [-119.5366, 37.9687], [-119.535, 37.9705], [-119.5342, 37.9739], [-119.533, 37.975], [-119.5316, 37.9749], [-119.5321, 37.9772], [-119.5332, 37.9777], [-119.5315, 37.9779], [-119.5322, 37.979], [-119.531, 37.9789], [-119.5301, 37.9796]], [[-119.5029, 37.9513], [-119.5027, 37.9517], [-119.5031, 37.9514], [-119.5029, 37.9513]], [[-119.5185, 37.9469], [-119.5199, 37.9468], [-119.5195, 37.9462], [-119.5185, 37.9469]]], [[[-119.5188, 37.9694], [-119.5186, 37.9693], [-119.5189, 37.9693], [-119.5188, 37.9694]]], [[[-119.5192, 37.972], [-119.5189, 37.9716], [-119.5193, 37.9716], [-119.5192, 37.972]]], [[[-119.5126, 37.9721], [-119.513, 37.972], [-119.5131, 37.9722], [-119.5126, 37.9721]]], [[[-119.5171, 37.9742], [-119.5167, 37.9743], [-119.5165, 37.9741], [-119.5171, 37.9742]]], [[[-119.5187, 37.9772], [-119.5177, 37.9775], [-119.5185, 37.977], [-119.5187, 37.9772]]], [[[-119.5215, 37.9778], [-119.5216, 37.9779], [-119.5216, 37.978], [-119.5215, 37.9778]]], [[[-119.5234, 37.9785], [-119.5231, 37.9787], [-119.5231, 37.9785], [-119.5234, 37.9785]]], [[[-119.5232, 37.9832], [-119.5239, 37.9826], [-119.5235, 37.9816], [-119.526, 37.9816], [-119.5253, 37.9819], [-119.526, 37.9827], [-119.5253, 37.9834], [-119.5232, 37.9832]]], [[[-119.5232, 37.9829], [-119.5232, 37.983], [-119.5231, 37.9829], [-119.5232, 37.9829]]], [[[-119.5244, 37.9918], [-119.5254, 37.9918], [-119.5256, 37.9922], [-119.5246, 37.9921], [-119.5244, 37.9918]]], [[[-119.502, 37.9518], [-119.5024, 37.9517], [-119.502, 37.9518], [-119.502, 37.9518]]], [[[-119.4993, 37.9531], [-119.5, 37.9527], [-119.5002, 37.9528], [-119.4993, 37.9531]]], [[[-119.4994, 37.9539], [-119.4998, 37.9534], [-119.4999, 37.954], [-119.4994, 37.9539]]], [[[-119.5011, 37.9555], [-119.5008, 37.9551], [-119.5015, 37.9552], [-119.5011, 37.9555]]], [[[-119.5109, 37.9581], [-119.5115, 37.9583], [-119.5109, 37.9584], [-119.5109, 37.9581]]], [[[-119.4903, 37.9591], [-119.49, 37.9582], [-119.4909, 37.9587], [-119.4903, 37.9591]]], [[[-119.4907, 37.9591], [-119.4901, 37.9595], [-119.49, 37.9594], [-119.4907, 37.9591]]], [[[-119.5086, 37.9599], [-119.509, 37.9598], [-119.5087, 37.9601], [-119.5086, 37.9599]]], [[[-119.5091, 37.9604], [-119.5095, 37.9602], [-119.5094, 37.9606], [-119.5091, 37.9604]]], [[[-119.5025, 37.9603], [-119.5028, 37.9605], [-119.5026, 37.9605], [-119.5025, 37.9603]]], [[[-119.4884, 37.9604], [-119.4876, 37.9603], [-119.4883, 37.9602], [-119.4884, 37.9604]]], [[[-119.4872, 37.9619], [-119.4872, 37.9618], [-119.4873, 37.9618], [-119.4872, 37.9619]]], [[[-119.5126, 37.9628], [-119.5117, 37.9628], [-119.5125, 37.9626], [-119.5126, 37.9628]]], [[[-119.4841, 37.9626], [-119.4835, 37.9631], [-119.4835, 37.9624], [-119.4841, 37.9626]]], [[[-119.4932, 37.9633], [-119.493, 37.9638], [-119.4928, 37.9635], [-119.4932, 37.9633]]], [[[-119.489, 37.9647], [-119.4893, 37.9648], [-119.489, 37.9649], [-119.489, 37.9647]]], [[[-119.489, 37.9655], [-119.4893, 37.9654], [-119.4892, 37.9656], [-119.489, 37.9655]]], [[[-119.4933, 37.9671], [-119.4935, 37.967], [-119.4934, 37.9671], [-119.4933, 37.9671]]], [[[-119.5057, 37.9721], [-119.5055, 37.9712], [-119.5059, 37.9707], [-119.5067, 37.9712], [-119.5057, 37.9721]]]]}, "properties": {"layer": "perimeter"}}]}
