{"type": "FeatureCollection", "features": [{"type": "Feature", "geometry": {"type": "MultiPolygon", "coordinates": [[[[-122.2944, 40.8781], [-122.2944, 40.8768], [-122.295, 40.8763], [-122.2957, 40.877], [-122.2954, 40.8785], [-122.2944, 40.8781]]], [[[-122.3946, 40.9605], [-122.3891, 40.9596], [-122.3884, 40.9588], [-122.3862, 40.9593], [-122.3869, 40.9583], [-122.3856, 40.958], [-122.3848, 40.9585], [-122.3854, 40.9599], [-122.3829, 40.9609], [-122.3784, 40.9588], [-122.3763, 40.9594], [-122.3714, 40.959], [-122.3715, 40.9581], [-122.3705, 40.9579], [-122.3709, 40.9568], [-122.3774, 40.9556], [-122.3788, 40.9547], [-122.3823, 40.9545], [-122.3775, 40.9534], [-122.3765, 40.9544], [-122.3744, 40.9541], [-122.3725, 40.9548], [-122.3718, 40.956], [-122.3697, 40.9564], [-122.3686, 40.9578], [-122.3664, 40.9583], [-122.365, 40.9575], [-122.364, 40.9594], [-122.3646, 40.96], [-122.3624, 40.9604], [-122.3621, 40.9595], [-122.3639, 40.9584], [-122.3611, 40.9578], [-122.3613, 40.9569], [-122.3637, 40.9566], [-122.3637, 40.9556], [-122.3623, 40.9544], [-122.3621, 40.9522], [-122.3598, 40.9519], [-122.3597, 40.9524], [-122.3583, 40.9526], [-122.3573, 40.9516], [-122.3534, 40.9505], [-122.3524, 40.9496], [-122.3532, 40.9491], [-122.3531, 40.9482], [-122.3497, 40.9475], [-122.3503, 40.947], [-122.3487, 40.9452], [-122.3513, 40.9448], [-122.3485, 40.944], [-122.3443, 40.9415], [-122.3446, 40.9395], [-122.3439, 40.9393], [-122.3456, 40.936], [-122.3442, 40.9342], [-122.3446, 40.9328], [-122.343, 40.9319], [-122.3424, 40.9327], [-122.3414, 40.932], [-122.3425, 40.9304], [-122.3396, 40.93], [-122.3394, 40.9293], [-122.3376, 40.93], [-122.3372, 40.9289], [-122.3364, 40.9298], [-122.3337, 40.9295], [-122.3306, 40.9271], [-122.33, 40.9277], [-122.3305, 40.9288], [-122.3294, 40.9289], [-122.3283, 40.928], [-122.3285, 40.9272], [-122.3258, 40.9255], [-122.328, 40.9247], [-122.328, 40.923], [-122.3378, 40.9216], [-122.3356, 40.9193], [-122.3336, 40.9193], [-122.3331, 40.9184], [-122.337, 40.9176], [-122.336, 40.9168], [-122.3361, 40.9157], [-122.3379, 40.9157], [-122.3388, 40.9149], [-122.338, 40.9142], [-122.3371, 40.9149], [-122.3364, 40.9137], [-122.3339, 40.9129], [-122.3254, 40.9131], [-122.3257, 40.9104], [-122.3287, 40.9039], [-122.3272, 40.898], [-122.3259, 40.897], [-122.3268, 40.896], [-122.3254, 40.8923], [-122.3191, 40.889], [-122.3159, 40.8882], [-122.3124, 40.8887], [-122.3085, 40.8869], [-122.3111, 40.8845], [-122.3127, 40.8843], [-122.3109, 40.8822], [-122.3109, 40.8792], [-122.309, 40.8779], [-122.308, 40.8753], [-122.3092, 40.8735], [-122.3083, 40.8719], [-122.3108, 40.8709], [-122.3102, 40.8692], [-122.312, 40.8683], [-122.3126, 40.8628], [-122.3163, 40.8598], [-122.3152, 40.859], [-122.3174, 40.8582], [-122.3209, 40.8553], [-122.3256, 40.8543], [-122.3275, 40.8546], [-122.3289, 40.8575], [-122.3288, 40.856], [-122.3315, 40.8545], [-122.333, 40.8566], [-122.3319, 40.8599], [-122.3341, 40.861], [-122.3376, 40.8602], [-122.338, 40.8606], [-122.3377, 40.8626], [-122.3359, 40.8651], [-122.3389, 40.8659], [-122.3399, 40.8655], [-122.3411, 40.8666], [-122.3447, 40.8671], [-122.3449, 40.8655], [-122.3471, 40.8646], [-122.3492, 40.8647], [-122.3505, 40.8675], [-122.3522, 40.8646], [-122.3521, 40.8632], [-122.3536, 40.8629], [-122.362, 40.8653], [-122.3644, 40.8667], [-122.3672, 40.8712], [-122.3716, 40.8742], [-122.3736, 40.8773], [-122.3773, 40.8792], [-122.3776, 40.8809], [-122.3734, 40.8819], [-122.373, 40.8808], [-122.3718, 40.8811], [-122.3703, 40.8786], [-122.3689, 40.8782], [-122.3686, 40.8788], [-122.3698, 40.88], [-122.3683, 40.8806], [-122.37, 40.8809], [-122.3708, 40.882], [-122.3701, 40.8825], [-122.3716, 40.8829], [-122.3716, 40.8837], [-122.3702, 40.8857], [-122.3685, 40.8857], [-122.3706, 40.8868], [-122.3707, 40.8881], [-122.3682, 40.8888], [-122.3666, 40.8878], [-122.3675, 40.889], [-122.367, 40.8897], [-122.3684, 40.8899], [-122.3685, 40.8909], [-122.3671, 40.8908], [-122.3685, 40.8929], [-122.3678, 40.8947], [-122.3667, 40.8954], [-122.3678, 40.8959], [-122.3691, 40.903], [-122.3734, 40.9061], [-122.3742, 40.908], [-122.377, 40.9096], [-122.3764, 40.9118], [-122.3783, 40.9157], [-122.3797, 40.9155], [-122.3832, 40.9168], [-122.3856, 40.9206], [-122.3874, 40.9213], [-122.3908, 40.9206], [-122.3927, 40.919], [-122.3946, 40.9193], [-122.402, 40.9276], [-122.4034, 40.9275], [-122.4051, 40.9263], [-122.4042, 40.9232], [-122.4072, 40.9231], [-122.4083, 40.9278], [-122.4072, 40.9304], [-122.4076, 40.9312], [-122.4112, 40.9326], [-122.4108, 40.9339], [-122.4091, 40.9347], [-122.4121, 40.9378], [-122.4114, 40.9384], [-122.4125, 40.9396], [-122.4145, 40.9399], [-122.4169, 40.939], [-122.4185, 40.9402], [-122.4184, 40.941], [-122.4161, 40.9421], [-122.4167, 40.9441], [-122.4173, 40.9448], [-122.4179, 40.9445], [-122.4185, 40.9479], [-122.42, 40.9504], [-122.4182, 40.9512], [-122.4096, 40.9505], [-122.4074, 40.951], [-122.4079, 40.9525], [-122.4067, 40.9542], [-122.4056, 40.9545], [-122.4063, 40.9556], [-122.4043, 40.9579], [-122.4038, 40.9573], [-122.4042, 40.9551], [-122.4034, 40.9541], [-122.4016, 40.9541], [-122.4015, 40.9535], [-122.3994, 40.9546], [-122.3983, 40.9541], [-122.3974, 40.9553], [-122.3976, 40.9571], [-122.3953, 40.9579], [-122.3974, 40.9591], [-122.3968, 40.9596], [-122.3961, 40.9591], [-122.3952, 40.9612], [-122.3946, 40.9605]]]]}, "properties": {"layer": "perimeter"}}, {"type": "Feature", "geometry": {"type": "MultiPolygon", "coordinates": [[[[-122.3889, 40.9593], [-122.3884, 40.9588], [-122.3862, 40.9593], [-122.3869, 40.9583], [-122.3856, 40.958], [-122.3848, 40.9585], [-122.3851, 40.9594], [-122.3814, 40.9595], [-122.3813, 40.9546], [-122.3823, 40.9545], [-122.3813, 40.954], [-122.3812, 40.9524], [-122.3669, 40.9523], [-122.3667, 40.9453], [-122.362, 40.9452], [-122.3621, 40.9522], [-122.3598, 40.9519], [-122.3597, 40.9524], [-122.3583, 40.9526], [-122.3573, 40.9516], [-122.3534, 40.9505], [-122.3524, 40.9496], [-122.3532, 40.9491], [-122.3531, 40.9482], [-122.3497, 40.9475], [-122.3503, 40.947], [-122.3491, 40.9455], [-122.3524, 40.9454], [-122.3523, 40.9384], [-122.3443, 40.9385], [-122.3446, 40.9373], [-122.3455, 40.9372], [-122.3456, 40.9356], [-122.3442, 40.9342], [-122.3446, 40.9328], [-122.343, 40.9319], [-122.3424, 40.9327], [-122.3414, 40.932], [-122.3425, 40.9304], [-122.3396, 40.93], [-122.3394, 40.9293], [-122.3376, 40.93], [-122.3372, 40.9289], [-122.336, 40.9298], [-122.336, 40.9217], [-122.3378, 40.9213], [-122.336, 40.9196], [-122.336, 40.9179], [-122.337, 40.9173], [-122.336, 40.9168], [-122.3361, 40.9159], [-122.3385, 40.9156], [-122.3388, 40.9149], [-122.338, 40.9142], [-122.3371, 40.9149], [-122.336, 40.9136], [-122.336, 40.9097], [-122.3261, 40.9097], [-122.3287, 40.9039], [-122.3272, 40.898], [-122.3259, 40.897], [-122.3268, 40.896], [-122.3258, 40.8947], [-122.3257, 40.8927], [-122.3191, 40.889], [-122.3159, 40.8882], [-122.3124, 40.8887], [-122.3085, 40.8869], [-122.3111, 40.8845], [-122.3127, 40.8843], [-122.3109, 40.8822], [-122.3109, 40.8792], [-122.309, 40.8779], [-122.3079, 40.8745], [-122.3091, 40.8733], [-122.317, 40.8733], [-122.3169, 40.8661], [-122.3125, 40.8661], [-122.3126, 40.8628], [-122.3163, 40.8598], [-122.3152, 40.859], [-122.3174, 40.8582], [-122.3209, 40.8553], [-122.326, 40.8554], [-122.326, 40.8544], [-122.3275, 40.8546], [-122.3289, 40.8575], [-122.3288, 40.856], [-122.3315, 40.8545], [-122.333, 40.8566], [-122.3319, 40.8599], [-122.3341, 40.861], [-122.3376, 40.8602], [-122.338, 40.8606], [-122.3377, 40.8626], [-122.3359, 40.8651], [-122.3389, 40.8659], [-122.3399, 40.8655], [-122.3411, 40.8666], [-122.3446, 40.8671], [-122.3452, 40.8663], [-122.3454, 40.8735], [-122.3539, 40.8735], [-122.3585, 40.8713], [-122.3563, 40.8681], [-122.3539, 40.8663], [-122.3512, 40.8663], [-122.3521, 40.8639], [-122.357, 40.8677], [-122.3592, 40.871], [-122.3614, 40.8702], [-122.3632, 40.8707], [-122.3658, 40.8704], [-122.3651, 40.8679], [-122.3635, 40.8663], [-122.3523, 40.863], [-122.3536, 40.8629], [-122.3631, 40.8658], [-122.3648, 40.8671], [-122.3675, 40.8715], [-122.3721, 40.8748], [-122.3736, 40.8772], [-122.3696, 40.8769], [-122.3696, 40.8733], [-122.3622, 40.8734], [-122.3599, 40.8722], [-122.3654, 40.8805], [-122.3645, 40.8806], [-122.3623, 40.8772], [-122.3626, 40.8806], [-122.3554, 40.8807], [-122.3554, 40.8953], [-122.3649, 40.8954], [-122.3648, 40.9096], [-122.3551, 40.9096], [-122.3547, 40.9313], [-122.4048, 40.9307], [-122.4049, 40.9378], [-122.4097, 40.9377], [-122.4098, 40.9449], [-122.4004, 40.945], [-122.4003, 40.9542], [-122.3993, 40.9546], [-122.3983, 40.9541], [-122.3974, 40.9553], [-122.3976, 40.9571], [-122.3953, 40.9579], [-122.3974, 40.9592], [-122.3889, 40.9593]]], [[[-122.3814, 40.9601], [-122.3806, 40.9598], [-122.3803, 40.9594], [-122.3814, 40.9595], [-122.3814, 40.9601]]], [[[-122.3754, 40.9594], [-122.3749, 40.9594], [-122.3748, 40.9594], [-122.3754, 40.9594]]], [[[-122.3624, 40.9592], [-122.3646, 40.96], [-122.3624, 40.9604], [-122.3624, 40.9592]]], [[[-122.3623, 40.958], [-122.3612, 40.9572], [-122.3622, 40.957], [-122.3623, 40.958]]], [[[-122.3621, 40.9529], [-122.3618, 40.9524], [-122.3621, 40.9523], [-122.3621, 40.9529]]], [[[-122.3452, 40.8662], [-122.3449, 40.8656], [-122.3473, 40.8646], [-122.3492, 40.8647], [-122.3502, 40.8662], [-122.3452, 40.8662]]], [[[-122.3737, 40.8773], [-122.3769, 40.8789], [-122.3775, 40.8794], [-122.375, 40.8789], [-122.3737, 40.8773]]], [[[-122.4043, 40.9234], [-122.4042, 40.9232], [-122.4045, 40.9231], [-122.4043, 40.9234]]], [[[-122.4193, 40.9485], [-122.4202, 40.9498], [-122.4193, 40.9507], [-122.4193, 40.9485]]]]}, "properties": {"layer": "retained"}}, {"type": "Feature", "geometry": {"type": "MultiPolygon", "coordinates": [[[[-122.376, 40.9517], [-122.377, 40.9512], [-122.3773, 40.9495], [-122.3759, 40.9479], [-122.3741, 40.948], [-122.3748, 40.9488], [-122.3741, 40.9488], [-122.3738, 40.9504], [-122.376, 40.9517]], [[-122.376, 40.9506], [-122.3756, 40.9512], [-122.3752, 40.9507], [-122.376, 40.9506]], [[-122.377, 40.9498], [-122.3763, 40.9504], [-122.3763, 40.9501], [-122.377, 40.9498]]], [[[-122.3765, 40.9452], [-122.3765, 40.9447], [-122.3743, 40.9436], [-122.375, 40.9444], [-122.3747, 40.945], [-122.3765, 40.9452]]], [[[-122.3733, 40.9453], [-122.3747, 40.9444], [-122.3725, 40.9431], [-122.3722, 40.9437], [-122.3732, 40.9439], [-122.3733, 40.9453]]], [[[-122.3761, 40.9436], [-122.376, 40.9425], [-122.3746, 40.9423], [-122.3743, 40.9434], [-122.3761, 40.9436]]], [[[-122.3857, 40.9432], [-122.3857, 40.9423], [-122.3867, 40.9421], [-122.3849, 40.9421], [-122.3857, 40.9432]]], [[[-122.3793, 40.9449], [-122.379, 40.9444], [-122.3804, 40.9438], [-122.38, 40.9433], [-122.3811, 40.9432], [-122.3806, 40.9416], [-122.3796, 40.9427], [-122.3785, 40.9422], [-122.3768, 40.9425], [-122.3782, 40.9428], [-122.3771, 40.943], [-122.3772, 40.9449], [-122.3793, 40.9449]], [[-122.3789, 40.9433], [-122.3786, 40.9436], [-122.3786, 40.9433], [-122.3789, 40.9433]]], [[[-122.39, 40.9436], [-122.3896, 40.9425], [-122.3885, 40.9426], [-122.3896, 40.942], [-122.3881, 40.9415], [-122.3882, 40.9434], [-122.3892, 40.9428], [-122.3889, 40.9434], [-122.39, 40.9436]]], [[[-122.4066, 40.9403], [-122.4077, 40.9398], [-122.4062, 40.9392], [-122.4066, 40.9403]]], [[[-122.3834, 40.9589], [-122.3844, 40.957], [-122.384, 40.9562], [-122.3825, 40.9559], [-122.3825, 40.9548], [-122.3858, 40.9561], [-122.3846, 40.9548], [-122.3857, 40.9545], [-122.3857, 40.9532], [-122.3881, 40.9526], [-122.3885, 40.9531], [-122.3892, 40.9525], [-122.3899, 40.9525], [-122.3899, 40.9528], [-122.391, 40.9528], [-122.3909, 40.9506], [-122.3902, 40.9506], [-122.3905, 40.9498], [-122.3898, 40.9493], [-122.3909, 40.9493], [-122.3909, 40.9487], [-122.3923, 40.949], [-122.3923, 40.9479], [-122.3937, 40.9481], [-122.3934, 40.9498], [-122.3944, 40.9492], [-122.3952, 40.9511], [-122.3973, 40.951], [-122.3963, 40.9521], [-122.3977, 40.9524], [-122.398, 40.9491], [-122.4001, 40.9486], [-122.4004, 40.945], [-122.4025, 40.945], [-122.4017, 40.9437], [-122.4032, 40.9436], [-122.4035, 40.9444], [-122.4035, 40.9434], [-122.4042, 40.9433], [-122.4038, 40.9417], [-122.4014, 40.9437], [-122.3985, 40.9432], [-122.3978, 40.944], [-122.3964, 40.9427], [-122.397, 40.9421], [-122.3981, 40.9426], [-122.3985, 40.9421], [-122.3985, 40.9426], [-122.4003, 40.9423], [-122.4003, 40.9426], [-122.4006, 40.9426], [-122.4006, 40.9429], [-122.4013, 40.9429], [-122.4009, 40.9412], [-122.3991, 40.941], [-122.3991, 40.9405], [-122.3967, 40.941], [-122.3966, 40.9405], [-122.3952, 40.9405], [-122.3956, 40.94], [-122.3941, 40.9403], [-122.3941, 40.9395], [-122.3923, 40.9395], [-122.3924, 40.9425], [-122.3931, 40.9422], [-122.3935, 40.9427], [-122.3938, 40.9419], [-122.3942, 40.9422], [-122.3942, 40.943], [-122.3936, 40.9444], [-122.3918, 40.9449], [-122.3918, 40.9457], [-122.3897, 40.9455], [-122.3886, 40.9466], [-122.3879, 40.9464], [-122.389, 40.9458], [-122.3886, 40.9453], [-122.3868, 40.9458], [-122.3872, 40.9453], [-122.3865, 40.945], [-122.3847, 40.9453], [-122.384, 40.9448], [-122.3829, 40.9456], [-122.3815, 40.9451], [-122.3826, 40.9465], [-122.3819, 40.9467], [-122.3819, 40.9481], [-122.3827, 40.9483], [-122.3816, 40.9486], [-122.3823, 40.9492], [-122.3813, 40.9497], [-122.382, 40.9503], [-122.3831, 40.9497], [-122.3845, 40.9502], [-122.3842, 40.951], [-122.3817, 40.9511], [-122.3831, 40.9524], [-122.3814, 40.9524], [-122.3814, 40.9532], [-122.3821, 40.9532], [-122.3814, 40.9538], [-122.3821, 40.954], [-122.3819, 40.9567], [-122.3833, 40.9564], [-122.3833, 40.957], [-122.3822, 40.957], [-122.3833, 40.9578], [-122.3826, 40.9581], [-122.3834, 40.9589]], [[-122.3903, 40.9523], [-122.3899, 40.9525], [-122.3899, 40.9523], [-122.3903, 40.9523]], [[-122.3888, 40.952], [-122.3885, 40.9523], [-122.3885, 40.952], [-122.3888, 40.952]], [[-122.3877, 40.9499], [-122.3874, 40.9504], [-122.3873, 40.9499], [-122.3877, 40.9499]], [[-122.3852, 40.9497], [-122.3848, 40.9499], [-122.3848, 40.9497], [-122.3852, 40.9497]], [[-122.3855, 40.9494], [-122.3852, 40.9497], [-122.3852, 40.9494], [-122.3855, 40.9494]], [[-122.388, 40.9488], [-122.3873, 40.9491], [-122.3873, 40.9488], [-122.388, 40.9488]], [[-122.3883, 40.9482], [-122.388, 40.9488], [-122.388, 40.9482], [-122.3883, 40.9482]], [[-122.3908, 40.9485], [-122.3894, 40.9474], [-122.3904, 40.9466], [-122.3915, 40.9474], [-122.3908, 40.9485]], [[-122.399, 40.9478], [-122.3987, 40.948], [-122.3987, 40.9478], [-122.399, 40.9478]], [[-122.3962, 40.9478], [-122.3958, 40.9481], [-122.3958, 40.9478], [-122.3962, 40.9478]], [[-122.3894, 40.9477], [-122.3891, 40.9482], [-122.389, 40.9477], [-122.3894, 40.9477]], [[-122.3887, 40.948], [-122.3883, 40.9482], [-122.3883, 40.948], [-122.3887, 40.948]], [[-122.3994, 40.9472], [-122.399, 40.9475], [-122.399, 40.9472], [-122.3994, 40.9472]], [[-122.389, 40.9471], [-122.3887, 40.9477], [-122.3887, 40.9472], [-122.389, 40.9471]], [[-122.3929, 40.9468], [-122.3922, 40.9474], [-122.3922, 40.9468], [-122.3929, 40.9468]], [[-122.3997, 40.9467], [-122.3993, 40.9469], [-122.3993, 40.9467], [-122.3997, 40.9467]], [[-122.3986, 40.9467], [-122.3983, 40.947], [-122.3983, 40.9467], [-122.3986, 40.9467]], [[-122.399, 40.9464], [-122.3986, 40.9467], [-122.3986, 40.9464], [-122.399, 40.9464]], [[-122.3894, 40.9466], [-122.389, 40.9469], [-122.389, 40.9466], [-122.3894, 40.9466]], [[-122.3833, 40.9467], [-122.3826, 40.947], [-122.3826, 40.9467], [-122.3833, 40.9467]], [[-122.3837, 40.9464], [-122.3833, 40.9467], [-122.3833, 40.9464], [-122.3837, 40.9464]], [[-122.3904, 40.946], [-122.3901, 40.9463], [-122.3901, 40.946], [-122.3904, 40.946]], [[-122.384, 40.9453], [-122.3836, 40.9456], [-122.3836, 40.9454], [-122.384, 40.9453]], [[-122.3996, 40.9445], [-122.3993, 40.9451], [-122.3993, 40.9445], [-122.3996, 40.9445]], [[-122.3943, 40.9449], [-122.3939, 40.9452], [-122.3939, 40.9449], [-122.3943, 40.9449]], [[-122.401, 40.9445], [-122.4007, 40.9448], [-122.4007, 40.9445], [-122.401, 40.9445]], [[-122.3961, 40.9446], [-122.3957, 40.9449], [-122.3957, 40.9446], [-122.3961, 40.9446]], [[-122.3996, 40.9437], [-122.3992, 40.944], [-122.3992, 40.9437], [-122.3996, 40.9437]], [[-122.4035, 40.9431], [-122.4031, 40.9434], [-122.4031, 40.9431], [-122.4035, 40.9431]], [[-122.3957, 40.9435], [-122.395, 40.9435], [-122.3953, 40.9427], [-122.3956, 40.9427], [-122.3957, 40.9435]], [[-122.401, 40.942], [-122.4006, 40.9426], [-122.4006, 40.9421], [-122.401, 40.942]], [[-122.396, 40.9419], [-122.3953, 40.9424], [-122.3953, 40.9419], [-122.396, 40.9419]], [[-122.3945, 40.9419], [-122.3942, 40.9422], [-122.3942, 40.9419], [-122.3945, 40.9419]], [[-122.3981, 40.9418], [-122.397, 40.9419], [-122.397, 40.9416], [-122.3981, 40.9413], [-122.3981, 40.9418]], [[-122.3952, 40.9413], [-122.3949, 40.9416], [-122.3949, 40.9414], [-122.3952, 40.9413]], [[-122.3988, 40.941], [-122.3984, 40.9413], [-122.3984, 40.941], [-122.3988, 40.941]], [[-122.3931, 40.9411], [-122.3928, 40.9414], [-122.3927, 40.9411], [-122.3931, 40.9411]], [[-122.3945, 40.9406], [-122.3942, 40.9411], [-122.3941, 40.9406], [-122.3945, 40.9406]]], [[[-122.4063, 40.9411], [-122.4059, 40.9398], [-122.4055, 40.9395], [-122.4045, 40.9398], [-122.403, 40.9388], [-122.4008, 40.9385], [-122.4012, 40.9391], [-122.3998, 40.9396], [-122.3998, 40.9402], [-122.4002, 40.9402], [-122.4002, 40.9404], [-122.4006, 40.9404], [-122.4006, 40.9407], [-122.4009, 40.9407], [-122.4009, 40.941], [-122.4024, 40.9409], [-122.4023, 40.9404], [-122.4041, 40.9398], [-122.4041, 40.9404], [-122.4063, 40.9411]], [[-122.4013, 40.9404], [-122.4009, 40.9407], [-122.4009, 40.9404], [-122.4013, 40.9404]], [[-122.4055, 40.9398], [-122.4052, 40.9401], [-122.4052, 40.9398], [-122.4055, 40.9398]]], [[[-122.3987, 40.9397], [-122.3987, 40.9388], [-122.398, 40.9386], [-122.3977, 40.9394], [-122.3987, 40.9397]]], [[[-122.377, 40.9398], [-122.3781, 40.939], [-122.3767, 40.9393], [-122.377, 40.9398]]], [[[-122.4076, 40.9392], [-122.4079, 40.9379], [-122.4065, 40.9379], [-122.4069, 40.9392], [-122.4076, 40.9392]]], [[[-122.3866, 40.9377], [-122.3866, 40.9372], [-122.3855, 40.9367], [-122.3851, 40.9372], [-122.3866, 40.9377]]], [[[-122.3684, 40.9378], [-122.3684, 40.9367], [-122.3676, 40.9359], [-122.3666, 40.9376], [-122.3684, 40.9378]], [[-122.368, 40.937], [-122.3677, 40.9373], [-122.3677, 40.937], [-122.368, 40.937]]], [[[-122.3773, 40.9366], [-122.3772, 40.9357], [-122.3776, 40.9355], [-122.3765, 40.936], [-122.3773, 40.9366]]], [[[-122.363, 40.9366], [-122.363, 40.9352], [-122.3612, 40.9342], [-122.3616, 40.9355], [-122.3623, 40.9355], [-122.362, 40.9366], [-122.363, 40.9366]]], [[[-122.4042, 40.9336], [-122.4049, 40.9328], [-122.4049, 40.9322], [-122.4039, 40.9328], [-122.4042, 40.9336]]], [[[-122.3747, 40.9336], [-122.3739, 40.9323], [-122.3736, 40.9323], [-122.3733, 40.9334], [-122.3747, 40.9336]]], [[[-122.3768, 40.9328], [-122.3764, 40.932], [-122.375, 40.9317], [-122.3754, 40.9328], [-122.3768, 40.9328]]], [[[-122.3601, 40.9336], [-122.3615, 40.9339], [-122.3611, 40.9323], [-122.3597, 40.932], [-122.3601, 40.9336]], [[-122.3611, 40.9331], [-122.3608, 40.9334], [-122.3608, 40.9331], [-122.3611, 40.9331]]], [[[-122.3846, 40.9326], [-122.3853, 40.9323], [-122.3849, 40.9315], [-122.3814, 40.9311], [-122.3825, 40.9316], [-122.3821, 40.9324], [-122.3839, 40.9318], [-122.3846, 40.9326]]], [[[-122.3782, 40.9322], [-122.3778, 40.9311], [-122.3764, 40.9312], [-122.3764, 40.932], [-122.3768, 40.932], [-122.3768, 40.9322], [-122.3782, 40.9322]], [[-122.3771, 40.9317], [-122.3768, 40.932], [-122.3768, 40.9317], [-122.3771, 40.9317]]], [[[-122.3659, 40.937], [-122.3676, 40.9354], [-122.3683, 40.9359], [-122.3694, 40.9356], [-122.3698, 40.9364], [-122.3709, 40.9364], [-122.3705, 40.9359], [-122.3712, 40.9364], [-122.3726, 40.9361], [-122.373, 40.9353], [-122.3744, 40.9361], [-122.3751, 40.9352], [-122.3722, 40.9334], [-122.3732, 40.9315], [-122.3646, 40.9314], [-122.3643, 40.9317], [-122.3647, 40.9327], [-122.364, 40.9328], [-122.3644, 40.9352], [-122.3673, 40.9351], [-122.3662, 40.9362], [-122.3658, 40.9357], [-122.3644, 40.936], [-122.3659, 40.937]], [[-122.3719, 40.9356], [-122.3708, 40.9356], [-122.3708, 40.9353], [-122.3719, 40.935], [-122.3719, 40.9356]], [[-122.3708, 40.9353], [-122.3698, 40.9353], [-122.3697, 40.9348], [-122.3708, 40.9348], [-122.3708, 40.9353]], [[-122.3712, 40.9345], [-122.3694, 40.9343], [-122.37, 40.9334], [-122.3683, 40.9332], [-122.3682, 40.9327], [-122.37, 40.9324], [-122.3712, 40.9345]], [[-122.3669, 40.9343], [-122.3665, 40.9346], [-122.3665, 40.9343], [-122.3669, 40.9343]], [[-122.3686, 40.934], [-122.3679, 40.9343], [-122.3679, 40.934], [-122.3686, 40.934]], [[-122.3679, 40.934], [-122.3669, 40.934], [-122.3669, 40.9338], [-122.3679, 40.9335], [-122.3679, 40.934]], [[-122.3665, 40.9327], [-122.3658, 40.9333], [-122.3658, 40.933], [-122.3665, 40.9327]], [[-122.3672, 40.9321], [-122.3668, 40.9324], [-122.3668, 40.9322], [-122.3672, 40.9321]], [[-122.3696, 40.9318], [-122.3693, 40.9321], [-122.3693, 40.9318], [-122.3696, 40.9318]], [[-122.3718, 40.9315], [-122.3714, 40.9318], [-122.3714, 40.9315], [-122.3718, 40.9315]], [[-122.3711, 40.9315], [-122.3707, 40.9318], [-122.3707, 40.9315], [-122.3711, 40.9315]], [[-122.3654, 40.9316], [-122.3647, 40.9319], [-122.3646, 40.9317], [-122.3654, 40.9316]]], [[[-122.3528, 40.9281], [-122.3524, 40.9273], [-122.3506, 40.9271], [-122.351, 40.9276], [-122.3528, 40.9281]]], [[[-122.3548, 40.9243], [-122.3551, 40.9216], [-122.3533, 40.9213], [-122.3537, 40.9224], [-122.3526, 40.9232], [-122.3548, 40.9243]], [[-122.354, 40.9229], [-122.3537, 40.9232], [-122.3537, 40.9229], [-122.354, 40.9229]], [[-122.3547, 40.9227], [-122.354, 40.9227], [-122.354, 40.9221], [-122.3544, 40.9221], [-122.3547, 40.9227]]], [[[-122.3533, 40.9219], [-122.3522, 40.9211], [-122.3515, 40.9211], [-122.3515, 40.9219], [-122.3533, 40.9219]]], [[[-122.3504, 40.9214], [-122.3515, 40.9208], [-122.3533, 40.9211], [-122.3536, 40.9205], [-122.3508, 40.9206], [-122.3504, 40.92], [-122.3493, 40.9209], [-122.3504, 40.9214]]], [[[-122.3396, 40.9173], [-122.341, 40.9175], [-122.341, 40.9167], [-122.3396, 40.9173]]], [[[-122.3435, 40.9172], [-122.3446, 40.9169], [-122.3467, 40.916], [-122.3439, 40.9164], [-122.3435, 40.9172]]], [[[-122.3474, 40.915], [-122.3491, 40.9149], [-122.3481, 40.9147], [-122.3488, 40.9141], [-122.3477, 40.9141], [-122.3474, 40.915]]], [[[-122.3505, 40.9144], [-122.3505, 40.9133], [-122.3498, 40.9133], [-122.3498, 40.9141], [-122.3505, 40.9144]]], [[[-122.3463, 40.915], [-122.3462, 40.9133], [-122.3434, 40.9134], [-122.3434, 40.9139], [-122.3463, 40.915]]], [[[-122.3551, 40.9135], [-122.3551, 40.9118], [-122.3544, 40.9116], [-122.3541, 40.9129], [-122.3551, 40.9135]]], [[[-122.3487, 40.9133], [-122.3494, 40.9117], [-122.3469, 40.9112], [-122.3469, 40.9117], [-122.3476, 40.9114], [-122.3487, 40.9133]]], [[[-122.3436, 40.9091], [-122.3447, 40.9085], [-122.3436, 40.908], [-122.3436, 40.9091]]], [[[-122.3347, 40.909], [-122.3354, 40.9084], [-122.3354, 40.9079], [-122.3347, 40.9079], [-122.3347, 40.909]]], [[[-122.3425, 40.9069], [-122.3425, 40.9064], [-122.3432, 40.9058], [-122.3421, 40.9061], [-122.3425, 40.9069]]], [[[-122.3542, 40.9048], [-122.3531, 40.9038], [-122.3523, 40.904], [-122.3524, 40.9046], [-122.3542, 40.9048]]], [[[-122.3513, 40.9049], [-122.3516, 40.9041], [-122.3509, 40.9038], [-122.3506, 40.9046], [-122.3513, 40.9049]]], [[[-122.3463, 40.905], [-122.3466, 40.9036], [-122.3459, 40.9034], [-122.3456, 40.9044], [-122.3463, 40.905]]], [[[-122.3438, 40.9034], [-122.3452, 40.9036], [-122.3448, 40.9031], [-122.3438, 40.9034]]], [[[-122.3445, 40.9031], [-122.3448, 40.9018], [-122.3437, 40.9018], [-122.3434, 40.9026], [-122.3445, 40.9031]]], [[[-122.3327, 40.9033], [-122.3323, 40.902], [-122.3302, 40.902], [-122.3306, 40.9026], [-122.3299, 40.9028], [-122.3309, 40.9028], [-122.3313, 40.9023], [-122.332, 40.9025], [-122.3313, 40.9034], [-122.3327, 40.9033]]], [[[-122.3452, 40.902], [-122.3458, 40.9012], [-122.3444, 40.9009], [-122.3452, 40.902]]], [[[-122.343, 40.9026], [-122.3434, 40.9015], [-122.343, 40.9015], [-122.3423, 40.9007], [-122.3419, 40.9013], [-122.3409, 40.901], [-122.3409, 40.9016], [-122.3401, 40.901], [-122.3398, 40.9024], [-122.3427, 40.9018], [-122.343, 40.9026]]], [[[-122.3284, 40.9023], [-122.3302, 40.9015], [-122.3288, 40.9018], [-122.3291, 40.9012], [-122.3284, 40.901], [-122.3284, 40.9023]]], [[[-122.3576, 40.901], [-122.3593, 40.9004], [-122.3576, 40.9007], [-122.3576, 40.901]]], [[[-122.3522, 40.9005], [-122.3536, 40.9], [-122.3519, 40.9], [-122.3522, 40.9005]]], [[[-122.3625, 40.9001], [-122.3629, 40.8987], [-122.3614, 40.899], [-122.3607, 40.8982], [-122.3572, 40.8996], [-122.3586, 40.8999], [-122.3597, 40.8993], [-122.3604, 40.9001], [-122.3625, 40.9001]], [[-122.3614, 40.8993], [-122.3611, 40.8996], [-122.3611, 40.8993], [-122.3614, 40.8993]]], [[[-122.3308, 40.899], [-122.333, 40.8987], [-122.3329, 40.8976], [-122.3315, 40.8977], [-122.3308, 40.8985], [-122.3308, 40.899]]], [[[-122.3525, 40.8992], [-122.3536, 40.8983], [-122.3522, 40.8986], [-122.3525, 40.8973], [-122.3518, 40.8976], [-122.3514, 40.897], [-122.3511, 40.8992], [-122.3525, 40.8992]]], [[[-122.3305, 40.8985], [-122.3301, 40.8972], [-122.3297, 40.8972], [-122.3294, 40.8977], [-122.3305, 40.8985]]], [[[-122.3279, 40.898], [-122.329, 40.8977], [-122.3286, 40.8966], [-122.3276, 40.8975], [-122.3279, 40.898]]], [[[-122.3507, 40.8968], [-122.3507, 40.8962], [-122.3517, 40.8959], [-122.3499, 40.896], [-122.3507, 40.8968]]], [[[-122.3618, 40.8987], [-122.3632, 40.8976], [-122.3646, 40.8976], [-122.3635, 40.8971], [-122.3635, 40.8965], [-122.3649, 40.8968], [-122.3642, 40.8957], [-122.3635, 40.896], [-122.362, 40.8952], [-122.3553, 40.8953], [-122.3546, 40.8959], [-122.3545, 40.8951], [-122.3521, 40.8957], [-122.3518, 40.897], [-122.3535, 40.897], [-122.3536, 40.8973], [-122.3539, 40.8973], [-122.3543, 40.8978], [-122.355, 40.8978], [-122.3553, 40.8967], [-122.3575, 40.8975], [-122.3596, 40.8971], [-122.3593, 40.898], [-122.36, 40.8971], [-122.3607, 40.8969], [-122.361, 40.8969], [-122.361, 40.8971], [-122.3624, 40.8971], [-122.3628, 40.8965], [-122.3625, 40.8979], [-122.3614, 40.8979], [-122.3618, 40.8987]], [[-122.3582, 40.8969], [-122.3578, 40.8972], [-122.3578, 40.8969], [-122.3582, 40.8969]], [[-122.3542, 40.8967], [-122.3539, 40.8973], [-122.3539, 40.8967], [-122.3542, 40.8967]], [[-122.3614, 40.8966], [-122.361, 40.8969], [-122.361, 40.8966], [-122.3614, 40.8966]], [[-122.3603, 40.8966], [-122.3599, 40.8969], [-122.3599, 40.8966], [-122.3603, 40.8966]], [[-122.3599, 40.8963], [-122.3596, 40.8966], [-122.3596, 40.8963], [-122.3599, 40.8963]], [[-122.361, 40.896], [-122.3606, 40.8963], [-122.3606, 40.896], [-122.361, 40.896]], [[-122.3596, 40.8961], [-122.3592, 40.8963], [-122.3592, 40.8961], [-122.3596, 40.8961]], [[-122.3624, 40.8957], [-122.3621, 40.896], [-122.362, 40.8957], [-122.3624, 40.8957]], [[-122.3603, 40.8958], [-122.3596, 40.8961], [-122.3596, 40.8958], [-122.3603, 40.8958]]], [[[-122.3414, 40.8964], [-122.3417, 40.8956], [-122.3428, 40.8958], [-122.3435, 40.8953], [-122.3417, 40.8953], [-122.3421, 40.8945], [-122.341, 40.8951], [-122.3396, 40.8948], [-122.3393, 40.8956], [-122.34, 40.8956], [-122.34, 40.8959], [-122.3407, 40.8959], [-122.3414, 40.8964]], [[-122.341, 40.8956], [-122.3407, 40.8959], [-122.3407, 40.8956], [-122.341, 40.8956]]], [[[-122.3307, 40.8955], [-122.3321, 40.895], [-122.3328, 40.8952], [-122.3332, 40.8941], [-122.3314, 40.8942], [-122.3318, 40.8947], [-122.3307, 40.8955]]], [[[-122.3431, 40.8934], [-122.3438, 40.8931], [-122.3434, 40.8923], [-122.342, 40.8926], [-122.3431, 40.8934]]], [[[-122.3555, 40.8924], [-122.3555, 40.8915], [-122.3548, 40.8916], [-122.3545, 40.8924], [-122.3555, 40.8924]]], [[[-122.3437, 40.9015], [-122.3444, 40.9004], [-122.3433, 40.9007], [-122.343, 40.8999], [-122.3444, 40.9001], [-122.3451, 40.8996], [-122.3447, 40.8982], [-122.3458, 40.8985], [-122.3457, 40.8969], [-122.345, 40.8966], [-122.3531, 40.8951], [-122.3517, 40.8938], [-122.352, 40.8922], [-122.3512, 40.8922], [-122.3512, 40.8911], [-122.3505, 40.8914], [-122.3506, 40.893], [-122.3502, 40.8925], [-122.3488, 40.8928], [-122.3488, 40.8922], [-122.3477, 40.8928], [-122.3485, 40.8938], [-122.3478, 40.8947], [-122.3456, 40.8947], [-122.3442, 40.8931], [-122.3428, 40.8937], [-122.3438, 40.8942], [-122.3432, 40.895], [-122.3446, 40.8953], [-122.3428, 40.8958], [-122.3432, 40.8966], [-122.3421, 40.8964], [-122.3401, 40.8983], [-122.3411, 40.8986], [-122.3422, 40.8972], [-122.3436, 40.8974], [-122.3436, 40.8991], [-122.3433, 40.8996], [-122.3426, 40.8991], [-122.3423, 40.9002], [-122.3437, 40.9015]], [[-122.3444, 40.8993], [-122.344, 40.8996], [-122.344, 40.8993], [-122.3444, 40.8993]], [[-122.3439, 40.8961], [-122.3436, 40.8966], [-122.3432, 40.8961], [-122.3439, 40.8961]], [[-122.3471, 40.8955], [-122.3464, 40.896], [-122.3464, 40.8955], [-122.3471, 40.8955]], [[-122.3496, 40.8949], [-122.3492, 40.8952], [-122.3492, 40.8949], [-122.3496, 40.8949]], [[-122.3517, 40.8941], [-122.3499, 40.8949], [-122.3502, 40.8935], [-122.3506, 40.8935], [-122.3506, 40.8938], [-122.3509, 40.8938], [-122.351, 40.8941], [-122.3517, 40.8941]], [[-122.3495, 40.8946], [-122.3488, 40.8944], [-122.3495, 40.8941], [-122.3495, 40.8946]], [[-122.3513, 40.8935], [-122.3509, 40.8938], [-122.3509, 40.8935], [-122.3513, 40.8935]], [[-122.3445, 40.8936], [-122.3442, 40.8939], [-122.3442, 40.8937], [-122.3445, 40.8936]], [[-122.3502, 40.893], [-122.3499, 40.8933], [-122.3499, 40.893], [-122.3502, 40.893]]], [[[-122.3352, 40.8911], [-122.3345, 40.8906], [-122.3334, 40.8909], [-122.3334, 40.8912], [-122.3352, 40.8911]]], [[[-122.3406, 40.8916], [-122.3402, 40.8902], [-122.3395, 40.8908], [-122.3394, 40.89], [-122.3387, 40.89], [-122.3388, 40.8911], [-122.3406, 40.8916]]], [[[-122.3376, 40.8897], [-122.3387, 40.89], [-122.3387, 40.8894], [-122.3376, 40.8897]]], [[[-122.3337, 40.8898], [-122.3341, 40.8892], [-122.333, 40.889], [-122.3337, 40.8884], [-122.3326, 40.8882], [-122.3326, 40.8893], [-122.3337, 40.8898]]], [[[-122.3511, 40.8889], [-122.3515, 40.8881], [-122.3493, 40.8876], [-122.3508, 40.8881], [-122.3504, 40.8887], [-122.3511, 40.8889]]], [[[-122.3479, 40.889], [-122.3494, 40.8887], [-122.3482, 40.8874], [-122.3472, 40.8882], [-122.3479, 40.889]]], [[[-122.348, 40.8917], [-122.3484, 40.8911], [-122.3459, 40.8906], [-122.3472, 40.8895], [-122.3468, 40.8882], [-122.3461, 40.8885], [-122.344, 40.8874], [-122.3447, 40.8888], [-122.3437, 40.8885], [-122.3437, 40.8891], [-122.3444, 40.8891], [-122.3448, 40.8909], [-122.348, 40.8917]], [[-122.3469, 40.8887], [-122.3458, 40.889], [-122.3458, 40.8888], [-122.3469, 40.8887]]], [[[-122.3319, 40.889], [-122.3326, 40.8879], [-122.3315, 40.8877], [-122.3319, 40.889]]], [[[-122.3352, 40.8898], [-122.3365, 40.8884], [-122.334, 40.8874], [-122.3337, 40.8882], [-122.3351, 40.8884], [-122.3344, 40.8887], [-122.3352, 40.8898]]], [[[-122.3409, 40.891], [-122.3419, 40.8902], [-122.3422, 40.8872], [-122.3415, 40.8883], [-122.3401, 40.8872], [-122.3408, 40.8886], [-122.3398, 40.8891], [-122.3415, 40.8888], [-122.3405, 40.8902], [-122.3409, 40.891]]], [[[-122.3493, 40.8873], [-122.3496, 40.8865], [-122.3479, 40.8868], [-122.3479, 40.8871], [-122.3493, 40.8873]]], [[[-122.3475, 40.8871], [-122.3475, 40.8866], [-122.3461, 40.8866], [-122.3465, 40.8871], [-122.3475, 40.8871]]], [[[-122.333, 40.8879], [-122.3336, 40.8868], [-122.3358, 40.8876], [-122.3365, 40.8873], [-122.335, 40.886], [-122.3333, 40.886], [-122.3329, 40.8871], [-122.3322, 40.8871], [-122.333, 40.8879]]], [[[-122.3397, 40.887], [-122.3411, 40.8861], [-122.3396, 40.8856], [-122.3397, 40.887]]], [[[-122.3535, 40.8862], [-122.3531, 40.8846], [-122.3528, 40.8846], [-122.3521, 40.8859], [-122.3535, 40.8862]]], [[[-122.3503, 40.8857], [-122.351, 40.8851], [-122.351, 40.8846], [-122.3496, 40.8849], [-122.3503, 40.8857]]], [[[-122.319, 40.8868], [-122.3201, 40.886], [-122.3197, 40.8849], [-122.319, 40.8849], [-122.3187, 40.8863], [-122.3176, 40.886], [-122.3176, 40.8866], [-122.319, 40.8868]]], [[[-122.3446, 40.8858], [-122.3449, 40.8842], [-122.3438, 40.8834], [-122.3442, 40.8845], [-122.3432, 40.8845], [-122.3435, 40.885], [-122.3428, 40.8853], [-122.3446, 40.8858]], [[-122.3443, 40.885], [-122.3439, 40.8853], [-122.3439, 40.885], [-122.3443, 40.885]]], [[[-122.3403, 40.8835], [-122.3407, 40.884], [-122.3417, 40.8834], [-122.3406, 40.8832], [-122.3403, 40.8835]]], [[[-122.3379, 40.887], [-122.3386, 40.8862], [-122.3368, 40.8857], [-122.3378, 40.884], [-122.3364, 40.8838], [-122.3364, 40.8833], [-122.3357, 40.8838], [-122.3349, 40.883], [-122.3335, 40.8833], [-122.3336, 40.8847], [-122.3343, 40.8846], [-122.3342, 40.8838], [-122.3346, 40.8844], [-122.3367, 40.8841], [-122.3368, 40.8846], [-122.3357, 40.8846], [-122.3357, 40.8854], [-122.3379, 40.887]], [[-122.3371, 40.8846], [-122.3368, 40.8849], [-122.3368, 40.8846], [-122.3371, 40.8846]]], [[[-122.3332, 40.8844], [-122.3332, 40.8833], [-122.3324, 40.8831], [-122.3325, 40.8841], [-122.3332, 40.8844]]], [[[-122.3219, 40.886], [-122.3222, 40.8849], [-122.3196, 40.883], [-122.3197, 40.8844], [-122.3219, 40.886]]], [[[-122.3389, 40.8846], [-122.3399, 40.8826], [-122.3374, 40.8824], [-122.3371, 40.8832], [-122.3389, 40.8846]]], [[[-122.3442, 40.8828], [-122.3442, 40.8823], [-122.3452, 40.8823], [-122.3449, 40.8817], [-122.3438, 40.882], [-122.3442, 40.8828]]], [[[-122.3474, 40.8836], [-122.3474, 40.8825], [-122.3481, 40.8814], [-122.347, 40.8814], [-122.347, 40.8828], [-122.346, 40.8825], [-122.3474, 40.8836]]], [[[-122.3503, 40.8841], [-122.3498, 40.8819], [-122.3512, 40.8811], [-122.3498, 40.8814], [-122.3485, 40.8828], [-122.3489, 40.8841], [-122.3503, 40.8841]]], [[[-122.3172, 40.8836], [-122.3182, 40.8831], [-122.3193, 40.8833], [-122.3193, 40.8828], [-122.3178, 40.8825], [-122.3182, 40.8814], [-122.3178, 40.882], [-122.3168, 40.882], [-122.3172, 40.8836]], [[-122.3182, 40.8828], [-122.3179, 40.8831], [-122.3178, 40.8828], [-122.3182, 40.8828]]], [[[-122.3413, 40.8815], [-122.3409, 40.881], [-122.3399, 40.881], [-122.3399, 40.8816], [-122.3413, 40.8815]]], [[[-122.3452, 40.8817], [-122.3459, 40.8812], [-122.3459, 40.8806], [-122.3448, 40.8807], [-122.3452, 40.8817]]], [[[-122.3185, 40.882], [-122.3196, 40.8811], [-122.3181, 40.8812], [-122.3185, 40.882]]], [[[-122.3377, 40.8819], [-122.3377, 40.8813], [-122.3366, 40.8803], [-122.3359, 40.8811], [-122.3377, 40.8819]]], [[[-122.315, 40.8823], [-122.3167, 40.8817], [-122.3175, 40.8817], [-122.3174, 40.8812], [-122.3164, 40.8815], [-122.3167, 40.8806], [-122.315, 40.8815], [-122.315, 40.8823]]], [[[-122.3473, 40.8812], [-122.3484, 40.8806], [-122.348, 40.8798], [-122.3469, 40.8804], [-122.3473, 40.8812]]], [[[-122.3438, 40.8812], [-122.3448, 40.8796], [-122.3434, 40.8802], [-122.3426, 40.8794], [-122.3405, 40.8791], [-122.3402, 40.8799], [-122.3416, 40.8799], [-122.342, 40.8802], [-122.3416, 40.881], [-122.3438, 40.8812]], [[-122.3427, 40.8802], [-122.3423, 40.8804], [-122.3423, 40.8802], [-122.3427, 40.8802]], [[-122.3423, 40.8799], [-122.342, 40.8802], [-122.342, 40.8799], [-122.3423, 40.8799]]], [[[-122.3391, 40.8794], [-122.3391, 40.8789], [-122.3373, 40.8792], [-122.3373, 40.8795], [-122.3391, 40.8794]]], [[[-122.3491, 40.8795], [-122.349, 40.8787], [-122.3483, 40.8784], [-122.348, 40.879], [-122.3491, 40.8795]]], [[[-122.3437, 40.8793], [-122.3433, 40.8783], [-122.3423, 40.8785], [-122.3423, 40.8791], [-122.3437, 40.8793]]], [[[-122.3504, 40.8781], [-122.3497, 40.8771], [-122.3486, 40.8773], [-122.3483, 40.8768], [-122.3479, 40.8779], [-122.3504, 40.8781]]], [[[-122.3248, 40.8789], [-122.3248, 40.8783], [-122.3255, 40.8786], [-122.3251, 40.8772], [-122.3234, 40.8778], [-122.3234, 40.8786], [-122.3248, 40.8789]]], [[[-122.371, 40.8769], [-122.371, 40.8764], [-122.3717, 40.8766], [-122.3717, 40.8761], [-122.3707, 40.8761], [-122.371, 40.8769]]], [[[-122.3422, 40.8777], [-122.3425, 40.8764], [-122.339, 40.8767], [-122.3401, 40.8775], [-122.3422, 40.8777]]], [[[-122.3518, 40.8773], [-122.3522, 40.8767], [-122.3504, 40.876], [-122.35, 40.8768], [-122.3518, 40.8773]]], [[[-122.3244, 40.8767], [-122.324, 40.8762], [-122.323, 40.8759], [-122.323, 40.8765], [-122.3244, 40.8767]]], [[[-122.3469, 40.8795], [-122.3472, 40.8785], [-122.3462, 40.8785], [-122.3462, 40.8779], [-122.3472, 40.8779], [-122.3472, 40.8774], [-122.3461, 40.8771], [-122.3472, 40.8763], [-122.3457, 40.8752], [-122.3447, 40.8763], [-122.3436, 40.8764], [-122.3437, 40.8777], [-122.3444, 40.8777], [-122.3448, 40.8788], [-122.3458, 40.8788], [-122.3459, 40.8796], [-122.3469, 40.8795]], [[-122.345, 40.8766], [-122.3447, 40.8769], [-122.3447, 40.8766], [-122.345, 40.8766]], [[-122.3457, 40.8763], [-122.345, 40.8766], [-122.345, 40.8763], [-122.3457, 40.8763]], [[-122.3457, 40.8758], [-122.3454, 40.8761], [-122.3454, 40.8758], [-122.3457, 40.8758]]], [[[-122.3173, 40.8769], [-122.3173, 40.8758], [-122.3165, 40.8752], [-122.3162, 40.8763], [-122.3173, 40.8769]]], [[[-122.3546, 40.8753], [-122.3538, 40.8735], [-122.3524, 40.874], [-122.3535, 40.8743], [-122.3535, 40.8754], [-122.3546, 40.8753]]], [[[-122.3468, 40.8744], [-122.3464, 40.8736], [-122.3453, 40.8736], [-122.3453, 40.8742], [-122.3468, 40.8744]]], [[[-122.3561, 40.8767], [-122.3553, 40.8759], [-122.3585, 40.8755], [-122.3585, 40.875], [-122.356, 40.874], [-122.357, 40.8731], [-122.356, 40.8732], [-122.3557, 40.8745], [-122.3546, 40.8748], [-122.355, 40.8761], [-122.3536, 40.8762], [-122.3561, 40.8767]], [[-122.3567, 40.875], [-122.3557, 40.8751], [-122.3557, 40.8745], [-122.3564, 40.8745], [-122.3567, 40.875]]], [[[-122.3122, 40.8742], [-122.3126, 40.8734], [-122.3108, 40.8732], [-122.3108, 40.8737], [-122.3122, 40.8742]]], [[[-122.3192, 40.8698], [-122.3192, 40.8687], [-122.3181, 40.869], [-122.3181, 40.8695], [-122.3192, 40.8698]]], [[[-122.3155, 40.8647], [-122.3169, 40.8636], [-122.3147, 40.8626], [-122.3144, 40.8639], [-122.3155, 40.8647]]], [[[-122.3316, 40.8563], [-122.3312, 40.8555], [-122.3298, 40.8553], [-122.3298, 40.8561], [-122.3316, 40.8563]]], [[[-122.3256, 40.857], [-122.3255, 40.8556], [-122.3248, 40.8554], [-122.3245, 40.8562], [-122.3256, 40.857]]]]}, "properties": {"layer": "high_severity"}}, {"type": "Feature", "geometry": {"type": "MultiPolygon", "coordinates": [[[[-122.3763, 40.9501], [-122.3763, 40.9495], [-122.3755, 40.949], [-122.3752, 40.9498], [-122.3763, 40.9501]]], [[[-122.3839, 40.9543], [-122.3849, 40.9526], [-122.3892, 40.952], [-122.3899, 40.9512], [-122.3891, 40.9493], [-122.3884, 40.9496], [-122.3884, 40.9509], [-122.3867, 40.951], [-122.3862, 40.9488], [-122.3879, 40.9469], [-122.3854, 40.9456], [-122.3843, 40.9456], [-122.3847, 40.9467], [-122.3833, 40.9475], [-122.3837, 40.9483], [-122.3827, 40.9492], [-122.3827, 40.95], [-122.3838, 40.9494], [-122.3852, 40.9497], [-122.3849, 40.951], [-122.3827, 40.9508], [-122.3842, 40.9521], [-122.3828, 40.9535], [-122.3839, 40.9543]], [[-122.3855, 40.9494], [-122.3852, 40.9497], [-122.3852, 40.9494], [-122.3855, 40.9494]]], [[[-122.3973, 40.9502], [-122.3969, 40.9492], [-122.3994, 40.9478], [-122.399, 40.9472], [-122.4004, 40.9469], [-122.4004, 40.945], [-122.4014, 40.945], [-122.4007, 40.9448], [-122.401, 40.9442], [-122.3968, 40.944], [-122.3968, 40.9454], [-122.394, 40.946], [-122.3929, 40.9452], [-122.3926, 40.9463], [-122.3918, 40.9463], [-122.3919, 40.9468], [-122.3929, 40.9468], [-122.3923, 40.9479], [-122.3951, 40.9486], [-122.3963, 40.9502], [-122.3973, 40.9502]], [[-122.3962, 40.9489], [-122.3948, 40.9481], [-122.3958, 40.947], [-122.3972, 40.9478], [-122.3962, 40.9489]], [[-122.3997, 40.9467], [-122.3993, 40.9469], [-122.3993, 40.9467], [-122.3997, 40.9467]], [[-122.3986, 40.9467], [-122.3983, 40.947], [-122.3983, 40.9467], [-122.3986, 40.9467]], [[-122.399, 40.9464], [-122.3986, 40.9467], [-122.3986, 40.9464], [-122.399, 40.9464]], [[-122.3996, 40.9445], [-122.3993, 40.9451], [-122.3993, 40.9445], [-122.3996, 40.9445]]], [[[-122.3949, 40.9427], [-122.3953, 40.9419], [-122.3977, 40.9416], [-122.3984, 40.9407], [-122.3977, 40.941], [-122.3974, 40.9405], [-122.3974, 40.941], [-122.396, 40.9413], [-122.3952, 40.9408], [-122.3942, 40.9411], [-122.3934, 40.9403], [-122.3931, 40.9417], [-122.3938, 40.9416], [-122.3938, 40.9422], [-122.3942, 40.9422], [-122.3949, 40.9427]], [[-122.3945, 40.9419], [-122.3942, 40.9422], [-122.3942, 40.9419], [-122.3945, 40.9419]], [[-122.3952, 40.9413], [-122.3949, 40.9416], [-122.3949, 40.9414], [-122.3952, 40.9413]]], [[[-122.3722, 40.935], [-122.3726, 40.9345], [-122.3711, 40.9337], [-122.3712, 40.9348], [-122.3722, 40.935]]], [[[-122.3718, 40.9337], [-122.3718, 40.9329], [-122.3711, 40.9323], [-122.3707, 40.9329], [-122.3718, 40.9337]]], [[[-122.3651, 40.9333], [-122.3661, 40.9338], [-122.3661, 40.9324], [-122.3651, 40.9333]]], [[[-122.3654, 40.9319], [-122.3657, 40.9322], [-122.3661, 40.9319], [-122.3654, 40.9319]]], [[[-122.3548, 40.9243], [-122.3548, 40.9237], [-122.3541, 40.9237], [-122.3541, 40.924], [-122.3548, 40.9243]]], [[[-122.346, 40.9044], [-122.3463, 40.9033], [-122.3459, 40.9034], [-122.346, 40.9044]]], [[[-122.3444, 40.9009], [-122.3444, 40.9004], [-122.343, 40.9007], [-122.343, 40.901], [-122.3444, 40.9009]]], [[[-122.3565, 40.8999], [-122.3565, 40.8994], [-122.3554, 40.8994], [-122.3554, 40.8997], [-122.3565, 40.8999]]], [[[-122.3437, 40.9002], [-122.3447, 40.8996], [-122.3437, 40.8996], [-122.3437, 40.9002]]], [[[-122.3518, 40.8989], [-122.3529, 40.8986], [-122.3518, 40.8986], [-122.3518, 40.8989]]], [[[-122.36, 40.8993], [-122.3607, 40.8987], [-122.3607, 40.8982], [-122.3589, 40.8988], [-122.36, 40.8993]]], [[[-122.3447, 40.8982], [-122.345, 40.8974], [-122.3443, 40.8974], [-122.3447, 40.8982]]], [[[-122.3596, 40.898], [-122.36, 40.8971], [-122.3607, 40.8969], [-122.361, 40.8969], [-122.361, 40.8971], [-122.3624, 40.8971], [-122.3635, 40.896], [-122.3617, 40.8952], [-122.356, 40.8953], [-122.3549, 40.8964], [-122.3528, 40.8965], [-122.3536, 40.8973], [-122.3542, 40.8967], [-122.3543, 40.8975], [-122.3553, 40.8967], [-122.3575, 40.8975], [-122.3596, 40.8971], [-122.3596, 40.898]], [[-122.3582, 40.8969], [-122.3578, 40.8972], [-122.3578, 40.8969], [-122.3582, 40.8969]], [[-122.3614, 40.8966], [-122.361, 40.8969], [-122.361, 40.8966], [-122.3614, 40.8966]], [[-122.3603, 40.8966], [-122.3599, 40.8969], [-122.3599, 40.8966], [-122.3603, 40.8966]], [[-122.3599, 40.8963], [-122.3596, 40.8966], [-122.3596, 40.8963], [-122.3599, 40.8963]], [[-122.361, 40.896], [-122.3606, 40.8963], [-122.3606, 40.896], [-122.361, 40.896]], [[-122.3596, 40.8961], [-122.3592, 40.8963], [-122.3592, 40.8961], [-122.3596, 40.8961]], [[-122.3624, 40.8957], [-122.3621, 40.896], [-122.362, 40.8957], [-122.3624, 40.8957]], [[-122.3603, 40.8958], [-122.3596, 40.8961], [-122.3596, 40.8958], [-122.3603, 40.8958]]], [[[-122.3443, 40.8961], [-122.3464, 40.8955], [-122.3446, 40.8953], [-122.3443, 40.8961]]], [[[-122.3403, 40.8953], [-122.3407, 40.8956], [-122.341, 40.8953], [-122.3403, 40.8953]]], [[[-122.3495, 40.8941], [-122.3502, 40.8935], [-122.3502, 40.8925], [-122.3488, 40.8928], [-122.3495, 40.8941]]], [[[-122.3462, 40.8901], [-122.3462, 40.889], [-122.3455, 40.889], [-122.3455, 40.8898], [-122.3462, 40.8901]]], [[[-122.3446, 40.885], [-122.3449, 40.8842], [-122.3439, 40.8837], [-122.3442, 40.8845], [-122.3435, 40.885], [-122.3446, 40.885]]], [[[-122.3488, 40.8836], [-122.3488, 40.883], [-122.3492, 40.8827], [-122.3485, 40.8828], [-122.3488, 40.8836]]], [[[-122.3474, 40.8836], [-122.3474, 40.8825], [-122.3463, 40.8828], [-122.3463, 40.8831], [-122.3474, 40.8836]]], [[[-122.3423, 40.8802], [-122.343, 40.8796], [-122.3423, 40.8796], [-122.3423, 40.8802]]], [[[-122.3451, 40.8788], [-122.3454, 40.8774], [-122.344, 40.8774], [-122.344, 40.8782], [-122.3451, 40.8788]]]]}, "properties": {"layer": "interior"}}, {"type": "Feature", "geometry": {"type": "MultiPolygon", "coordinates": [[[[-122.3892, 40.9515], [-122.3891, 40.9501], [-122.3888, 40.9501], [-122.3885, 40.9515], [-122.3892, 40.9515]]], [[[-122.3856, 40.9518], [-122.3867, 40.9512], [-122.3863, 40.9499], [-122.3852, 40.9513], [-122.3856, 40.9518]]], [[[-122.3863, 40.9499], [-122.3866, 40.9491], [-122.3862, 40.9491], [-122.3863, 40.9499]]], [[[-122.397, 40.95], [-122.3969, 40.9486], [-122.3962, 40.9486], [-122.3959, 40.9492], [-122.397, 40.95]]], [[[-122.3873, 40.9483], [-122.3879, 40.9469], [-122.3861, 40.9461], [-122.3847, 40.9464], [-122.3837, 40.9475], [-122.3841, 40.948], [-122.3873, 40.9483]]], [[[-122.3951, 40.9478], [-122.3951, 40.9473], [-122.3965, 40.9473], [-122.3975, 40.9456], [-122.4001, 40.9472], [-122.4004, 40.945], [-122.4014, 40.945], [-122.4007, 40.9448], [-122.401, 40.9442], [-122.3968, 40.944], [-122.3968, 40.9454], [-122.3943, 40.946], [-122.3929, 40.9452], [-122.3919, 40.9468], [-122.3936, 40.9462], [-122.3933, 40.9476], [-122.3951, 40.9478]], [[-122.3996, 40.9445], [-122.3993, 40.9451], [-122.3993, 40.9445], [-122.3996, 40.9445]]], [[[-122.3651, 40.9333], [-122.3661, 40.9338], [-122.3661, 40.9324], [-122.3651, 40.9333]]], [[[-122.3654, 40.9319], [-122.3657, 40.9322], [-122.3661, 40.9319], [-122.3654, 40.9319]]], [[[-122.3548, 40.9243], [-122.3548, 40.9237], [-122.3541, 40.9237], [-122.3541, 40.924], [-122.3548, 40.9243]]], [[[-122.36, 40.8982], [-122.3607, 40.8987], [-122.3607, 40.8982], [-122.36, 40.8982]]], [[[-122.3596, 40.898], [-122.36, 40.8971], [-122.3607, 40.8969], [-122.361, 40.8969], [-122.361, 40.8971], [-122.3624, 40.8971], [-122.3635, 40.896], [-122.3617, 40.8952], [-122.356, 40.8953], [-122.3549, 40.8964], [-122.3528, 40.8965], [-122.3536, 40.8973], [-122.3542, 40.8967], [-122.3546, 40.8975], [-122.3553, 40.8967], [-122.3575, 40.8975], [-122.3596, 40.8971], [-122.3596, 40.898]], [[-122.3582, 40.8969], [-122.3578, 40.8972], [-122.3578, 40.8969], [-122.3582, 40.8969]], [[-122.3614, 40.8966], [-122.361, 40.8969], [-122.361, 40.8966], [-122.3614, 40.8966]], [[-122.3603, 40.8966], [-122.3599, 40.8969], [-122.3599, 40.8966], [-122.3603, 40.8966]], [[-122.3599, 40.8963], [-122.3596, 40.8966], [-122.3596, 40.8963], [-122.3599, 40.8963]], [[-122.361, 40.896], [-122.3606, 40.8963], [-122.3606, 40.896], [-122.361, 40.896]], [[-122.3596, 40.8961], [-122.3592, 40.8963], [-122.3592, 40.8961], [-122.3596, 40.8961]], [[-122.3624, 40.8957], [-122.3621, 40.896], [-122.362, 40.8957], [-122.3624, 40.8957]], [[-122.3603, 40.8958], [-122.3596, 40.8961], [-122.3596, 40.8958], [-122.3603, 40.8958]]]]}, "properties": {"layer": "cell", "cell_id": "521_1000", "seed_zone": "521", "elevation_band": "1000–1500 ft"}}, {"type": "Feature", "geometry": {"type": "MultiPolygon", "coordinates": [[[[-122.3966, 40.9502], [-122.3966, 40.9494], [-122.3959, 40.9492], [-122.3959, 40.9497], [-122.3966, 40.9502]]], [[[-122.3763, 40.9501], [-122.3763, 40.9495], [-122.3755, 40.949], [-122.3752, 40.9498], [-122.3763, 40.9501]]], [[[-122.3951, 40.9492], [-122.3959, 40.9489], [-122.3951, 40.9486], [-122.3951, 40.9492]]], [[[-122.3839, 40.9543], [-122.3849, 40.9526], [-122.3892, 40.952], [-122.3898, 40.9501], [-122.3887, 40.9493], [-122.3892, 40.9515], [-122.3867, 40.951], [-122.3853, 40.9518], [-122.3869, 40.948], [-122.3855, 40.9483], [-122.3833, 40.9475], [-122.3837, 40.9483], [-122.3827, 40.95], [-122.3838, 40.9494], [-122.3852, 40.9497], [-122.3849, 40.951], [-122.3827, 40.9508], [-122.3842, 40.9521], [-122.3828, 40.9535], [-122.3839, 40.9543]], [[-122.3849, 40.9521], [-122.3846, 40.9524], [-122.3846, 40.9521], [-122.3849, 40.9521]], [[-122.3853, 40.9518], [-122.3849, 40.9521], [-122.3849, 40.9518], [-122.3853, 40.9518]], [[-122.3855, 40.9494], [-122.3852, 40.9497], [-122.3852, 40.9494], [-122.3855, 40.9494]]], [[[-122.3951, 40.9486], [-122.3944, 40.9476], [-122.3933, 40.9476], [-122.3936, 40.9462], [-122.3922, 40.9465], [-122.3929, 40.9468], [-122.3923, 40.9479], [-122.3951, 40.9486]]], [[[-122.3973, 40.9491], [-122.3997, 40.9472], [-122.3979, 40.9456], [-122.3965, 40.9465], [-122.3973, 40.9491]], [[-122.3986, 40.9467], [-122.3983, 40.947], [-122.3983, 40.9467], [-122.3986, 40.9467]]], [[[-122.3844, 40.9464], [-122.3861, 40.9458], [-122.3843, 40.9456], [-122.3844, 40.9464]]], [[[-122.3949, 40.9424], [-122.3984, 40.9413], [-122.3984, 40.9407], [-122.3977, 40.941], [-122.3974, 40.9405], [-122.3974, 40.941], [-122.396, 40.9413], [-122.3952, 40.9408], [-122.3942, 40.9411], [-122.3934, 40.9403], [-122.3931, 40.9417], [-122.3949, 40.9424]], [[-122.3952, 40.9413], [-122.3949, 40.9416], [-122.3949, 40.9414], [-122.3952, 40.9413]]], [[[-122.3722, 40.935], [-122.3726, 40.9345], [-122.3711, 40.9337], [-122.3712, 40.9348], [-122.3722, 40.935]]], [[[-122.3718, 40.9337], [-122.3718, 40.9329], [-122.3711, 40.9323], [-122.3707, 40.9329], [-122.3718, 40.9337]]], [[[-122.3444, 40.9009], [-122.3444, 40.9004], [-122.343, 40.9007], [-122.343, 40.901], [-122.3444, 40.9009]]], [[[-122.3565, 40.8999], [-122.3565, 40.8994], [-122.3554, 40.8994], [-122.3554, 40.8997], [-122.3565, 40.8999]]], [[[-122.3437, 40.9002], [-122.3447, 40.8996], [-122.3437, 40.8996], [-122.3437, 40.9002]]], [[[-122.3589, 40.8988], [-122.36, 40.899], [-122.36, 40.8985], [-122.3589, 40.8988]]], [[[-122.3518, 40.8989], [-122.3529, 40.8986], [-122.3518, 40.8986], [-122.3518, 40.8989]]], [[[-122.3447, 40.8982], [-122.345, 40.8974], [-122.3443, 40.8974], [-122.3447, 40.8982]]], [[[-122.3443, 40.8961], [-122.346, 40.8955], [-122.3446, 40.8953], [-122.3443, 40.8961]]], [[[-122.3403, 40.8953], [-122.3407, 40.8956], [-122.341, 40.8953], [-122.3403, 40.8953]]], [[[-122.3495, 40.8941], [-122.3502, 40.8935], [-122.3502, 40.8925], [-122.3488, 40.8928], [-122.3495, 40.8941]]]]}, "properties": {"layer": "cell", "cell_id": "521_1500", "seed_zone": "521", "elevation_band": "1500–2000 ft"}}, {"type": "Feature", "geometry": {"type": "MultiPolygon", "coordinates": [[[[-122.346, 40.9044], [-122.3463, 40.9033], [-122.3459, 40.9034], [-122.346, 40.9044]]], [[[-122.3462, 40.8901], [-122.3462, 40.889], [-122.3455, 40.889], [-122.3455, 40.8898], [-122.3462, 40.8901]]], [[[-122.345, 40.8847], [-122.3449, 40.8842], [-122.3439, 40.8837], [-122.3439, 40.8842], [-122.345, 40.8847]]], [[[-122.3488, 40.8836], [-122.3488, 40.883], [-122.3492, 40.8827], [-122.3485, 40.8828], [-122.3488, 40.8836]]], [[[-122.3474, 40.8836], [-122.3474, 40.8825], [-122.3463, 40.8828], [-122.3463, 40.8831], [-122.3474, 40.8836]]], [[[-122.3423, 40.8802], [-122.343, 40.8796], [-122.3423, 40.8796], [-122.3423, 40.8802]]], [[[-122.3451, 40.8788], [-122.3454, 40.8774], [-122.344, 40.8774], [-122.344, 40.8782], [-122.3451, 40.8788]]]]}, "properties": {"layer": "cell", "cell_id": "521_2000", "seed_zone": "521", "elevation_band": "2000–2500 ft"}}, {"type": "Feature", "geometry": {"type": "Polygon", "coordinates": [[[-122.3446, 40.885], [-122.3446, 40.8845], [-122.3435, 40.8847], [-122.3435, 40.885], [-122.3446, 40.885]]]}, "properties": {"layer": "cell", "cell_id": "521_2500", "seed_zone": "521", "elevation_band": "2500–3000 ft"}}]}
