{"type": "FeatureCollection", "features": [{"type": "Feature", "geometry": {"type": "MultiPolygon", "coordinates": [[[[-120.7789, 36.0143], [-120.7781, 36.0134], [-120.7773, 36.0138], [-120.7754, 36.017], [-120.7752, 36.0178], [-120.7763, 36.0198], [-120.7731, 36.0206], [-120.7692, 36.0236], [-120.7657, 36.0237], [-120.7661, 36.0231], [-120.7662, 36.023], [-120.7662, 36.0229], [-120.7648, 36.0217], [-120.7665, 36.0221], [-120.7664, 36.0214], [-120.7616, 36.015], [-120.7584, 36.007], [-120.759, 36.0019], [-120.7624, 35.9993], [-120.7645, 35.9996], [-120.7647, 35.9988], [-120.7677, 35.9976], [-120.7701, 35.9971], [-120.7707, 35.9991], [-120.7726, 35.9994], [-120.7763, 35.9976], [-120.7801, 35.9973], [-120.7838, 36.0082], [-120.7837, 36.0099], [-120.7819, 36.0114], [-120.7813, 36.0139], [-120.7799, 36.0126], [-120.7789, 36.0143]]], [[[-120.7789, 36.0143], [-120.7789, 36.0143], [-120.7789, 36.0143], [-120.7789, 36.0143]]]]}, "properties": {"layer": "perimeter"}}, {"type": "Feature", "geometry": {"type": "MultiPolygon", "coordinates": [[[[-120.7789, 36.0142], [-120.7781, 36.0134], [-120.7773, 36.0138], [-120.7754, 36.017], [-120.7752, 36.0178], [-120.7763, 36.0198], [-120.7731, 36.0206], [-120.7692, 36.0236], [-120.7657, 36.0237], [-120.7661, 36.0231], [-120.7662, 36.023], [-120.7662, 36.0229], [-120.7648, 36.0217], [-120.7665, 36.0221], [-120.7664, 36.0214], [-120.7616, 36.015], [-120.7584, 36.007], [-120.759, 36.0019], [-120.7624, 35.9993], [-120.7645, 35.9996], [-120.7647, 35.9988], [-120.7677, 35.9976], [-120.7701, 35.9971], [-120.7707, 35.9991], [-120.7726, 35.9994], [-120.7763, 35.9976], [-120.7801, 35.9973], [-120.7838, 36.0082], [-120.7837, 36.0099], [-120.7819, 36.0114], [-120.7813, 36.0139], [-120.7799, 36.0126], [-120.7789, 36.0142]]], [[[-120.7789, 36.0143], [-120.7789, 36.0143], [-120.7789, 36.0143], [-120.7789, 36.0143]]]]}, "properties": {"layer": "retained"}}]}
