{"type": "FeatureCollection", "features": [{"type": "Feature", "geometry": {"type": "MultiPolygon", "coordinates": [[[[-121.861, 37.5152], [-121.8605, 37.514], [-121.8571, 37.5148], [-121.8532, 37.5131], [-121.8543, 37.5143], [-121.8541, 37.5155], [-121.8524, 37.5151], [-121.851, 37.5164], [-121.8495, 37.5165], [-121.849, 37.5146], [-121.8475, 37.5145], [-121.8441, 37.5125], [-121.8379, 37.5124], [-121.8413, 37.5117], [-121.8418, 37.5108], [-121.8383, 37.5081], [-121.8379, 37.5048], [-121.8343, 37.5039], [-121.8331, 37.503], [-121.8321, 37.5002], [-121.8324, 37.4986], [-121.8341, 37.4971], [-121.8318, 37.4959], [-121.8311, 37.4939], [-121.83, 37.493], [-121.8307, 37.4927], [-121.8303, 37.4905], [-121.8293, 37.4902], [-121.8291, 37.4892], [-121.8298, 37.4867], [-121.8328, 37.4865], [-121.8314, 37.4847], [-121.8327, 37.4819], [-121.8312, 37.4812], [-121.832, 37.4805], [-121.8377, 37.4798], [-121.838, 37.4814], [-121.8372, 37.4835], [-121.8379, 37.4843], [-121.8414, 37.4847], [-121.8443, 37.4861], [-121.8429, 37.4876], [-121.8409, 37.4884], [-121.8421, 37.4897], [-121.8476, 37.4877], [-121.85, 37.4907], [-121.8495, 37.4918], [-121.8516, 37.4928], [-121.8522, 37.4937], [-121.8537, 37.4922], [-121.8539, 37.4905], [-121.8579, 37.4917], [-121.8613, 37.494], [-121.8639, 37.5002], [-121.8641, 37.5026], [-121.8629, 37.5041], [-121.8631, 37.507], [-121.8625, 37.5075], [-121.8632, 37.5096], [-121.8647, 37.5115], [-121.8684, 37.5129], [-121.8696, 37.5155], [-121.8649, 37.5171], [-121.8644, 37.5163], [-121.8636, 37.5171], [-121.8623, 37.5168], [-121.8622, 37.5155], [-121.861, 37.5152]]], [[[-121.8412, 37.5668], [-121.8396, 37.5683], [-121.8385, 37.568], [-121.8372, 37.5658], [-121.8327, 37.5626], [-121.8336, 37.5621], [-121.8347, 37.5591], [-121.8329, 37.5568], [-121.8333, 37.5559], [-121.8307, 37.5526], [-121.8321, 37.552], [-121.8355, 37.5533], [-121.8368, 37.5507], [-121.8384, 37.5509], [-121.8402, 37.5528], [-121.8429, 37.5525], [-121.8452, 37.5506], [-121.8465, 37.5521], [-121.8513, 37.5514], [-121.8582, 37.5518], [-121.8591, 37.556], [-121.8573, 37.5595], [-121.8541, 37.5613], [-121.8493, 37.5613], [-121.8478, 37.5625], [-121.8472, 37.5664], [-121.8452, 37.5685], [-121.8439, 37.5679], [-121.8419, 37.5685], [-121.8412, 37.5668]]], [[[-121.9291, 37.6315], [-121.9251, 37.6327], [-121.9249, 37.6325], [-121.925, 37.6322], [-121.9253, 37.632], [-121.925, 37.6314], [-121.9264, 37.631], [-121.9281, 37.6289], [-121.9291, 37.6289], [-121.9298, 37.6301], [-121.9291, 37.6303], [-121.9291, 37.6315]], [[-121.925, 37.6325], [-121.925, 37.6325], [-121.925, 37.6325], [-121.925, 37.6325]]], [[[-121.7859, 37.8673], [-121.7837, 37.8653], [-121.7843, 37.8642], [-121.7926, 37.86], [-121.7976, 37.86], [-121.7993, 37.8613], [-121.7982, 37.8634], [-121.794, 37.8666], [-121.7859, 37.8673]]], [[[-121.7885, 37.8685], [-121.7899, 37.8685], [-121.791, 37.8693], [-121.791, 37.871], [-121.7876, 37.8711], [-121.7873, 37.8698], [-121.7885, 37.8685]]], [[[-121.7817, 37.8949], [-121.7806, 37.895], [-121.7803, 37.8942], [-121.7766, 37.8921], [-121.7852, 37.896], [-121.7824, 37.8959], [-121.7817, 37.8949]]], [[[-121.4854, 37.6041], [-121.483, 37.6025], [-121.4803, 37.6029], [-121.4744, 37.6009], [-121.4754, 37.5997], [-121.4753, 37.5979], [-121.4737, 37.5975], [-121.472, 37.5957], [-121.4743, 37.592], [-121.4714, 37.5892], [-121.4655, 37.5848], [-121.4607, 37.5837], [-121.4612, 37.5823], [-121.4577, 37.5817], [-121.4564, 37.5823], [-121.4539, 37.5798], [-121.451, 37.5786], [-121.4514, 37.5775], [-121.45, 37.5746], [-121.4434, 37.5719], [-121.4419, 37.5694], [-121.4416, 37.5668], [-121.4424, 37.5658], [-121.4391, 37.5663], [-121.4376, 37.565], [-121.434, 37.5541], [-121.4282, 37.557], [-121.4239, 37.5567], [-121.423, 37.558], [-121.426, 37.5603], [-121.4269, 37.5635], [-121.4239, 37.5663], [-121.4196, 37.5679], [-121.421, 37.5711], [-121.4195, 37.5726], [-121.4161, 37.5734], [-121.4144, 37.5756], [-121.4104, 37.5752], [-121.4066, 37.5766], [-121.3991, 37.575], [-121.3967, 37.5756], [-121.3956, 37.5738], [-121.3882, 37.5725], [-121.3857, 37.5706], [-121.3853, 37.5693], [-121.3817, 37.5679], [-121.3788, 37.5652], [-121.379, 37.5643], [-121.3821, 37.5622], [-121.3829, 37.5604], [-121.3879, 37.5618], [-121.3914, 37.5615], [-121.3952, 37.5636], [-121.3991, 37.5623], [-121.4014, 37.5623], [-121.4053, 37.5605], [-121.4072, 37.5569], [-121.4094, 37.5554], [-121.4088, 37.5514], [-121.4151, 37.5461], [-121.4116, 37.5426], [-121.4108, 37.5402], [-121.4124, 37.5393], [-121.4123, 37.538], [-121.4135, 37.5369], [-121.4145, 37.5368], [-121.4134, 37.5349], [-121.4142, 37.5316], [-121.4122, 37.53], [-121.4113, 37.5277], [-121.4121, 37.5259], [-121.412, 37.5159], [-121.4095, 37.5105], [-121.4082, 37.5056], [-121.4047, 37.5027], [-121.402, 37.4974], [-121.3981, 37.4952], [-121.3974, 37.4916], [-121.3953, 37.4892], [-121.3973, 37.4868], [-121.3935, 37.4859], [-121.391, 37.4869], [-121.3859, 37.4838], [-121.3823, 37.4829], [-121.3803, 37.4832], [-121.3751, 37.4821], [-121.3728, 37.4809], [-121.3687, 37.4805], [-121.3677, 37.4793], [-121.3659, 37.4791], [-121.3646, 37.478], [-121.3653, 37.4717], [-121.3633, 37.4716], [-121.3609, 37.4746], [-121.3569, 37.476], [-121.3533, 37.475], [-121.3531, 37.4768], [-121.3518, 37.4776], [-121.3467, 37.476], [-121.3432, 37.4772], [-121.3346, 37.4761], [-121.3303, 37.4737], [-121.3283, 37.4748], [-121.3208, 37.4738], [-121.3176, 37.4721], [-121.3139, 37.4716], [-121.313, 37.4696], [-121.3104, 37.4689], [-121.303, 37.4638], [-121.2993, 37.4652], [-121.298, 37.4618], [-121.296, 37.4608], [-121.2931, 37.4567], [-121.2932, 37.4552], [-121.2904, 37.4496], [-121.2899, 37.4472], [-121.2882, 37.4464], [-121.2875, 37.4451], [-121.2901, 37.4435], [-121.2924, 37.444], [-121.297, 37.4427], [-121.2993, 37.4413], [-121.2995, 37.4399], [-121.2948, 37.4405], [-121.2925, 37.4423], [-121.2891, 37.4433], [-121.2857, 37.4411], [-121.2848, 37.4415], [-121.2842, 37.444], [-121.2819, 37.4456], [-121.2815, 37.4479], [-121.2823, 37.4493], [-121.2807, 37.4529], [-121.2792, 37.4529], [-121.2783, 37.4521], [-121.268, 37.4529], [-121.264, 37.4515], [-121.2627, 37.4485], [-121.2613, 37.4479], [-121.2556, 37.4476], [-121.255, 37.448], [-121.2566, 37.4506], [-121.2527, 37.4565], [-121.2555, 37.4587], [-121.2532, 37.46], [-121.253, 37.4615], [-121.2519, 37.4617], [-121.2512, 37.4626], [-121.2541, 37.4656], [-121.2528, 37.4661], [-121.2499, 37.4648], [-121.2445, 37.4667], [-121.2437, 37.4694], [-121.2406, 37.4719], [-121.2403, 37.4735], [-121.2383, 37.4743], [-121.2353, 37.4738], [-121.2333, 37.4753], [-121.2294, 37.4757], [-121.2285, 37.4767], [-121.2272, 37.4763], [-121.2258, 37.4776], [-121.2217, 37.477], [-121.2183, 37.478], [-121.2148, 37.4781], [-121.2118, 37.4801], [-121.2101, 37.4796], [-121.2052, 37.4757], [-121.2066, 37.469], [-121.2087, 37.4662], [-121.2086, 37.4649], [-121.2068, 37.4622], [-121.2004, 37.4572], [-121.1962, 37.4522], [-121.194, 37.4507], [-121.1954, 37.4473], [-121.195, 37.4445], [-121.1888, 37.4286], [-121.1858, 37.4249], [-121.1858, 37.4234], [-121.1874, 37.4224], [-121.1932, 37.423], [-121.1939, 37.4236], [-121.1971, 37.4288], [-121.1977, 37.4323], [-121.1999, 37.4367], [-121.203, 37.4412], [-121.2037, 37.442], [-121.2048, 37.4417], [-121.2044, 37.438], [-121.2077, 37.4431], [-121.2096, 37.4437], [-121.2117, 37.4425], [-121.2077, 37.44], [-121.2066, 37.4368], [-121.2054, 37.4356], [-121.2019, 37.4354], [-121.1996, 37.4313], [-121.1986, 37.4262], [-121.2039, 37.427], [-121.2118, 37.4248], [-121.2159, 37.4266], [-121.219, 37.4265], [-121.2232, 37.4252], [-121.2259, 37.4261], [-121.2281, 37.4258], [-121.2307, 37.4273], [-121.2357, 37.4284], [-121.2381, 37.4277], [-121.2398, 37.4249], [-121.2455, 37.4188], [-121.2472, 37.4145], [-121.2514, 37.4152], [-121.2538, 37.4171], [-121.2563, 37.421], [-121.2612, 37.4262], [-121.264, 37.4282], [-121.2669, 37.4292], [-121.2737, 37.4286], [-121.2759, 37.4271], [-121.2769, 37.4272], [-121.2796, 37.4243], [-121.2801, 37.4245], [-121.2816, 37.4283], [-121.2825, 37.4341], [-121.2834, 37.4347], [-121.287, 37.4349], [-121.2883, 37.4328], [-121.2885, 37.4302], [-121.2866, 37.4286], [-121.2847, 37.4284], [-121.2836, 37.4256], [-121.2821, 37.4248], [-121.283, 37.423], [-121.2848, 37.4241], [-121.2851, 37.4225], [-121.2823, 37.4224], [-121.2815, 37.4218], [-121.2782, 37.4222], [-121.2744, 37.4195], [-121.2736, 37.4181], [-121.2744, 37.416], [-121.278, 37.4132], [-121.2786, 37.4118], [-121.2845, 37.4092], [-121.2894, 37.4051], [-121.2924, 37.4047], [-121.2967, 37.4026], [-121.297, 37.401], [-121.295, 37.3983], [-121.2955, 37.3969], [-121.2938, 37.3962], [-121.2923, 37.3961], [-121.2915, 37.3969], [-121.2901, 37.3965], [-121.2882, 37.4007], [-121.2869, 37.4017], [-121.2853, 37.4008], [-121.2839, 37.3983], [-121.2799, 37.3965], [-121.2805, 37.3948], [-121.2801, 37.3883], [-121.2786, 37.388], [-121.2783, 37.387], [-121.2837, 37.3802], [-121.2857, 37.3757], [-121.2885, 37.3741], [-121.2911, 37.3705], [-121.2943, 37.3691], [-121.2923, 37.3672], [-121.2896, 37.3659], [-121.2881, 37.363], [-121.2866, 37.3624], [-121.286, 37.3598], [-121.2817, 37.3549], [-121.281, 37.3528], [-121.2776, 37.3514], [-121.2753, 37.3491], [-121.2719, 37.3475], [-121.2661, 37.3404], [-121.2633, 37.3396], [-121.2527, 37.3408], [-121.2506, 37.342], [-121.2502, 37.3435], [-121.248, 37.3435], [-121.2462, 37.3456], [-121.2453, 37.3453], [-121.2446, 37.346], [-121.2433, 37.3437], [-121.2419, 37.3443], [-121.2401, 37.3432], [-121.2395, 37.3435], [-121.2382, 37.3496], [-121.2358, 37.3518], [-121.2324, 37.3522], [-121.2285, 37.3542], [-121.2267, 37.3579], [-121.2245, 37.3587], [-121.2248, 37.3601], [-121.223, 37.3624], [-121.2198, 37.3618], [-121.2173, 37.3601], [-121.2155, 37.3614], [-121.2144, 37.3605], [-121.2131, 37.3605], [-121.2104, 37.3626], [-121.2086, 37.3626], [-121.2072, 37.3635], [-121.2054, 37.3632], [-121.2024, 37.3603], [-121.1998, 37.3532], [-121.1925, 37.3514], [-121.1874, 37.3528], [-121.1868, 37.3506], [-121.1872, 37.3445], [-121.1863, 37.3414], [-121.1874, 37.3381], [-121.1909, 37.3328], [-121.1912, 37.3294], [-121.1847, 37.321], [-121.1841, 37.3189], [-121.1801, 37.3135], [-121.1873, 37.3126], [-121.1887, 37.3142], [-121.1909, 37.3134], [-121.1894, 37.3127], [-121.1892, 37.3117], [-121.1894, 37.3091], [-121.1909, 37.3087], [-121.1902, 37.3081], [-121.19, 37.3051], [-121.1889, 37.305], [-121.1893, 37.3045], [-121.1888, 37.3035], [-121.1878, 37.3034], [-121.1861, 37.3003], [-121.1874, 37.2992], [-121.1854, 37.2967], [-121.1871, 37.2949], [-121.1863, 37.2943], [-121.1891, 37.2917], [-121.1915, 37.2904], [-121.1942, 37.2901], [-121.1948, 37.2893], [-121.193, 37.2862], [-121.194, 37.2853], [-121.1939, 37.2845], [-121.1915, 37.2828], [-121.1896, 37.2762], [-121.1874, 37.2731], [-121.1856, 37.2722], [-121.1847, 37.2677], [-121.182, 37.2644], [-121.1819, 37.2631], [-121.1801, 37.2622], [-121.1804, 37.2607], [-121.1796, 37.2585], [-121.177, 37.2576], [-121.1727, 37.2543], [-121.1734, 37.2532], [-121.1766, 37.2511], [-121.1714, 37.2531], [-121.1682, 37.253], [-121.1663, 37.2541], [-121.1631, 37.2538], [-121.1608, 37.2527], [-121.1568, 37.2474], [-121.1554, 37.2437], [-121.1528, 37.2412], [-121.1527, 37.2393], [-121.1508, 37.2381], [-121.1466, 37.2327], [-121.1462, 37.2309], [-121.1485, 37.2279], [-121.1508, 37.228], [-121.1544, 37.2259], [-121.158, 37.2224], [-121.1628, 37.2216], [-121.1633, 37.2221], [-121.167, 37.2222], [-121.1684, 37.2214], [-121.1744, 37.221], [-121.1751, 37.2192], [-121.1769, 37.2184], [-121.1789, 37.2191], [-121.1814, 37.2179], [-121.1862, 37.2184], [-121.1874, 37.2166], [-121.1959, 37.215], [-121.1978, 37.2138], [-121.2001, 37.2141], [-121.2006, 37.2148], [-121.2024, 37.214], [-121.2039, 37.2149], [-121.2061, 37.2145], [-121.207, 37.2136], [-121.2114, 37.2126], [-121.2144, 37.2081], [-121.216, 37.2088], [-121.2163, 37.2081], [-121.2138, 37.2074], [-121.212, 37.208], [-121.2105, 37.2103], [-121.2056, 37.2106], [-121.2045, 37.2099], [-121.2041, 37.2119], [-121.2006, 37.2107], [-121.2, 37.2089], [-121.2023, 37.2066], [-121.2032, 37.2024], [-121.2006, 37.2001], [-121.2003, 37.1984], [-121.1971, 37.196], [-121.1939, 37.1959], [-121.1905, 37.198], [-121.1889, 37.1948], [-121.1871, 37.1956], [-121.1872, 37.1939], [-121.183, 37.1919], [-121.1801, 37.194], [-121.1775, 37.1941], [-121.1691, 37.1865], [-121.1685, 37.1807], [-121.16, 37.1749], [-121.1574, 37.1711], [-121.1542, 37.1694], [-121.1508, 37.1694], [-121.1497, 37.1687], [-121.1472, 37.1683], [-121.1384, 37.1692], [-121.1334, 37.1665], [-121.1362, 37.1639], [-121.1367, 37.1624], [-121.1311, 37.1576], [-121.131, 37.1526], [-121.1335, 37.1525], [-121.1339, 37.1519], [-121.1371, 37.1533], [-121.1402, 37.1535], [-121.1417, 37.1529], [-121.142, 37.1515], [-121.1334, 37.1422], [-121.1304, 37.1376], [-121.1305, 37.1339], [-121.131, 37.1331], [-121.1327, 37.1325], [-121.1333, 37.131], [-121.1348, 37.1322], [-121.1369, 37.1302], [-121.1381, 37.1326], [-121.1399, 37.1319], [-121.1422, 37.1331], [-121.1434, 37.1324], [-121.1427, 37.1345], [-121.1438, 37.1389], [-121.1444, 37.1394], [-121.1457, 37.1379], [-121.1486, 37.139], [-121.1489, 37.1406], [-121.1508, 37.1409], [-121.1518, 37.1431], [-121.1551, 37.1446], [-121.1562, 37.148], [-121.1581, 37.1483], [-121.1587, 37.1498], [-121.1611, 37.1497], [-121.1617, 37.1513], [-121.1605, 37.1524], [-121.164, 37.1526], [-121.1643, 37.1553], [-121.1658, 37.1553], [-121.166, 37.157], [-121.1674, 37.1586], [-121.1688, 37.1581], [-121.1692, 37.1589], [-121.1705, 37.1588], [-121.1717, 37.1556], [-121.1744, 37.1587], [-121.1778, 37.1576], [-121.1781, 37.1582], [-121.1789, 37.1581], [-121.1794, 37.1575], [-121.1786, 37.1561], [-121.176, 37.1542], [-121.1766, 37.1542], [-121.177, 37.1535], [-121.1746, 37.1523], [-121.175, 37.1515], [-121.1767, 37.1522], [-121.1807, 37.1523], [-121.1818, 37.1538], [-121.1826, 37.1527], [-121.1846, 37.1546], [-121.1847, 37.1536], [-121.1871, 37.1553], [-121.1906, 37.1558], [-121.1931, 37.1554], [-121.1942, 37.1566], [-121.1937, 37.1576], [-121.195, 37.1585], [-121.1965, 37.1582], [-121.1975, 37.1569], [-121.1982, 37.1578], [-121.2049, 37.1592], [-121.204, 37.1511], [-121.2018, 37.1538], [-121.201, 37.1536], [-121.199, 37.1501], [-121.1974, 37.1499], [-121.192, 37.1522], [-121.1916, 37.1507], [-121.19, 37.1504], [-121.1903, 37.15], [-121.1894, 37.1496], [-121.1903, 37.1485], [-121.1956, 37.1478], [-121.1986, 37.1481], [-121.1999, 37.1469], [-121.2013, 37.1472], [-121.2017, 37.1462], [-121.2047, 37.1445], [-121.2098, 37.1425], [-121.2098, 37.1415], [-121.2114, 37.1403], [-121.2109, 37.1388], [-121.2122, 37.1383], [-121.2136, 37.1391], [-121.2146, 37.1381], [-121.2151, 37.1388], [-121.2171, 37.1383], [-121.2182, 37.1398], [-121.2192, 37.1399], [-121.2248, 37.1377], [-121.2288, 37.1342], [-121.2309, 37.1334], [-121.2309, 37.1345], [-121.2291, 37.1356], [-121.2291, 37.1369], [-121.2307, 37.1378], [-121.2297, 37.1394], [-121.2331, 37.1401], [-121.2358, 37.1422], [-121.2377, 37.1422], [-121.2397, 37.1448], [-121.2426, 37.1427], [-121.2441, 37.1435], [-121.2441, 37.1451], [-121.2468, 37.1451], [-121.2485, 37.1467], [-121.2546, 37.1458], [-121.2566, 37.1471], [-121.2621, 37.1461], [-121.2644, 37.1463], [-121.2692, 37.1478], [-121.271, 37.1512], [-121.2739, 37.1491], [-121.2756, 37.1486], [-121.2765, 37.1463], [-121.278, 37.1451], [-121.2816, 37.1441], [-121.2833, 37.1414], [-121.2863, 37.1408], [-121.2879, 37.1392], [-121.2897, 37.1386], [-121.2919, 37.139], [-121.2981, 37.1356], [-121.3022, 37.136], [-121.3035, 37.1349], [-121.3036, 37.1328], [-121.3059, 37.1317], [-121.305, 37.1295], [-121.3052, 37.1274], [-121.3068, 37.1241], [-121.3131, 37.1185], [-121.3174, 37.1165], [-121.3191, 37.1113], [-121.3226, 37.1103], [-121.3253, 37.1085], [-121.3297, 37.1043], [-121.3295, 37.1032], [-121.3364, 37.1016], [-121.3385, 37.1027], [-121.3402, 37.1022], [-121.3428, 37.103], [-121.3455, 37.1053], [-121.3459, 37.1073], [-121.3488, 37.1094], [-121.354, 37.1087], [-121.3614, 37.1142], [-121.3634, 37.1175], [-121.3658, 37.1172], [-121.3665, 37.1159], [-121.3662, 37.1141], [-121.3702, 37.1108], [-121.3779, 37.1118], [-121.3794, 37.1129], [-121.3841, 37.1202], [-121.3865, 37.1215], [-121.388, 37.1176], [-121.3877, 37.1158], [-121.39, 37.1157], [-121.3907, 37.1144], [-121.3936, 37.1135], [-121.3945, 37.1125], [-121.394, 37.1119], [-121.3961, 37.1099], [-121.3992, 37.1112], [-121.4023, 37.1109], [-121.4043, 37.1115], [-121.407, 37.1183], [-121.4099, 37.1196], [-121.4118, 37.1169], [-121.4165, 37.1133], [-121.4165, 37.1097], [-121.4174, 37.1084], [-121.4192, 37.1073], [-121.4199, 37.1088], [-121.4205, 37.1078], [-121.422, 37.1074], [-121.4258, 37.1086], [-121.4314, 37.1123], [-121.4342, 37.113], [-121.4404, 37.1185], [-121.4433, 37.1189], [-121.4479, 37.1212], [-121.4497, 37.1262], [-121.4528, 37.1271], [-121.4592, 37.132], [-121.462, 37.1373], [-121.472, 37.1403], [-121.4773, 37.1456], [-121.4764, 37.1493], [-121.4789, 37.1526], [-121.4805, 37.1535], [-121.4818, 37.1558], [-121.4807, 37.1598], [-121.482, 37.1624], [-121.4794, 37.1646], [-121.4789, 37.1668], [-121.479, 37.1704], [-121.48, 37.1705], [-121.4794, 37.1728], [-121.4803, 37.1732], [-121.4802, 37.1739], [-121.4787, 37.1739], [-121.4772, 37.1757], [-121.4797, 37.1775], [-121.48, 37.1786], [-121.4829, 37.179], [-121.4816, 37.1798], [-121.4824, 37.1835], [-121.4817, 37.1845], [-121.4833, 37.1871], [-121.4807, 37.1869], [-121.4808, 37.1891], [-121.4838, 37.1902], [-121.4853, 37.1916], [-121.488, 37.1918], [-121.4914, 37.1937], [-121.4931, 37.194], [-121.496, 37.1932], [-121.4986, 37.1968], [-121.4991, 37.1988], [-121.5011, 37.1998], [-121.5039, 37.203], [-121.5058, 37.2073], [-121.5095, 37.21], [-121.5099, 37.2114], [-121.513, 37.2123], [-121.5135, 37.2141], [-121.5176, 37.2156], [-121.5174, 37.2167], [-121.5138, 37.2183], [-121.5109, 37.2227], [-121.509, 37.2217], [-121.5104, 37.2233], [-121.5089, 37.226], [-121.5091, 37.2269], [-121.5084, 37.2272], [-121.5101, 37.2275], [-121.5101, 37.2281], [-121.5081, 37.2284], [-121.5099, 37.2295], [-121.5094, 37.2314], [-121.5099, 37.2314], [-121.5101, 37.234], [-121.5089, 37.2343], [-121.5099, 37.2345], [-121.5091, 37.2351], [-121.5101, 37.2351], [-121.5098, 37.2372], [-121.5115, 37.2394], [-121.5142, 37.2397], [-121.5175, 37.2418], [-121.5198, 37.241], [-121.5211, 37.2417], [-121.5233, 37.2416], [-121.5263, 37.2439], [-121.5257, 37.246], [-121.5271, 37.2467], [-121.5268, 37.2474], [-121.5258, 37.2474], [-121.5266, 37.2486], [-121.5261, 37.2496], [-121.5283, 37.255], [-121.5285, 37.2581], [-121.5304, 37.2587], [-121.5315, 37.2608], [-121.5346, 37.2615], [-121.539, 37.2646], [-121.5439, 37.2655], [-121.5448, 37.2669], [-121.5548, 37.2733], [-121.5566, 37.2791], [-121.5595, 37.2805], [-121.559, 37.2845], [-121.5595, 37.2853], [-121.5627, 37.2864], [-121.5634, 37.2878], [-121.5631, 37.2901], [-121.566, 37.2927], [-121.5687, 37.2927], [-121.5705, 37.2913], [-121.5735, 37.2917], [-121.5753, 37.2911], [-121.5774, 37.2917], [-121.5799, 37.2913], [-121.5843, 37.2947], [-121.5881, 37.2964], [-121.59, 37.2987], [-121.5912, 37.3022], [-121.5926, 37.3026], [-121.5918, 37.3046], [-121.5934, 37.307], [-121.5966, 37.3075], [-121.5979, 37.3097], [-121.6013, 37.3106], [-121.6013, 37.3089], [-121.6026, 37.3082], [-121.6041, 37.3079], [-121.6053, 37.3086], [-121.607, 37.3078], [-121.6082, 37.3098], [-121.6049, 37.312], [-121.6061, 37.3129], [-121.6042, 37.3134], [-121.6039, 37.3141], [-121.6047, 37.3151], [-121.6069, 37.3155], [-121.6133, 37.3142], [-121.6148, 37.3146], [-121.6211, 37.3116], [-121.6236, 37.3091], [-121.6264, 37.3082], [-121.6304, 37.3091], [-121.6313, 37.313], [-121.6329, 37.314], [-121.6373, 37.3122], [-121.6378, 37.3134], [-121.6399, 37.3127], [-121.6486, 37.3153], [-121.6522, 37.3183], [-121.6545, 37.319], [-121.6558, 37.3213], [-121.6601, 37.3208], [-121.6633, 37.3214], [-121.6668, 37.3234], [-121.6697, 37.3258], [-121.672, 37.329], [-121.6715, 37.3339], [-121.673, 37.3362], [-121.6762, 37.3365], [-121.6777, 37.3317], [-121.6804, 37.3279], [-121.6823, 37.3291], [-121.6824, 37.3304], [-121.6811, 37.3314], [-121.6824, 37.3337], [-121.6835, 37.3388], [-121.6828, 37.3422], [-121.6853, 37.3452], [-121.6875, 37.3466], [-121.6873, 37.3494], [-121.6882, 37.3504], [-121.6895, 37.3508], [-121.6903, 37.3494], [-121.6915, 37.3492], [-121.6944, 37.3471], [-121.6951, 37.3454], [-121.7026, 37.3444], [-121.7076, 37.3448], [-121.7095, 37.3462], [-121.7156, 37.348], [-121.716, 37.353], [-121.7149, 37.3556], [-121.7129, 37.3574], [-121.7122, 37.3606], [-121.7242, 37.3635], [-121.7267, 37.3624], [-121.7261, 37.3641], [-121.7274, 37.364], [-121.7292, 37.3673], [-121.729, 37.3693], [-121.7261, 37.3732], [-121.727, 37.3747], [-121.7257, 37.3751], [-121.7257, 37.3764], [-121.728, 37.3777], [-121.7277, 37.3803], [-121.7294, 37.3807], [-121.73, 37.3822], [-121.7329, 37.384], [-121.7326, 37.3846], [-121.734, 37.3857], [-121.7357, 37.3858], [-121.7361, 37.3866], [-121.7358, 37.3883], [-121.7311, 37.3904], [-121.7307, 37.3919], [-121.7266, 37.396], [-121.7267, 37.3976], [-121.7284, 37.3991], [-121.7348, 37.4006], [-121.7346, 37.4055], [-121.7356, 37.4083], [-121.7319, 37.4135], [-121.7313, 37.4178], [-121.7339, 37.4217], [-121.7349, 37.4217], [-121.7378, 37.424], [-121.7452, 37.431], [-121.7546, 37.4309], [-121.7582, 37.4298], [-121.761, 37.4311], [-121.7612, 37.4326], [-121.7625, 37.4328], [-121.7652, 37.4352], [-121.7651, 37.4369], [-121.7678, 37.4406], [-121.7679, 37.4429], [-121.7692, 37.4428], [-121.7704, 37.4445], [-121.7704, 37.4464], [-121.7724, 37.4471], [-121.7727, 37.4483], [-121.7738, 37.4489], [-121.7757, 37.4486], [-121.7767, 37.4493], [-121.7763, 37.4514], [-121.7787, 37.4518], [-121.78, 37.4504], [-121.7848, 37.4524], [-121.7846, 37.4543], [-121.789, 37.4571], [-121.7912, 37.4605], [-121.7923, 37.4606], [-121.7943, 37.4583], [-121.7955, 37.4609], [-121.8048, 37.4619], [-121.808, 37.4633], [-121.8079, 37.4653], [-121.806, 37.4669], [-121.8089, 37.4677], [-121.8084, 37.4688], [-121.8099, 37.4707], [-121.8122, 37.4711], [-121.8122, 37.4725], [-121.8145, 37.4744], [-121.8138, 37.4769], [-121.8109, 37.4779], [-121.8104, 37.4759], [-121.8089, 37.4747], [-121.8031, 37.4775], [-121.7956, 37.4745], [-121.7951, 37.4757], [-121.8006, 37.4791], [-121.8033, 37.4794], [-121.804, 37.4782], [-121.8085, 37.4771], [-121.8111, 37.4798], [-121.8128, 37.4803], [-121.8176, 37.4796], [-121.8232, 37.4827], [-121.8238, 37.4839], [-121.823, 37.4859], [-121.8198, 37.4856], [-121.8176, 37.4864], [-121.8154, 37.4849], [-121.8092, 37.4866], [-121.8076, 37.4881], [-121.8063, 37.4872], [-121.804, 37.4876], [-121.8036, 37.4889], [-121.8016, 37.4889], [-121.7965, 37.4955], [-121.7956, 37.4945], [-121.7956, 37.4894], [-121.7948, 37.4884], [-121.7886, 37.4862], [-121.782, 37.4889], [-121.7792, 37.4881], [-121.7769, 37.4888], [-121.7741, 37.4879], [-121.7723, 37.4853], [-121.7696, 37.4876], [-121.767, 37.4886], [-121.7563, 37.4902], [-121.7538, 37.4933], [-121.7545, 37.4938], [-121.754, 37.4953], [-121.7571, 37.4951], [-121.7581, 37.4962], [-121.7593, 37.4964], [-121.7594, 37.4975], [-121.7629, 37.4978], [-121.7627, 37.5001], [-121.7649, 37.4998], [-121.7732, 37.501], [-121.7738, 37.5022], [-121.7734, 37.5053], [-121.7717, 37.5083], [-121.7716, 37.5113], [-121.7726, 37.5114], [-121.7724, 37.5138], [-121.7733, 37.5155], [-121.7713, 37.5197], [-121.7676, 37.5197], [-121.7661, 37.519], [-121.766, 37.5181], [-121.7645, 37.5175], [-121.7647, 37.5167], [-121.762, 37.515], [-121.7604, 37.5155], [-121.7594, 37.5168], [-121.7563, 37.5153], [-121.7544, 37.5152], [-121.7541, 37.5158], [-121.7536, 37.5175], [-121.7552, 37.5216], [-121.7589, 37.5226], [-121.7594, 37.5242], [-121.7604, 37.5247], [-121.7608, 37.5309], [-121.7597, 37.5335], [-121.7577, 37.5319], [-121.7555, 37.5316], [-121.753, 37.5332], [-121.7488, 37.5314], [-121.7468, 37.5331], [-121.7432, 37.5332], [-121.7396, 37.5306], [-121.7357, 37.5305], [-121.7266, 37.527], [-121.724, 37.5274], [-121.7252, 37.5292], [-121.7222, 37.5312], [-121.7156, 37.5307], [-121.7139, 37.5312], [-121.714, 37.534], [-121.7154, 37.5346], [-121.7131, 37.5376], [-121.7115, 37.5378], [-121.7064, 37.5363], [-121.7046, 37.5336], [-121.702, 37.5324], [-121.7001, 37.5301], [-121.6956, 37.5289], [-121.6921, 37.5261], [-121.6893, 37.5251], [-121.6858, 37.5227], [-121.6843, 37.5223], [-121.6831, 37.5227], [-121.6808, 37.5261], [-121.6834, 37.5294], [-121.6832, 37.5312], [-121.6853, 37.5332], [-121.6898, 37.5399], [-121.6935, 37.5482], [-121.6918, 37.5484], [-121.6909, 37.5472], [-121.6886, 37.5466], [-121.6836, 37.5477], [-121.6807, 37.5456], [-121.6815, 37.5426], [-121.6804, 37.5425], [-121.6808, 37.5415], [-121.6799, 37.5414], [-121.68, 37.5404], [-121.675, 37.5382], [-121.6737, 37.5364], [-121.6677, 37.5333], [-121.6623, 37.5316], [-121.6609, 37.5324], [-121.6575, 37.5315], [-121.6557, 37.5303], [-121.6549, 37.5282], [-121.6508, 37.5314], [-121.651, 37.5319], [-121.6481, 37.5334], [-121.6469, 37.531], [-121.6439, 37.5294], [-121.6417, 37.5267], [-121.6417, 37.5249], [-121.6395, 37.5232], [-121.6388, 37.5211], [-121.6346, 37.5176], [-121.6353, 37.5144], [-121.634, 37.5131], [-121.6353, 37.5112], [-121.6354, 37.5096], [-121.6296, 37.5079], [-121.6296, 37.5073], [-121.628, 37.5066], [-121.6285, 37.505], [-121.6274, 37.5037], [-121.6307, 37.5012], [-121.6296, 37.4997], [-121.6265, 37.5012], [-121.6237, 37.4989], [-121.6251, 37.4991], [-121.6301, 37.4957], [-121.6297, 37.4937], [-121.631, 37.4902], [-121.628, 37.4858], [-121.626, 37.4856], [-121.6218, 37.4836], [-121.6205, 37.4843], [-121.6169, 37.4836], [-121.6164, 37.4821], [-121.6149, 37.4819], [-121.6126, 37.4826], [-121.6116, 37.4853], [-121.6103, 37.4848], [-121.6082, 37.4894], [-121.6069, 37.4866], [-121.6084, 37.4829], [-121.6066, 37.4806], [-121.6069, 37.4793], [-121.6011, 37.4765], [-121.6001, 37.4745], [-121.5986, 37.474], [-121.5977, 37.472], [-121.5962, 37.4713], [-121.5971, 37.4688], [-121.5965, 37.4658], [-121.5937, 37.464], [-121.5971, 37.4602], [-121.5968, 37.4571], [-121.5986, 37.454], [-121.601, 37.4526], [-121.6011, 37.4518], [-121.6033, 37.4517], [-121.6031, 37.4511], [-121.5975, 37.4506], [-121.5955, 37.4494], [-121.591, 37.449], [-121.59, 37.4481], [-121.59, 37.4463], [-121.5857, 37.446], [-121.5851, 37.4461], [-121.5849, 37.4488], [-121.5829, 37.4501], [-121.58, 37.4491], [-121.5753, 37.4491], [-121.5727, 37.4507], [-121.5628, 37.4504], [-121.5569, 37.4483], [-121.5518, 37.4439], [-121.5435, 37.4418], [-121.5392, 37.4382], [-121.5314, 37.4346], [-121.5277, 37.4333], [-121.5209, 37.4328], [-121.5213, 37.4313], [-121.5188, 37.4311], [-121.5171, 37.428], [-121.5149, 37.4282], [-121.5145, 37.4293], [-121.5128, 37.4295], [-121.5131, 37.4328], [-121.5123, 37.4333], [-121.5122, 37.4356], [-121.5124, 37.4386], [-121.5173, 37.4443], [-121.5143, 37.4493], [-121.5143, 37.4507], [-121.5161, 37.4531], [-121.5164, 37.459], [-121.5192, 37.4634], [-121.5193, 37.466], [-121.5205, 37.4685], [-121.5238, 37.4712], [-121.5264, 37.4772], [-121.5316, 37.4818], [-121.533, 37.4849], [-121.5348, 37.4863], [-121.5355, 37.4882], [-121.5338, 37.4907], [-121.5339, 37.4927], [-121.5364, 37.4971], [-121.5354, 37.499], [-121.5382, 37.5003], [-121.5393, 37.5028], [-121.5395, 37.5082], [-121.5406, 37.5098], [-121.5407, 37.5135], [-121.5464, 37.5188], [-121.5453, 37.5203], [-121.5435, 37.52], [-121.5411, 37.5212], [-121.5385, 37.521], [-121.5362, 37.5223], [-121.5404, 37.5243], [-121.5393, 37.5256], [-121.5428, 37.5267], [-121.5421, 37.5275], [-121.5453, 37.5306], [-121.545, 37.5318], [-121.5468, 37.535], [-121.5485, 37.5361], [-121.549, 37.5374], [-121.5509, 37.5391], [-121.5522, 37.5396], [-121.5525, 37.5407], [-121.552, 37.5418], [-121.5498, 37.5425], [-121.5497, 37.5444], [-121.548, 37.5446], [-121.5471, 37.5442], [-121.5469, 37.543], [-121.5445, 37.543], [-121.5428, 37.5421], [-121.541, 37.5401], [-121.5416, 37.5398], [-121.5405, 37.5393], [-121.5399, 37.5399], [-121.5438, 37.5475], [-121.5432, 37.55], [-121.5407, 37.5499], [-121.5411, 37.5523], [-121.5385, 37.5564], [-121.5408, 37.5583], [-121.5424, 37.5608], [-121.5443, 37.5665], [-121.54, 37.5686], [-121.5366, 37.5681], [-121.5357, 37.5697], [-121.5346, 37.57], [-121.5321, 37.5691], [-121.5327, 37.5725], [-121.5321, 37.5741], [-121.5281, 37.5779], [-121.5249, 37.5792], [-121.5229, 37.5819], [-121.523, 37.5831], [-121.5215, 37.5853], [-121.5232, 37.5869], [-121.5234, 37.5914], [-121.5202, 37.5928], [-121.5196, 37.5943], [-121.5215, 37.5963], [-121.5245, 37.5977], [-121.523, 37.5993], [-121.519, 37.6027], [-121.5186, 37.6023], [-121.5176, 37.603], [-121.5168, 37.6047], [-121.5166, 37.6039], [-121.514, 37.6033], [-121.5102, 37.6049], [-121.5076, 37.6043], [-121.5035, 37.6045], [-121.503, 37.6052], [-121.4998, 37.6055], [-121.4985, 37.6102], [-121.4995, 37.6128], [-121.4973, 37.6136], [-121.4964, 37.616], [-121.4929, 37.6104], [-121.4902, 37.6081], [-121.4913, 37.6064], [-121.4893, 37.6047], [-121.4854, 37.6041]], [[-121.5496, 37.4185], [-121.5446, 37.4149], [-121.5435, 37.4133], [-121.5406, 37.4124], [-121.5393, 37.4113], [-121.538, 37.4115], [-121.5374, 37.4097], [-121.536, 37.4089], [-121.5356, 37.4067], [-121.536, 37.4042], [-121.537, 37.403], [-121.5388, 37.4042], [-121.5413, 37.4045], [-121.5436, 37.4034], [-121.5452, 37.4006], [-121.5445, 37.3996], [-121.5452, 37.3987], [-121.5446, 37.3971], [-121.5426, 37.3946], [-121.5429, 37.3936], [-121.5412, 37.3924], [-121.5411, 37.3911], [-121.5387, 37.3895], [-121.5393, 37.3876], [-121.5383, 37.3839], [-121.5428, 37.3787], [-121.5426, 37.3781], [-121.5396, 37.3787], [-121.5389, 37.3773], [-121.5367, 37.3761], [-121.5365, 37.3734], [-121.5342, 37.3717], [-121.5332, 37.369], [-121.5309, 37.3694], [-121.53, 37.3725], [-121.5286, 37.3722], [-121.5279, 37.3716], [-121.5277, 37.3689], [-121.5269, 37.3681], [-121.5236, 37.3675], [-121.5221, 37.365], [-121.5166, 37.3645], [-121.5162, 37.3651], [-121.5147, 37.3654], [-121.5137, 37.3639], [-121.5095, 37.364], [-121.5043, 37.3601], [-121.5016, 37.3596], [-121.5009, 37.3555], [-121.4951, 37.3518], [-121.4919, 37.3445], [-121.4891, 37.3439], [-121.4866, 37.3447], [-121.4846, 37.3464], [-121.4781, 37.3455], [-121.4775, 37.3403], [-121.4762, 37.3375], [-121.4763, 37.3331], [-121.4748, 37.3292], [-121.4755, 37.3269], [-121.4746, 37.3249], [-121.4751, 37.3244], [-121.4749, 37.3188], [-121.4731, 37.3166], [-121.4685, 37.3143], [-121.4661, 37.3108], [-121.4663, 37.3074], [-121.4622, 37.3095], [-121.4618, 37.3099], [-121.4627, 37.3104], [-121.4596, 37.3099], [-121.4592, 37.311], [-121.4614, 37.3118], [-121.4629, 37.3116], [-121.4662, 37.316], [-121.4647, 37.3159], [-121.4612, 37.3184], [-121.4614, 37.3223], [-121.4639, 37.3246], [-121.4649, 37.3265], [-121.4675, 37.3244], [-121.4698, 37.3246], [-121.4725, 37.3271], [-121.4724, 37.3295], [-121.4701, 37.3296], [-121.4677, 37.3284], [-121.4679, 37.3292], [-121.465, 37.3301], [-121.4589, 37.3288], [-121.4578, 37.3299], [-121.4565, 37.3291], [-121.4532, 37.3302], [-121.4527, 37.3311], [-121.4544, 37.332], [-121.4568, 37.3321], [-121.456, 37.3349], [-121.4575, 37.3359], [-121.451, 37.3363], [-121.4507, 37.3401], [-121.4494, 37.3412], [-121.4482, 37.3412], [-121.448, 37.3426], [-121.4488, 37.3433], [-121.449, 37.3456], [-121.4504, 37.3469], [-121.4554, 37.3491], [-121.4558, 37.3511], [-121.4571, 37.3513], [-121.4609, 37.3505], [-121.4639, 37.351], [-121.4663, 37.3519], [-121.4683, 37.354], [-121.474, 37.3561], [-121.4748, 37.3576], [-121.474, 37.3613], [-121.4746, 37.3625], [-121.4732, 37.3639], [-121.4741, 37.371], [-121.4736, 37.3714], [-121.4654, 37.37], [-121.4654, 37.371], [-121.4688, 37.3751], [-121.4731, 37.3787], [-121.4738, 37.3814], [-121.4779, 37.3853], [-121.4821, 37.3853], [-121.4831, 37.3851], [-121.4833, 37.3841], [-121.4858, 37.3842], [-121.4891, 37.3863], [-121.4885, 37.388], [-121.491, 37.3881], [-121.4912, 37.3887], [-121.4898, 37.3923], [-121.4909, 37.3971], [-121.4918, 37.3977], [-121.4928, 37.3965], [-121.4946, 37.3974], [-121.4957, 37.3958], [-121.4947, 37.3929], [-121.4956, 37.3856], [-121.4976, 37.3849], [-121.5024, 37.3878], [-121.5075, 37.393], [-121.5094, 37.3937], [-121.5098, 37.3953], [-121.5124, 37.3982], [-121.5166, 37.3997], [-121.5199, 37.3997], [-121.5248, 37.4008], [-121.5279, 37.4055], [-121.5278, 37.4065], [-121.5269, 37.4078], [-121.5243, 37.4091], [-121.5231, 37.4117], [-121.525, 37.4133], [-121.5271, 37.4167], [-121.5319, 37.4186], [-121.5343, 37.4202], [-121.536, 37.4206], [-121.5382, 37.4188], [-121.5427, 37.4198], [-121.545, 37.4189], [-121.5457, 37.4191], [-121.5458, 37.4205], [-121.5473, 37.4211], [-121.552, 37.4202], [-121.5522, 37.419], [-121.5496, 37.4185]]], [[[-121.7736, 37.633], [-121.7726, 37.629], [-121.7715, 37.6287], [-121.7725, 37.6268], [-121.7682, 37.6244], [-121.7703, 37.6241], [-121.7706, 37.6232], [-121.7749, 37.6226], [-121.7802, 37.6257], [-121.7804, 37.6268], [-121.7793, 37.6306], [-121.7781, 37.6318], [-121.7739, 37.6342], [-121.7728, 37.6362], [-121.7698, 37.6355], [-121.7724, 37.6344], [-121.7722, 37.6339], [-121.7736, 37.633]]], [[[-121.7912, 37.857], [-121.7845, 37.8538], [-121.7843, 37.8506], [-121.7805, 37.8492], [-121.7812, 37.8484], [-121.7792, 37.8494], [-121.7776, 37.8495], [-121.7783, 37.8494], [-121.7775, 37.849], [-121.7792, 37.8471], [-121.7794, 37.8482], [-121.7804, 37.8481], [-121.7814, 37.8468], [-121.7822, 37.8477], [-121.7824, 37.8468], [-121.7809, 37.8451], [-121.7802, 37.8455], [-121.7787, 37.8445], [-121.7756, 37.8445], [-121.7726, 37.8427], [-121.7722, 37.8406], [-121.7751, 37.8412], [-121.7758, 37.8407], [-121.7746, 37.8384], [-121.7762, 37.8379], [-121.7751, 37.8357], [-121.7709, 37.835], [-121.7701, 37.8325], [-121.766, 37.8302], [-121.7624, 37.8267], [-121.7612, 37.8239], [-121.7562, 37.8178], [-121.7544, 37.8168], [-121.7541, 37.816], [-121.7557, 37.8156], [-121.7558, 37.815], [-121.7526, 37.8143], [-121.7521, 37.8134], [-121.7528, 37.8128], [-121.751, 37.8123], [-121.7489, 37.8087], [-121.7484, 37.8066], [-121.7509, 37.8048], [-121.7526, 37.8055], [-121.7557, 37.804], [-121.7606, 37.8067], [-121.764, 37.8074], [-121.7689, 37.81], [-121.7726, 37.8154], [-121.7769, 37.8154], [-121.7797, 37.8187], [-121.7795, 37.8208], [-121.7809, 37.821], [-121.7813, 37.8223], [-121.7827, 37.823], [-121.7829, 37.8224], [-121.7846, 37.8224], [-121.7865, 37.8239], [-121.7879, 37.8236], [-121.7884, 37.8249], [-121.7877, 37.8264], [-121.7897, 37.8283], [-121.7891, 37.8308], [-121.7898, 37.8303], [-121.7915, 37.8308], [-121.7923, 37.8331], [-121.7948, 37.8343], [-121.7956, 37.8368], [-121.7972, 37.8375], [-121.7997, 37.8419], [-121.7992, 37.8492], [-121.7999, 37.8488], [-121.8021, 37.8511], [-121.7975, 37.856], [-121.7912, 37.857]]], [[[-121.7774, 37.8796], [-121.7743, 37.8788], [-121.7702, 37.8752], [-121.7666, 37.8745], [-121.7575, 37.8683], [-121.7677, 37.8664], [-121.7708, 37.8637], [-121.7726, 37.8638], [-121.7759, 37.8658], [-121.7767, 37.8677], [-121.7758, 37.8696], [-121.7806, 37.8707], [-121.7856, 37.8738], [-121.7848, 37.8762], [-121.7816, 37.8793], [-121.7774, 37.8796]]], [[[-121.7804, 37.8839], [-121.7788, 37.8819], [-121.7799, 37.8823], [-121.7802, 37.8833], [-121.7816, 37.8828], [-121.782, 37.8837], [-121.7804, 37.8839]]]]}, "properties": {"layer": "perimeter"}}, {"type": "Feature", "geometry": {"type": "MultiPolygon", "coordinates": [[[[-121.8607, 37.515], [-121.8605, 37.514], [-121.8571, 37.5148], [-121.8532, 37.5131], [-121.8543, 37.5143], [-121.8541, 37.5155], [-121.8524, 37.5151], [-121.851, 37.5164], [-121.8495, 37.5165], [-121.849, 37.5146], [-121.8475, 37.5145], [-121.8441, 37.5125], [-121.8379, 37.5124], [-121.8413, 37.5117], [-121.8418, 37.5108], [-121.8383, 37.5081], [-121.8379, 37.5048], [-121.8343, 37.5039], [-121.8331, 37.503], [-121.8321, 37.5002], [-121.8324, 37.4986], [-121.8341, 37.4971], [-121.8318, 37.4959], [-121.8311, 37.4939], [-121.83, 37.493], [-121.8307, 37.4927], [-121.8303, 37.4905], [-121.8293, 37.4902], [-121.8291, 37.4892], [-121.8298, 37.4867], [-121.8328, 37.4865], [-121.8314, 37.4847], [-121.8327, 37.4819], [-121.8312, 37.4812], [-121.832, 37.4805], [-121.8377, 37.4798], [-121.838, 37.4814], [-121.8372, 37.4835], [-121.8379, 37.4843], [-121.8414, 37.4847], [-121.8443, 37.4861], [-121.8429, 37.4876], [-121.8409, 37.4884], [-121.8421, 37.4897], [-121.8476, 37.4877], [-121.85, 37.4907], [-121.8495, 37.4918], [-121.8516, 37.4928], [-121.8522, 37.4937], [-121.8537, 37.4922], [-121.8539, 37.4905], [-121.8579, 37.4917], [-121.8613, 37.494], [-121.8639, 37.5002], [-121.8641, 37.5026], [-121.8629, 37.5041], [-121.8631, 37.507], [-121.8625, 37.5075], [-121.8632, 37.5096], [-121.8647, 37.5115], [-121.8684, 37.5129], [-121.8696, 37.5155], [-121.8649, 37.5171], [-121.8644, 37.5163], [-121.8636, 37.5171], [-121.8623, 37.5168], [-121.8622, 37.5155], [-121.8607, 37.515]]], [[[-121.8412, 37.5668], [-121.8396, 37.5683], [-121.8385, 37.568], [-121.8372, 37.5658], [-121.8327, 37.5626], [-121.8336, 37.5621], [-121.8347, 37.5591], [-121.8329, 37.5568], [-121.8333, 37.5559], [-121.8307, 37.5526], [-121.8321, 37.552], [-121.8355, 37.5533], [-121.8368, 37.5507], [-121.8384, 37.5509], [-121.8402, 37.5528], [-121.8429, 37.5525], [-121.8452, 37.5506], [-121.8465, 37.5521], [-121.8513, 37.5514], [-121.8582, 37.5518], [-121.8591, 37.556], [-121.8573, 37.5595], [-121.8541, 37.5613], [-121.8493, 37.5613], [-121.8478, 37.5625], [-121.8472, 37.5664], [-121.8452, 37.5685], [-121.8439, 37.5679], [-121.8419, 37.5685], [-121.8412, 37.5668]]], [[[-121.9291, 37.6315], [-121.9251, 37.6327], [-121.9249, 37.6325], [-121.925, 37.6322], [-121.9253, 37.632], [-121.925, 37.6314], [-121.9264, 37.631], [-121.9281, 37.6289], [-121.9291, 37.6289], [-121.9298, 37.6301], [-121.9291, 37.6303], [-121.9291, 37.6315]], [[-121.925, 37.6325], [-121.925, 37.6325], [-121.925, 37.6325], [-121.925, 37.6325]]], [[[-121.7837, 37.8653], [-121.7843, 37.8642], [-121.7926, 37.86], [-121.7976, 37.86], [-121.7993, 37.8613], [-121.7982, 37.8634], [-121.794, 37.8666], [-121.7859, 37.8673], [-121.7837, 37.8653]]], [[[-121.7899, 37.8685], [-121.7915, 37.8701], [-121.791, 37.871], [-121.7876, 37.8711], [-121.7878, 37.8691], [-121.7899, 37.8685]]], [[[-121.7821, 37.895], [-121.7801, 37.8947], [-121.7803, 37.8942], [-121.7766, 37.8921], [-121.7852, 37.896], [-121.7824, 37.8959], [-121.7821, 37.895]]], [[[-121.484, 37.6028], [-121.4803, 37.6029], [-121.4744, 37.6009], [-121.4754, 37.5997], [-121.4753, 37.5979], [-121.4737, 37.5975], [-121.472, 37.5957], [-121.4743, 37.592], [-121.4714, 37.5892], [-121.4655, 37.5848], [-121.4607, 37.5837], [-121.4612, 37.5823], [-121.4577, 37.5817], [-121.4564, 37.5823], [-121.4539, 37.5798], [-121.451, 37.5786], [-121.4514, 37.5775], [-121.45, 37.5746], [-121.4434, 37.5719], [-121.4419, 37.5694], [-121.4416, 37.5668], [-121.4424, 37.5658], [-121.4391, 37.5663], [-121.4376, 37.565], [-121.434, 37.5541], [-121.4282, 37.557], [-121.4239, 37.5567], [-121.423, 37.558], [-121.426, 37.5603], [-121.4269, 37.5635], [-121.4239, 37.5663], [-121.4196, 37.5679], [-121.421, 37.5711], [-121.4195, 37.5726], [-121.4161, 37.5734], [-121.4144, 37.5756], [-121.4104, 37.5752], [-121.4066, 37.5766], [-121.3991, 37.575], [-121.3967, 37.5756], [-121.3956, 37.5738], [-121.3882, 37.5725], [-121.3857, 37.5706], [-121.3853, 37.5693], [-121.3817, 37.5679], [-121.3788, 37.5652], [-121.379, 37.5643], [-121.3821, 37.5622], [-121.3829, 37.5604], [-121.3879, 37.5618], [-121.3914, 37.5615], [-121.3952, 37.5636], [-121.3991, 37.5623], [-121.4014, 37.5623], [-121.4053, 37.5605], [-121.4072, 37.5569], [-121.4094, 37.5554], [-121.4088, 37.5514], [-121.4151, 37.5461], [-121.4116, 37.5426], [-121.4108, 37.5402], [-121.4124, 37.5393], [-121.4123, 37.538], [-121.4135, 37.5369], [-121.4145, 37.5368], [-121.4134, 37.5349], [-121.4142, 37.5316], [-121.4122, 37.53], [-121.4113, 37.5277], [-121.4121, 37.5259], [-121.412, 37.5159], [-121.4095, 37.5105], [-121.4082, 37.5056], [-121.4047, 37.5027], [-121.402, 37.4974], [-121.3981, 37.4952], [-121.3974, 37.4916], [-121.3953, 37.4892], [-121.3973, 37.4868], [-121.3935, 37.4859], [-121.391, 37.4869], [-121.3859, 37.4838], [-121.3823, 37.4829], [-121.3803, 37.4832], [-121.3751, 37.4821], [-121.3728, 37.4809], [-121.3687, 37.4805], [-121.3677, 37.4793], [-121.3659, 37.4791], [-121.3646, 37.478], [-121.3653, 37.4717], [-121.3633, 37.4716], [-121.3609, 37.4746], [-121.3569, 37.476], [-121.3533, 37.475], [-121.3531, 37.4768], [-121.3518, 37.4776], [-121.3467, 37.476], [-121.3432, 37.4772], [-121.3346, 37.4761], [-121.3303, 37.4737], [-121.3283, 37.4748], [-121.3208, 37.4738], [-121.3176, 37.4721], [-121.3139, 37.4716], [-121.313, 37.4696], [-121.3104, 37.4689], [-121.303, 37.4638], [-121.2993, 37.4652], [-121.298, 37.4618], [-121.296, 37.4608], [-121.2931, 37.4567], [-121.2932, 37.4552], [-121.2904, 37.4496], [-121.2899, 37.4472], [-121.2882, 37.4464], [-121.2875, 37.4451], [-121.2901, 37.4435], [-121.2924, 37.444], [-121.297, 37.4427], [-121.2993, 37.4413], [-121.2995, 37.4399], [-121.2948, 37.4405], [-121.2925, 37.4423], [-121.2891, 37.4433], [-121.2857, 37.4411], [-121.2848, 37.4415], [-121.2842, 37.444], [-121.2819, 37.4456], [-121.2815, 37.4479], [-121.2823, 37.4493], [-121.2807, 37.4529], [-121.2792, 37.4529], [-121.2783, 37.4521], [-121.268, 37.4529], [-121.264, 37.4515], [-121.2627, 37.4485], [-121.2613, 37.4479], [-121.2556, 37.4476], [-121.255, 37.448], [-121.2566, 37.4506], [-121.2527, 37.4565], [-121.2555, 37.4587], [-121.2532, 37.46], [-121.253, 37.4615], [-121.2519, 37.4617], [-121.2512, 37.4626], [-121.2541, 37.4656], [-121.2528, 37.4661], [-121.2499, 37.4648], [-121.2445, 37.4667], [-121.2437, 37.4694], [-121.2406, 37.4719], [-121.2403, 37.4735], [-121.2383, 37.4743], [-121.2353, 37.4738], [-121.2333, 37.4753], [-121.2294, 37.4757], [-121.2285, 37.4767], [-121.2272, 37.4763], [-121.2258, 37.4776], [-121.2217, 37.477], [-121.2183, 37.478], [-121.2148, 37.4781], [-121.2118, 37.4801], [-121.2101, 37.4796], [-121.2052, 37.4757], [-121.2066, 37.469], [-121.2087, 37.4662], [-121.2086, 37.4649], [-121.2068, 37.4622], [-121.2004, 37.4572], [-121.1962, 37.4522], [-121.194, 37.4507], [-121.1954, 37.4473], [-121.195, 37.4445], [-121.1888, 37.4286], [-121.1858, 37.4249], [-121.1858, 37.4234], [-121.1874, 37.4224], [-121.1932, 37.423], [-121.1939, 37.4236], [-121.1971, 37.4288], [-121.1977, 37.4323], [-121.1999, 37.4367], [-121.203, 37.4412], [-121.2037, 37.442], [-121.2048, 37.4417], [-121.2044, 37.438], [-121.2077, 37.4431], [-121.2096, 37.4437], [-121.2117, 37.4425], [-121.2077, 37.44], [-121.2066, 37.4368], [-121.2054, 37.4356], [-121.2019, 37.4354], [-121.1996, 37.4313], [-121.1986, 37.4262], [-121.2039, 37.427], [-121.2118, 37.4248], [-121.2159, 37.4266], [-121.219, 37.4265], [-121.2232, 37.4252], [-121.2259, 37.4261], [-121.2281, 37.4258], [-121.2307, 37.4273], [-121.2357, 37.4284], [-121.2381, 37.4277], [-121.2398, 37.4249], [-121.2455, 37.4188], [-121.2472, 37.4145], [-121.2514, 37.4152], [-121.2538, 37.4171], [-121.2563, 37.421], [-121.2612, 37.4262], [-121.264, 37.4282], [-121.2669, 37.4292], [-121.2737, 37.4286], [-121.2759, 37.4271], [-121.2769, 37.4272], [-121.2796, 37.4243], [-121.2801, 37.4245], [-121.2816, 37.4283], [-121.2825, 37.4341], [-121.2834, 37.4347], [-121.287, 37.4349], [-121.2883, 37.4328], [-121.2885, 37.4302], [-121.2866, 37.4286], [-121.2847, 37.4284], [-121.2836, 37.4256], [-121.2821, 37.4248], [-121.283, 37.423], [-121.2848, 37.4241], [-121.2851, 37.4225], [-121.2823, 37.4224], [-121.2815, 37.4218], [-121.2782, 37.4222], [-121.2744, 37.4195], [-121.2736, 37.4181], [-121.2744, 37.416], [-121.278, 37.4132], [-121.2786, 37.4118], [-121.2845, 37.4092], [-121.2894, 37.4051], [-121.2924, 37.4047], [-121.2967, 37.4026], [-121.297, 37.401], [-121.295, 37.3983], [-121.2955, 37.3969], [-121.2938, 37.3962], [-121.2923, 37.3961], [-121.2915, 37.3969], [-121.2901, 37.3965], [-121.2882, 37.4007], [-121.2869, 37.4017], [-121.2853, 37.4008], [-121.2839, 37.3983], [-121.2799, 37.3965], [-121.2805, 37.3948], [-121.2801, 37.3883], [-121.2786, 37.388], [-121.2783, 37.387], [-121.2837, 37.3802], [-121.2857, 37.3757], [-121.2885, 37.3741], [-121.2911, 37.3705], [-121.2943, 37.3691], [-121.2923, 37.3672], [-121.2896, 37.3659], [-121.2881, 37.363], [-121.2866, 37.3624], [-121.286, 37.3598], [-121.2817, 37.3549], [-121.281, 37.3528], [-121.2776, 37.3514], [-121.2753, 37.3491], [-121.2719, 37.3475], [-121.2661, 37.3404], [-121.2633, 37.3396], [-121.2527, 37.3408], [-121.2506, 37.342], [-121.2502, 37.3435], [-121.248, 37.3435], [-121.2462, 37.3456], [-121.2453, 37.3453], [-121.2446, 37.346], [-121.2433, 37.3437], [-121.2419, 37.3443], [-121.2401, 37.3432], [-121.2395, 37.3435], [-121.2382, 37.3496], [-121.2358, 37.3518], [-121.2324, 37.3522], [-121.2285, 37.3542], [-121.2267, 37.3579], [-121.2245, 37.3587], [-121.2248, 37.3601], [-121.223, 37.3624], [-121.2198, 37.3618], [-121.2173, 37.3601], [-121.2155, 37.3614], [-121.2144, 37.3605], [-121.2131, 37.3605], [-121.2104, 37.3626], [-121.2086, 37.3626], [-121.2072, 37.3635], [-121.2054, 37.3632], [-121.2024, 37.3603], [-121.1998, 37.3532], [-121.1925, 37.3514], [-121.1874, 37.3528], [-121.1868, 37.3506], [-121.1872, 37.3445], [-121.1863, 37.3414], [-121.1874, 37.3381], [-121.1909, 37.3328], [-121.1912, 37.3294], [-121.1847, 37.321], [-121.1841, 37.3189], [-121.1801, 37.3135], [-121.1873, 37.3126], [-121.1887, 37.3142], [-121.1909, 37.3134], [-121.1894, 37.3127], [-121.1892, 37.3117], [-121.1894, 37.3091], [-121.1909, 37.3087], [-121.1902, 37.3081], [-121.19, 37.3051], [-121.1889, 37.305], [-121.1893, 37.3045], [-121.1888, 37.3035], [-121.1878, 37.3034], [-121.1861, 37.3003], [-121.1874, 37.2992], [-121.1854, 37.2967], [-121.1871, 37.2949], [-121.1863, 37.2943], [-121.1891, 37.2917], [-121.1915, 37.2904], [-121.1942, 37.2901], [-121.1948, 37.2893], [-121.193, 37.2862], [-121.194, 37.2853], [-121.1939, 37.2845], [-121.1915, 37.2828], [-121.1896, 37.2762], [-121.1874, 37.2731], [-121.1856, 37.2722], [-121.1847, 37.2677], [-121.182, 37.2644], [-121.1819, 37.2631], [-121.1801, 37.2622], [-121.1804, 37.2607], [-121.1796, 37.2585], [-121.177, 37.2576], [-121.1727, 37.2543], [-121.1734, 37.2532], [-121.1766, 37.2511], [-121.1714, 37.2531], [-121.1682, 37.253], [-121.1663, 37.2541], [-121.1631, 37.2538], [-121.1608, 37.2527], [-121.1568, 37.2474], [-121.1554, 37.2437], [-121.1528, 37.2412], [-121.1527, 37.2393], [-121.1508, 37.2381], [-121.1466, 37.2327], [-121.1462, 37.2309], [-121.1485, 37.2279], [-121.1508, 37.228], [-121.1544, 37.2259], [-121.158, 37.2224], [-121.1628, 37.2216], [-121.1633, 37.2221], [-121.167, 37.2222], [-121.1684, 37.2214], [-121.1744, 37.221], [-121.1751, 37.2192], [-121.1769, 37.2184], [-121.1789, 37.2191], [-121.1814, 37.2179], [-121.1862, 37.2184], [-121.1874, 37.2166], [-121.1959, 37.215], [-121.1978, 37.2138], [-121.2001, 37.2141], [-121.2006, 37.2148], [-121.2024, 37.214], [-121.2039, 37.2149], [-121.2061, 37.2145], [-121.207, 37.2136], [-121.2114, 37.2126], [-121.2144, 37.2081], [-121.216, 37.2088], [-121.2163, 37.2081], [-121.2138, 37.2074], [-121.212, 37.208], [-121.2105, 37.2103], [-121.2056, 37.2106], [-121.2045, 37.2099], [-121.2041, 37.2119], [-121.2006, 37.2107], [-121.2, 37.2089], [-121.2023, 37.2066], [-121.2032, 37.2024], [-121.2006, 37.2001], [-121.2003, 37.1984], [-121.1971, 37.196], [-121.1939, 37.1959], [-121.1905, 37.198], [-121.1889, 37.1948], [-121.1871, 37.1956], [-121.1872, 37.1939], [-121.183, 37.1919], [-121.1801, 37.194], [-121.1775, 37.1941], [-121.1691, 37.1865], [-121.1685, 37.1807], [-121.16, 37.1749], [-121.1574, 37.1711], [-121.1542, 37.1694], [-121.1508, 37.1694], [-121.1497, 37.1687], [-121.1472, 37.1683], [-121.1384, 37.1692], [-121.1334, 37.1665], [-121.1362, 37.1639], [-121.1367, 37.1624], [-121.1311, 37.1576], [-121.131, 37.1526], [-121.1335, 37.1525], [-121.1339, 37.1519], [-121.1371, 37.1533], [-121.1402, 37.1535], [-121.1417, 37.1529], [-121.142, 37.1515], [-121.1334, 37.1422], [-121.1304, 37.1376], [-121.1305, 37.1339], [-121.131, 37.1331], [-121.1327, 37.1325], [-121.1333, 37.131], [-121.1348, 37.1322], [-121.1369, 37.1302], [-121.1381, 37.1326], [-121.1399, 37.1319], [-121.1422, 37.1331], [-121.1434, 37.1324], [-121.1427, 37.1345], [-121.1438, 37.1389], [-121.1444, 37.1394], [-121.1457, 37.1379], [-121.1486, 37.139], [-121.1489, 37.1406], [-121.1508, 37.1409], [-121.1518, 37.1431], [-121.1551, 37.1446], [-121.1562, 37.148], [-121.1581, 37.1483], [-121.1587, 37.1498], [-121.1611, 37.1497], [-121.1617, 37.1513], [-121.1605, 37.1524], [-121.164, 37.1526], [-121.1643, 37.1553], [-121.1658, 37.1553], [-121.166, 37.157], [-121.1674, 37.1586], [-121.1688, 37.1581], [-121.1692, 37.1589], [-121.1705, 37.1588], [-121.1717, 37.1556], [-121.1744, 37.1587], [-121.1778, 37.1576], [-121.1781, 37.1582], [-121.1789, 37.1581], [-121.1794, 37.1575], [-121.1786, 37.1561], [-121.176, 37.1542], [-121.1766, 37.1542], [-121.177, 37.1535], [-121.1746, 37.1523], [-121.175, 37.1515], [-121.1767, 37.1522], [-121.1807, 37.1523], [-121.1818, 37.1538], [-121.1826, 37.1527], [-121.1846, 37.1546], [-121.1847, 37.1536], [-121.1871, 37.1553], [-121.1906, 37.1558], [-121.1931, 37.1554], [-121.1942, 37.1566], [-121.1937, 37.1576], [-121.195, 37.1585], [-121.1965, 37.1582], [-121.1975, 37.1569], [-121.1982, 37.1578], [-121.2049, 37.1592], [-121.204, 37.1511], [-121.2018, 37.1538], [-121.201, 37.1536], [-121.199, 37.1501], [-121.1974, 37.1499], [-121.192, 37.1522], [-121.1916, 37.1507], [-121.19, 37.1504], [-121.1903, 37.15], [-121.1894, 37.1496], [-121.1903, 37.1485], [-121.1956, 37.1478], [-121.1986, 37.1481], [-121.1999, 37.1469], [-121.2013, 37.1472], [-121.2017, 37.1462], [-121.2047, 37.1445], [-121.2098, 37.1425], [-121.2098, 37.1415], [-121.2114, 37.1403], [-121.2109, 37.1388], [-121.2122, 37.1383], [-121.2136, 37.1391], [-121.2146, 37.1381], [-121.2151, 37.1388], [-121.2171, 37.1383], [-121.2182, 37.1398], [-121.2192, 37.1399], [-121.2248, 37.1377], [-121.2288, 37.1342], [-121.2309, 37.1334], [-121.2309, 37.1345], [-121.2291, 37.1356], [-121.2291, 37.1369], [-121.2307, 37.1378], [-121.2297, 37.1394], [-121.2331, 37.1401], [-121.2358, 37.1422], [-121.2377, 37.1422], [-121.2397, 37.1448], [-121.2426, 37.1427], [-121.2441, 37.1435], [-121.2441, 37.1451], [-121.2468, 37.1451], [-121.2485, 37.1467], [-121.2546, 37.1458], [-121.2566, 37.1471], [-121.2621, 37.1461], [-121.2644, 37.1463], [-121.2692, 37.1478], [-121.271, 37.1512], [-121.2739, 37.1491], [-121.2756, 37.1486], [-121.2765, 37.1463], [-121.278, 37.1451], [-121.2816, 37.1441], [-121.2833, 37.1414], [-121.2863, 37.1408], [-121.2879, 37.1392], [-121.2897, 37.1386], [-121.2919, 37.139], [-121.2981, 37.1356], [-121.3022, 37.136], [-121.3035, 37.1349], [-121.3036, 37.1328], [-121.3059, 37.1317], [-121.305, 37.1295], [-121.3052, 37.1274], [-121.3068, 37.1241], [-121.3131, 37.1185], [-121.3174, 37.1165], [-121.3191, 37.1113], [-121.3226, 37.1103], [-121.3253, 37.1085], [-121.3297, 37.1043], [-121.3295, 37.1032], [-121.3364, 37.1016], [-121.3385, 37.1027], [-121.3402, 37.1022], [-121.3428, 37.103], [-121.3455, 37.1053], [-121.3459, 37.1073], [-121.3488, 37.1094], [-121.354, 37.1087], [-121.3614, 37.1142], [-121.3634, 37.1175], [-121.3658, 37.1172], [-121.3665, 37.1159], [-121.3662, 37.1141], [-121.3702, 37.1108], [-121.3779, 37.1118], [-121.3794, 37.1129], [-121.3841, 37.1202], [-121.3865, 37.1215], [-121.388, 37.1176], [-121.3877, 37.1158], [-121.39, 37.1157], [-121.3907, 37.1144], [-121.3936, 37.1135], [-121.3945, 37.1125], [-121.394, 37.1119], [-121.3961, 37.1099], [-121.3992, 37.1112], [-121.4023, 37.1109], [-121.4043, 37.1115], [-121.407, 37.1183], [-121.4099, 37.1196], [-121.4118, 37.1169], [-121.4165, 37.1133], [-121.4165, 37.1097], [-121.4174, 37.1084], [-121.4192, 37.1073], [-121.4199, 37.1088], [-121.4205, 37.1078], [-121.422, 37.1074], [-121.4258, 37.1086], [-121.4314, 37.1123], [-121.4342, 37.113], [-121.4404, 37.1185], [-121.4433, 37.1189], [-121.4479, 37.1212], [-121.4497, 37.1262], [-121.4528, 37.1271], [-121.4592, 37.132], [-121.462, 37.1373], [-121.472, 37.1403], [-121.4773, 37.1456], [-121.4764, 37.1493], [-121.4789, 37.1526], [-121.4805, 37.1535], [-121.4818, 37.1558], [-121.4807, 37.1598], [-121.482, 37.1624], [-121.4794, 37.1646], [-121.4789, 37.1668], [-121.479, 37.1704], [-121.48, 37.1705], [-121.4794, 37.1728], [-121.4803, 37.1732], [-121.4802, 37.1739], [-121.4787, 37.1739], [-121.4772, 37.1757], [-121.4797, 37.1775], [-121.48, 37.1786], [-121.4829, 37.179], [-121.4816, 37.1798], [-121.4824, 37.1835], [-121.4817, 37.1845], [-121.4833, 37.1871], [-121.4807, 37.1869], [-121.4808, 37.1891], [-121.4838, 37.1902], [-121.4853, 37.1916], [-121.488, 37.1918], [-121.4914, 37.1937], [-121.4931, 37.194], [-121.496, 37.1932], [-121.4986, 37.1968], [-121.4991, 37.1988], [-121.5011, 37.1998], [-121.5039, 37.203], [-121.5058, 37.2073], [-121.5095, 37.21], [-121.5099, 37.2114], [-121.513, 37.2123], [-121.5135, 37.2141], [-121.5176, 37.2156], [-121.5174, 37.2167], [-121.5138, 37.2183], [-121.5109, 37.2227], [-121.509, 37.2217], [-121.5104, 37.2233], [-121.5089, 37.226], [-121.5091, 37.2269], [-121.5084, 37.2272], [-121.5101, 37.2275], [-121.5101, 37.2281], [-121.5081, 37.2284], [-121.5099, 37.2295], [-121.5094, 37.2314], [-121.5099, 37.2314], [-121.5101, 37.234], [-121.5089, 37.2343], [-121.5099, 37.2345], [-121.5091, 37.2351], [-121.5101, 37.2351], [-121.5098, 37.2372], [-121.5115, 37.2394], [-121.5142, 37.2397], [-121.5175, 37.2418], [-121.5198, 37.241], [-121.5211, 37.2417], [-121.5233, 37.2416], [-121.5263, 37.2439], [-121.5257, 37.246], [-121.5271, 37.2467], [-121.5268, 37.2474], [-121.5258, 37.2474], [-121.5266, 37.2486], [-121.5261, 37.2496], [-121.5283, 37.255], [-121.5285, 37.2581], [-121.5304, 37.2587], [-121.5315, 37.2608], [-121.5346, 37.2615], [-121.539, 37.2646], [-121.5439, 37.2655], [-121.5448, 37.2669], [-121.5548, 37.2733], [-121.5566, 37.2791], [-121.5595, 37.2805], [-121.559, 37.2845], [-121.5595, 37.2853], [-121.5627, 37.2864], [-121.5634, 37.2878], [-121.5631, 37.2901], [-121.566, 37.2927], [-121.5687, 37.2927], [-121.5705, 37.2913], [-121.5735, 37.2917], [-121.5753, 37.2911], [-121.5774, 37.2917], [-121.5799, 37.2913], [-121.5843, 37.2947], [-121.5881, 37.2964], [-121.59, 37.2987], [-121.5912, 37.3022], [-121.5926, 37.3026], [-121.5918, 37.3046], [-121.5934, 37.307], [-121.5966, 37.3075], [-121.5979, 37.3097], [-121.6013, 37.3106], [-121.6013, 37.3089], [-121.6026, 37.3082], [-121.6041, 37.3079], [-121.6053, 37.3086], [-121.607, 37.3078], [-121.6082, 37.3098], [-121.6049, 37.312], [-121.6061, 37.3129], [-121.6042, 37.3134], [-121.6039, 37.3141], [-121.6047, 37.3151], [-121.6069, 37.3155], [-121.6133, 37.3142], [-121.6148, 37.3146], [-121.6211, 37.3116], [-121.6236, 37.3091], [-121.6264, 37.3082], [-121.6304, 37.3091], [-121.6313, 37.313], [-121.6329, 37.314], [-121.6373, 37.3122], [-121.6378, 37.3134], [-121.6399, 37.3127], [-121.6486, 37.3153], [-121.6522, 37.3183], [-121.6545, 37.319], [-121.6558, 37.3213], [-121.6601, 37.3208], [-121.6633, 37.3214], [-121.6668, 37.3234], [-121.6697, 37.3258], [-121.672, 37.329], [-121.6715, 37.3339], [-121.673, 37.3362], [-121.6762, 37.3365], [-121.6777, 37.3317], [-121.6804, 37.3279], [-121.6823, 37.3291], [-121.6824, 37.3304], [-121.6811, 37.3314], [-121.6824, 37.3337], [-121.6835, 37.3388], [-121.6828, 37.3422], [-121.6853, 37.3452], [-121.6875, 37.3466], [-121.6873, 37.3494], [-121.6882, 37.3504], [-121.6895, 37.3508], [-121.6903, 37.3494], [-121.6915, 37.3492], [-121.6944, 37.3471], [-121.6951, 37.3454], [-121.7026, 37.3444], [-121.7076, 37.3448], [-121.7095, 37.3462], [-121.7156, 37.348], [-121.716, 37.353], [-121.7149, 37.3556], [-121.7129, 37.3574], [-121.7122, 37.3606], [-121.7242, 37.3635], [-121.7267, 37.3624], [-121.7261, 37.3641], [-121.7274, 37.364], [-121.7292, 37.3673], [-121.729, 37.3693], [-121.7261, 37.3732], [-121.727, 37.3747], [-121.7257, 37.3751], [-121.7257, 37.3764], [-121.728, 37.3777], [-121.7277, 37.3803], [-121.7294, 37.3807], [-121.73, 37.3822], [-121.7329, 37.384], [-121.7326, 37.3846], [-121.734, 37.3857], [-121.7357, 37.3858], [-121.7361, 37.3866], [-121.7358, 37.3883], [-121.7311, 37.3904], [-121.7307, 37.3919], [-121.7266, 37.396], [-121.7267, 37.3976], [-121.7284, 37.3991], [-121.7348, 37.4006], [-121.7346, 37.4055], [-121.7356, 37.4083], [-121.7319, 37.4135], [-121.7313, 37.4178], [-121.7339, 37.4217], [-121.7349, 37.4217], [-121.7378, 37.424], [-121.7452, 37.431], [-121.7546, 37.4309], [-121.7582, 37.4298], [-121.761, 37.4311], [-121.7612, 37.4326], [-121.7625, 37.4328], [-121.7652, 37.4352], [-121.7651, 37.4369], [-121.7678, 37.4406], [-121.7679, 37.4429], [-121.7692, 37.4428], [-121.7704, 37.4445], [-121.7704, 37.4464], [-121.7724, 37.4471], [-121.7727, 37.4483], [-121.7738, 37.4489], [-121.7757, 37.4486], [-121.7767, 37.4493], [-121.7763, 37.4514], [-121.7787, 37.4518], [-121.78, 37.4504], [-121.7848, 37.4524], [-121.7846, 37.4543], [-121.789, 37.4571], [-121.7912, 37.4605], [-121.7923, 37.4606], [-121.7943, 37.4583], [-121.7955, 37.4609], [-121.8048, 37.4619], [-121.808, 37.4633], [-121.8079, 37.4653], [-121.806, 37.4669], [-121.8089, 37.4677], [-121.8084, 37.4688], [-121.8099, 37.4707], [-121.8122, 37.4711], [-121.8122, 37.4725], [-121.8145, 37.4744], [-121.8138, 37.4769], [-121.8109, 37.4779], [-121.8104, 37.4759], [-121.8089, 37.4747], [-121.8031, 37.4775], [-121.7956, 37.4745], [-121.7951, 37.4757], [-121.8006, 37.4791], [-121.8033, 37.4794], [-121.804, 37.4782], [-121.8085, 37.4771], [-121.8111, 37.4798], [-121.8128, 37.4803], [-121.8176, 37.4796], [-121.8232, 37.4827], [-121.8238, 37.4839], [-121.823, 37.4859], [-121.8198, 37.4856], [-121.8176, 37.4864], [-121.8154, 37.4849], [-121.8092, 37.4866], [-121.8076, 37.4881], [-121.8063, 37.4872], [-121.804, 37.4876], [-121.8036, 37.4889], [-121.8016, 37.4889], [-121.7965, 37.4955], [-121.7956, 37.4945], [-121.7956, 37.4894], [-121.7948, 37.4884], [-121.7886, 37.4862], [-121.782, 37.4889], [-121.7792, 37.4881], [-121.7769, 37.4888], [-121.7741, 37.4879], [-121.7723, 37.4853], [-121.7696, 37.4876], [-121.767, 37.4886], [-121.7563, 37.4902], [-121.7538, 37.4933], [-121.7545, 37.4938], [-121.754, 37.4953], [-121.7571, 37.4951], [-121.7581, 37.4962], [-121.7593, 37.4964], [-121.7594, 37.4975], [-121.7629, 37.4978], [-121.7627, 37.5001], [-121.7649, 37.4998], [-121.7732, 37.501], [-121.7738, 37.5022], [-121.7734, 37.5053], [-121.7717, 37.5083], [-121.7716, 37.5113], [-121.7726, 37.5114], [-121.7724, 37.5138], [-121.7733, 37.5155], [-121.7713, 37.5197], [-121.7676, 37.5197], [-121.7661, 37.519], [-121.766, 37.5181], [-121.7645, 37.5175], [-121.7647, 37.5167], [-121.762, 37.515], [-121.7604, 37.5155], [-121.7594, 37.5168], [-121.7563, 37.5153], [-121.7544, 37.5152], [-121.7541, 37.5158], [-121.7536, 37.5175], [-121.7552, 37.5216], [-121.7589, 37.5226], [-121.7594, 37.5242], [-121.7604, 37.5247], [-121.7608, 37.5309], [-121.7597, 37.5335], [-121.7577, 37.5319], [-121.7555, 37.5316], [-121.753, 37.5332], [-121.7488, 37.5314], [-121.7468, 37.5331], [-121.7432, 37.5332], [-121.7396, 37.5306], [-121.7357, 37.5305], [-121.7266, 37.527], [-121.724, 37.5274], [-121.7252, 37.5292], [-121.7222, 37.5312], [-121.7156, 37.5307], [-121.7139, 37.5312], [-121.714, 37.534], [-121.7154, 37.5346], [-121.7131, 37.5376], [-121.7115, 37.5378], [-121.7064, 37.5363], [-121.7046, 37.5336], [-121.702, 37.5324], [-121.7001, 37.5301], [-121.6956, 37.5289], [-121.6921, 37.5261], [-121.6893, 37.5251], [-121.6858, 37.5227], [-121.6843, 37.5223], [-121.6831, 37.5227], [-121.6808, 37.5261], [-121.6834, 37.5294], [-121.6832, 37.5312], [-121.6853, 37.5332], [-121.6898, 37.5399], [-121.6935, 37.5482], [-121.6918, 37.5484], [-121.6909, 37.5472], [-121.6886, 37.5466], [-121.6836, 37.5477], [-121.6807, 37.5456], [-121.6815, 37.5426], [-121.6804, 37.5425], [-121.6808, 37.5415], [-121.6799, 37.5414], [-121.68, 37.5404], [-121.675, 37.5382], [-121.6737, 37.5364], [-121.6677, 37.5333], [-121.6623, 37.5316], [-121.6609, 37.5324], [-121.6575, 37.5315], [-121.6557, 37.5303], [-121.6549, 37.5282], [-121.6508, 37.5314], [-121.651, 37.5319], [-121.6481, 37.5334], [-121.6469, 37.531], [-121.6439, 37.5294], [-121.6417, 37.5267], [-121.6417, 37.5249], [-121.6395, 37.5232], [-121.6388, 37.5211], [-121.6346, 37.5176], [-121.6353, 37.5144], [-121.634, 37.5131], [-121.6353, 37.5112], [-121.6354, 37.5096], [-121.6296, 37.5079], [-121.6296, 37.5073], [-121.628, 37.5066], [-121.6285, 37.505], [-121.6274, 37.5037], [-121.6307, 37.5012], [-121.6296, 37.4997], [-121.6265, 37.5012], [-121.6237, 37.4989], [-121.6251, 37.4991], [-121.6301, 37.4957], [-121.6297, 37.4937], [-121.631, 37.4902], [-121.628, 37.4858], [-121.626, 37.4856], [-121.6218, 37.4836], [-121.6205, 37.4843], [-121.6169, 37.4836], [-121.6164, 37.4821], [-121.6149, 37.4819], [-121.6126, 37.4826], [-121.6116, 37.4853], [-121.6103, 37.4848], [-121.6082, 37.4894], [-121.6069, 37.4866], [-121.6084, 37.4829], [-121.6066, 37.4806], [-121.6069, 37.4793], [-121.6011, 37.4765], [-121.6001, 37.4745], [-121.5986, 37.474], [-121.5977, 37.472], [-121.5962, 37.4713], [-121.5971, 37.4688], [-121.5965, 37.4658], [-121.5937, 37.464], [-121.5971, 37.4602], [-121.5968, 37.4571], [-121.5986, 37.454], [-121.601, 37.4526], [-121.6011, 37.4518], [-121.6033, 37.4517], [-121.6031, 37.4511], [-121.5975, 37.4506], [-121.5955, 37.4494], [-121.591, 37.449], [-121.59, 37.4481], [-121.59, 37.4463], [-121.5857, 37.446], [-121.5851, 37.4461], [-121.5849, 37.4488], [-121.5829, 37.4501], [-121.58, 37.4491], [-121.5753, 37.4491], [-121.5727, 37.4507], [-121.5628, 37.4504], [-121.5569, 37.4483], [-121.5518, 37.4439], [-121.5435, 37.4418], [-121.5392, 37.4382], [-121.5314, 37.4346], [-121.5277, 37.4333], [-121.5209, 37.4328], [-121.5213, 37.4313], [-121.5188, 37.4311], [-121.5171, 37.428], [-121.5149, 37.4282], [-121.5145, 37.4293], [-121.5128, 37.4295], [-121.5131, 37.4328], [-121.5123, 37.4333], [-121.5122, 37.4356], [-121.5124, 37.4386], [-121.5173, 37.4443], [-121.5143, 37.4493], [-121.5143, 37.4507], [-121.5161, 37.4531], [-121.5164, 37.459], [-121.5192, 37.4634], [-121.5193, 37.466], [-121.5205, 37.4685], [-121.5238, 37.4712], [-121.5264, 37.4772], [-121.5316, 37.4818], [-121.533, 37.4849], [-121.5348, 37.4863], [-121.5355, 37.4882], [-121.5338, 37.4907], [-121.5339, 37.4927], [-121.5364, 37.4971], [-121.5354, 37.499], [-121.5382, 37.5003], [-121.5393, 37.5028], [-121.5395, 37.5082], [-121.5406, 37.5098], [-121.5407, 37.5135], [-121.5464, 37.5188], [-121.5453, 37.5203], [-121.5435, 37.52], [-121.5411, 37.5212], [-121.5385, 37.521], [-121.5362, 37.5223], [-121.5404, 37.5243], [-121.5393, 37.5256], [-121.5428, 37.5267], [-121.5421, 37.5275], [-121.5453, 37.5306], [-121.545, 37.5318], [-121.5468, 37.535], [-121.5485, 37.5361], [-121.549, 37.5374], [-121.5509, 37.5391], [-121.5522, 37.5396], [-121.5525, 37.5407], [-121.552, 37.5418], [-121.5498, 37.5425], [-121.5497, 37.5444], [-121.548, 37.5446], [-121.5471, 37.5442], [-121.5469, 37.543], [-121.5445, 37.543], [-121.5428, 37.5421], [-121.541, 37.5401], [-121.5416, 37.5398], [-121.5405, 37.5393], [-121.5399, 37.5399], [-121.5438, 37.5475], [-121.5432, 37.55], [-121.5407, 37.5499], [-121.5411, 37.5523], [-121.5385, 37.5564], [-121.5408, 37.5583], [-121.5424, 37.5608], [-121.5443, 37.5665], [-121.54, 37.5686], [-121.5366, 37.5681], [-121.5357, 37.5697], [-121.5346, 37.57], [-121.5321, 37.5691], [-121.5327, 37.5725], [-121.5321, 37.5741], [-121.5281, 37.5779], [-121.5249, 37.5792], [-121.5229, 37.5819], [-121.523, 37.5831], [-121.5215, 37.5853], [-121.5232, 37.5869], [-121.5234, 37.5914], [-121.5202, 37.5928], [-121.5196, 37.5943], [-121.5215, 37.5963], [-121.5245, 37.5977], [-121.523, 37.5993], [-121.519, 37.6027], [-121.5186, 37.6023], [-121.5176, 37.603], [-121.5168, 37.6047], [-121.5166, 37.6039], [-121.514, 37.6033], [-121.5102, 37.6049], [-121.5076, 37.6043], [-121.5035, 37.6045], [-121.503, 37.6052], [-121.4998, 37.6055], [-121.4985, 37.6102], [-121.4995, 37.6128], [-121.4973, 37.6136], [-121.4964, 37.616], [-121.4929, 37.6104], [-121.4902, 37.6081], [-121.4913, 37.6064], [-121.4893, 37.6047], [-121.4854, 37.6041], [-121.484, 37.6028]], [[-121.5496, 37.4185], [-121.5435, 37.4133], [-121.5406, 37.4124], [-121.5393, 37.4113], [-121.538, 37.4115], [-121.5374, 37.4097], [-121.536, 37.4089], [-121.5356, 37.4067], [-121.536, 37.4042], [-121.537, 37.403], [-121.5388, 37.4042], [-121.5413, 37.4045], [-121.5436, 37.4034], [-121.5452, 37.4006], [-121.5445, 37.3996], [-121.5452, 37.3987], [-121.5446, 37.3971], [-121.5426, 37.3946], [-121.5429, 37.3936], [-121.5412, 37.3924], [-121.5411, 37.3911], [-121.5387, 37.3895], [-121.5393, 37.3876], [-121.5383, 37.3839], [-121.5428, 37.3787], [-121.5426, 37.3781], [-121.5396, 37.3787], [-121.5389, 37.3773], [-121.5367, 37.3761], [-121.5365, 37.3734], [-121.5342, 37.3717], [-121.5332, 37.369], [-121.5309, 37.3694], [-121.53, 37.3725], [-121.5286, 37.3722], [-121.5279, 37.3716], [-121.5277, 37.3689], [-121.5269, 37.3681], [-121.5236, 37.3675], [-121.5221, 37.365], [-121.5166, 37.3645], [-121.5162, 37.3651], [-121.5147, 37.3654], [-121.5137, 37.3639], [-121.5095, 37.364], [-121.5043, 37.3601], [-121.5016, 37.3596], [-121.5009, 37.3555], [-121.4951, 37.3518], [-121.4919, 37.3445], [-121.4891, 37.3439], [-121.4866, 37.3447], [-121.4846, 37.3464], [-121.4781, 37.3455], [-121.4775, 37.3403], [-121.4762, 37.3375], [-121.4763, 37.3331], [-121.4748, 37.3292], [-121.4755, 37.3269], [-121.4746, 37.3249], [-121.4751, 37.3244], [-121.4749, 37.3188], [-121.4731, 37.3166], [-121.4685, 37.3143], [-121.4661, 37.3108], [-121.4663, 37.3074], [-121.4622, 37.3095], [-121.4618, 37.3099], [-121.4627, 37.3104], [-121.4596, 37.3099], [-121.4592, 37.311], [-121.4614, 37.3118], [-121.4629, 37.3116], [-121.4662, 37.316], [-121.4647, 37.3159], [-121.4612, 37.3184], [-121.4614, 37.3223], [-121.4639, 37.3246], [-121.4649, 37.3265], [-121.4675, 37.3244], [-121.4698, 37.3246], [-121.4725, 37.3271], [-121.4724, 37.3295], [-121.4701, 37.3296], [-121.4677, 37.3284], [-121.4679, 37.3292], [-121.465, 37.3301], [-121.4589, 37.3288], [-121.4578, 37.3299], [-121.4565, 37.3291], [-121.4532, 37.3302], [-121.4527, 37.3311], [-121.4544, 37.332], [-121.4568, 37.3321], [-121.456, 37.3349], [-121.4575, 37.3359], [-121.451, 37.3363], [-121.4507, 37.3401], [-121.4494, 37.3412], [-121.4482, 37.3412], [-121.448, 37.3426], [-121.4488, 37.3433], [-121.449, 37.3456], [-121.4504, 37.3469], [-121.4554, 37.3491], [-121.4558, 37.3511], [-121.4571, 37.3513], [-121.4609, 37.3505], [-121.4639, 37.351], [-121.4663, 37.3519], [-121.4683, 37.354], [-121.474, 37.3561], [-121.4748, 37.3576], [-121.474, 37.3613], [-121.4746, 37.3625], [-121.4732, 37.3639], [-121.4741, 37.371], [-121.4736, 37.3714], [-121.4654, 37.37], [-121.4654, 37.371], [-121.4688, 37.3751], [-121.4731, 37.3787], [-121.4738, 37.3814], [-121.4779, 37.3853], [-121.4821, 37.3853], [-121.4831, 37.3851], [-121.4833, 37.3841], [-121.4858, 37.3842], [-121.4891, 37.3863], [-121.4885, 37.388], [-121.491, 37.3881], [-121.4912, 37.3887], [-121.4898, 37.3923], [-121.4909, 37.3971], [-121.4918, 37.3977], [-121.4928, 37.3965], [-121.4946, 37.3974], [-121.4957, 37.3958], [-121.4947, 37.3929], [-121.4956, 37.3856], [-121.4976, 37.3849], [-121.5024, 37.3878], [-121.5075, 37.393], [-121.5094, 37.3937], [-121.5098, 37.3953], [-121.5124, 37.3982], [-121.5166, 37.3997], [-121.5199, 37.3997], [-121.5248, 37.4008], [-121.5279, 37.4055], [-121.5278, 37.4065], [-121.5269, 37.4078], [-121.5243, 37.4091], [-121.5231, 37.4117], [-121.525, 37.4133], [-121.5271, 37.4167], [-121.5319, 37.4186], [-121.5343, 37.4202], [-121.536, 37.4206], [-121.5382, 37.4188], [-121.5427, 37.4198], [-121.545, 37.4189], [-121.5457, 37.4191], [-121.5458, 37.4205], [-121.5473, 37.4211], [-121.552, 37.4202], [-121.5522, 37.419], [-121.5496, 37.4185]], [[-121.2971, 37.1425], [-121.2885, 37.1425], [-121.2884, 37.1461], [-121.2971, 37.1462], [-121.2971, 37.1425]], [[-121.3299, 37.2883], [-121.3117, 37.2884], [-121.3125, 37.3028], [-121.3307, 37.3027], [-121.3299, 37.2883]], [[-121.3213, 37.4376], [-121.3216, 37.4362], [-121.3208, 37.4354], [-121.318, 37.4357], [-121.3203, 37.438], [-121.3213, 37.4376]], [[-121.3208, 37.4382], [-121.3216, 37.4391], [-121.3229, 37.4375], [-121.3218, 37.4365], [-121.3216, 37.4377], [-121.3208, 37.4382]], [[-121.3764, 37.3933], [-121.3848, 37.3932], [-121.3848, 37.3968], [-121.3893, 37.3968], [-121.3896, 37.3898], [-121.3765, 37.3899], [-121.3764, 37.3933]], [[-121.4025, 37.4112], [-121.4027, 37.4039], [-121.3937, 37.404], [-121.3935, 37.4112], [-121.4025, 37.4112]], [[-121.407, 37.4038], [-121.4248, 37.4037], [-121.4255, 37.4002], [-121.4164, 37.4004], [-121.4165, 37.3968], [-121.4075, 37.3969], [-121.407, 37.4038]], [[-121.4577, 37.4105], [-121.4504, 37.4107], [-121.4501, 37.418], [-121.4574, 37.4182], [-121.4577, 37.4105]], [[-121.4575, 37.4017], [-121.4576, 37.4039], [-121.458, 37.4048], [-121.4586, 37.4017], [-121.4575, 37.4017]], [[-121.4664, 37.4061], [-121.4656, 37.408], [-121.4678, 37.408], [-121.4663, 37.412], [-121.467, 37.4118], [-121.4686, 37.406], [-121.4643, 37.4055], [-121.4664, 37.4061]], [[-121.4658, 37.4162], [-121.4651, 37.4182], [-121.4671, 37.4182], [-121.4658, 37.4162]], [[-121.4678, 37.4116], [-121.4729, 37.4091], [-121.4679, 37.4091], [-121.4678, 37.4116]], [[-121.4688, 37.4182], [-121.4693, 37.4182], [-121.4689, 37.4178], [-121.4688, 37.4182]], [[-121.4702, 37.419], [-121.4704, 37.4203], [-121.482, 37.4202], [-121.4795, 37.4195], [-121.4802, 37.418], [-121.4826, 37.4186], [-121.4825, 37.416], [-121.4794, 37.416], [-121.4785, 37.4146], [-121.479, 37.4133], [-121.4772, 37.4136], [-121.4782, 37.4152], [-121.4724, 37.4187], [-121.4702, 37.419]], [[-121.4816, 37.413], [-121.4787, 37.4089], [-121.4739, 37.4091], [-121.4744, 37.4098], [-121.4762, 37.4094], [-121.4788, 37.413], [-121.4816, 37.413]], [[-121.5067, 37.2212], [-121.498, 37.2215], [-121.4981, 37.2286], [-121.5068, 37.2284], [-121.5067, 37.2212]]], [[[-121.7733, 37.6335], [-121.7726, 37.6289], [-121.7715, 37.6287], [-121.7727, 37.6273], [-121.7722, 37.6264], [-121.7715, 37.6266], [-121.7682, 37.6244], [-121.7703, 37.6241], [-121.7706, 37.6232], [-121.7749, 37.6226], [-121.7802, 37.6258], [-121.7793, 37.6306], [-121.7739, 37.6342], [-121.7728, 37.6362], [-121.7698, 37.6355], [-121.7733, 37.6335]]], [[[-121.7924, 37.8571], [-121.7845, 37.8538], [-121.7843, 37.8506], [-121.7805, 37.8492], [-121.7812, 37.8484], [-121.7792, 37.8494], [-121.7776, 37.8495], [-121.7783, 37.8494], [-121.7775, 37.849], [-121.7792, 37.8471], [-121.7794, 37.8482], [-121.7804, 37.8481], [-121.7814, 37.8468], [-121.7822, 37.8477], [-121.7824, 37.8468], [-121.7809, 37.8451], [-121.7802, 37.8455], [-121.7787, 37.8445], [-121.7756, 37.8445], [-121.7726, 37.8427], [-121.7722, 37.8406], [-121.7751, 37.8412], [-121.7758, 37.8407], [-121.7746, 37.8384], [-121.7762, 37.8379], [-121.7751, 37.8357], [-121.7709, 37.835], [-121.7701, 37.8325], [-121.766, 37.8302], [-121.7624, 37.8267], [-121.7612, 37.8239], [-121.7562, 37.8178], [-121.7544, 37.8168], [-121.7541, 37.816], [-121.7557, 37.8156], [-121.7558, 37.815], [-121.7526, 37.8143], [-121.7521, 37.8134], [-121.7528, 37.8128], [-121.751, 37.8123], [-121.7489, 37.8087], [-121.7484, 37.8066], [-121.7509, 37.8048], [-121.7526, 37.8055], [-121.7557, 37.804], [-121.7606, 37.8067], [-121.764, 37.8074], [-121.7689, 37.81], [-121.7726, 37.8154], [-121.7769, 37.8154], [-121.7797, 37.8187], [-121.7795, 37.8208], [-121.7809, 37.821], [-121.7813, 37.8223], [-121.7827, 37.823], [-121.7829, 37.8224], [-121.7846, 37.8224], [-121.7865, 37.8239], [-121.7879, 37.8236], [-121.7884, 37.8249], [-121.7877, 37.8264], [-121.7897, 37.8283], [-121.7891, 37.8308], [-121.7898, 37.8303], [-121.7915, 37.8308], [-121.7923, 37.8331], [-121.7948, 37.8343], [-121.7956, 37.8368], [-121.7972, 37.8375], [-121.7997, 37.8419], [-121.7992, 37.8492], [-121.7999, 37.8488], [-121.8021, 37.8511], [-121.7975, 37.856], [-121.7944, 37.8568], [-121.7928, 37.8564], [-121.7924, 37.8571]]], [[[-121.7773, 37.8795], [-121.7743, 37.8788], [-121.7702, 37.8752], [-121.7666, 37.8745], [-121.7575, 37.8683], [-121.7677, 37.8664], [-121.7708, 37.8637], [-121.7726, 37.8638], [-121.7759, 37.8658], [-121.7767, 37.8677], [-121.7758, 37.8696], [-121.7806, 37.8707], [-121.7856, 37.8738], [-121.7848, 37.8762], [-121.7816, 37.8793], [-121.7773, 37.8795]]], [[[-121.7785, 37.8822], [-121.7799, 37.8823], [-121.7802, 37.8833], [-121.7816, 37.8828], [-121.782, 37.8837], [-121.7804, 37.8839], [-121.7785, 37.8822]]]]}, "properties": {"layer": "retained"}}, {"type": "Feature", "geometry": {"type": "MultiPolygon", "coordinates": [[[[-121.7963, 37.8529], [-121.7966, 37.8526], [-121.7963, 37.8526], [-121.7963, 37.8529]]], [[[-121.7945, 37.8502], [-121.7948, 37.8499], [-121.7945, 37.8499], [-121.7945, 37.8502]]], [[[-121.7952, 37.8496], [-121.7955, 37.8494], [-121.7952, 37.8494], [-121.7952, 37.8496]]], [[[-121.7951, 37.848], [-121.7955, 37.8478], [-121.7951, 37.8478], [-121.7951, 37.848]]], [[[-121.7937, 37.847], [-121.7941, 37.8467], [-121.7937, 37.8467], [-121.7937, 37.847]]], [[[-121.7941, 37.8462], [-121.7947, 37.8461], [-121.7951, 37.8459], [-121.7941, 37.8462]]], [[[-121.7937, 37.8462], [-121.7941, 37.8456], [-121.7937, 37.8456], [-121.7937, 37.8462]]], [[[-121.7896, 37.846], [-121.7899, 37.8454], [-121.7896, 37.8454], [-121.7896, 37.846]]], [[[-121.7944, 37.8456], [-121.7947, 37.8453], [-121.7944, 37.8453], [-121.7944, 37.8456]]], [[[-121.7927, 37.8464], [-121.7927, 37.8454], [-121.792, 37.8454], [-121.7917, 37.8465], [-121.7927, 37.8464]]], [[[-121.7917, 37.8454], [-121.792, 37.8451], [-121.7916, 37.8451], [-121.7917, 37.8454]]], [[[-121.7899, 37.8454], [-121.7906, 37.8451], [-121.7899, 37.8451], [-121.7899, 37.8454]]], [[[-121.7934, 37.8451], [-121.7937, 37.8448], [-121.7933, 37.8448], [-121.7934, 37.8451]]], [[[-121.7906, 37.8451], [-121.7913, 37.8448], [-121.7906, 37.8449], [-121.7906, 37.8451]]], [[[-121.7933, 37.8445], [-121.793, 37.844], [-121.7923, 37.844], [-121.7927, 37.8446], [-121.7933, 37.8445]]], [[[-121.792, 37.8448], [-121.792, 37.8443], [-121.7913, 37.8438], [-121.791, 37.8446], [-121.792, 37.8448]]], [[[-121.7867, 37.8401], [-121.7871, 37.8398], [-121.7867, 37.8398], [-121.7867, 37.8401]]], [[[-121.785, 37.8379], [-121.7853, 37.8376], [-121.785, 37.8377], [-121.785, 37.8379]]], [[[-121.7829, 37.838], [-121.7833, 37.8377], [-121.7829, 37.8377], [-121.7829, 37.838]]], [[[-121.7826, 37.8377], [-121.7829, 37.8371], [-121.7826, 37.8372], [-121.7826, 37.8377]]], [[[-121.7829, 37.8371], [-121.7833, 37.8369], [-121.7829, 37.8369], [-121.7829, 37.8371]]], [[[-121.788, 37.8368], [-121.7884, 37.8365], [-121.788, 37.8365], [-121.788, 37.8368]]], [[[-121.7822, 37.8369], [-121.7829, 37.8366], [-121.7822, 37.8366], [-121.7822, 37.8369]]], [[[-121.7846, 37.8371], [-121.7846, 37.836], [-121.7843, 37.836], [-121.7836, 37.8369], [-121.7846, 37.8371]]], [[[-121.7836, 37.8363], [-121.7839, 37.8361], [-121.7836, 37.8361], [-121.7836, 37.8363]]], [[[-121.7829, 37.8353], [-121.7832, 37.835], [-121.7829, 37.835], [-121.7829, 37.8353]]], [[[-121.7825, 37.835], [-121.7829, 37.8347], [-121.7825, 37.8347], [-121.7825, 37.835]]], [[[-121.7822, 37.8347], [-121.7825, 37.8345], [-121.7822, 37.8345], [-121.7822, 37.8347]]], [[[-121.7801, 37.8348], [-121.7805, 37.8345], [-121.7801, 37.8345], [-121.7801, 37.8348]]], [[[-121.7856, 37.8331], [-121.7859, 37.8328], [-121.7856, 37.8328], [-121.7856, 37.8331]]], [[[-121.7859, 37.8328], [-121.7862, 37.8325], [-121.7859, 37.8325], [-121.7859, 37.8328]]], [[[-121.779, 37.8318], [-121.7794, 37.8315], [-121.779, 37.8315], [-121.779, 37.8318]]], [[[-121.7748, 37.8275], [-121.7752, 37.8267], [-121.7748, 37.8267], [-121.7748, 37.8275]]], [[[-121.7823, 37.8272], [-121.7827, 37.8266], [-121.7823, 37.8266], [-121.7823, 37.8272]]], [[[-121.7762, 37.8289], [-121.7776, 37.828], [-121.7786, 37.828], [-121.7786, 37.8261], [-121.7776, 37.8272], [-121.7762, 37.8273], [-121.7762, 37.8289]]], [[[-121.7779, 37.8262], [-121.7782, 37.8259], [-121.7779, 37.8259], [-121.7779, 37.8262]]], [[[-121.7775, 37.8256], [-121.7779, 37.8253], [-121.7775, 37.8253], [-121.7775, 37.8256]]], [[[-121.7748, 37.8267], [-121.7752, 37.8262], [-121.7768, 37.8256], [-121.7751, 37.8251], [-121.7741, 37.8257], [-121.7748, 37.8267]]], [[[-121.7731, 37.8254], [-121.7744, 37.8251], [-121.7731, 37.8251], [-121.7731, 37.8254]]], [[[-121.7772, 37.8245], [-121.7775, 37.8243], [-121.7772, 37.8243], [-121.7772, 37.8245]]], [[[-121.7727, 37.8243], [-121.7731, 37.8241], [-121.7727, 37.8241], [-121.7727, 37.8243]]], [[[-121.7744, 37.8238], [-121.7747, 37.8235], [-121.7744, 37.8235], [-121.7744, 37.8238]]], [[[-121.7734, 37.8233], [-121.7744, 37.823], [-121.7734, 37.823], [-121.7734, 37.8233]]], [[[-121.7799, 37.8229], [-121.7802, 37.8226], [-121.7798, 37.8226], [-121.7799, 37.8229]]], [[[-121.7778, 37.8229], [-121.7781, 37.8226], [-121.7778, 37.8226], [-121.7778, 37.8229]]], [[[-121.7768, 37.8229], [-121.7771, 37.8227], [-121.7768, 37.8227], [-121.7768, 37.8229]]], [[[-121.7754, 37.8227], [-121.7751, 37.8219], [-121.7744, 37.8219], [-121.7744, 37.8224], [-121.7754, 37.8227]]], [[[-121.7727, 37.8225], [-121.7723, 37.8219], [-121.7716, 37.8222], [-121.7717, 37.8225], [-121.7727, 37.8225]]], [[[-121.7696, 37.8222], [-121.7703, 37.8219], [-121.7696, 37.822], [-121.7696, 37.8222]]], [[[-121.7788, 37.8229], [-121.7788, 37.8221], [-121.7778, 37.8221], [-121.7781, 37.8216], [-121.7767, 37.8213], [-121.7768, 37.8219], [-121.7757, 37.8219], [-121.7761, 37.8224], [-121.7771, 37.8221], [-121.7788, 37.8229]]], [[[-121.7754, 37.8219], [-121.7757, 37.8211], [-121.7754, 37.8211], [-121.7754, 37.8219]]], [[[-121.7771, 37.8213], [-121.7774, 37.821], [-121.7771, 37.821], [-121.7771, 37.8213]]], [[[-121.773, 37.8211], [-121.7733, 37.8208], [-121.773, 37.8208], [-121.773, 37.8211]]], [[[-121.7733, 37.8208], [-121.7737, 37.8205], [-121.7733, 37.8206], [-121.7733, 37.8208]]], [[[-121.7705, 37.8168], [-121.7708, 37.8165], [-121.7705, 37.8165], [-121.7705, 37.8168]]], [[[-121.696, 37.5272], [-121.6964, 37.5269], [-121.696, 37.5269], [-121.696, 37.5272]]], [[[-121.4803, 37.5012], [-121.4806, 37.5009], [-121.4803, 37.5009], [-121.4803, 37.5012]]], [[[-121.4806, 37.5009], [-121.481, 37.5006], [-121.4806, 37.5006], [-121.4806, 37.5009]]], [[[-121.4755, 37.4972], [-121.4758, 37.4969], [-121.4755, 37.4969], [-121.4755, 37.4972]]], [[[-121.7777, 37.488], [-121.778, 37.4877], [-121.7777, 37.4877], [-121.7777, 37.488]]], [[[-121.7774, 37.4877], [-121.7777, 37.4874], [-121.7774, 37.4874], [-121.7774, 37.4877]]], [[[-121.778, 37.4863], [-121.7783, 37.4861], [-121.778, 37.4861], [-121.778, 37.4863]]], [[[-121.4689, 37.4897], [-121.4692, 37.4895], [-121.4689, 37.4895], [-121.4689, 37.4897]]], [[[-121.4658, 37.4898], [-121.4661, 37.4895], [-121.4658, 37.4895], [-121.4658, 37.4898]]], [[[-121.458, 37.4899], [-121.4583, 37.4896], [-121.458, 37.4896], [-121.458, 37.4899]]], [[[-121.7602, 37.4793], [-121.7605, 37.4796], [-121.7609, 37.4793], [-121.7602, 37.4793]]], [[[-121.7568, 37.4791], [-121.7571, 37.4788], [-121.7568, 37.4788], [-121.7568, 37.4791]]], [[[-121.7554, 37.4769], [-121.7557, 37.4767], [-121.7554, 37.4767], [-121.7554, 37.4769]]], [[[-121.7521, 37.4686], [-121.7525, 37.4684], [-121.7521, 37.4684], [-121.7521, 37.4686]]], [[[-121.4121, 37.4731], [-121.4125, 37.4729], [-121.4121, 37.4729], [-121.4121, 37.4731]]], [[[-121.5011, 37.471], [-121.5014, 37.4707], [-121.5011, 37.4707], [-121.5011, 37.471]]], [[[-121.6765, 37.4584], [-121.6768, 37.4578], [-121.6765, 37.4578], [-121.6765, 37.4584]]], [[[-121.4905, 37.433], [-121.4908, 37.4328], [-121.4905, 37.4328], [-121.4905, 37.433]]], [[[-121.4703, 37.422], [-121.4706, 37.4217], [-121.4703, 37.4217], [-121.4703, 37.422]]], [[[-121.6028, 37.4119], [-121.6031, 37.4116], [-121.6028, 37.4116], [-121.6028, 37.4119]]], [[[-121.6065, 37.4113], [-121.6068, 37.411], [-121.6065, 37.411], [-121.6065, 37.4113]]], [[[-121.6381, 37.3966], [-121.6388, 37.3963], [-121.6381, 37.3963], [-121.6381, 37.3966]]], [[[-121.635, 37.3958], [-121.6354, 37.3952], [-121.635, 37.3953], [-121.635, 37.3958]]], [[[-121.6404, 37.3944], [-121.6408, 37.3941], [-121.6404, 37.3941], [-121.6404, 37.3944]]], [[[-121.6414, 37.3917], [-121.6417, 37.3914], [-121.6414, 37.3914], [-121.6414, 37.3917]]], [[[-121.6373, 37.3901], [-121.638, 37.3898], [-121.6373, 37.3898], [-121.6373, 37.3901]]], [[[-121.6827, 37.3889], [-121.6831, 37.3886], [-121.6827, 37.3887], [-121.6827, 37.3889]]], [[[-121.6376, 37.3887], [-121.6383, 37.3885], [-121.6379, 37.3879], [-121.6372, 37.3879], [-121.6376, 37.3887]]], [[[-121.6379, 37.3879], [-121.6382, 37.3877], [-121.6379, 37.3877], [-121.6379, 37.3879]]], [[[-121.6382, 37.3877], [-121.6389, 37.3874], [-121.6382, 37.3874], [-121.6382, 37.3877]]], [[[-121.643, 37.3865], [-121.6433, 37.3862], [-121.643, 37.3862], [-121.643, 37.3865]]], [[[-121.6392, 37.3855], [-121.6396, 37.3852], [-121.6392, 37.3852], [-121.6392, 37.3855]]], [[[-121.6385, 37.3847], [-121.6389, 37.3844], [-121.6385, 37.3844], [-121.6385, 37.3847]]], [[[-121.6389, 37.3844], [-121.6392, 37.3841], [-121.6388, 37.3841], [-121.6389, 37.3844]]], [[[-121.6154, 37.3826], [-121.6161, 37.3823], [-121.6154, 37.3823], [-121.6154, 37.3826]]], [[[-121.6222, 37.3819], [-121.6225, 37.3817], [-121.6222, 37.3817], [-121.6222, 37.3819]]], [[[-121.6157, 37.382], [-121.6164, 37.3817], [-121.6157, 37.3818], [-121.6157, 37.382]]], [[[-121.6154, 37.3812], [-121.6157, 37.3815], [-121.6164, 37.3812], [-121.6154, 37.3812]]], [[[-121.6651, 37.3722], [-121.6654, 37.3719], [-121.665, 37.3719], [-121.6651, 37.3722]]], [[[-121.6623, 37.3703], [-121.6626, 37.37], [-121.6623, 37.37], [-121.6623, 37.3703]]], [[[-121.6274, 37.3708], [-121.6277, 37.3705], [-121.6274, 37.3705], [-121.6274, 37.3708]]]]}, "properties": {"layer": "high_severity"}}, {"type": "Feature", "geometry": {"type": "MultiPolygon", "coordinates": [[[[-121.7937, 37.847], [-121.7941, 37.8467], [-121.7937, 37.8467], [-121.7937, 37.847]]], [[[-121.7937, 37.8462], [-121.7941, 37.8459], [-121.7937, 37.8459], [-121.7937, 37.8462]]], [[[-121.792, 37.8456], [-121.7927, 37.8454], [-121.792, 37.8454], [-121.792, 37.8456]]], [[[-121.7917, 37.8454], [-121.792, 37.8451], [-121.7916, 37.8451], [-121.7917, 37.8454]]], [[[-121.7826, 37.8374], [-121.7829, 37.8371], [-121.7826, 37.8372], [-121.7826, 37.8374]]], [[[-121.7829, 37.8371], [-121.7833, 37.8369], [-121.7829, 37.8369], [-121.7829, 37.8371]]], [[[-121.7822, 37.8369], [-121.7829, 37.8366], [-121.7822, 37.8366], [-121.7822, 37.8369]]], [[[-121.6651, 37.3722], [-121.6654, 37.3719], [-121.665, 37.3719], [-121.6651, 37.3722]]]]}, "properties": {"layer": "interior"}}, {"type": "Feature", "geometry": {"type": "MultiPolygon", "coordinates": [[[[-121.7937, 37.847], [-121.7941, 37.8467], [-121.7937, 37.8467], [-121.7937, 37.847]]], [[[-121.7937, 37.8462], [-121.7941, 37.8459], [-121.7937, 37.8459], [-121.7937, 37.8462]]], [[[-121.792, 37.8456], [-121.7927, 37.8454], [-121.792, 37.8454], [-121.792, 37.8456]]], [[[-121.7917, 37.8454], [-121.792, 37.8451], [-121.7916, 37.8451], [-121.7917, 37.8454]]], [[[-121.7826, 37.8374], [-121.7829, 37.8371], [-121.7826, 37.8372], [-121.7826, 37.8374]]], [[[-121.7829, 37.8371], [-121.7833, 37.8369], [-121.7829, 37.8369], [-121.7829, 37.8371]]], [[[-121.7822, 37.8369], [-121.7829, 37.8366], [-121.7822, 37.8366], [-121.7822, 37.8369]]]]}, "properties": {"layer": "cell", "cell_id": "161_1000", "seed_zone": "161", "elevation_band": "1000–1500 ft"}}, {"type": "Feature", "geometry": {"type": "Polygon", "coordinates": [[[-121.6651, 37.3722], [-121.6654, 37.3719], [-121.665, 37.3719], [-121.6651, 37.3722]]]}, "properties": {"layer": "cell", "cell_id": "162_2000", "seed_zone": "162", "elevation_band": "2000–2500 ft"}}]}
