{"type": "FeatureCollection", "features": [{"type": "Feature", "geometry": {"type": "Polygon", "coordinates": [[[-117.7165, 33.75], [-117.7027, 33.75], [-117.6928, 33.7528], [-117.6848, 33.7526], [-117.6845, 33.7518], [-117.6855, 33.7515], [-117.6858, 33.7491], [-117.6899, 33.7464], [-117.6903, 33.7445], [-117.6897, 33.744], [-117.6859, 33.7449], [-117.6833, 33.7443], [-117.6814, 33.7398], [-117.6785, 33.7417], [-117.6746, 33.7399], [-117.6721, 33.7411], [-117.6713, 33.7408], [-117.6697, 33.738], [-117.6676, 33.7358], [-117.667, 33.7331], [-117.662, 33.725], [-117.6619, 33.7227], [-117.6596, 33.7203], [-117.6603, 33.7182], [-117.6612, 33.7181], [-117.661, 33.7173], [-117.6562, 33.7136], [-117.6552, 33.7121], [-117.6539, 33.712], [-117.6554, 33.7102], [-117.6541, 33.7087], [-117.655, 33.7064], [-117.6518, 33.7053], [-117.6493, 33.7007], [-117.6491, 33.6987], [-117.6478, 33.6988], [-117.6479, 33.6971], [-117.6504, 33.6939], [-117.6516, 33.6901], [-117.6543, 33.6902], [-117.6548, 33.6909], [-117.6586, 33.69], [-117.6641, 33.6925], [-117.6688, 33.6925], [-117.6742, 33.6892], [-117.6759, 33.6889], [-117.6764, 33.6876], [-117.6818, 33.6878], [-117.6791, 33.6856], [-117.6789, 33.6837], [-117.6826, 33.6766], [-117.6853, 33.674], [-117.687, 33.6734], [-117.6899, 33.6699], [-117.6917, 33.6688], [-117.6929, 33.6664], [-117.6953, 33.6648], [-117.6992, 33.667], [-117.7033, 33.6682], [-117.7062, 33.6679], [-117.7064, 33.6696], [-117.7086, 33.6731], [-117.7071, 33.6748], [-117.7072, 33.6767], [-117.7104, 33.6785], [-117.7094, 33.6799], [-117.7084, 33.6802], [-117.7034, 33.6797], [-117.6916, 33.6929], [-117.6928, 33.6946], [-117.6975, 33.6973], [-117.7004, 33.6964], [-117.701, 33.6948], [-117.7022, 33.6942], [-117.7043, 33.6938], [-117.7041, 33.6917], [-117.7062, 33.6938], [-117.709, 33.6935], [-117.7098, 33.6923], [-117.71, 33.6973], [-117.711, 33.7007], [-117.7178, 33.7054], [-117.7196, 33.7093], [-117.7215, 33.7101], [-117.7233, 33.7094], [-117.7252, 33.706], [-117.7348, 33.6972], [-117.735, 33.6957], [-117.7384, 33.6914], [-117.7395, 33.6911], [-117.7388, 33.6933], [-117.7283, 33.704], [-117.7342, 33.7081], [-117.7376, 33.7115], [-117.7366, 33.7137], [-117.7327, 33.7179], [-117.733, 33.719], [-117.7396, 33.7174], [-117.7406, 33.7208], [-117.7452, 33.7241], [-117.7487, 33.7282], [-117.753, 33.7304], [-117.7447, 33.7304], [-117.7447, 33.7288], [-117.7428, 33.73], [-117.7398, 33.7302], [-117.739, 33.7308], [-117.739, 33.7339], [-117.7367, 33.7387], [-117.7369, 33.7417], [-117.7376, 33.7425], [-117.7389, 33.7423], [-117.7417, 33.7392], [-117.7423, 33.7374], [-117.745, 33.7356], [-117.7469, 33.7374], [-117.7504, 33.7384], [-117.7449, 33.7414], [-117.7452, 33.7427], [-117.744, 33.745], [-117.7493, 33.7484], [-117.7489, 33.7501], [-117.7502, 33.7507], [-117.7474, 33.7522], [-117.7476, 33.7556], [-117.7488, 33.7568], [-117.7514, 33.7565], [-117.754, 33.7581], [-117.7547, 33.7606], [-117.7556, 33.7609], [-117.7536, 33.7642], [-117.747, 33.7652], [-117.746, 33.7635], [-117.7414, 33.7612], [-117.7415, 33.7551], [-117.738, 33.7584], [-117.7356, 33.759], [-117.7332, 33.7572], [-117.729, 33.7574], [-117.728, 33.7564], [-117.7279, 33.7531], [-117.7261, 33.7523], [-117.7208, 33.7517], [-117.7165, 33.75]]]}, "properties": {"layer": "perimeter"}}, {"type": "Feature", "geometry": {"type": "MultiPolygon", "coordinates": [[[[-117.7165, 33.75], [-117.7027, 33.75], [-117.6928, 33.7528], [-117.6912, 33.7524], [-117.6854, 33.7529], [-117.6845, 33.7518], [-117.6855, 33.7515], [-117.6858, 33.7491], [-117.6899, 33.7464], [-117.69, 33.7441], [-117.6859, 33.7449], [-117.6833, 33.7443], [-117.6814, 33.7398], [-117.6785, 33.7417], [-117.6746, 33.7399], [-117.6716, 33.7411], [-117.6676, 33.7358], [-117.667, 33.7331], [-117.662, 33.725], [-117.6619, 33.7227], [-117.6596, 33.7203], [-117.6603, 33.7182], [-117.6612, 33.7181], [-117.661, 33.7173], [-117.6562, 33.7136], [-117.6552, 33.7121], [-117.6539, 33.712], [-117.6554, 33.7102], [-117.6541, 33.7087], [-117.655, 33.7066], [-117.6728, 33.6901], [-117.6746, 33.689], [-117.6759, 33.6889], [-117.6764, 33.6876], [-117.6818, 33.6878], [-117.6814, 33.6874], [-117.6879, 33.692], [-117.6984, 33.698], [-117.6996, 33.6981], [-117.7046, 33.7008], [-117.7085, 33.7015], [-117.7106, 33.7036], [-117.7175, 33.707], [-117.7204, 33.7099], [-117.7233, 33.7094], [-117.7273, 33.704], [-117.7337, 33.708], [-117.7376, 33.7115], [-117.7344, 33.7163], [-117.7315, 33.718], [-117.7244, 33.718], [-117.719, 33.7201], [-117.7188, 33.7253], [-117.7176, 33.7284], [-117.7182, 33.73], [-117.7174, 33.7306], [-117.7176, 33.7319], [-117.717, 33.7329], [-117.7099, 33.7347], [-117.7083, 33.7367], [-117.7007, 33.7387], [-117.7008, 33.7401], [-117.7067, 33.7388], [-117.7068, 33.7405], [-117.7171, 33.7485], [-117.7251, 33.7513], [-117.7309, 33.7544], [-117.7357, 33.7508], [-117.7383, 33.7541], [-117.7415, 33.7539], [-117.7416, 33.7553], [-117.738, 33.7584], [-117.7356, 33.759], [-117.7332, 33.7572], [-117.729, 33.7574], [-117.728, 33.7564], [-117.7279, 33.7531], [-117.7261, 33.7523], [-117.7194, 33.7513], [-117.7165, 33.75]]], [[[-117.747, 33.7652], [-117.7466, 33.7648], [-117.7473, 33.7652], [-117.747, 33.7652]]], [[[-117.7463, 33.7645], [-117.7464, 33.7641], [-117.7466, 33.7647], [-117.7463, 33.7645]]], [[[-117.7464, 33.7639], [-117.7414, 33.7612], [-117.7417, 33.7568], [-117.7417, 33.7608], [-117.7462, 33.7631], [-117.7464, 33.7639]]], [[[-117.7415, 33.7562], [-117.7416, 33.7556], [-117.7417, 33.7563], [-117.7415, 33.7562]]]]}, "properties": {"layer": "retained"}}]}
