{"type": "FeatureCollection", "features": [{"type": "Feature", "geometry": {"type": "Polygon", "coordinates": [[[-119.5545, 38.4751], [-119.5623, 38.4738], [-119.5603, 38.4731], [-119.5599, 38.4717], [-119.5635, 38.4721], [-119.5655, 38.4712], [-119.5678, 38.4726], [-119.5678, 38.474], [-119.5667, 38.4748], [-119.5673, 38.4767], [-119.5695, 38.4765], [-119.5716, 38.4745], [-119.5727, 38.4743], [-119.5744, 38.4749], [-119.574, 38.4756], [-119.5749, 38.4769], [-119.5774, 38.4783], [-119.5817, 38.4788], [-119.5799, 38.481], [-119.5833, 38.4839], [-119.579, 38.4878], [-119.579, 38.4895], [-119.577, 38.4897], [-119.5761, 38.4891], [-119.5722, 38.4886], [-119.568, 38.487], [-119.5645, 38.4902], [-119.5586, 38.4925], [-119.5595, 38.4939], [-119.5635, 38.4955], [-119.5676, 38.4956], [-119.5686, 38.4942], [-119.572, 38.4997], [-119.5735, 38.4998], [-119.5734, 38.5005], [-119.5757, 38.501], [-119.577, 38.4983], [-119.5783, 38.4978], [-119.5798, 38.4941], [-119.5832, 38.4936], [-119.5838, 38.4951], [-119.581, 38.4959], [-119.581, 38.4969], [-119.5829, 38.4967], [-119.5855, 38.4946], [-119.5866, 38.4955], [-119.5929, 38.4957], [-119.5921, 38.4984], [-119.594, 38.4979], [-119.5943, 38.497], [-119.5967, 38.4966], [-119.6006, 38.4967], [-119.6016, 38.4982], [-119.6032, 38.4974], [-119.6052, 38.5001], [-119.6031, 38.5017], [-119.6039, 38.502], [-119.6061, 38.501], [-119.6068, 38.5014], [-119.6077, 38.504], [-119.6092, 38.5049], [-119.6084, 38.5071], [-119.6136, 38.5046], [-119.6144, 38.5051], [-119.612, 38.5066], [-119.6131, 38.5083], [-119.6166, 38.5072], [-119.6174, 38.508], [-119.6223, 38.5089], [-119.6271, 38.5077], [-119.6345, 38.5105], [-119.6405, 38.5106], [-119.6434, 38.5123], [-119.6486, 38.516], [-119.6527, 38.5228], [-119.6525, 38.5257], [-119.6543, 38.5281], [-119.6538, 38.5298], [-119.6545, 38.5322], [-119.6535, 38.5339], [-119.654, 38.5385], [-119.6537, 38.5403], [-119.6517, 38.5406], [-119.6494, 38.5427], [-119.6454, 38.5436], [-119.6411, 38.5461], [-119.6392, 38.5463], [-119.6371, 38.5484], [-119.6318, 38.5494], [-119.6265, 38.5547], [-119.6229, 38.5568], [-119.6219, 38.5589], [-119.6177, 38.5606], [-119.6156, 38.5595], [-119.6153, 38.5607], [-119.614, 38.5616], [-119.6154, 38.5644], [-119.6136, 38.5654], [-119.6116, 38.5649], [-119.6099, 38.5657], [-119.6082, 38.5655], [-119.6045, 38.5638], [-119.6025, 38.5659], [-119.599, 38.5678], [-119.5977, 38.5683], [-119.5938, 38.5682], [-119.5901, 38.5693], [-119.5862, 38.5724], [-119.5854, 38.5723], [-119.5848, 38.571], [-119.5783, 38.5727], [-119.5766, 38.5749], [-119.5791, 38.5777], [-119.5769, 38.5779], [-119.5765, 38.5787], [-119.5794, 38.5791], [-119.5793, 38.5796], [-119.5755, 38.582], [-119.5714, 38.5816], [-119.5684, 38.5833], [-119.5663, 38.5821], [-119.5644, 38.5846], [-119.5634, 38.5832], [-119.5626, 38.5838], [-119.5618, 38.5827], [-119.56, 38.5821], [-119.5585, 38.5852], [-119.557, 38.5854], [-119.5571, 38.5862], [-119.5555, 38.5865], [-119.5545, 38.586], [-119.5538, 38.5834], [-119.5518, 38.5818], [-119.5507, 38.5818], [-119.5503, 38.581], [-119.5485, 38.581], [-119.5479, 38.5837], [-119.5471, 38.583], [-119.5433, 38.586], [-119.5406, 38.5812], [-119.5404, 38.5791], [-119.5391, 38.5778], [-119.5385, 38.5752], [-119.5391, 38.5727], [-119.5357, 38.571], [-119.5362, 38.5701], [-119.5344, 38.5646], [-119.535, 38.5629], [-119.5369, 38.5627], [-119.5369, 38.561], [-119.539, 38.5605], [-119.5408, 38.5583], [-119.5417, 38.5591], [-119.542, 38.5565], [-119.5442, 38.5576], [-119.5446, 38.5546], [-119.5438, 38.5535], [-119.544, 38.5521], [-119.5426, 38.5515], [-119.5442, 38.5508], [-119.5433, 38.5502], [-119.5411, 38.5516], [-119.5396, 38.5515], [-119.5374, 38.5495], [-119.5336, 38.5482], [-119.5331, 38.5467], [-119.5314, 38.5469], [-119.5284, 38.5486], [-119.5242, 38.5489], [-119.5247, 38.5478], [-119.5241, 38.5466], [-119.525, 38.546], [-119.5266, 38.5464], [-119.5256, 38.5436], [-119.5267, 38.5435], [-119.5266, 38.5425], [-119.5278, 38.5422], [-119.5278, 38.5402], [-119.5244, 38.5383], [-119.5223, 38.5363], [-119.5232, 38.5344], [-119.522, 38.5324], [-119.5212, 38.5324], [-119.5208, 38.5335], [-119.5181, 38.5325], [-119.5173, 38.5331], [-119.5155, 38.5326], [-119.5155, 38.5318], [-119.517, 38.5314], [-119.5168, 38.528], [-119.5121, 38.5284], [-119.5112, 38.5275], [-119.5116, 38.5264], [-119.508, 38.5257], [-119.5071, 38.5267], [-119.5072, 38.5282], [-119.5059, 38.5285], [-119.5036, 38.5262], [-119.5016, 38.5254], [-119.4997, 38.5214], [-119.5007, 38.521], [-119.5005, 38.5201], [-119.502, 38.5196], [-119.5033, 38.5211], [-119.5042, 38.5199], [-119.5036, 38.5189], [-119.5046, 38.5189], [-119.5062, 38.52], [-119.5073, 38.5196], [-119.507, 38.5125], [-119.5052, 38.512], [-119.5043, 38.5126], [-119.5042, 38.5146], [-119.5028, 38.513], [-119.4984, 38.5121], [-119.4979, 38.5111], [-119.4994, 38.5105], [-119.498, 38.5096], [-119.4978, 38.5083], [-119.4993, 38.5028], [-119.4967, 38.5007], [-119.4955, 38.5007], [-119.495, 38.5033], [-119.4969, 38.5061], [-119.4963, 38.5069], [-119.4954, 38.5067], [-119.4935, 38.5023], [-119.4907, 38.4998], [-119.4886, 38.4991], [-119.4863, 38.4997], [-119.4852, 38.4993], [-119.486, 38.4964], [-119.4856, 38.4951], [-119.4874, 38.4918], [-119.489, 38.4909], [-119.4887, 38.4822], [-119.4929, 38.4736], [-119.4923, 38.4723], [-119.4934, 38.4675], [-119.4955, 38.4647], [-119.498, 38.4635], [-119.506, 38.4646], [-119.5069, 38.4663], [-119.5131, 38.4675], [-119.5126, 38.4696], [-119.5101, 38.4703], [-119.5083, 38.4726], [-119.5085, 38.4733], [-119.5104, 38.4736], [-119.5112, 38.4724], [-119.5139, 38.4731], [-119.515, 38.4723], [-119.5148, 38.474], [-119.5158, 38.4744], [-119.5168, 38.4737], [-119.5179, 38.4741], [-119.5281, 38.4689], [-119.5289, 38.4664], [-119.5267, 38.466], [-119.5268, 38.4653], [-119.5286, 38.4629], [-119.5318, 38.4613], [-119.5357, 38.4564], [-119.5372, 38.4567], [-119.5364, 38.459], [-119.5373, 38.46], [-119.5364, 38.4613], [-119.5402, 38.4615], [-119.543, 38.4594], [-119.542, 38.4586], [-119.5449, 38.458], [-119.5457, 38.4583], [-119.5449, 38.4595], [-119.5473, 38.4603], [-119.5519, 38.4589], [-119.5523, 38.4594], [-119.5501, 38.4608], [-119.5518, 38.4612], [-119.5587, 38.4605], [-119.5565, 38.4615], [-119.5535, 38.4617], [-119.553, 38.4628], [-119.5545, 38.4643], [-119.5521, 38.465], [-119.5532, 38.4667], [-119.552, 38.4667], [-119.5513, 38.4676], [-119.5486, 38.4671], [-119.546, 38.4697], [-119.5406, 38.4692], [-119.5386, 38.4713], [-119.5401, 38.4726], [-119.5441, 38.472], [-119.5442, 38.4728], [-119.5454, 38.4725], [-119.5462, 38.4734], [-119.5479, 38.4721], [-119.5496, 38.4721], [-119.5524, 38.4707], [-119.5531, 38.4709], [-119.5545, 38.4751]], [[-119.5465, 38.4897], [-119.5447, 38.4886], [-119.5433, 38.4855], [-119.5449, 38.4836], [-119.5424, 38.4827], [-119.5416, 38.4815], [-119.5422, 38.481], [-119.5437, 38.482], [-119.5434, 38.4799], [-119.5454, 38.4778], [-119.5453, 38.4768], [-119.5424, 38.4773], [-119.5401, 38.4762], [-119.5349, 38.4763], [-119.5332, 38.4757], [-119.5326, 38.4767], [-119.5337, 38.4775], [-119.5336, 38.4785], [-119.5317, 38.4789], [-119.533, 38.4823], [-119.5345, 38.4824], [-119.5332, 38.4834], [-119.5331, 38.4848], [-119.5363, 38.4863], [-119.5364, 38.4869], [-119.5355, 38.4871], [-119.5351, 38.4883], [-119.5339, 38.4872], [-119.5295, 38.4862], [-119.5307, 38.4906], [-119.5293, 38.4932], [-119.5275, 38.4925], [-119.5265, 38.4939], [-119.524, 38.4948], [-119.5242, 38.4962], [-119.5252, 38.4966], [-119.5244, 38.4987], [-119.5251, 38.4992], [-119.5269, 38.4988], [-119.5268, 38.4975], [-119.528, 38.4973], [-119.5286, 38.4957], [-119.5317, 38.4959], [-119.5312, 38.4945], [-119.5334, 38.4923], [-119.5335, 38.4899], [-119.5356, 38.4922], [-119.5366, 38.4904], [-119.5387, 38.491], [-119.5391, 38.4896], [-119.5413, 38.4895], [-119.5423, 38.4896], [-119.5424, 38.4907], [-119.5441, 38.492], [-119.5454, 38.492], [-119.5458, 38.4911], [-119.5437, 38.4898], [-119.5465, 38.4897]]]}, "properties": {"layer": "perimeter"}}, {"type": "Feature", "geometry": {"type": "MultiPolygon", "coordinates": [[[[-119.5772, 38.5757], [-119.5791, 38.5777], [-119.5769, 38.5779], [-119.5765, 38.5787], [-119.5794, 38.5791], [-119.5793, 38.5796], [-119.5755, 38.582], [-119.5714, 38.5816], [-119.5684, 38.5833], [-119.5663, 38.5821], [-119.5644, 38.5846], [-119.5634, 38.5832], [-119.5626, 38.5838], [-119.5618, 38.5827], [-119.56, 38.5821], [-119.5595, 38.5838], [-119.5594, 38.5756], [-119.5548, 38.5755], [-119.5547, 38.5719], [-119.5411, 38.5717], [-119.5408, 38.5681], [-119.5544, 38.5682], [-119.5538, 38.5573], [-119.5584, 38.5573], [-119.5584, 38.5537], [-119.5628, 38.5537], [-119.5638, 38.5717], [-119.5684, 38.5715], [-119.5685, 38.5752], [-119.5772, 38.5757]]], [[[-119.5257, 38.539], [-119.5223, 38.5363], [-119.5232, 38.5344], [-119.522, 38.5324], [-119.5212, 38.5324], [-119.5208, 38.5335], [-119.5181, 38.5325], [-119.5173, 38.5331], [-119.5155, 38.5326], [-119.5155, 38.5318], [-119.517, 38.5314], [-119.5168, 38.528], [-119.5121, 38.5284], [-119.5112, 38.5275], [-119.5116, 38.5264], [-119.508, 38.5257], [-119.5071, 38.5267], [-119.5072, 38.5282], [-119.5059, 38.5285], [-119.5036, 38.5262], [-119.5016, 38.5254], [-119.4999, 38.5226], [-119.4997, 38.5214], [-119.5007, 38.521], [-119.5007, 38.52], [-119.5025, 38.5198], [-119.5029, 38.5212], [-119.5042, 38.5199], [-119.5036, 38.5189], [-119.5046, 38.5189], [-119.5062, 38.52], [-119.5073, 38.5196], [-119.507, 38.5125], [-119.5052, 38.512], [-119.5043, 38.5126], [-119.5042, 38.5146], [-119.5028, 38.513], [-119.4984, 38.5121], [-119.4978, 38.5113], [-119.4994, 38.5105], [-119.498, 38.5094], [-119.4996, 38.5033], [-119.4983, 38.502], [-119.5026, 38.502], [-119.5024, 38.4913], [-119.507, 38.4914], [-119.507, 38.4879], [-119.5209, 38.4881], [-119.5211, 38.5098], [-119.5259, 38.5099], [-119.526, 38.5244], [-119.5308, 38.5244], [-119.531, 38.5391], [-119.5257, 38.539]], [[-119.512, 38.5168], [-119.512, 38.5132], [-119.5074, 38.513], [-119.5075, 38.5167], [-119.512, 38.5168]]], [[[-119.4949, 38.5024], [-119.4969, 38.5061], [-119.4963, 38.5069], [-119.4954, 38.5067], [-119.4935, 38.502], [-119.4949, 38.5024]]], [[[-119.53, 38.4667], [-119.5266, 38.4657], [-119.5284, 38.4631], [-119.5301, 38.4631], [-119.53, 38.4667]]], [[[-119.5442, 38.5137], [-119.5488, 38.5138], [-119.5489, 38.5246], [-119.5443, 38.5246], [-119.5442, 38.521], [-119.5396, 38.5209], [-119.5395, 38.5101], [-119.5441, 38.5101], [-119.5442, 38.5137]]], [[[-119.5491, 38.5389], [-119.5489, 38.5282], [-119.5536, 38.5283], [-119.5536, 38.5319], [-119.5662, 38.532], [-119.5658, 38.5305], [-119.576, 38.5307], [-119.5764, 38.5432], [-119.5732, 38.5415], [-119.5754, 38.5454], [-119.5775, 38.5466], [-119.5584, 38.5464], [-119.5583, 38.5392], [-119.5491, 38.5389]]]]}, "properties": {"layer": "retained"}}, {"type": "Feature", "geometry": {"type": "MultiPolygon", "coordinates": [[[[-119.5446, 38.5696], [-119.545, 38.5693], [-119.5446, 38.5693], [-119.5446, 38.5696]]], [[[-119.5453, 38.5685], [-119.5457, 38.5682], [-119.5453, 38.5682], [-119.5453, 38.5685]]], [[[-119.5727, 38.5462], [-119.573, 38.5459], [-119.5727, 38.5459], [-119.5727, 38.5462]]], [[[-119.5727, 38.5456], [-119.5737, 38.5454], [-119.5727, 38.5454], [-119.5727, 38.5456]]], [[[-119.562, 38.5426], [-119.5624, 38.5424], [-119.562, 38.5424], [-119.562, 38.5426]]], [[[-119.5624, 38.5424], [-119.5627, 38.5421], [-119.5624, 38.5421], [-119.5624, 38.5424]]], [[[-119.5724, 38.5429], [-119.5731, 38.5424], [-119.5724, 38.5419], [-119.5724, 38.5429]]], [[[-119.5741, 38.5419], [-119.5751, 38.5416], [-119.5741, 38.5413], [-119.5741, 38.5419]]], [[[-119.5751, 38.5416], [-119.5755, 38.5413], [-119.5751, 38.5413], [-119.5751, 38.5416]]], [[[-119.5738, 38.5413], [-119.5741, 38.5411], [-119.5738, 38.5411], [-119.5738, 38.5413]]], [[[-119.5645, 38.5405], [-119.5648, 38.5402], [-119.5645, 38.5402], [-119.5645, 38.5405]]], [[[-119.5651, 38.5405], [-119.5655, 38.5399], [-119.5652, 38.5399], [-119.5651, 38.5405]]], [[[-119.5665, 38.5405], [-119.5672, 38.54], [-119.5665, 38.5397], [-119.5665, 38.5405]]], [[[-119.5662, 38.5397], [-119.5665, 38.5394], [-119.5662, 38.5394], [-119.5662, 38.5397]]], [[[-119.5676, 38.5397], [-119.5679, 38.5391], [-119.5676, 38.5391], [-119.5676, 38.5397]]], [[[-119.5686, 38.5394], [-119.5689, 38.5391], [-119.5686, 38.5391], [-119.5686, 38.5394]]], [[[-119.5658, 38.5394], [-119.5662, 38.5389], [-119.5658, 38.5389], [-119.5658, 38.5394]]], [[[-119.5679, 38.5391], [-119.5683, 38.5389], [-119.5679, 38.5389], [-119.5679, 38.5391]]], [[[-119.5683, 38.5389], [-119.5686, 38.5386], [-119.5683, 38.5386], [-119.5683, 38.5389]]], [[[-119.5703, 38.5386], [-119.5707, 38.5383], [-119.5703, 38.5383], [-119.5703, 38.5386]]], [[[-119.5645, 38.5383], [-119.5652, 38.5386], [-119.5659, 38.5381], [-119.5645, 38.5383]]], [[[-119.5583, 38.5383], [-119.559, 38.538], [-119.5583, 38.538], [-119.5583, 38.5383]]], [[[-119.559, 38.538], [-119.5593, 38.5378], [-119.559, 38.5378], [-119.559, 38.538]]], [[[-119.5559, 38.5367], [-119.5566, 38.5364], [-119.5559, 38.5364], [-119.5559, 38.5367]]], [[[-119.5731, 38.5378], [-119.5728, 38.5362], [-119.5717, 38.5362], [-119.5717, 38.5367], [-119.5731, 38.5378]]], [[[-119.5617, 38.5364], [-119.5621, 38.5362], [-119.5617, 38.5362], [-119.5617, 38.5364]]], [[[-119.5566, 38.5364], [-119.5569, 38.5361], [-119.5566, 38.5361], [-119.5566, 38.5364]]], [[[-119.5576, 38.5359], [-119.5579, 38.5356], [-119.5576, 38.5356], [-119.5576, 38.5359]]], [[[-119.571, 38.5356], [-119.5714, 38.5354], [-119.571, 38.5354], [-119.571, 38.5356]]], [[[-119.5659, 38.5356], [-119.5666, 38.5354], [-119.5659, 38.5351], [-119.5659, 38.5356]]], [[[-119.5724, 38.5359], [-119.5724, 38.5351], [-119.5717, 38.5348], [-119.5714, 38.5354], [-119.5724, 38.5359]]], [[[-119.5728, 38.5351], [-119.5731, 38.5348], [-119.5728, 38.5348], [-119.5728, 38.5351]]], [[[-119.571, 38.5351], [-119.5714, 38.5348], [-119.571, 38.5348], [-119.571, 38.5351]]], [[[-119.5638, 38.5351], [-119.5641, 38.5348], [-119.5638, 38.5348], [-119.5638, 38.5351]]], [[[-119.5624, 38.5335], [-119.5628, 38.5332], [-119.5624, 38.5332], [-119.5624, 38.5335]]], [[[-119.5497, 38.5334], [-119.5504, 38.5331], [-119.5497, 38.5329], [-119.5497, 38.5334]]], [[[-119.5704, 38.5327], [-119.5711, 38.5324], [-119.5704, 38.5324], [-119.5704, 38.5327]]], [[[-119.5755, 38.533], [-119.5759, 38.5322], [-119.5755, 38.5322], [-119.5755, 38.533]]], [[[-119.5697, 38.5324], [-119.5704, 38.5321], [-119.5697, 38.5321], [-119.5697, 38.5324]]], [[[-119.5631, 38.5332], [-119.5638, 38.5329], [-119.5631, 38.5324], [-119.5642, 38.5324], [-119.5635, 38.5318], [-119.5624, 38.5324], [-119.5631, 38.5332]]], [[[-119.569, 38.5321], [-119.5693, 38.5319], [-119.569, 38.5319], [-119.569, 38.5321]]], [[[-119.5728, 38.534], [-119.5728, 38.533], [-119.5735, 38.5332], [-119.5742, 38.5322], [-119.5755, 38.5322], [-119.5748, 38.5311], [-119.5759, 38.5305], [-119.5711, 38.5311], [-119.5707, 38.5319], [-119.5728, 38.5321], [-119.5717, 38.5332], [-119.5728, 38.534]], [[-119.5738, 38.5319], [-119.5735, 38.5321], [-119.5735, 38.5319], [-119.5738, 38.5319]]], [[[-119.5693, 38.5311], [-119.5707, 38.5305], [-119.5693, 38.5305], [-119.5693, 38.5311]]], [[[-119.549, 38.5291], [-119.5494, 38.5286], [-119.549, 38.5286], [-119.549, 38.5291]]], [[[-119.559, 38.5375], [-119.5597, 38.5353], [-119.5621, 38.5353], [-119.5614, 38.5324], [-119.5607, 38.5318], [-119.5535, 38.5318], [-119.5535, 38.5283], [-119.5501, 38.5283], [-119.5494, 38.5294], [-119.5504, 38.5294], [-119.5507, 38.531], [-119.5494, 38.5299], [-119.5497, 38.5307], [-119.549, 38.5313], [-119.5497, 38.5313], [-119.55, 38.5326], [-119.5514, 38.5321], [-119.5514, 38.5329], [-119.5493, 38.5342], [-119.5493, 38.5353], [-119.5504, 38.5345], [-119.5514, 38.535], [-119.5524, 38.5342], [-119.5524, 38.5356], [-119.5535, 38.5356], [-119.5535, 38.5337], [-119.5559, 38.5348], [-119.5562, 38.5359], [-119.5586, 38.5345], [-119.5579, 38.537], [-119.559, 38.5375]], [[-119.5573, 38.5348], [-119.5566, 38.5351], [-119.5566, 38.5348], [-119.5573, 38.5348]], [[-119.5583, 38.5343], [-119.5579, 38.5345], [-119.5579, 38.5343], [-119.5583, 38.5343]], [[-119.56, 38.534], [-119.5597, 38.5343], [-119.5597, 38.534], [-119.56, 38.534]], [[-119.5521, 38.534], [-119.5514, 38.5342], [-119.5514, 38.534], [-119.5521, 38.534]], [[-119.5562, 38.5334], [-119.5559, 38.5337], [-119.5559, 38.5334], [-119.5562, 38.5334]], [[-119.5549, 38.5334], [-119.5545, 38.5337], [-119.5545, 38.5334], [-119.5549, 38.5334]], [[-119.5521, 38.5332], [-119.5514, 38.5337], [-119.5514, 38.5331], [-119.5521, 38.5332]], [[-119.5566, 38.5332], [-119.5562, 38.5334], [-119.5562, 38.5332], [-119.5566, 38.5332]], [[-119.5559, 38.5334], [-119.5552, 38.5334], [-119.5549, 38.5329], [-119.5555, 38.5329], [-119.5559, 38.5334]], [[-119.5511, 38.531], [-119.5507, 38.5318], [-119.5507, 38.531], [-119.5511, 38.531]], [[-119.5531, 38.531], [-119.5528, 38.5313], [-119.5528, 38.531], [-119.5531, 38.531]]], [[[-119.5494, 38.5286], [-119.5497, 38.5283], [-119.5494, 38.5283], [-119.5494, 38.5286]]], [[[-119.5032, 38.5222], [-119.5036, 38.5219], [-119.5032, 38.5219], [-119.5032, 38.5222]]], [[[-119.5446, 38.5167], [-119.5457, 38.5164], [-119.5446, 38.5164], [-119.5446, 38.5167]]], [[[-119.5257, 38.5163], [-119.526, 38.516], [-119.5257, 38.516], [-119.5257, 38.5163]]], [[[-119.5426, 38.5158], [-119.5429, 38.5156], [-119.5426, 38.5156], [-119.5426, 38.5158]]], [[[-119.5415, 38.5158], [-119.5419, 38.5156], [-119.5415, 38.5156], [-119.5415, 38.5158]]], [[[-119.5487, 38.5172], [-119.5488, 38.5151], [-119.5484, 38.5159], [-119.5467, 38.5156], [-119.547, 38.5161], [-119.546, 38.5164], [-119.547, 38.5172], [-119.5474, 38.5167], [-119.5487, 38.5172]]], [[[-119.546, 38.5156], [-119.5467, 38.515], [-119.5464, 38.515], [-119.546, 38.5156]]], [[[-119.5484, 38.5148], [-119.5488, 38.5145], [-119.5484, 38.5145], [-119.5484, 38.5148]]], [[[-119.5457, 38.5145], [-119.5453, 38.5137], [-119.5439, 38.5137], [-119.544, 38.5102], [-119.5416, 38.5102], [-119.5416, 38.5107], [-119.5395, 38.5102], [-119.5395, 38.5129], [-119.5426, 38.5134], [-119.5419, 38.5145], [-119.5429, 38.5137], [-119.5457, 38.5145]]]]}, "properties": {"layer": "high_severity"}}, {"type": "Feature", "geometry": {"type": "MultiPolygon", "coordinates": [[[[-119.5607, 38.5348], [-119.5611, 38.5335], [-119.5597, 38.5318], [-119.5528, 38.5321], [-119.5525, 38.531], [-119.5535, 38.5305], [-119.5535, 38.5283], [-119.5511, 38.5283], [-119.5528, 38.5332], [-119.5555, 38.5321], [-119.5573, 38.5326], [-119.5573, 38.5337], [-119.5583, 38.5334], [-119.5597, 38.5348], [-119.5607, 38.5348]], [[-119.56, 38.534], [-119.5597, 38.5343], [-119.5597, 38.534], [-119.56, 38.534]]], [[[-119.544, 38.5129], [-119.544, 38.5102], [-119.5405, 38.5118], [-119.5426, 38.5129], [-119.544, 38.5129]]]]}, "properties": {"layer": "interior"}}, {"type": "Feature", "geometry": {"type": "MultiPolygon", "coordinates": [[[[-119.5607, 38.5348], [-119.5611, 38.5335], [-119.5597, 38.5318], [-119.5545, 38.5318], [-119.5535, 38.5323], [-119.5525, 38.5315], [-119.5535, 38.5299], [-119.5514, 38.5294], [-119.5528, 38.5332], [-119.5555, 38.5321], [-119.5573, 38.5326], [-119.5573, 38.5337], [-119.5583, 38.5334], [-119.5597, 38.5348], [-119.5607, 38.5348]], [[-119.56, 38.534], [-119.5597, 38.5343], [-119.5597, 38.534], [-119.56, 38.534]]], [[[-119.544, 38.5129], [-119.5443, 38.5121], [-119.5433, 38.5104], [-119.5405, 38.5118], [-119.544, 38.5129]]]]}, "properties": {"layer": "cell", "cell_id": "781_7000", "seed_zone": "781", "elevation_band": "7000–7500 ft"}}, {"type": "Feature", "geometry": {"type": "MultiPolygon", "coordinates": [[[[-119.5535, 38.5299], [-119.5535, 38.5283], [-119.5511, 38.5283], [-119.5511, 38.5294], [-119.5535, 38.5299]]], [[[-119.5433, 38.5107], [-119.544, 38.5102], [-119.5433, 38.5102], [-119.5433, 38.5107]]]]}, "properties": {"layer": "cell", "cell_id": "781_7500", "seed_zone": "781", "elevation_band": "7500–8000 ft"}}]}
