{"type": "FeatureCollection", "features": [{"type": "Feature", "geometry": {"type": "Polygon", "coordinates": [[[-122.3817, 38.7275], [-122.3787, 38.7266], [-122.3682, 38.7205], [-122.363, 38.7133], [-122.3538, 38.7067], [-122.3489, 38.6989], [-122.3505, 38.6936], [-122.3551, 38.6929], [-122.3601, 38.6931], [-122.3609, 38.6944], [-122.3708, 38.6985], [-122.3719, 38.7002], [-122.3709, 38.7023], [-122.3762, 38.706], [-122.3821, 38.7049], [-122.3845, 38.7076], [-122.3903, 38.7118], [-122.3932, 38.7177], [-122.3955, 38.7182], [-122.3969, 38.7206], [-122.401, 38.7224], [-122.4012, 38.7237], [-122.3992, 38.7257], [-122.4011, 38.7275], [-122.4053, 38.7275], [-122.4081, 38.7261], [-122.4108, 38.7263], [-122.4156, 38.7252], [-122.4204, 38.7264], [-122.425, 38.73], [-122.4287, 38.7318], [-122.4278, 38.7338], [-122.4202, 38.7351], [-122.4113, 38.732], [-122.4031, 38.7326], [-122.3912, 38.7285], [-122.3817, 38.7275]]]}, "properties": {"layer": "perimeter"}}, {"type": "Feature", "geometry": {"type": "Polygon", "coordinates": [[[-122.3791, 38.7267], [-122.3682, 38.7205], [-122.363, 38.7133], [-122.3539, 38.7067], [-122.3539, 38.7053], [-122.3528, 38.7053], [-122.3489, 38.6989], [-122.3505, 38.6936], [-122.3551, 38.6929], [-122.3601, 38.6931], [-122.3609, 38.6944], [-122.3708, 38.6985], [-122.3719, 38.7002], [-122.3709, 38.7023], [-122.3762, 38.706], [-122.3821, 38.7049], [-122.3845, 38.7076], [-122.3903, 38.7118], [-122.3932, 38.7177], [-122.3955, 38.7182], [-122.3969, 38.7206], [-122.401, 38.7224], [-122.4012, 38.7237], [-122.3992, 38.7257], [-122.4011, 38.7275], [-122.4053, 38.7275], [-122.4081, 38.7261], [-122.4108, 38.7263], [-122.4156, 38.7252], [-122.4204, 38.7264], [-122.425, 38.73], [-122.4287, 38.7318], [-122.4278, 38.7338], [-122.4202, 38.7351], [-122.4113, 38.732], [-122.4031, 38.7326], [-122.3912, 38.7285], [-122.3844, 38.7281], [-122.3791, 38.7267]], [[-122.3856, 38.7229], [-122.3903, 38.7229], [-122.3904, 38.7192], [-122.3857, 38.7193], [-122.3856, 38.7229]]]}, "properties": {"layer": "retained"}}, {"type": "Feature", "geometry": {"type": "MultiPolygon", "coordinates": [[[[-122.4112, 38.73], [-122.4105, 38.7292], [-122.4095, 38.7298], [-122.4095, 38.73], [-122.4112, 38.73]]], [[[-122.416, 38.7291], [-122.416, 38.7283], [-122.4153, 38.728], [-122.4153, 38.7291], [-122.416, 38.7291]]], [[[-122.391, 38.7269], [-122.3917, 38.7263], [-122.3924, 38.726], [-122.3914, 38.7261], [-122.391, 38.7269]]], [[[-122.392, 38.7244], [-122.3916, 38.7225], [-122.3909, 38.7234], [-122.3885, 38.7237], [-122.3892, 38.7245], [-122.3909, 38.7236], [-122.392, 38.7244]]], [[[-122.3912, 38.7217], [-122.3912, 38.7209], [-122.3905, 38.7209], [-122.3902, 38.7218], [-122.3912, 38.7217]]], [[[-122.3926, 38.7212], [-122.3933, 38.7206], [-122.3922, 38.7204], [-122.3926, 38.7212]]], [[[-122.3876, 38.7172], [-122.3887, 38.7175], [-122.3887, 38.7169], [-122.3876, 38.7172]]], [[[-122.3859, 38.7159], [-122.3869, 38.7159], [-122.3869, 38.7153], [-122.3859, 38.7159]]], [[[-122.376, 38.7099], [-122.376, 38.7091], [-122.3753, 38.7091], [-122.3749, 38.7096], [-122.376, 38.7099]]], [[[-122.3631, 38.7061], [-122.363, 38.7047], [-122.3627, 38.7048], [-122.362, 38.7056], [-122.3631, 38.7061]]], [[[-122.3675, 38.7036], [-122.3675, 38.7028], [-122.3668, 38.7025], [-122.3668, 38.7033], [-122.3675, 38.7036]]]]}, "properties": {"layer": "high_severity"}}]}
