{"type": "FeatureCollection", "features": [{"type": "Feature", "geometry": {"type": "MultiPolygon", "coordinates": [[[[-119.9379, 35.3367], [-119.9451, 35.3367], [-119.9433, 35.3365], [-119.9419, 35.3352], [-119.941, 35.3302], [-119.9413, 35.3297], [-119.9424, 35.3302], [-119.9426, 35.3289], [-119.9414, 35.3282], [-119.9405, 35.3232], [-119.9427, 35.318], [-119.9427, 35.3149], [-119.9455, 35.3149], [-119.9433, 35.3129], [-119.9434, 35.3076], [-119.9443, 35.3081], [-119.9442, 35.3095], [-119.9475, 35.3094], [-119.9475, 35.3086], [-119.9489, 35.3093], [-119.9518, 35.3123], [-119.9517, 35.3149], [-119.9604, 35.315], [-119.9605, 35.3183], [-119.9614, 35.3196], [-119.9602, 35.3214], [-119.9604, 35.3289], [-119.9612, 35.3293], [-119.9598, 35.3306], [-119.9581, 35.3308], [-119.9581, 35.3368], [-119.9601, 35.3368], [-119.9605, 35.3362], [-119.9612, 35.3367], [-119.9574, 35.3401], [-119.956, 35.3405], [-119.9541, 35.3423], [-119.9514, 35.3467], [-119.9456, 35.3512], [-119.9379, 35.3512], [-119.9378, 35.3439], [-119.9387, 35.3428], [-119.9379, 35.3367]]], [[[-119.942, 35.3528], [-119.9403, 35.3523], [-119.9396, 35.3513], [-119.9453, 35.3514], [-119.942, 35.3528]]]]}, "properties": {"layer": "perimeter"}}, {"type": "Feature", "geometry": {"type": "MultiPolygon", "coordinates": [[[[-119.9451, 35.3367], [-119.9433, 35.3365], [-119.9419, 35.3352], [-119.941, 35.3302], [-119.9413, 35.3297], [-119.9424, 35.3302], [-119.9426, 35.3289], [-119.9414, 35.3282], [-119.9405, 35.3232], [-119.9427, 35.318], [-119.9427, 35.3149], [-119.9455, 35.3149], [-119.9433, 35.3129], [-119.9434, 35.3076], [-119.9443, 35.3081], [-119.9442, 35.3095], [-119.9475, 35.3094], [-119.9475, 35.3086], [-119.9489, 35.3093], [-119.9518, 35.3123], [-119.9517, 35.3149], [-119.9604, 35.315], [-119.9605, 35.3183], [-119.9614, 35.3196], [-119.9602, 35.3214], [-119.9604, 35.3289], [-119.9612, 35.3293], [-119.9598, 35.3306], [-119.9581, 35.3308], [-119.9581, 35.3368], [-119.9601, 35.3368], [-119.9605, 35.3362], [-119.9612, 35.3367], [-119.9574, 35.3401], [-119.956, 35.3405], [-119.9541, 35.3423], [-119.9514, 35.3467], [-119.9456, 35.3512], [-119.9379, 35.3512], [-119.9378, 35.3439], [-119.9387, 35.3428], [-119.9379, 35.3367], [-119.9451, 35.3367]]], [[[-119.9418, 35.3528], [-119.9402, 35.3523], [-119.9396, 35.3513], [-119.9453, 35.3514], [-119.9418, 35.3528]]]]}, "properties": {"layer": "retained"}}]}
