{"type": "FeatureCollection", "features": [{"type": "Feature", "geometry": {"type": "MultiPolygon", "coordinates": [[[[-122.8467, 40.1515], [-122.8395, 40.1464], [-122.8347, 40.1415], [-122.8317, 40.1398], [-122.8292, 40.1396], [-122.8269, 40.1382], [-122.8268, 40.1367], [-122.8232, 40.135], [-122.8228, 40.1321], [-122.8161, 40.1315], [-122.8168, 40.1304], [-122.8118, 40.1291], [-122.8124, 40.1304], [-122.8084, 40.1299], [-122.8061, 40.1325], [-122.8047, 40.1314], [-122.8044, 40.1336], [-122.8051, 40.1347], [-122.803, 40.1349], [-122.8026, 40.1333], [-122.8015, 40.133], [-122.8, 40.1337], [-122.797, 40.1327], [-122.7951, 40.1345], [-122.7901, 40.1348], [-122.7905, 40.1363], [-122.7884, 40.1365], [-122.7871, 40.1356], [-122.7876, 40.1344], [-122.7868, 40.1335], [-122.7878, 40.1332], [-122.7863, 40.1312], [-122.78, 40.1288], [-122.7788, 40.1294], [-122.7761, 40.1274], [-122.7756, 40.1246], [-122.7727, 40.1204], [-122.7748, 40.1179], [-122.7768, 40.1172], [-122.7786, 40.1119], [-122.7817, 40.1109], [-122.7832, 40.1096], [-122.784, 40.1067], [-122.7873, 40.101], [-122.7867, 40.0994], [-122.785, 40.0984], [-122.7846, 40.0959], [-122.7821, 40.0961], [-122.7811, 40.0947], [-122.7744, 40.0924], [-122.7736, 40.0883], [-122.7723, 40.0869], [-122.7725, 40.0848], [-122.7755, 40.0845], [-122.7793, 40.0857], [-122.782, 40.0854], [-122.7856, 40.0882], [-122.7877, 40.0884], [-122.7902, 40.0899], [-122.7881, 40.0915], [-122.7894, 40.0917], [-122.7897, 40.0934], [-122.7912, 40.094], [-122.7909, 40.0949], [-122.7928, 40.0961], [-122.7948, 40.0958], [-122.7946, 40.0936], [-122.7953, 40.0956], [-122.7968, 40.0952], [-122.7975, 40.094], [-122.7989, 40.0947], [-122.7986, 40.0919], [-122.8006, 40.0914], [-122.8015, 40.0919], [-122.7997, 40.0924], [-122.7996, 40.0931], [-122.8007, 40.093], [-122.7994, 40.0937], [-122.8015, 40.0953], [-122.8004, 40.0956], [-122.802, 40.0956], [-122.8043, 40.0944], [-122.8085, 40.0955], [-122.8122, 40.0951], [-122.8148, 40.0971], [-122.8188, 40.0972], [-122.8213, 40.0983], [-122.8216, 40.0993], [-122.827, 40.0993], [-122.8268, 40.1017], [-122.8278, 40.1023], [-122.828, 40.099], [-122.829, 40.0985], [-122.8329, 40.1012], [-122.8337, 40.1031], [-122.8358, 40.1018], [-122.8377, 40.1022], [-122.8382, 40.1031], [-122.8419, 40.1019], [-122.8419, 40.1033], [-122.8428, 40.1028], [-122.847, 40.1055], [-122.8455, 40.1068], [-122.848, 40.1062], [-122.8525, 40.1085], [-122.8564, 40.1082], [-122.862, 40.11], [-122.8643, 40.1128], [-122.866, 40.1131], [-122.8673, 40.1158], [-122.8687, 40.1164], [-122.8682, 40.1172], [-122.8701, 40.1169], [-122.8709, 40.1191], [-122.872, 40.1194], [-122.8717, 40.1211], [-122.8729, 40.1219], [-122.8731, 40.1237], [-122.8725, 40.1251], [-122.8718, 40.125], [-122.8723, 40.1263], [-122.8702, 40.1277], [-122.871, 40.1287], [-122.869, 40.1292], [-122.8674, 40.1287], [-122.8642, 40.1299], [-122.8631, 40.1299], [-122.8626, 40.1289], [-122.8606, 40.1307], [-122.8569, 40.1289], [-122.8541, 40.1296], [-122.8528, 40.1279], [-122.8523, 40.1289], [-122.8533, 40.1295], [-122.8507, 40.1304], [-122.8498, 40.13], [-122.8486, 40.1312], [-122.8466, 40.1302], [-122.8467, 40.1293], [-122.8482, 40.1285], [-122.8473, 40.1269], [-122.845, 40.1267], [-122.8439, 40.1258], [-122.8516, 40.1231], [-122.8528, 40.1236], [-122.8549, 40.1229], [-122.8547, 40.1202], [-122.8532, 40.1188], [-122.8519, 40.1158], [-122.8526, 40.1158], [-122.8526, 40.1151], [-122.8512, 40.1156], [-122.8501, 40.1145], [-122.849, 40.1148], [-122.8481, 40.1142], [-122.8498, 40.1124], [-122.8512, 40.1128], [-122.8502, 40.1121], [-122.8495, 40.1101], [-122.8474, 40.1103], [-122.8461, 40.1082], [-122.8455, 40.1087], [-122.8432, 40.1078], [-122.8417, 40.1083], [-122.8424, 40.1066], [-122.8407, 40.1057], [-122.8401, 40.1044], [-122.8418, 40.1042], [-122.8403, 40.1036], [-122.8382, 40.1043], [-122.8406, 40.1073], [-122.8402, 40.1085], [-122.839, 40.1086], [-122.8367, 40.1108], [-122.839, 40.1113], [-122.8344, 40.1129], [-122.8349, 40.1114], [-122.8337, 40.111], [-122.8324, 40.1086], [-122.8295, 40.1079], [-122.8269, 40.105], [-122.8233, 40.1045], [-122.8238, 40.1066], [-122.8197, 40.1058], [-122.8201, 40.1048], [-122.8217, 40.1043], [-122.8216, 40.1027], [-122.8206, 40.1025], [-122.8204, 40.1041], [-122.8195, 40.1045], [-122.8149, 40.1011], [-122.8149, 40.1028], [-122.8145, 40.101], [-122.8132, 40.1003], [-122.8133, 40.1058], [-122.8154, 40.1084], [-122.8168, 40.1088], [-122.8132, 40.1133], [-122.8117, 40.114], [-122.8122, 40.1153], [-122.8135, 40.1154], [-122.8122, 40.1161], [-122.8132, 40.1164], [-122.8125, 40.1169], [-122.8134, 40.1179], [-122.8142, 40.1174], [-122.8157, 40.1181], [-122.8158, 40.1206], [-122.8171, 40.1226], [-122.8215, 40.12], [-122.822, 40.1174], [-122.8231, 40.1181], [-122.8249, 40.118], [-122.825, 40.1193], [-122.8265, 40.1201], [-122.8257, 40.1209], [-122.8279, 40.1229], [-122.8285, 40.1224], [-122.829, 40.1227], [-122.8289, 40.1218], [-122.8301, 40.1223], [-122.831, 40.1219], [-122.8334, 40.123], [-122.8333, 40.1237], [-122.8307, 40.1234], [-122.8307, 40.1244], [-122.8322, 40.1242], [-122.8323, 40.1255], [-122.8278, 40.1281], [-122.8247, 40.1289], [-122.8246, 40.1308], [-122.8261, 40.1315], [-122.8256, 40.1326], [-122.8281, 40.1328], [-122.8279, 40.1333], [-122.8267, 40.1331], [-122.8256, 40.1332], [-122.8273, 40.1336], [-122.8284, 40.1333], [-122.8294, 40.1342], [-122.8305, 40.1328], [-122.831, 40.1334], [-122.8316, 40.1332], [-122.832, 40.1328], [-122.8324, 40.1336], [-122.8345, 40.131], [-122.8369, 40.1322], [-122.837, 40.1312], [-122.8383, 40.131], [-122.8374, 40.1324], [-122.8403, 40.1326], [-122.8388, 40.1337], [-122.8344, 40.134], [-122.8356, 40.138], [-122.8376, 40.1377], [-122.8391, 40.1384], [-122.8411, 40.1416], [-122.8407, 40.1425], [-122.8435, 40.1422], [-122.8427, 40.1412], [-122.8438, 40.1394], [-122.8454, 40.1412], [-122.8438, 40.1423], [-122.8446, 40.1425], [-122.8442, 40.1452], [-122.8464, 40.1441], [-122.8456, 40.1455], [-122.8472, 40.145], [-122.8467, 40.1456], [-122.8502, 40.1477], [-122.8503, 40.1483], [-122.8501, 40.1469], [-122.8515, 40.1474], [-122.8512, 40.1488], [-122.8479, 40.1515], [-122.8467, 40.1515]], [[-122.7942, 40.1267], [-122.7948, 40.1256], [-122.7928, 40.1235], [-122.7938, 40.123], [-122.7936, 40.1222], [-122.7951, 40.1226], [-122.7945, 40.1211], [-122.7898, 40.12], [-122.7891, 40.1192], [-122.7886, 40.1195], [-122.7904, 40.1217], [-122.7908, 40.1238], [-122.7919, 40.1238], [-122.7908, 40.1243], [-122.7908, 40.1248], [-122.7921, 40.125], [-122.7909, 40.1259], [-122.793, 40.1271], [-122.7942, 40.1267]], [[-122.7963, 40.119], [-122.802, 40.1177], [-122.8022, 40.1141], [-122.8038, 40.1131], [-122.7983, 40.1109], [-122.7969, 40.1109], [-122.7961, 40.1123], [-122.7969, 40.1135], [-122.7988, 40.113], [-122.7996, 40.1138], [-122.7984, 40.1164], [-122.7971, 40.1153], [-122.7953, 40.1159], [-122.7947, 40.1146], [-122.7934, 40.1148], [-122.7939, 40.1155], [-122.7932, 40.1171], [-122.7937, 40.1171], [-122.7934, 40.1183], [-122.7946, 40.118], [-122.7963, 40.119]]], [[[-122.832, 40.1324], [-122.8316, 40.1326], [-122.8319, 40.1323], [-122.832, 40.1324]]], [[[-122.8312, 40.1328], [-122.8309, 40.1328], [-122.831, 40.1326], [-122.8312, 40.1328]]]]}, "properties": {"layer": "perimeter"}}, {"type": "Feature", "geometry": {"type": "MultiPolygon", "coordinates": [[[[-122.8199, 40.1316], [-122.8161, 40.1315], [-122.8168, 40.1304], [-122.8128, 40.1295], [-122.8198, 40.1293], [-122.8199, 40.1316]]], [[[-122.8117, 40.1296], [-122.8124, 40.1304], [-122.8102, 40.1301], [-122.8102, 40.1295], [-122.8117, 40.1296]]], [[[-122.7758, 40.1268], [-122.7756, 40.1246], [-122.7727, 40.1204], [-122.7748, 40.1179], [-122.7768, 40.1172], [-122.7786, 40.1119], [-122.7821, 40.1107], [-122.7836, 40.109], [-122.784, 40.1067], [-122.7873, 40.1016], [-122.7867, 40.0994], [-122.785, 40.0983], [-122.8007, 40.098], [-122.8006, 40.1115], [-122.7969, 40.1109], [-122.7962, 40.112], [-122.7819, 40.1125], [-122.7818, 40.1267], [-122.7758, 40.1268]]], [[[-122.7818, 40.0958], [-122.7811, 40.0947], [-122.7744, 40.0924], [-122.7741, 40.0916], [-122.7817, 40.0911], [-122.7818, 40.0958]]], [[[-122.8006, 40.0914], [-122.8014, 40.0918], [-122.8014, 40.0921], [-122.8006, 40.0922], [-122.8006, 40.0914]]], [[[-122.8007, 40.093], [-122.8006, 40.0931], [-122.8006, 40.0929], [-122.8007, 40.093]]], [[[-122.8007, 40.0953], [-122.8012, 40.0948], [-122.8015, 40.0953], [-122.8007, 40.0953]]], [[[-122.801, 40.0956], [-122.8043, 40.0944], [-122.8085, 40.0955], [-122.8122, 40.0951], [-122.8148, 40.0971], [-122.8188, 40.0972], [-122.8193, 40.098], [-122.8007, 40.098], [-122.801, 40.0956]]], [[[-122.8726, 40.1245], [-122.8718, 40.125], [-122.8725, 40.1255], [-122.8722, 40.1266], [-122.8705, 40.1281], [-122.857, 40.1284], [-122.8569, 40.1249], [-122.8726, 40.1245]]], [[[-122.7942, 40.1267], [-122.7948, 40.1256], [-122.7928, 40.1235], [-122.7938, 40.123], [-122.7936, 40.1222], [-122.7951, 40.1226], [-122.7945, 40.1211], [-122.7893, 40.1194], [-122.7958, 40.1193], [-122.7959, 40.1297], [-122.7915, 40.1298], [-122.7914, 40.1262], [-122.7931, 40.1271], [-122.7942, 40.1267]]], [[[-122.7887, 40.1194], [-122.7907, 40.1229], [-122.7869, 40.123], [-122.7868, 40.1195], [-122.7887, 40.1194]]], [[[-122.7913, 40.1236], [-122.7919, 40.1241], [-122.7914, 40.1243], [-122.7913, 40.1236]]], [[[-122.7914, 40.1247], [-122.7921, 40.125], [-122.7914, 40.1253], [-122.7914, 40.1247]]]]}, "properties": {"layer": "retained"}}, {"type": "Feature", "geometry": {"type": "MultiPolygon", "coordinates": [[[[-122.7812, 40.1268], [-122.7819, 40.1265], [-122.7815, 40.1252], [-122.7808, 40.1252], [-122.7812, 40.1268]]], [[[-122.7883, 40.1094], [-122.7894, 40.1096], [-122.7904, 40.109], [-122.7883, 40.1094]]], [[[-122.7911, 40.1101], [-122.7922, 40.1095], [-122.7918, 40.1085], [-122.7908, 40.1096], [-122.7911, 40.1101]]], [[[-122.7873, 40.1096], [-122.7876, 40.1083], [-122.7869, 40.1083], [-122.7872, 40.108], [-122.7868, 40.1075], [-122.7862, 40.1086], [-122.7869, 40.1086], [-122.7865, 40.1094], [-122.7873, 40.1096]]]]}, "properties": {"layer": "high_severity"}}]}
