{"type": "FeatureCollection", "features": [{"type": "Feature", "geometry": {"type": "MultiPolygon", "coordinates": [[[[-119.0502, 34.3061], [-119.0493, 34.3044], [-119.0505, 34.3042], [-119.0518, 34.3028], [-119.051, 34.3044], [-119.0516, 34.3049], [-119.0502, 34.3061]]], [[[-119.0886, 34.2939], [-119.09, 34.2944], [-119.091, 34.2933], [-119.09, 34.289], [-119.0905, 34.288], [-119.1005, 34.287], [-119.1026, 34.2842], [-119.1036, 34.2838], [-119.104, 34.2851], [-119.106, 34.283], [-119.1091, 34.2853], [-119.1106, 34.2874], [-119.1098, 34.2885], [-119.1107, 34.2894], [-119.1151, 34.2884], [-119.1161, 34.2895], [-119.1183, 34.2884], [-119.1195, 34.2889], [-119.1164, 34.2926], [-119.1165, 34.2935], [-119.1105, 34.2965], [-119.107, 34.2999], [-119.0985, 34.3033], [-119.0912, 34.3082], [-119.0897, 34.3081], [-119.0883, 34.3089], [-119.0885, 34.3083], [-119.0854, 34.3096], [-119.0841, 34.3088], [-119.0826, 34.3098], [-119.0814, 34.3082], [-119.0798, 34.3092], [-119.0785, 34.3085], [-119.0786, 34.3076], [-119.0763, 34.3079], [-119.0746, 34.3096], [-119.0749, 34.3124], [-119.0727, 34.3136], [-119.0732, 34.3154], [-119.0703, 34.3147], [-119.0703, 34.3138], [-119.0697, 34.3141], [-119.0678, 34.3168], [-119.069, 34.3174], [-119.0689, 34.3181], [-119.0624, 34.3176], [-119.0613, 34.3169], [-119.0594, 34.3173], [-119.0587, 34.3163], [-119.0602, 34.3166], [-119.0621, 34.3156], [-119.0598, 34.3131], [-119.0606, 34.3119], [-119.058, 34.3113], [-119.0578, 34.3151], [-119.0552, 34.3134], [-119.0553, 34.3143], [-119.054, 34.3139], [-119.053, 34.3151], [-119.0532, 34.3173], [-119.0545, 34.3184], [-119.0542, 34.3193], [-119.0532, 34.3194], [-119.0532, 34.3178], [-119.0506, 34.3182], [-119.0489, 34.3152], [-119.0478, 34.3151], [-119.0455, 34.3188], [-119.0452, 34.3217], [-119.0433, 34.322], [-119.0405, 34.3262], [-119.04, 34.3258], [-119.0367, 34.327], [-119.0359, 34.3266], [-119.0361, 34.3238], [-119.0337, 34.3209], [-119.0364, 34.3177], [-119.0372, 34.3181], [-119.0385, 34.3169], [-119.0399, 34.3173], [-119.0389, 34.3151], [-119.0404, 34.3129], [-119.0395, 34.311], [-119.0405, 34.3101], [-119.0405, 34.3091], [-119.0429, 34.3075], [-119.0432, 34.3055], [-119.0462, 34.303], [-119.0456, 34.3017], [-119.0465, 34.2985], [-119.0478, 34.2977], [-119.0487, 34.2981], [-119.049, 34.2969], [-119.0514, 34.295], [-119.0526, 34.2952], [-119.052, 34.2967], [-119.0536, 34.2984], [-119.0534, 34.3], [-119.0546, 34.3012], [-119.0526, 34.3015], [-119.0536, 34.3011], [-119.0533, 34.3006], [-119.0518, 34.3005], [-119.0506, 34.302], [-119.051, 34.303], [-119.0501, 34.303], [-119.0489, 34.3015], [-119.0494, 34.3008], [-119.0483, 34.3011], [-119.0493, 34.3027], [-119.048, 34.3024], [-119.0463, 34.305], [-119.0491, 34.3058], [-119.0484, 34.307], [-119.0461, 34.3066], [-119.0452, 34.308], [-119.0456, 34.3085], [-119.0466, 34.3081], [-119.0465, 34.3075], [-119.0501, 34.3071], [-119.0487, 34.3087], [-119.0456, 34.3089], [-119.0449, 34.3098], [-119.0474, 34.3118], [-119.0487, 34.3115], [-119.0489, 34.3097], [-119.0507, 34.3093], [-119.051, 34.308], [-119.0526, 34.3084], [-119.0529, 34.3074], [-119.0541, 34.307], [-119.0535, 34.3056], [-119.0547, 34.3057], [-119.0548, 34.3047], [-119.0554, 34.3049], [-119.0571, 34.3031], [-119.0612, 34.3016], [-119.0614, 34.3005], [-119.063, 34.3004], [-119.0663, 34.2977], [-119.0669, 34.2985], [-119.0652, 34.3], [-119.0661, 34.3014], [-119.0662, 34.3009], [-119.0675, 34.3013], [-119.068, 34.2997], [-119.0712, 34.3022], [-119.0734, 34.3024], [-119.073, 34.3033], [-119.0736, 34.3035], [-119.0799, 34.301], [-119.0787, 34.2991], [-119.0803, 34.2961], [-119.0879, 34.2957], [-119.089, 34.2953], [-119.0886, 34.2939]]]]}, "properties": {"layer": "perimeter"}}, {"type": "Feature", "geometry": {"type": "MultiPolygon", "coordinates": [[[[-119.0501, 34.3061], [-119.0493, 34.3044], [-119.0505, 34.3042], [-119.0518, 34.3028], [-119.051, 34.3044], [-119.0516, 34.3049], [-119.0501, 34.3061]]], [[[-119.0889, 34.294], [-119.09, 34.2944], [-119.091, 34.2933], [-119.09, 34.289], [-119.0905, 34.288], [-119.1005, 34.287], [-119.1026, 34.2842], [-119.1036, 34.2838], [-119.104, 34.2851], [-119.106, 34.283], [-119.1091, 34.2853], [-119.1106, 34.2874], [-119.1098, 34.2885], [-119.1107, 34.2894], [-119.1151, 34.2884], [-119.1161, 34.2895], [-119.1183, 34.2884], [-119.1195, 34.2889], [-119.1164, 34.2926], [-119.1165, 34.2935], [-119.1105, 34.2965], [-119.107, 34.2999], [-119.0985, 34.3033], [-119.0912, 34.3082], [-119.0897, 34.3081], [-119.0883, 34.3089], [-119.0885, 34.3083], [-119.0854, 34.3096], [-119.0841, 34.3088], [-119.0826, 34.3098], [-119.0814, 34.3082], [-119.0798, 34.3092], [-119.0785, 34.3085], [-119.0786, 34.3076], [-119.0763, 34.3079], [-119.0746, 34.3096], [-119.0749, 34.3124], [-119.0727, 34.3136], [-119.0732, 34.3154], [-119.0703, 34.3147], [-119.0703, 34.3138], [-119.0697, 34.3141], [-119.0678, 34.3168], [-119.069, 34.3174], [-119.0689, 34.3181], [-119.0624, 34.3176], [-119.0613, 34.3169], [-119.0594, 34.3173], [-119.0587, 34.3163], [-119.0602, 34.3166], [-119.0621, 34.3156], [-119.0598, 34.3131], [-119.0606, 34.3119], [-119.058, 34.3113], [-119.0578, 34.3151], [-119.0552, 34.3134], [-119.0553, 34.3143], [-119.054, 34.3139], [-119.053, 34.3151], [-119.0532, 34.3173], [-119.0545, 34.3184], [-119.0542, 34.3193], [-119.0532, 34.3194], [-119.0532, 34.3178], [-119.0506, 34.3182], [-119.0489, 34.3152], [-119.0478, 34.3151], [-119.0455, 34.3188], [-119.0452, 34.3217], [-119.0433, 34.322], [-119.0405, 34.3262], [-119.04, 34.3258], [-119.0367, 34.327], [-119.0359, 34.3266], [-119.0361, 34.3238], [-119.0337, 34.3209], [-119.0364, 34.3177], [-119.0372, 34.3181], [-119.0385, 34.3169], [-119.0399, 34.3173], [-119.0389, 34.3151], [-119.0404, 34.3129], [-119.0395, 34.311], [-119.0405, 34.3101], [-119.0405, 34.3091], [-119.0429, 34.3075], [-119.0432, 34.3055], [-119.0462, 34.303], [-119.0456, 34.3017], [-119.0465, 34.2985], [-119.0478, 34.2977], [-119.0487, 34.2981], [-119.049, 34.2969], [-119.0514, 34.295], [-119.0526, 34.2952], [-119.052, 34.2967], [-119.0536, 34.2984], [-119.0534, 34.3], [-119.0546, 34.3012], [-119.0526, 34.3015], [-119.0536, 34.3011], [-119.0533, 34.3006], [-119.0518, 34.3005], [-119.0506, 34.302], [-119.051, 34.303], [-119.0501, 34.303], [-119.0489, 34.3015], [-119.0494, 34.3008], [-119.0483, 34.3011], [-119.0493, 34.3027], [-119.048, 34.3024], [-119.0463, 34.305], [-119.0491, 34.3058], [-119.0484, 34.307], [-119.0461, 34.3066], [-119.0452, 34.308], [-119.0456, 34.3085], [-119.0466, 34.3081], [-119.0465, 34.3075], [-119.0501, 34.3071], [-119.0487, 34.3087], [-119.0456, 34.3089], [-119.0449, 34.3098], [-119.0474, 34.3118], [-119.0487, 34.3115], [-119.0489, 34.3097], [-119.0507, 34.3093], [-119.051, 34.308], [-119.0526, 34.3084], [-119.0529, 34.3074], [-119.0542, 34.3068], [-119.0535, 34.3056], [-119.0547, 34.3057], [-119.0548, 34.3047], [-119.0554, 34.3049], [-119.0571, 34.3031], [-119.0609, 34.3017], [-119.0655, 34.3015], [-119.0656, 34.3007], [-119.0661, 34.3014], [-119.0662, 34.3009], [-119.0675, 34.3013], [-119.068, 34.2997], [-119.0712, 34.3022], [-119.0734, 34.3024], [-119.073, 34.3033], [-119.0766, 34.3027], [-119.0799, 34.301], [-119.0787, 34.2991], [-119.0803, 34.2961], [-119.0879, 34.2957], [-119.089, 34.2953], [-119.0889, 34.294]]], [[[-119.0656, 34.2981], [-119.0663, 34.2977], [-119.0669, 34.2985], [-119.0656, 34.2995], [-119.0656, 34.2981]]]]}, "properties": {"layer": "retained"}}]}
