{"type": "FeatureCollection", "features": [{"type": "Feature", "geometry": {"type": "Polygon", "coordinates": [[[-121.1275, 41.4046], [-121.1266, 41.407], [-121.1209, 41.4125], [-121.1121, 41.4152], [-121.1091, 41.4153], [-121.1086, 41.4167], [-121.1118, 41.42], [-121.1111, 41.4227], [-121.1081, 41.4237], [-121.1056, 41.427], [-121.1057, 41.4299], [-121.0946, 41.4391], [-121.0912, 41.4455], [-121.0789, 41.4512], [-121.0755, 41.4523], [-121.0728, 41.4524], [-121.0701, 41.4569], [-121.0641, 41.4591], [-121.0572, 41.4602], [-121.0548, 41.4592], [-121.0511, 41.46], [-121.0472, 41.467], [-121.0414, 41.4676], [-121.0404, 41.4715], [-121.0318, 41.4759], [-121.0411, 41.487], [-121.0425, 41.492], [-121.0027, 41.498], [-120.9967, 41.4975], [-120.9951, 41.4873], [-120.9928, 41.4822], [-120.9854, 41.4801], [-120.9784, 41.4754], [-120.9756, 41.4744], [-120.9763, 41.469], [-120.9725, 41.4636], [-120.9629, 41.4672], [-120.966, 41.4638], [-120.9608, 41.4633], [-120.9544, 41.4658], [-120.951, 41.4682], [-120.9508, 41.4709], [-120.9458, 41.474], [-120.9399, 41.473], [-120.9321, 41.4697], [-120.9258, 41.4658], [-120.9245, 41.4628], [-120.9241, 41.4593], [-120.9166, 41.4569], [-120.9146, 41.4578], [-120.9071, 41.4537], [-120.9029, 41.4502], [-120.9019, 41.445], [-120.9069, 41.4439], [-120.9063, 41.4415], [-120.9144, 41.4399], [-120.9244, 41.4392], [-120.926, 41.4374], [-120.9213, 41.4368], [-120.9083, 41.4389], [-120.9045, 41.4372], [-120.9043, 41.4341], [-120.8989, 41.4323], [-120.8981, 41.4301], [-120.9013, 41.4305], [-120.9014, 41.4283], [-120.9106, 41.4304], [-120.912, 41.4328], [-120.9172, 41.4329], [-120.9171, 41.4306], [-120.9286, 41.4263], [-120.9303, 41.428], [-120.9339, 41.4256], [-120.9383, 41.4242], [-120.9465, 41.4256], [-120.9505, 41.4245], [-120.9539, 41.4246], [-120.9618, 41.4275], [-120.9628, 41.4302], [-120.9676, 41.4316], [-120.9607, 41.4239], [-120.9607, 41.4213], [-120.9545, 41.4205], [-120.9463, 41.4169], [-120.9451, 41.4114], [-120.9456, 41.4077], [-120.945, 41.4022], [-120.9498, 41.4037], [-120.963, 41.4006], [-120.9682, 41.4018], [-120.9726, 41.4001], [-120.9659, 41.3904], [-120.961, 41.3856], [-120.9557, 41.3771], [-120.9573, 41.3738], [-120.957, 41.3689], [-120.9627, 41.362], [-120.9596, 41.3595], [-120.9578, 41.3563], [-120.959, 41.3529], [-120.9626, 41.3529], [-120.9739, 41.3601], [-120.9877, 41.365], [-121.0005, 41.3663], [-121.0041, 41.3683], [-121.0124, 41.3683], [-121.0173, 41.3714], [-121.023, 41.3732], [-121.0299, 41.374], [-121.0312, 41.3694], [-121.0333, 41.3739], [-121.0372, 41.3759], [-121.0434, 41.3771], [-121.0514, 41.377], [-121.0541, 41.3742], [-121.0588, 41.3733], [-121.0549, 41.3686], [-121.0569, 41.3654], [-121.0765, 41.3638], [-121.0858, 41.37], [-121.0889, 41.3693], [-121.0885, 41.3748], [-121.0855, 41.3839], [-121.092, 41.3829], [-121.0958, 41.3841], [-121.0972, 41.3852], [-121.0958, 41.3888], [-121.1075, 41.3909], [-121.1154, 41.3954], [-121.1191, 41.3985], [-121.1251, 41.4006], [-121.1275, 41.4046]]]}, "properties": {"layer": "perimeter"}}, {"type": "Feature", "geometry": {"type": "MultiPolygon", "coordinates": [[[[-121.1242, 41.4088], [-121.122, 41.4117], [-121.1154, 41.4117], [-121.1155, 41.3978], [-121.1184, 41.3979], [-121.1244, 41.4002], [-121.1242, 41.4088]]], [[[-120.9258, 41.4658], [-120.9244, 41.4622], [-120.9287, 41.4622], [-120.9287, 41.4669], [-120.9329, 41.4694], [-120.9316, 41.4694], [-120.9258, 41.4658]]], [[[-120.9239, 41.4592], [-120.9166, 41.4569], [-120.9146, 41.4578], [-120.9071, 41.4537], [-120.9029, 41.4502], [-120.9019, 41.445], [-120.9046, 41.4444], [-120.9046, 41.4473], [-120.9096, 41.4473], [-120.9096, 41.451], [-120.9288, 41.451], [-120.9288, 41.4586], [-120.9239, 41.4586], [-120.9239, 41.4592]]], [[[-120.9063, 41.4415], [-120.9096, 41.4408], [-120.9096, 41.4436], [-120.9068, 41.4436], [-120.9063, 41.4415]]], [[[-120.9144, 41.4399], [-120.9244, 41.4392], [-120.926, 41.4374], [-120.9213, 41.4368], [-120.9083, 41.4389], [-120.9045, 41.4372], [-120.9043, 41.4341], [-120.8989, 41.4323], [-120.8981, 41.4301], [-120.9013, 41.4305], [-120.9014, 41.4283], [-120.9106, 41.4304], [-120.912, 41.4328], [-120.9172, 41.4329], [-120.9171, 41.4306], [-120.9188, 41.4299], [-120.9188, 41.4363], [-120.9285, 41.4363], [-120.9287, 41.4434], [-120.9236, 41.4434], [-120.9236, 41.4399], [-120.9144, 41.4399]]], [[[-120.9223, 41.4287], [-120.9283, 41.4264], [-120.9283, 41.4286], [-120.9223, 41.4287]]], [[[-120.945, 41.4022], [-120.9498, 41.4037], [-120.963, 41.4006], [-120.9682, 41.4018], [-120.9726, 41.4001], [-120.9766, 41.4001], [-120.9766, 41.4073], [-120.9812, 41.4073], [-120.9818, 41.4109], [-120.9861, 41.4109], [-120.9861, 41.4145], [-120.9956, 41.4146], [-120.9957, 41.4183], [-121.0051, 41.4184], [-121.0054, 41.4294], [-121.0007, 41.4293], [-121.0005, 41.4219], [-120.9958, 41.4219], [-120.9957, 41.4186], [-120.9814, 41.4182], [-120.9813, 41.4145], [-120.9767, 41.4145], [-120.9767, 41.411], [-120.9718, 41.411], [-120.9716, 41.4037], [-120.9669, 41.4037], [-120.9668, 41.4019], [-120.962, 41.4019], [-120.9621, 41.4037], [-120.9477, 41.4037], [-120.9478, 41.4073], [-120.9456, 41.4073], [-120.945, 41.4022]], [[-120.9957, 41.4183], [-120.9953, 41.4185], [-120.9957, 41.4185], [-120.9957, 41.4183]]], [[[-120.9704, 41.3967], [-120.9715, 41.3964], [-120.9715, 41.3983], [-120.9704, 41.3967]]], [[[-120.957, 41.3689], [-120.9611, 41.3635], [-120.9617, 41.3629], [-120.9615, 41.3712], [-120.9572, 41.3712], [-120.957, 41.3689]]], [[[-120.9607, 41.3604], [-120.9618, 41.3604], [-120.9618, 41.3612], [-120.9607, 41.3604]]], [[[-120.981, 41.3623], [-120.9877, 41.365], [-121.0005, 41.3663], [-121.0029, 41.3676], [-120.976, 41.3676], [-120.976, 41.364], [-120.9809, 41.364], [-120.981, 41.3623]]], [[[-121.0299, 41.374], [-121.0312, 41.3694], [-121.0333, 41.3739], [-121.0385, 41.3761], [-121.0385, 41.3785], [-121.0433, 41.3785], [-121.0434, 41.3858], [-121.0386, 41.3857], [-121.0386, 41.3821], [-121.0338, 41.3821], [-121.0337, 41.3749], [-121.0289, 41.3749], [-121.0289, 41.374], [-121.0299, 41.374]]], [[[-121.0541, 41.3742], [-121.0575, 41.3736], [-121.0574, 41.375], [-121.0533, 41.375], [-121.0541, 41.3742]]], [[[-121.0549, 41.3686], [-121.0555, 41.3678], [-121.0575, 41.3678], [-121.0575, 41.3717], [-121.0549, 41.3686]]], [[[-121.0765, 41.3638], [-121.0858, 41.37], [-121.0889, 41.3693], [-121.0885, 41.3748], [-121.0855, 41.3839], [-121.0865, 41.3838], [-121.0865, 41.3899], [-121.0768, 41.3899], [-121.0767, 41.3715], [-121.0815, 41.3715], [-121.0815, 41.3679], [-121.0767, 41.3679], [-121.0766, 41.3643], [-121.0725, 41.3643], [-121.0765, 41.3638]], [[-121.0816, 41.3789], [-121.0864, 41.3789], [-121.0863, 41.3753], [-121.0815, 41.3752], [-121.0816, 41.3789]]], [[[-121.1009, 41.39], [-121.1059, 41.3907], [-121.1058, 41.3978], [-121.1009, 41.3977], [-121.1009, 41.39]]], [[[-121.0964, 41.4013], [-121.0965, 41.3977], [-121.1009, 41.3977], [-121.1009, 41.4014], [-121.0964, 41.4013]]], [[[-121.1006, 41.4298], [-121.1006, 41.4262], [-121.1055, 41.4262], [-121.1055, 41.4298], [-121.1006, 41.4298]]], [[[-121.0675, 41.4416], [-121.0671, 41.4408], [-121.0671, 41.4405], [-121.0677, 41.4405], [-121.0675, 41.4416]]], [[[-121.0149, 41.4328], [-121.0245, 41.4329], [-121.0244, 41.4402], [-121.0293, 41.4403], [-121.0292, 41.4475], [-121.0244, 41.4475], [-121.0244, 41.4439], [-121.0196, 41.4438], [-121.0197, 41.4365], [-121.01, 41.4365], [-121.0102, 41.4293], [-121.0149, 41.4293], [-121.0149, 41.4328]]], [[[-121.0581, 41.4404], [-121.067, 41.4405], [-121.0676, 41.4441], [-121.0532, 41.444], [-121.0533, 41.4404], [-121.0485, 41.4404], [-121.0485, 41.4367], [-121.0581, 41.4368], [-121.0581, 41.4404]]]]}, "properties": {"layer": "retained"}}, {"type": "Feature", "geometry": {"type": "MultiPolygon", "coordinates": [[[[-120.9278, 41.4535], [-120.9285, 41.4529], [-120.9267, 41.4524], [-120.9253, 41.4529], [-120.9256, 41.4535], [-120.9264, 41.4529], [-120.9278, 41.4535]]], [[[-121.1215, 41.4105], [-121.1226, 41.4097], [-121.1208, 41.4097], [-121.1215, 41.4105]]], [[[-121.1176, 41.4116], [-121.1176, 41.4103], [-121.1158, 41.4095], [-121.1168, 41.4087], [-121.1161, 41.4073], [-121.1154, 41.4079], [-121.1154, 41.4108], [-121.1165, 41.4106], [-121.1169, 41.4116], [-121.1176, 41.4116]]], [[[-121.1222, 41.407], [-121.1225, 41.4062], [-121.12, 41.4054], [-121.1207, 41.4067], [-121.1222, 41.407]]], [[[-121.1239, 41.4054], [-121.1243, 41.4037], [-121.1239, 41.4037], [-121.1239, 41.4054]]], [[[-121.1196, 41.4062], [-121.1193, 41.4046], [-121.1203, 41.4038], [-121.12, 41.4032], [-121.1171, 41.4049], [-121.1182, 41.4059], [-121.1196, 41.4062]]], [[[-121.1214, 41.4054], [-121.1229, 41.4051], [-121.1221, 41.4029], [-121.1214, 41.4048], [-121.1207, 41.4048], [-121.1214, 41.4054]]], [[[-121.0963, 41.4013], [-121.0984, 41.401], [-121.0963, 41.4007], [-121.0963, 41.4013]]], [[[-121.1009, 41.4015], [-121.1009, 41.3999], [-121.0991, 41.4004], [-121.1002, 41.4015], [-121.1009, 41.4015]]], [[[-121.0984, 41.3996], [-121.0995, 41.4002], [-121.0995, 41.3994], [-121.0984, 41.3996]]], [[[-121.1009, 41.3996], [-121.1009, 41.3983], [-121.0995, 41.3985], [-121.1005, 41.3988], [-121.1002, 41.3993], [-121.1009, 41.3996]]], [[[-121.1027, 41.3977], [-121.1027, 41.3972], [-121.1009, 41.3974], [-121.1009, 41.3977], [-121.1027, 41.3977]]], [[[-121.0788, 41.3857], [-121.0803, 41.386], [-121.0799, 41.3855], [-121.0788, 41.3857]]]]}, "properties": {"layer": "high_severity"}}]}
