{"type": "FeatureCollection", "features": [{"type": "Feature", "geometry": {"type": "Polygon", "coordinates": [[[-118.6668, 36.3304], [-118.6662, 36.3337], [-118.6643, 36.3338], [-118.6622, 36.3351], [-118.6609, 36.3336], [-118.6592, 36.3335], [-118.6582, 36.3325], [-118.6572, 36.3326], [-118.657, 36.3335], [-118.655, 36.3334], [-118.6535, 36.3351], [-118.651, 36.3333], [-118.6506, 36.3338], [-118.6516, 36.3347], [-118.6507, 36.3354], [-118.6487, 36.335], [-118.6498, 36.3364], [-118.6491, 36.3368], [-118.6457, 36.3369], [-118.6396, 36.3349], [-118.6337, 36.3363], [-118.6308, 36.3357], [-118.6284, 36.336], [-118.6309, 36.3343], [-118.6318, 36.3324], [-118.631, 36.3268], [-118.6332, 36.3231], [-118.632, 36.3196], [-118.6329, 36.3152], [-118.6347, 36.3136], [-118.6347, 36.311], [-118.636, 36.3106], [-118.6357, 36.3099], [-118.6386, 36.3104], [-118.6405, 36.3136], [-118.6431, 36.3142], [-118.6441, 36.3153], [-118.6457, 36.3154], [-118.6468, 36.3165], [-118.6466, 36.318], [-118.6484, 36.3176], [-118.6474, 36.3201], [-118.649, 36.3203], [-118.6508, 36.3233], [-118.6514, 36.3216], [-118.6523, 36.3215], [-118.6556, 36.3233], [-118.6553, 36.3242], [-118.6561, 36.3251], [-118.6592, 36.325], [-118.6592, 36.324], [-118.6567, 36.3227], [-118.6571, 36.3218], [-118.6559, 36.3212], [-118.656, 36.32], [-118.6544, 36.3192], [-118.6566, 36.3184], [-118.6601, 36.3189], [-118.6604, 36.3199], [-118.6593, 36.322], [-118.661, 36.3228], [-118.6618, 36.3264], [-118.6632, 36.3261], [-118.6661, 36.327], [-118.6668, 36.3304]]]}, "properties": {"layer": "perimeter"}}]}
