{"type": "FeatureCollection", "features": [{"type": "Feature", "geometry": {"type": "Polygon", "coordinates": [[[-122.1288, 40.2316], [-122.1206, 40.2257], [-122.1176, 40.2261], [-122.1154, 40.2235], [-122.1159, 40.2175], [-122.1175, 40.2155], [-122.1212, 40.2137], [-122.1228, 40.2121], [-122.1276, 40.2136], [-122.1299, 40.2106], [-122.1345, 40.2079], [-122.136, 40.2076], [-122.1404, 40.2084], [-122.1411, 40.2096], [-122.1403, 40.2172], [-122.1387, 40.2219], [-122.1376, 40.2292], [-122.139, 40.2302], [-122.1398, 40.2299], [-122.1428, 40.2244], [-122.143, 40.2185], [-122.1487, 40.2018], [-122.1515, 40.2002], [-122.1558, 40.1996], [-122.16, 40.2012], [-122.1611, 40.2076], [-122.1664, 40.218], [-122.1656, 40.2204], [-122.1664, 40.2215], [-122.1683, 40.2214], [-122.1693, 40.2224], [-122.1695, 40.225], [-122.1655, 40.2297], [-122.1586, 40.2302], [-122.1568, 40.231], [-122.1561, 40.2324], [-122.1579, 40.2383], [-122.1381, 40.2607], [-122.1366, 40.2608], [-122.1278, 40.2531], [-122.1283, 40.2504], [-122.1318, 40.2488], [-122.1313, 40.2477], [-122.1267, 40.2476], [-122.1244, 40.2451], [-122.1241, 40.2413], [-122.1252, 40.2396], [-122.1329, 40.2347], [-122.1332, 40.2328], [-122.1288, 40.2316]]]}, "properties": {"layer": "perimeter"}}, {"type": "Feature", "geometry": {"type": "Polygon", "coordinates": [[[-122.1206, 40.2257], [-122.1176, 40.2261], [-122.1154, 40.2235], [-122.1151, 40.2212], [-122.1168, 40.216], [-122.1212, 40.2137], [-122.1226, 40.2122], [-122.1274, 40.2137], [-122.1299, 40.2106], [-122.1342, 40.208], [-122.136, 40.2076], [-122.1393, 40.208], [-122.1407, 40.2087], [-122.1411, 40.2099], [-122.1376, 40.2292], [-122.139, 40.2302], [-122.1398, 40.2299], [-122.1428, 40.2244], [-122.143, 40.2185], [-122.1487, 40.2018], [-122.1515, 40.2002], [-122.1558, 40.1996], [-122.1603, 40.2016], [-122.1611, 40.2076], [-122.1664, 40.218], [-122.1656, 40.2204], [-122.1664, 40.2215], [-122.1683, 40.2214], [-122.1693, 40.2224], [-122.1695, 40.225], [-122.1655, 40.2297], [-122.1586, 40.2302], [-122.1568, 40.231], [-122.1561, 40.2324], [-122.1579, 40.2383], [-122.1508, 40.2462], [-122.143, 40.2514], [-122.143, 40.2508], [-122.1388, 40.2508], [-122.1388, 40.2544], [-122.134, 40.2544], [-122.134, 40.2581], [-122.1352, 40.2581], [-122.1346, 40.2591], [-122.1278, 40.2531], [-122.1283, 40.2504], [-122.1318, 40.2488], [-122.1313, 40.2477], [-122.1267, 40.2476], [-122.1244, 40.2451], [-122.1241, 40.2413], [-122.1252, 40.2396], [-122.1329, 40.2347], [-122.1332, 40.2328], [-122.1288, 40.2316], [-122.1206, 40.2257]]]}, "properties": {"layer": "retained"}}]}
