{"type": "FeatureCollection", "features": [{"type": "Feature", "geometry": {"type": "MultiPolygon", "coordinates": [[[[-118.7723, 35.4002], [-118.7716, 35.4021], [-118.7726, 35.4046], [-118.7706, 35.406], [-118.7705, 35.407], [-118.7654, 35.4075], [-118.7626, 35.4085], [-118.7615, 35.408], [-118.7595, 35.4093], [-118.7543, 35.4085], [-118.7522, 35.4063], [-118.7482, 35.4056], [-118.7477, 35.4044], [-118.7449, 35.4049], [-118.7441, 35.4067], [-118.7421, 35.4062], [-118.7395, 35.4043], [-118.7355, 35.4049], [-118.7326, 35.4043], [-118.7287, 35.4009], [-118.7327, 35.3994], [-118.7335, 35.3981], [-118.7306, 35.395], [-118.7251, 35.3935], [-118.7242, 35.3916], [-118.7241, 35.3877], [-118.719, 35.3871], [-118.7177, 35.3853], [-118.7163, 35.3865], [-118.7148, 35.3855], [-118.7154, 35.3835], [-118.7181, 35.3836], [-118.7216, 35.3812], [-118.7172, 35.3799], [-118.7142, 35.3778], [-118.7119, 35.3775], [-118.7123, 35.376], [-118.7129, 35.3753], [-118.7181, 35.3749], [-118.7211, 35.3731], [-118.7228, 35.3733], [-118.7286, 35.3707], [-118.7375, 35.3711], [-118.7392, 35.3677], [-118.7458, 35.368], [-118.7485, 35.3665], [-118.7501, 35.3696], [-118.7574, 35.3691], [-118.7604, 35.3719], [-118.7618, 35.3711], [-118.7635, 35.3723], [-118.7638, 35.3733], [-118.7627, 35.3756], [-118.7581, 35.3769], [-118.7588, 35.3807], [-118.7568, 35.383], [-118.7577, 35.3843], [-118.7544, 35.3846], [-118.754, 35.3868], [-118.7522, 35.3882], [-118.7495, 35.3888], [-118.748, 35.3882], [-118.7465, 35.3891], [-118.7483, 35.3902], [-118.7519, 35.3909], [-118.7541, 35.3929], [-118.7588, 35.3909], [-118.7604, 35.3909], [-118.7634, 35.3942], [-118.7661, 35.395], [-118.771, 35.3985], [-118.7712, 35.3997], [-118.7723, 35.4002]]], [[[-118.7723, 35.4], [-118.7723, 35.3998], [-118.7724, 35.4001], [-118.7723, 35.4]]], [[[-118.7725, 35.4004], [-118.7724, 35.4001], [-118.7725, 35.4002], [-118.7725, 35.4004]]]]}, "properties": {"layer": "perimeter"}}, {"type": "Feature", "geometry": {"type": "MultiPolygon", "coordinates": [[[[-118.7723, 35.4004], [-118.7716, 35.4021], [-118.7726, 35.4046], [-118.7706, 35.406], [-118.7705, 35.407], [-118.7654, 35.4075], [-118.7626, 35.4085], [-118.7615, 35.408], [-118.7595, 35.4093], [-118.7543, 35.4085], [-118.7522, 35.4063], [-118.7482, 35.4056], [-118.7477, 35.4044], [-118.7449, 35.4049], [-118.7441, 35.4067], [-118.7421, 35.4062], [-118.7395, 35.4043], [-118.7355, 35.4049], [-118.7326, 35.4043], [-118.7287, 35.4009], [-118.7327, 35.3994], [-118.7335, 35.3981], [-118.7306, 35.395], [-118.7251, 35.3935], [-118.7242, 35.3916], [-118.7241, 35.3877], [-118.719, 35.3871], [-118.7177, 35.3853], [-118.7163, 35.3865], [-118.7148, 35.3855], [-118.7154, 35.3835], [-118.7181, 35.3836], [-118.7216, 35.3812], [-118.7172, 35.3799], [-118.7142, 35.3778], [-118.7119, 35.3775], [-118.7123, 35.376], [-118.7129, 35.3753], [-118.7181, 35.3749], [-118.7211, 35.3731], [-118.7228, 35.3733], [-118.7286, 35.3707], [-118.7375, 35.3711], [-118.7392, 35.3677], [-118.7458, 35.368], [-118.7485, 35.3665], [-118.7501, 35.3696], [-118.7574, 35.3691], [-118.7604, 35.3719], [-118.7618, 35.3711], [-118.7635, 35.3723], [-118.7638, 35.3733], [-118.7627, 35.3756], [-118.7581, 35.3769], [-118.7588, 35.3807], [-118.7568, 35.383], [-118.7577, 35.3843], [-118.7544, 35.3846], [-118.754, 35.3868], [-118.7522, 35.3882], [-118.7495, 35.3888], [-118.748, 35.3882], [-118.7465, 35.3891], [-118.7483, 35.3902], [-118.7519, 35.3909], [-118.7541, 35.3929], [-118.7588, 35.3909], [-118.7604, 35.3909], [-118.7634, 35.3942], [-118.7661, 35.395], [-118.771, 35.3985], [-118.7712, 35.3997], [-118.7723, 35.4004]]], [[[-118.7723, 35.3998], [-118.7724, 35.4001], [-118.7723, 35.4001], [-118.7723, 35.3998]]], [[[-118.7724, 35.4001], [-118.7725, 35.4002], [-118.7725, 35.4004], [-118.7724, 35.4001]]]]}, "properties": {"layer": "retained"}}]}
