{"type": "FeatureCollection", "features": [{"type": "Feature", "geometry": {"type": "Polygon", "coordinates": [[[-117.2591, 33.5347], [-117.2657, 33.5304], [-117.2703, 33.528], [-117.2743, 33.5292], [-117.2758, 33.5317], [-117.2753, 33.5326], [-117.2764, 33.5331], [-117.2756, 33.5366], [-117.2762, 33.537], [-117.2754, 33.5384], [-117.2743, 33.5389], [-117.2756, 33.5408], [-117.2735, 33.5426], [-117.2739, 33.5433], [-117.2731, 33.5433], [-117.272, 33.5444], [-117.2701, 33.5443], [-117.2692, 33.5449], [-117.2698, 33.5464], [-117.2688, 33.5481], [-117.2681, 33.5473], [-117.2676, 33.5481], [-117.268, 33.548], [-117.2683, 33.5482], [-117.2661, 33.5491], [-117.2662, 33.5511], [-117.2673, 33.5533], [-117.2659, 33.5563], [-117.2643, 33.5573], [-117.2636, 33.5588], [-117.2604, 33.5608], [-117.2611, 33.5654], [-117.2601, 33.5661], [-117.2601, 33.5677], [-117.2593, 33.5674], [-117.2585, 33.5682], [-117.2583, 33.5696], [-117.2595, 33.5701], [-117.2587, 33.5707], [-117.2562, 33.569], [-117.2535, 33.5683], [-117.2543, 33.5663], [-117.2531, 33.5656], [-117.2533, 33.5627], [-117.2498, 33.5643], [-117.2505, 33.5656], [-117.2476, 33.5652], [-117.248, 33.5637], [-117.2472, 33.5633], [-117.2462, 33.5643], [-117.2451, 33.5633], [-117.2455, 33.5641], [-117.2448, 33.5644], [-117.2438, 33.5632], [-117.244, 33.5624], [-117.2412, 33.5595], [-117.2443, 33.5571], [-117.2435, 33.555], [-117.2422, 33.5554], [-117.2414, 33.5542], [-117.2418, 33.5519], [-117.2432, 33.5508], [-117.2428, 33.5482], [-117.2464, 33.5455], [-117.2477, 33.5453], [-117.2486, 33.5433], [-117.2477, 33.5414], [-117.2492, 33.541], [-117.2502, 33.5415], [-117.2518, 33.54], [-117.2525, 33.5369], [-117.257, 33.5355], [-117.2592, 33.5355], [-117.2591, 33.5347]]]}, "properties": {"layer": "perimeter"}}, {"type": "Feature", "geometry": {"type": "Polygon", "coordinates": [[[-117.2603, 33.5346], [-117.2657, 33.5304], [-117.2703, 33.528], [-117.2743, 33.5292], [-117.2758, 33.5317], [-117.2753, 33.5326], [-117.2764, 33.5331], [-117.2756, 33.5366], [-117.2762, 33.537], [-117.2754, 33.5384], [-117.2743, 33.5389], [-117.2756, 33.5408], [-117.2735, 33.5426], [-117.2739, 33.5433], [-117.2731, 33.5433], [-117.272, 33.5444], [-117.2695, 33.5446], [-117.2698, 33.5464], [-117.2688, 33.5481], [-117.2681, 33.5473], [-117.2676, 33.5481], [-117.268, 33.548], [-117.2683, 33.5482], [-117.2662, 33.5491], [-117.2672, 33.5536], [-117.2636, 33.5588], [-117.2607, 33.5602], [-117.2611, 33.5654], [-117.2601, 33.5661], [-117.2601, 33.5677], [-117.2562, 33.5681], [-117.2549, 33.5545], [-117.254, 33.5545], [-117.2525, 33.561], [-117.2468, 33.5616], [-117.2455, 33.5603], [-117.2457, 33.5585], [-117.2473, 33.5561], [-117.246, 33.5526], [-117.2433, 33.551], [-117.2432, 33.5477], [-117.2477, 33.5453], [-117.2486, 33.5433], [-117.2477, 33.5414], [-117.2492, 33.541], [-117.2502, 33.5415], [-117.2518, 33.54], [-117.2525, 33.5369], [-117.257, 33.5355], [-117.2592, 33.5355], [-117.2591, 33.5347], [-117.2603, 33.5346]]]}, "properties": {"layer": "retained"}}]}
