{"type": "FeatureCollection", "features": [{"type": "Feature", "geometry": {"type": "MultiPolygon", "coordinates": [[[[-118.8588, 34.9099], [-118.857, 34.9081], [-118.8583, 34.9051], [-118.8618, 34.9041], [-118.863, 34.9069], [-118.8601, 34.909], [-118.8592, 34.9088], [-118.8588, 34.9099]]], [[[-118.9139, 34.9174], [-118.9138, 34.9175], [-118.9139, 34.9172], [-118.9139, 34.9174]]], [[[-118.913, 34.9187], [-118.9128, 34.9188], [-118.913, 34.9187], [-118.913, 34.9187]]], [[[-118.9141, 34.9178], [-118.9126, 34.9181], [-118.913, 34.9185], [-118.9112, 34.9191], [-118.9111, 34.92], [-118.9178, 34.9251], [-118.9178, 34.9261], [-118.9191, 34.9265], [-118.9188, 34.9283], [-118.9209, 34.9292], [-118.9224, 34.9309], [-118.9232, 34.9307], [-118.9232, 34.9333], [-118.9221, 34.9358], [-118.9206, 34.9357], [-118.9213, 34.9363], [-118.9207, 34.937], [-118.9171, 34.9392], [-118.915, 34.9395], [-118.9149, 34.94], [-118.9114, 34.9399], [-118.9096, 34.9389], [-118.9076, 34.9395], [-118.9056, 34.9387], [-118.9062, 34.9369], [-118.9043, 34.9368], [-118.9033, 34.9375], [-118.9032, 34.9379], [-118.9045, 34.9383], [-118.9048, 34.9387], [-118.9033, 34.9381], [-118.903, 34.9389], [-118.9007, 34.9387], [-118.9012, 34.9375], [-118.9, 34.937], [-118.8989, 34.9368], [-118.8984, 34.9373], [-118.8967, 34.9368], [-118.8958, 34.9374], [-118.8937, 34.9366], [-118.8912, 34.9335], [-118.8898, 34.9346], [-118.889, 34.9328], [-118.8901, 34.9326], [-118.889, 34.9313], [-118.8894, 34.9305], [-118.887, 34.9297], [-118.8857, 34.9275], [-118.8837, 34.9295], [-118.8827, 34.9288], [-118.8802, 34.929], [-118.8797, 34.9296], [-118.8729, 34.9262], [-118.8734, 34.9249], [-118.8759, 34.9243], [-118.8762, 34.9219], [-118.8737, 34.9234], [-118.8742, 34.9222], [-118.8729, 34.9208], [-118.8735, 34.919], [-118.8724, 34.9184], [-118.8724, 34.9165], [-118.8678, 34.9106], [-118.8696, 34.9104], [-118.8715, 34.9119], [-118.8732, 34.9123], [-118.8741, 34.9141], [-118.8761, 34.9106], [-118.8774, 34.9114], [-118.8779, 34.9108], [-118.8788, 34.9113], [-118.8802, 34.9108], [-118.8805, 34.9114], [-118.8819, 34.9108], [-118.8815, 34.91], [-118.8828, 34.9098], [-118.8839, 34.9071], [-118.8858, 34.9145], [-118.8868, 34.9153], [-118.8875, 34.914], [-118.8888, 34.9139], [-118.8919, 34.9165], [-118.8925, 34.9155], [-118.8967, 34.915], [-118.8966, 34.9105], [-118.8986, 34.9114], [-118.8994, 34.9104], [-118.9013, 34.9111], [-118.9015, 34.9102], [-118.9034, 34.9104], [-118.9044, 34.9098], [-118.9055, 34.9108], [-118.9046, 34.9113], [-118.9051, 34.912], [-118.9064, 34.9124], [-118.9063, 34.9133], [-118.9077, 34.9141], [-118.9072, 34.9145], [-118.9095, 34.915], [-118.9095, 34.9159], [-118.9129, 34.9174], [-118.912, 34.9177], [-118.9141, 34.9178]]]]}, "properties": {"layer": "perimeter"}}, {"type": "Feature", "geometry": {"type": "MultiPolygon", "coordinates": [[[[-118.8579, 34.9094], [-118.8583, 34.9087], [-118.857, 34.9081], [-118.8583, 34.9051], [-118.8618, 34.9041], [-118.863, 34.9069], [-118.8601, 34.909], [-118.8592, 34.9088], [-118.8588, 34.9099], [-118.8579, 34.9094]]], [[[-118.9138, 34.9175], [-118.9139, 34.9172], [-118.9139, 34.9174], [-118.9138, 34.9175]]], [[[-118.9128, 34.9188], [-118.913, 34.9187], [-118.913, 34.9187], [-118.9128, 34.9188]]], [[[-118.9144, 34.9179], [-118.9126, 34.9181], [-118.913, 34.9185], [-118.9128, 34.9188], [-118.9112, 34.9191], [-118.9111, 34.92], [-118.9178, 34.9251], [-118.9178, 34.9261], [-118.9191, 34.9265], [-118.9188, 34.9283], [-118.9209, 34.9292], [-118.9224, 34.9309], [-118.9232, 34.9307], [-118.9232, 34.9333], [-118.9221, 34.9358], [-118.9206, 34.9357], [-118.9213, 34.9363], [-118.9207, 34.937], [-118.9171, 34.9392], [-118.915, 34.9395], [-118.9149, 34.94], [-118.9114, 34.9399], [-118.9096, 34.9389], [-118.9076, 34.9395], [-118.9056, 34.9387], [-118.9062, 34.9369], [-118.9043, 34.9368], [-118.9033, 34.9375], [-118.9032, 34.9379], [-118.9045, 34.9383], [-118.9048, 34.9387], [-118.9033, 34.9381], [-118.903, 34.9389], [-118.9007, 34.9387], [-118.9012, 34.9375], [-118.9, 34.937], [-118.8989, 34.9368], [-118.8984, 34.9373], [-118.8967, 34.9368], [-118.8958, 34.9374], [-118.8937, 34.9366], [-118.8912, 34.9335], [-118.8898, 34.9346], [-118.889, 34.9328], [-118.8901, 34.9326], [-118.889, 34.9313], [-118.8894, 34.9305], [-118.887, 34.9297], [-118.8857, 34.9275], [-118.8837, 34.9295], [-118.8827, 34.9288], [-118.8802, 34.929], [-118.8797, 34.9296], [-118.8729, 34.9262], [-118.8734, 34.9249], [-118.8759, 34.9243], [-118.8762, 34.9219], [-118.8737, 34.9234], [-118.8742, 34.9222], [-118.8729, 34.9208], [-118.8735, 34.919], [-118.8724, 34.9184], [-118.8724, 34.9165], [-118.8678, 34.9106], [-118.8696, 34.9104], [-118.8715, 34.9119], [-118.8732, 34.9123], [-118.8741, 34.9141], [-118.8761, 34.9106], [-118.8774, 34.9114], [-118.8779, 34.9108], [-118.8788, 34.9113], [-118.8802, 34.9108], [-118.8805, 34.9114], [-118.8819, 34.9108], [-118.8815, 34.91], [-118.8828, 34.9098], [-118.8839, 34.9071], [-118.8858, 34.9145], [-118.8868, 34.9153], [-118.8875, 34.914], [-118.8888, 34.9139], [-118.8919, 34.9165], [-118.8925, 34.9155], [-118.8967, 34.915], [-118.8966, 34.9105], [-118.8986, 34.9114], [-118.8994, 34.9104], [-118.9013, 34.9111], [-118.9015, 34.9102], [-118.9034, 34.9104], [-118.9044, 34.9098], [-118.9055, 34.9108], [-118.9046, 34.9113], [-118.9051, 34.912], [-118.9064, 34.9124], [-118.9063, 34.9133], [-118.9077, 34.9141], [-118.9072, 34.9145], [-118.9095, 34.915], [-118.9095, 34.9159], [-118.9129, 34.9174], [-118.912, 34.9177], [-118.9132, 34.9178], [-118.9135, 34.9175], [-118.9138, 34.9175], [-118.9144, 34.9179]]]]}, "properties": {"layer": "retained"}}]}
