{"type": "FeatureCollection", "features": [{"type": "Feature", "geometry": {"type": "Polygon", "coordinates": [[[-118.3575, 34.4631], [-118.3614, 34.4602], [-118.3594, 34.4583], [-118.3583, 34.4581], [-118.3577, 34.4593], [-118.3568, 34.4588], [-118.3537, 34.4596], [-118.3515, 34.458], [-118.351, 34.4564], [-118.3515, 34.456], [-118.3507, 34.4553], [-118.3516, 34.455], [-118.3513, 34.4536], [-118.3525, 34.4517], [-118.358, 34.4482], [-118.36, 34.45], [-118.3606, 34.449], [-118.3617, 34.4494], [-118.3629, 34.4487], [-118.3634, 34.4471], [-118.3618, 34.447], [-118.3614, 34.4464], [-118.3652, 34.4433], [-118.3663, 34.4413], [-118.3717, 34.4377], [-118.3768, 34.436], [-118.3769, 34.4351], [-118.3785, 34.4341], [-118.3784, 34.4347], [-118.3789, 34.4345], [-118.3796, 34.4332], [-118.3796, 34.4336], [-118.382, 34.4322], [-118.3853, 34.432], [-118.3864, 34.4328], [-118.3906, 34.4334], [-118.4016, 34.4285], [-118.4067, 34.4271], [-118.4074, 34.4258], [-118.4128, 34.4269], [-118.4054, 34.4278], [-118.3908, 34.4342], [-118.3873, 34.434], [-118.3864, 34.435], [-118.3853, 34.4348], [-118.386, 34.4353], [-118.3844, 34.4351], [-118.3866, 34.4367], [-118.3859, 34.4381], [-118.3826, 34.4375], [-118.3822, 34.4393], [-118.3809, 34.4403], [-118.3805, 34.4444], [-118.3794, 34.4447], [-118.379, 34.4459], [-118.383, 34.4464], [-118.3837, 34.4453], [-118.3857, 34.4445], [-118.3849, 34.4433], [-118.3859, 34.4415], [-118.3888, 34.4416], [-118.3886, 34.4424], [-118.3897, 34.4428], [-118.3894, 34.4435], [-118.3869, 34.4436], [-118.3877, 34.4451], [-118.3886, 34.4446], [-118.3902, 34.4459], [-118.389, 34.4481], [-118.3889, 34.4529], [-118.3882, 34.4544], [-118.3888, 34.4569], [-118.3899, 34.4576], [-118.3919, 34.4568], [-118.392, 34.4539], [-118.3907, 34.4528], [-118.3907, 34.4501], [-118.3938, 34.4491], [-118.3935, 34.4509], [-118.3947, 34.451], [-118.3948, 34.4467], [-118.3966, 34.4459], [-118.4016, 34.4484], [-118.4051, 34.444], [-118.4049, 34.4425], [-118.4033, 34.4425], [-118.4014, 34.4412], [-118.4009, 34.44], [-118.4021, 34.4398], [-118.4021, 34.4383], [-118.401, 34.4384], [-118.4008, 34.4374], [-118.4027, 34.4378], [-118.4029, 34.4393], [-118.407, 34.4386], [-118.4068, 34.4398], [-118.4079, 34.4418], [-118.41, 34.4404], [-118.4076, 34.4438], [-118.41, 34.4452], [-118.4146, 34.4416], [-118.4153, 34.4398], [-118.4186, 34.4392], [-118.4177, 34.4372], [-118.4209, 34.4362], [-118.4215, 34.4376], [-118.4233, 34.4374], [-118.4234, 34.4359], [-118.4219, 34.4343], [-118.4235, 34.4343], [-118.4246, 34.4312], [-118.4268, 34.4327], [-118.4271, 34.4322], [-118.4279, 34.4326], [-118.4279, 34.4343], [-118.4299, 34.4332], [-118.431, 34.431], [-118.4335, 34.4301], [-118.4352, 34.4308], [-118.4358, 34.4323], [-118.4372, 34.4323], [-118.4376, 34.4329], [-118.4378, 34.4334], [-118.4352, 34.4342], [-118.4349, 34.4331], [-118.431, 34.433], [-118.4302, 34.4345], [-118.4291, 34.4347], [-118.4285, 34.4372], [-118.4311, 34.4365], [-118.4303, 34.4388], [-118.4281, 34.4386], [-118.4283, 34.4398], [-118.4296, 34.4396], [-118.4301, 34.4414], [-118.4285, 34.4428], [-118.4272, 34.4423], [-118.4262, 34.4408], [-118.4255, 34.4426], [-118.4275, 34.4451], [-118.4235, 34.4496], [-118.4211, 34.448], [-118.4197, 34.4462], [-118.4182, 34.4483], [-118.4198, 34.4513], [-118.4189, 34.4517], [-118.4198, 34.4525], [-118.4213, 34.4515], [-118.4193, 34.4531], [-118.4161, 34.4535], [-118.4174, 34.4558], [-118.4172, 34.4566], [-118.4187, 34.4564], [-118.4174, 34.4586], [-118.4182, 34.4596], [-118.4208, 34.4579], [-118.4197, 34.461], [-118.4171, 34.4621], [-118.4145, 34.4613], [-118.4132, 34.462], [-118.4109, 34.4611], [-118.4115, 34.4636], [-118.4099, 34.4637], [-118.4063, 34.4658], [-118.4029, 34.4666], [-118.3994, 34.4662], [-118.399, 34.467], [-118.3966, 34.4678], [-118.3958, 34.4689], [-118.3943, 34.4685], [-118.3927, 34.4695], [-118.3907, 34.4678], [-118.3896, 34.47], [-118.3908, 34.4724], [-118.3904, 34.4738], [-118.3893, 34.4746], [-118.388, 34.4742], [-118.386, 34.4765], [-118.3823, 34.475], [-118.3775, 34.4747], [-118.3747, 34.4731], [-118.3712, 34.4726], [-118.3692, 34.4699], [-118.3694, 34.4693], [-118.3676, 34.4698], [-118.3665, 34.4711], [-118.3607, 34.4694], [-118.36, 34.4666], [-118.3586, 34.4669], [-118.3582, 34.4655], [-118.3567, 34.4644], [-118.3575, 34.4631]]]}, "properties": {"layer": "perimeter"}}, {"type": "Feature", "geometry": {"type": "MultiPolygon", "coordinates": [[[[-118.3614, 34.4602], [-118.3588, 34.4581], [-118.3577, 34.4593], [-118.3568, 34.4588], [-118.3537, 34.4596], [-118.3515, 34.458], [-118.351, 34.4564], [-118.3515, 34.456], [-118.3507, 34.4553], [-118.3516, 34.455], [-118.3513, 34.4536], [-118.3525, 34.4517], [-118.358, 34.4482], [-118.36, 34.45], [-118.3606, 34.449], [-118.3617, 34.4494], [-118.3629, 34.4487], [-118.3634, 34.4471], [-118.3618, 34.447], [-118.3614, 34.4464], [-118.3652, 34.4433], [-118.3663, 34.4413], [-118.3717, 34.4377], [-118.3768, 34.436], [-118.3769, 34.4351], [-118.3785, 34.4341], [-118.3784, 34.4347], [-118.3789, 34.4345], [-118.3796, 34.4332], [-118.3796, 34.4336], [-118.382, 34.4322], [-118.3853, 34.432], [-118.3864, 34.4328], [-118.3906, 34.4334], [-118.4042, 34.4279], [-118.3914, 34.4338], [-118.387, 34.4337], [-118.3863, 34.4347], [-118.3843, 34.4344], [-118.3821, 34.4351], [-118.3825, 34.4377], [-118.3812, 34.4383], [-118.3799, 34.4382], [-118.379, 34.4369], [-118.3787, 34.4493], [-118.3877, 34.4495], [-118.3877, 34.4469], [-118.3892, 34.4475], [-118.3884, 34.4485], [-118.3889, 34.4529], [-118.3877, 34.4531], [-118.3883, 34.4668], [-118.3894, 34.4667], [-118.3894, 34.4658], [-118.3916, 34.4658], [-118.3915, 34.464], [-118.3926, 34.464], [-118.3926, 34.4631], [-118.3937, 34.4631], [-118.3936, 34.4613], [-118.3947, 34.4613], [-118.3947, 34.4604], [-118.3925, 34.4604], [-118.3928, 34.4558], [-118.3943, 34.4558], [-118.3941, 34.4549], [-118.3923, 34.4547], [-118.3939, 34.4541], [-118.3935, 34.4533], [-118.3973, 34.4534], [-118.3974, 34.4497], [-118.3956, 34.4496], [-118.3948, 34.4467], [-118.3963, 34.4461], [-118.3975, 34.4466], [-118.3981, 34.4475], [-118.3974, 34.4491], [-118.3996, 34.4487], [-118.3999, 34.4496], [-118.4028, 34.4495], [-118.4025, 34.4478], [-118.405, 34.4458], [-118.4062, 34.4467], [-118.4062, 34.4494], [-118.415, 34.4492], [-118.4152, 34.4401], [-118.4239, 34.44], [-118.4239, 34.4391], [-118.4283, 34.4389], [-118.4283, 34.4398], [-118.4296, 34.4396], [-118.4301, 34.4414], [-118.4285, 34.4428], [-118.4272, 34.4423], [-118.4262, 34.4408], [-118.4255, 34.4426], [-118.4275, 34.4451], [-118.4235, 34.4496], [-118.4211, 34.448], [-118.4197, 34.4462], [-118.4182, 34.4483], [-118.4198, 34.4513], [-118.4189, 34.4517], [-118.4198, 34.4525], [-118.4213, 34.4515], [-118.4193, 34.4531], [-118.4161, 34.4535], [-118.4174, 34.4558], [-118.4172, 34.4566], [-118.4187, 34.4564], [-118.4174, 34.4586], [-118.4182, 34.4596], [-118.4208, 34.4579], [-118.4197, 34.461], [-118.4171, 34.4621], [-118.4145, 34.4613], [-118.4132, 34.462], [-118.4109, 34.4611], [-118.4115, 34.4636], [-118.4099, 34.4637], [-118.4063, 34.4658], [-118.4029, 34.4666], [-118.3994, 34.4662], [-118.399, 34.467], [-118.3966, 34.4678], [-118.3958, 34.4689], [-118.3943, 34.4685], [-118.3927, 34.4695], [-118.3907, 34.4678], [-118.3896, 34.47], [-118.3908, 34.4724], [-118.3904, 34.4738], [-118.3893, 34.4746], [-118.388, 34.4742], [-118.386, 34.4765], [-118.3823, 34.475], [-118.3775, 34.4747], [-118.3747, 34.4731], [-118.3712, 34.4726], [-118.3692, 34.4699], [-118.3694, 34.4693], [-118.3676, 34.4698], [-118.3665, 34.4711], [-118.3607, 34.4694], [-118.36, 34.4666], [-118.3586, 34.4669], [-118.3582, 34.4655], [-118.3567, 34.4644], [-118.3575, 34.4631], [-118.3614, 34.4602]], [[-118.3795, 34.4676], [-118.3794, 34.4658], [-118.3782, 34.4658], [-118.3783, 34.4676], [-118.3795, 34.4676]]], [[[-118.4303, 34.4388], [-118.4283, 34.4387], [-118.4283, 34.4373], [-118.4306, 34.438], [-118.4303, 34.4388]]]]}, "properties": {"layer": "retained"}}]}
