{"type": "FeatureCollection", "features": [{"type": "Feature", "geometry": {"type": "Polygon", "coordinates": [[[-121.1884, 41.8237], [-121.1777, 41.8229], [-121.1767, 41.821], [-121.1748, 41.8208], [-121.1727, 41.8191], [-121.1703, 41.8187], [-121.1688, 41.8168], [-121.1679, 41.8142], [-121.1688, 41.8132], [-121.1661, 41.8097], [-121.1666, 41.807], [-121.1643, 41.8051], [-121.1644, 41.8], [-121.1662, 41.7984], [-121.1686, 41.7986], [-121.1713, 41.7962], [-121.1778, 41.8002], [-121.1817, 41.8015], [-121.1855, 41.8044], [-121.1982, 41.8024], [-121.2118, 41.8063], [-121.2187, 41.8047], [-121.226, 41.8046], [-121.234, 41.8088], [-121.2358, 41.8059], [-121.2419, 41.8022], [-121.2452, 41.7987], [-121.2473, 41.7978], [-121.2481, 41.7957], [-121.2509, 41.7943], [-121.2508, 41.7931], [-121.2522, 41.792], [-121.2554, 41.7919], [-121.2571, 41.7899], [-121.2588, 41.7899], [-121.2608, 41.7871], [-121.2617, 41.7878], [-121.2628, 41.7875], [-121.2641, 41.7849], [-121.2683, 41.7848], [-121.269, 41.7827], [-121.2711, 41.7819], [-121.271, 41.7798], [-121.2737, 41.7793], [-121.2774, 41.7761], [-121.2801, 41.7752], [-121.2839, 41.7757], [-121.28, 41.7744], [-121.2792, 41.7726], [-121.2802, 41.7711], [-121.2796, 41.7694], [-121.2774, 41.7698], [-121.2762, 41.7715], [-121.2761, 41.7702], [-121.2749, 41.7706], [-121.273, 41.7699], [-121.2722, 41.7685], [-121.2695, 41.7684], [-121.2676, 41.7665], [-121.2654, 41.7661], [-121.2653, 41.7646], [-121.2628, 41.7634], [-121.2635, 41.7632], [-121.2633, 41.7624], [-121.2646, 41.7625], [-121.2643, 41.7612], [-121.2634, 41.7617], [-121.2572, 41.7595], [-121.2527, 41.755], [-121.2497, 41.7498], [-121.2478, 41.7496], [-121.2452, 41.7504], [-121.2387, 41.7484], [-121.2365, 41.7454], [-121.2331, 41.7438], [-121.2375, 41.7416], [-121.2463, 41.7338], [-121.2499, 41.7342], [-121.2532, 41.7355], [-121.2565, 41.7351], [-121.2565, 41.7359], [-121.2587, 41.7375], [-121.2624, 41.7387], [-121.2645, 41.7383], [-121.265, 41.7355], [-121.2676, 41.7321], [-121.2742, 41.7368], [-121.2833, 41.7404], [-121.2868, 41.7425], [-121.2919, 41.7469], [-121.2926, 41.7516], [-121.2934, 41.7522], [-121.2941, 41.7519], [-121.2954, 41.754], [-121.2969, 41.7542], [-121.2997, 41.7593], [-121.3022, 41.7598], [-121.3038, 41.7833], [-121.3017, 41.7831], [-121.2997, 41.7854], [-121.295, 41.7833], [-121.2943, 41.7821], [-121.2926, 41.7825], [-121.2892, 41.7809], [-121.2884, 41.782], [-121.2873, 41.7819], [-121.2849, 41.7797], [-121.2814, 41.7781], [-121.2803, 41.7787], [-121.2801, 41.7817], [-121.2769, 41.7852], [-121.275, 41.7909], [-121.2702, 41.7982], [-121.2713, 41.8016], [-121.2694, 41.8043], [-121.272, 41.8061], [-121.2727, 41.8079], [-121.272, 41.809], [-121.2731, 41.8127], [-121.2727, 41.8214], [-121.2712, 41.8214], [-121.2677, 41.8291], [-121.2657, 41.8306], [-121.2653, 41.8331], [-121.2589, 41.8394], [-121.257, 41.8403], [-121.2572, 41.8413], [-121.2553, 41.8438], [-121.2471, 41.8473], [-121.242, 41.852], [-121.2357, 41.8564], [-121.2309, 41.8574], [-121.2286, 41.8589], [-121.2234, 41.8596], [-121.2207, 41.8616], [-121.2176, 41.8622], [-121.2133, 41.8667], [-121.2115, 41.8651], [-121.2106, 41.8619], [-121.2088, 41.8596], [-121.2091, 41.858], [-121.2127, 41.8539], [-121.2129, 41.8521], [-121.2084, 41.845], [-121.2072, 41.8434], [-121.2025, 41.8413], [-121.1987, 41.8383], [-121.1944, 41.832], [-121.1944, 41.8293], [-121.1917, 41.8279], [-121.1884, 41.8237]]]}, "properties": {"layer": "perimeter"}}, {"type": "Feature", "geometry": {"type": "MultiPolygon", "coordinates": [[[[-121.2563, 41.7351], [-121.2587, 41.7375], [-121.2613, 41.7383], [-121.2561, 41.7383], [-121.2563, 41.7351]]], [[[-121.2618, 41.7383], [-121.2623, 41.7383], [-121.2623, 41.7383], [-121.2618, 41.7383]]], [[[-121.2635, 41.7383], [-121.2645, 41.7383], [-121.265, 41.7355], [-121.2664, 41.7344], [-121.2672, 41.7322], [-121.2686, 41.7324], [-121.2699, 41.7342], [-121.2736, 41.7364], [-121.2834, 41.7404], [-121.2868, 41.7425], [-121.2919, 41.7469], [-121.2923, 41.7494], [-121.2753, 41.7493], [-121.2755, 41.7384], [-121.2635, 41.7383]]]]}, "properties": {"layer": "retained"}}]}
