{"type": "FeatureCollection", "features": [{"type": "Feature", "geometry": {"type": "Polygon", "coordinates": [[[-120.2975, 35.8296], [-120.299, 35.824], [-120.2987, 35.8218], [-120.3023, 35.814], [-120.3058, 35.8088], [-120.3125, 35.8017], [-120.3164, 35.7962], [-120.3177, 35.7958], [-120.3204, 35.7908], [-120.3198, 35.7898], [-120.3235, 35.7923], [-120.3256, 35.7925], [-120.3333, 35.8011], [-120.3342, 35.8007], [-120.3342, 35.7991], [-120.3353, 35.7967], [-120.3369, 35.7961], [-120.3392, 35.7998], [-120.339, 35.8007], [-120.3357, 35.8029], [-120.3409, 35.808], [-120.337, 35.811], [-120.3336, 35.8126], [-120.3286, 35.8172], [-120.3278, 35.8228], [-120.3248, 35.825], [-120.3242, 35.8279], [-120.323, 35.8284], [-120.3194, 35.8283], [-120.3174, 35.8267], [-120.312, 35.8247], [-120.3102, 35.8259], [-120.3083, 35.8258], [-120.3053, 35.8269], [-120.3025, 35.829], [-120.2975, 35.8296]]]}, "properties": {"layer": "perimeter"}}, {"type": "Feature", "geometry": {"type": "Polygon", "coordinates": [[[-120.2979, 35.8295], [-120.299, 35.824], [-120.2987, 35.8218], [-120.3023, 35.814], [-120.3058, 35.8088], [-120.3125, 35.8017], [-120.3164, 35.7962], [-120.3177, 35.7958], [-120.3204, 35.7908], [-120.3198, 35.7898], [-120.3235, 35.7923], [-120.3256, 35.7925], [-120.3333, 35.8011], [-120.3342, 35.8007], [-120.3342, 35.7991], [-120.3353, 35.7967], [-120.3369, 35.7961], [-120.3392, 35.7998], [-120.339, 35.8007], [-120.3357, 35.8029], [-120.3409, 35.808], [-120.337, 35.811], [-120.3336, 35.8126], [-120.3286, 35.8172], [-120.3278, 35.8228], [-120.3248, 35.825], [-120.3242, 35.8279], [-120.323, 35.8284], [-120.3194, 35.8283], [-120.3174, 35.8267], [-120.312, 35.8247], [-120.3102, 35.8259], [-120.3083, 35.8258], [-120.3053, 35.8269], [-120.3025, 35.829], [-120.2979, 35.8295]]]}, "properties": {"layer": "retained"}}]}
