{"type": "FeatureCollection", "features": [{"type": "Feature", "geometry": {"type": "Polygon", "coordinates": [[[-123.4093, 41.7352], [-123.4052, 41.7334], [-123.404, 41.7318], [-123.4005, 41.7306], [-123.3922, 41.7317], [-123.3901, 41.7313], [-123.3913, 41.7304], [-123.3918, 41.7283], [-123.3906, 41.725], [-123.3913, 41.7219], [-123.3909, 41.7138], [-123.3928, 41.7117], [-123.3944, 41.7073], [-123.3903, 41.7064], [-123.3877, 41.7066], [-123.388, 41.7073], [-123.3865, 41.7074], [-123.3846, 41.706], [-123.3854, 41.7049], [-123.3853, 41.7024], [-123.3843, 41.7019], [-123.3838, 41.6991], [-123.3823, 41.6985], [-123.3826, 41.6972], [-123.3798, 41.6969], [-123.3779, 41.6956], [-123.3768, 41.6925], [-123.3771, 41.6944], [-123.3756, 41.6966], [-123.3732, 41.6965], [-123.3712, 41.6979], [-123.3708, 41.6971], [-123.3685, 41.6981], [-123.3586, 41.6995], [-123.3576, 41.695], [-123.3552, 41.6932], [-123.3553, 41.691], [-123.3576, 41.6894], [-123.3563, 41.6893], [-123.3549, 41.686], [-123.3516, 41.6833], [-123.3521, 41.6824], [-123.3508, 41.682], [-123.351, 41.6804], [-123.3505, 41.6799], [-123.3488, 41.6802], [-123.3476, 41.6778], [-123.3493, 41.6771], [-123.3487, 41.6766], [-123.3503, 41.6746], [-123.3494, 41.6742], [-123.3503, 41.6735], [-123.3563, 41.6745], [-123.3674, 41.6736], [-123.3716, 41.6755], [-123.3737, 41.6801], [-123.3736, 41.6857], [-123.3758, 41.6893], [-123.3764, 41.686], [-123.3787, 41.6854], [-123.3805, 41.6857], [-123.3794, 41.6869], [-123.3771, 41.6874], [-123.378, 41.6889], [-123.3765, 41.6893], [-123.3774, 41.6903], [-123.377, 41.6924], [-123.3793, 41.6914], [-123.381, 41.692], [-123.3818, 41.6912], [-123.3834, 41.6913], [-123.3853, 41.6951], [-123.3859, 41.6948], [-123.3848, 41.6931], [-123.3854, 41.6926], [-123.3844, 41.6909], [-123.3845, 41.6887], [-123.3876, 41.6873], [-123.3891, 41.6876], [-123.3898, 41.6859], [-123.3935, 41.6835], [-123.397, 41.6832], [-123.4002, 41.6817], [-123.4014, 41.6822], [-123.4032, 41.6816], [-123.4037, 41.6799], [-123.4062, 41.6784], [-123.4095, 41.678], [-123.4107, 41.6756], [-123.4117, 41.6758], [-123.4125, 41.675], [-123.4146, 41.6754], [-123.4141, 41.6747], [-123.4169, 41.673], [-123.4183, 41.6735], [-123.4184, 41.6717], [-123.4206, 41.6712], [-123.4205, 41.6706], [-123.4217, 41.671], [-123.4219, 41.6702], [-123.4228, 41.6704], [-123.4225, 41.6712], [-123.4232, 41.6715], [-123.4239, 41.6699], [-123.4252, 41.6714], [-123.4243, 41.6717], [-123.4254, 41.6729], [-123.4261, 41.6716], [-123.428, 41.6712], [-123.4274, 41.6724], [-123.4284, 41.6719], [-123.4293, 41.6725], [-123.4316, 41.6761], [-123.4305, 41.6784], [-123.4314, 41.6788], [-123.4326, 41.6784], [-123.4333, 41.6795], [-123.4342, 41.6789], [-123.4371, 41.6804], [-123.437, 41.682], [-123.436, 41.6827], [-123.4373, 41.6827], [-123.4373, 41.6841], [-123.4399, 41.6872], [-123.4407, 41.6898], [-123.4431, 41.6919], [-123.4424, 41.6931], [-123.4442, 41.6926], [-123.4459, 41.6934], [-123.4456, 41.695], [-123.4442, 41.6956], [-123.4446, 41.6974], [-123.4436, 41.6975], [-123.4455, 41.6992], [-123.4469, 41.7034], [-123.4466, 41.7059], [-123.4444, 41.7066], [-123.4464, 41.7076], [-123.4445, 41.7096], [-123.4467, 41.7097], [-123.4478, 41.7107], [-123.4471, 41.7125], [-123.445, 41.7136], [-123.4443, 41.7149], [-123.4458, 41.7188], [-123.4423, 41.721], [-123.4388, 41.7207], [-123.4366, 41.7219], [-123.4358, 41.727], [-123.4337, 41.73], [-123.432, 41.7301], [-123.4292, 41.729], [-123.4252, 41.7291], [-123.4233, 41.7297], [-123.4152, 41.7362], [-123.4132, 41.7366], [-123.4116, 41.7355], [-123.4093, 41.7352]]]}, "properties": {"layer": "perimeter"}}, {"type": "Feature", "geometry": {"type": "MultiPolygon", "coordinates": [[[[-123.4455, 41.6992], [-123.4461, 41.701], [-123.4439, 41.701], [-123.444, 41.6991], [-123.4455, 41.6992]]], [[[-123.4468, 41.7047], [-123.4466, 41.7059], [-123.4451, 41.7066], [-123.4451, 41.7046], [-123.4468, 41.7047]]], [[[-123.4452, 41.7071], [-123.4464, 41.7076], [-123.4458, 41.7084], [-123.4451, 41.7084], [-123.4452, 41.7071]]]]}, "properties": {"layer": "retained"}}]}
