{"type": "FeatureCollection", "features": [{"type": "Feature", "geometry": {"type": "Polygon", "coordinates": [[[-116.7594, 32.778], [-116.7589, 32.7783], [-116.7587, 32.7783], [-116.7575, 32.7773], [-116.7559, 32.7779], [-116.7587, 32.7795], [-116.7587, 32.7841], [-116.7595, 32.7847], [-116.7579, 32.7857], [-116.7565, 32.7853], [-116.755, 32.7827], [-116.7524, 32.7825], [-116.7496, 32.7809], [-116.7467, 32.7818], [-116.7412, 32.782], [-116.7361, 32.7794], [-116.7345, 32.7797], [-116.7349, 32.7802], [-116.7344, 32.7804], [-116.7304, 32.7769], [-116.7311, 32.7763], [-116.7307, 32.7739], [-116.7292, 32.7742], [-116.7289, 32.775], [-116.729, 32.7726], [-116.7277, 32.7716], [-116.7279, 32.7731], [-116.7273, 32.7737], [-116.7248, 32.7727], [-116.7208, 32.7733], [-116.7202, 32.7722], [-116.7207, 32.7717], [-116.7182, 32.7704], [-116.7165, 32.7709], [-116.716, 32.7692], [-116.7154, 32.7692], [-116.7158, 32.7703], [-116.7152, 32.771], [-116.7141, 32.7708], [-116.7143, 32.7699], [-116.7133, 32.769], [-116.7103, 32.7693], [-116.71, 32.7697], [-116.7127, 32.771], [-116.7118, 32.7711], [-116.7114, 32.7725], [-116.7127, 32.7725], [-116.7136, 32.7738], [-116.7124, 32.7733], [-116.7117, 32.7742], [-116.709, 32.7737], [-116.7079, 32.7724], [-116.7041, 32.7708], [-116.7033, 32.7687], [-116.7016, 32.7686], [-116.6967, 32.7658], [-116.6968, 32.7646], [-116.6958, 32.7643], [-116.6969, 32.7611], [-116.6944, 32.7615], [-116.6932, 32.761], [-116.6947, 32.7603], [-116.6958, 32.7581], [-116.6955, 32.7575], [-116.6968, 32.7574], [-116.6968, 32.7569], [-116.6976, 32.7574], [-116.6982, 32.757], [-116.6989, 32.7579], [-116.7004, 32.7575], [-116.7037, 32.7552], [-116.705, 32.7553], [-116.7052, 32.7543], [-116.7072, 32.7544], [-116.7077, 32.7536], [-116.7084, 32.7538], [-116.7077, 32.7522], [-116.7053, 32.7523], [-116.7065, 32.7512], [-116.7076, 32.7472], [-116.7062, 32.7451], [-116.7046, 32.7444], [-116.7013, 32.7443], [-116.6989, 32.7457], [-116.6981, 32.7472], [-116.697, 32.7472], [-116.6957, 32.7463], [-116.6953, 32.7445], [-116.6928, 32.7436], [-116.6912, 32.7437], [-116.6867, 32.7455], [-116.6862, 32.7451], [-116.6849, 32.7457], [-116.6846, 32.7453], [-116.6809, 32.7456], [-116.6769, 32.7483], [-116.6713, 32.7488], [-116.6668, 32.7479], [-116.6633, 32.7485], [-116.6565, 32.7482], [-116.6543, 32.7495], [-116.6505, 32.7505], [-116.6433, 32.7498], [-116.6407, 32.7505], [-116.6379, 32.7525], [-116.6334, 32.7519], [-116.6281, 32.7536], [-116.6231, 32.7545], [-116.6206, 32.7543], [-116.6197, 32.7539], [-116.6194, 32.752], [-116.6177, 32.7507], [-116.6177, 32.7494], [-116.608, 32.7451], [-116.6039, 32.7417], [-116.6035, 32.7398], [-116.6051, 32.7361], [-116.604, 32.7349], [-116.6069, 32.7345], [-116.6092, 32.7377], [-116.6122, 32.7382], [-116.6192, 32.7362], [-116.6249, 32.7408], [-116.6276, 32.7416], [-116.633, 32.7447], [-116.6334, 32.7467], [-116.6346, 32.7477], [-116.6361, 32.7478], [-116.6363, 32.7472], [-116.64, 32.7477], [-116.6418, 32.7465], [-116.6423, 32.7475], [-116.6433, 32.7472], [-116.6429, 32.7467], [-116.6437, 32.7454], [-116.6462, 32.7438], [-116.6472, 32.744], [-116.6417, 32.7407], [-116.6404, 32.7408], [-116.6397, 32.7388], [-116.6378, 32.7378], [-116.6382, 32.737], [-116.6365, 32.735], [-116.6366, 32.734], [-116.6352, 32.734], [-116.6328, 32.7327], [-116.632, 32.7332], [-116.6321, 32.7285], [-116.6302, 32.7284], [-116.6309, 32.7295], [-116.6264, 32.7296], [-116.6258, 32.729], [-116.6262, 32.7282], [-116.6273, 32.7279], [-116.6243, 32.7266], [-116.6227, 32.728], [-116.6247, 32.7297], [-116.6235, 32.7303], [-116.621, 32.7303], [-116.6211, 32.7311], [-116.6198, 32.7317], [-116.6189, 32.7334], [-116.6179, 32.7315], [-116.6113, 32.7286], [-116.6139, 32.7275], [-116.62, 32.7272], [-116.6235, 32.7258], [-116.6217, 32.7208], [-116.6176, 32.7171], [-116.6143, 32.716], [-116.6143, 32.7155], [-116.6165, 32.7153], [-116.617, 32.7139], [-116.6188, 32.7134], [-116.6189, 32.714], [-116.6214, 32.7152], [-116.622, 32.715], [-116.6213, 32.7143], [-116.622, 32.7136], [-116.6239, 32.7151], [-116.6245, 32.7149], [-116.6252, 32.716], [-116.6254, 32.7146], [-116.6273, 32.716], [-116.6314, 32.7154], [-116.6324, 32.7144], [-116.6322, 32.7136], [-116.6312, 32.7133], [-116.6314, 32.7122], [-116.6327, 32.7122], [-116.6304, 32.7104], [-116.63, 32.709], [-116.6312, 32.7095], [-116.6325, 32.7078], [-116.6335, 32.7083], [-116.6329, 32.7072], [-116.6338, 32.7066], [-116.6351, 32.7077], [-116.6346, 32.7089], [-116.6355, 32.709], [-116.6373, 32.7073], [-116.6374, 32.7062], [-116.6382, 32.7067], [-116.6383, 32.706], [-116.6394, 32.7087], [-116.6404, 32.7085], [-116.6404, 32.7081], [-116.6406, 32.7078], [-116.6408, 32.7085], [-116.6418, 32.7082], [-116.642, 32.7035], [-116.643, 32.7033], [-116.6433, 32.7023], [-116.6445, 32.7016], [-116.6462, 32.6993], [-116.6444, 32.6987], [-116.6447, 32.6982], [-116.647, 32.698], [-116.6466, 32.697], [-116.6491, 32.6961], [-116.6485, 32.6969], [-116.649, 32.6977], [-116.6504, 32.6975], [-116.6521, 32.6983], [-116.6528, 32.6963], [-116.656, 32.6942], [-116.6551, 32.6939], [-116.6562, 32.6926], [-116.6581, 32.6922], [-116.6588, 32.691], [-116.6598, 32.6907], [-116.661, 32.6908], [-116.662, 32.6917], [-116.662, 32.6936], [-116.6636, 32.6936], [-116.6646, 32.6944], [-116.6642, 32.6953], [-116.6651, 32.6964], [-116.6692, 32.6933], [-116.675, 32.6968], [-116.676, 32.6981], [-116.6757, 32.7001], [-116.6729, 32.6997], [-116.673, 32.705], [-116.672, 32.7077], [-116.6667, 32.7092], [-116.6663, 32.7109], [-116.6681, 32.7094], [-116.6703, 32.7092], [-116.6718, 32.7098], [-116.6715, 32.7116], [-116.6722, 32.7123], [-116.6745, 32.705], [-116.6737, 32.7032], [-116.6748, 32.703], [-116.6741, 32.7022], [-116.6746, 32.7014], [-116.6757, 32.701], [-116.6773, 32.7012], [-116.6763, 32.7003], [-116.6767, 32.6997], [-116.6789, 32.7], [-116.6789, 32.6976], [-116.6828, 32.6987], [-116.6851, 32.6978], [-116.6877, 32.6979], [-116.6891, 32.6994], [-116.6887, 32.7015], [-116.6928, 32.7036], [-116.6988, 32.7014], [-116.7007, 32.7014], [-116.7038, 32.7026], [-116.703, 32.7059], [-116.7034, 32.7093], [-116.7056, 32.71], [-116.7081, 32.7096], [-116.7108, 32.7125], [-116.7061, 32.7128], [-116.7053, 32.7136], [-116.7051, 32.7148], [-116.7092, 32.7144], [-116.707, 32.7177], [-116.7095, 32.7177], [-116.7124, 32.7153], [-116.7134, 32.7159], [-116.7129, 32.7196], [-116.7155, 32.7195], [-116.7174, 32.7186], [-116.719, 32.7191], [-116.7178, 32.7202], [-116.7183, 32.7246], [-116.716, 32.727], [-116.7122, 32.7273], [-116.7121, 32.7288], [-116.716, 32.7295], [-116.7171, 32.7321], [-116.7195, 32.7313], [-116.7219, 32.7319], [-116.7265, 32.7352], [-116.7284, 32.7375], [-116.7287, 32.7435], [-116.728, 32.7439], [-116.7307, 32.7448], [-116.7359, 32.7448], [-116.7457, 32.7423], [-116.7531, 32.7422], [-116.7572, 32.7456], [-116.757, 32.7471], [-116.7546, 32.7488], [-116.7539, 32.7509], [-116.7553, 32.7526], [-116.7561, 32.7556], [-116.7601, 32.7587], [-116.7615, 32.761], [-116.7649, 32.7623], [-116.7671, 32.7645], [-116.7698, 32.7652], [-116.7706, 32.7641], [-116.7707, 32.7655], [-116.7763, 32.7664], [-116.7767, 32.7675], [-116.774, 32.7689], [-116.7742, 32.7699], [-116.7718, 32.7714], [-116.7716, 32.7727], [-116.7693, 32.772], [-116.769, 32.7741], [-116.7659, 32.7755], [-116.764, 32.7778], [-116.7599, 32.7774], [-116.7594, 32.778]], [[-116.7594, 32.778], [-116.7593, 32.778], [-116.7591, 32.7781], [-116.7594, 32.778]], [[-116.6746, 32.7016], [-116.6746, 32.7018], [-116.6746, 32.7017], [-116.6746, 32.7016]], [[-116.7171, 32.7321], [-116.7171, 32.7321], [-116.7171, 32.7322], [-116.7171, 32.7321]], [[-116.7174, 32.7324], [-116.7174, 32.7324], [-116.7174, 32.7324], [-116.7174, 32.7324]]]}, "properties": {"layer": "perimeter"}}, {"type": "Feature", "geometry": {"type": "MultiPolygon", "coordinates": [[[[-116.7594, 32.778], [-116.7589, 32.7783], [-116.7587, 32.7783], [-116.7575, 32.7773], [-116.7559, 32.7779], [-116.7587, 32.7795], [-116.7587, 32.7841], [-116.7595, 32.7847], [-116.7579, 32.7857], [-116.7566, 32.7854], [-116.7553, 32.7829], [-116.7543, 32.7825], [-116.7543, 32.773], [-116.75, 32.7732], [-116.7487, 32.7628], [-116.7358, 32.7629], [-116.7353, 32.7594], [-116.7316, 32.7591], [-116.7312, 32.7519], [-116.7238, 32.7519], [-116.7235, 32.7483], [-116.7203, 32.7483], [-116.7197, 32.7313], [-116.7219, 32.7319], [-116.7247, 32.7337], [-116.7284, 32.7375], [-116.7287, 32.7435], [-116.7279, 32.7438], [-116.7292, 32.7444], [-116.7372, 32.7447], [-116.7457, 32.7423], [-116.7509, 32.7419], [-116.7545, 32.7429], [-116.7573, 32.7457], [-116.7568, 32.7474], [-116.7546, 32.7488], [-116.7539, 32.7509], [-116.7553, 32.7526], [-116.7561, 32.7556], [-116.7601, 32.7587], [-116.7615, 32.761], [-116.7649, 32.7623], [-116.7671, 32.7645], [-116.7698, 32.7652], [-116.7706, 32.7641], [-116.7707, 32.7655], [-116.7763, 32.7664], [-116.7767, 32.7675], [-116.774, 32.7689], [-116.7742, 32.7699], [-116.7718, 32.7714], [-116.7716, 32.7727], [-116.7693, 32.772], [-116.769, 32.7741], [-116.7659, 32.7755], [-116.764, 32.7778], [-116.7599, 32.7774], [-116.7595, 32.7775], [-116.7594, 32.778]], [[-116.7594, 32.778], [-116.7592, 32.7781], [-116.7591, 32.7781], [-116.7594, 32.778]]], [[[-116.7308, 32.7773], [-116.7303, 32.7767], [-116.7311, 32.7764], [-116.7309, 32.7741], [-116.7292, 32.7742], [-116.729, 32.775], [-116.729, 32.7726], [-116.7277, 32.7716], [-116.7279, 32.7731], [-116.7273, 32.7737], [-116.7248, 32.7727], [-116.7208, 32.7733], [-116.7202, 32.7722], [-116.7207, 32.7717], [-116.7182, 32.7704], [-116.7165, 32.7709], [-116.7164, 32.7695], [-116.7328, 32.7701], [-116.7331, 32.7736], [-116.7415, 32.7736], [-116.7415, 32.7772], [-116.7308, 32.7773]]], [[[-116.7154, 32.7694], [-116.7156, 32.7706], [-116.7141, 32.7708], [-116.7143, 32.7699], [-116.7134, 32.7692], [-116.7154, 32.7694]]], [[[-116.7125, 32.7691], [-116.71, 32.7696], [-116.7127, 32.771], [-116.7118, 32.7711], [-116.7114, 32.7725], [-116.7127, 32.7725], [-116.7136, 32.7738], [-116.713, 32.7736], [-116.7131, 32.774], [-116.7124, 32.7727], [-116.7066, 32.7721], [-116.7039, 32.7706], [-116.7033, 32.7687], [-116.7013, 32.7683], [-116.7125, 32.7691]]], [[[-116.6998, 32.7648], [-116.6958, 32.7643], [-116.697, 32.7613], [-116.6998, 32.7613], [-116.6998, 32.7648]]], [[[-116.6951, 32.7613], [-116.6944, 32.7615], [-116.6936, 32.7613], [-116.6951, 32.7613]]], [[[-116.6957, 32.7576], [-116.6968, 32.7569], [-116.6976, 32.7574], [-116.6982, 32.757], [-116.6987, 32.7578], [-116.6957, 32.7576]]], [[[-116.6992, 32.7578], [-116.7024, 32.7566], [-116.7042, 32.7552], [-116.7043, 32.7577], [-116.6992, 32.7578]]], [[[-116.7074, 32.7541], [-116.7077, 32.7536], [-116.7077, 32.7539], [-116.7081, 32.754], [-116.7074, 32.7541]]], [[[-116.7081, 32.754], [-116.7081, 32.7539], [-116.7081, 32.7539], [-116.7081, 32.754]]], [[[-116.7076, 32.7528], [-116.7078, 32.753], [-116.7076, 32.7529], [-116.7076, 32.7528]]], [[[-116.708, 32.7525], [-116.7053, 32.7523], [-116.7074, 32.749], [-116.7074, 32.7468], [-116.7081, 32.7469], [-116.708, 32.7525]]], [[[-116.6982, 32.7468], [-116.697, 32.7472], [-116.6964, 32.7468], [-116.6982, 32.7468]]], [[[-116.6957, 32.7463], [-116.6953, 32.7445], [-116.6928, 32.7436], [-116.6899, 32.744], [-116.69, 32.7446], [-116.6875, 32.7451], [-116.6875, 32.7432], [-116.6959, 32.7431], [-116.6957, 32.7463]]], [[[-116.6263, 32.7281], [-116.6263, 32.7281], [-116.6267, 32.728], [-116.6263, 32.7281]]], [[[-116.6273, 32.7279], [-116.6251, 32.7274], [-116.6247, 32.7265], [-116.6228, 32.728], [-116.6235, 32.7256], [-116.6239, 32.7163], [-116.6327, 32.7156], [-116.6329, 32.7114], [-116.6353, 32.7114], [-116.6352, 32.7096], [-116.6395, 32.7097], [-116.6394, 32.7087], [-116.6404, 32.7085], [-116.6406, 32.7078], [-116.6408, 32.7085], [-116.6415, 32.7082], [-116.6416, 32.7104], [-116.6525, 32.7105], [-116.6518, 32.7174], [-116.6495, 32.7173], [-116.6497, 32.7154], [-116.6457, 32.7152], [-116.6455, 32.7189], [-116.6436, 32.7235], [-116.6391, 32.7236], [-116.631, 32.7249], [-116.6303, 32.7274], [-116.6273, 32.7279]]], [[[-116.6228, 32.728], [-116.6239, 32.7285], [-116.6227, 32.7287], [-116.6228, 32.728]]], [[[-116.6571, 32.6922], [-116.6581, 32.6922], [-116.6588, 32.691], [-116.6609, 32.6907], [-116.662, 32.6917], [-116.662, 32.6936], [-116.6642, 32.694], [-116.6647, 32.6945], [-116.6642, 32.6953], [-116.6651, 32.6964], [-116.6692, 32.6933], [-116.6749, 32.6968], [-116.6759, 32.698], [-116.6757, 32.7001], [-116.6729, 32.6997], [-116.673, 32.705], [-116.672, 32.7077], [-116.6667, 32.7092], [-116.6663, 32.7109], [-116.6681, 32.7094], [-116.6703, 32.7092], [-116.6718, 32.7098], [-116.6715, 32.7116], [-116.6722, 32.7123], [-116.6725, 32.7098], [-116.6738, 32.7082], [-116.6735, 32.7067], [-116.6745, 32.705], [-116.6737, 32.7032], [-116.6748, 32.7031], [-116.6741, 32.7024], [-116.6746, 32.7015], [-116.6773, 32.7012], [-116.6763, 32.7003], [-116.6767, 32.6997], [-116.6789, 32.7], [-116.6789, 32.6977], [-116.682, 32.6986], [-116.6822, 32.7007], [-116.6779, 32.7007], [-116.6786, 32.7155], [-116.6828, 32.7155], [-116.6827, 32.719], [-116.687, 32.719], [-116.6866, 32.7261], [-116.6781, 32.7261], [-116.6783, 32.7226], [-116.6696, 32.7227], [-116.6698, 32.719], [-116.6742, 32.719], [-116.6744, 32.7154], [-116.6661, 32.7155], [-116.6664, 32.7117], [-116.6625, 32.7117], [-116.6623, 32.7081], [-116.6661, 32.7081], [-116.6658, 32.7045], [-116.6698, 32.7045], [-116.6693, 32.6972], [-116.6614, 32.6973], [-116.6613, 32.6937], [-116.6572, 32.6938], [-116.6571, 32.6922]], [[-116.6746, 32.7018], [-116.6746, 32.7017], [-116.6746, 32.7016], [-116.6746, 32.7018]]], [[[-116.6955, 32.7025], [-116.6996, 32.7013], [-116.7037, 32.7025], [-116.703, 32.7075], [-116.7034, 32.7093], [-116.7043, 32.7097], [-116.7044, 32.7117], [-116.7088, 32.7116], [-116.7087, 32.7127], [-116.7061, 32.7128], [-116.705, 32.7146], [-116.7063, 32.7149], [-116.7087, 32.7142], [-116.7086, 32.7159], [-116.7069, 32.7174], [-116.7077, 32.718], [-116.7085, 32.7176], [-116.7081, 32.7258], [-116.6995, 32.726], [-116.6997, 32.7224], [-116.6955, 32.7224], [-116.6953, 32.726], [-116.6909, 32.726], [-116.6915, 32.7153], [-116.6958, 32.7153], [-116.6959, 32.7117], [-116.7001, 32.7117], [-116.6999, 32.7045], [-116.6956, 32.7045], [-116.6955, 32.7025]]], [[[-116.7243, 32.7585], [-116.7242, 32.755], [-116.7276, 32.7552], [-116.7285, 32.7663], [-116.7206, 32.766], [-116.7206, 32.7582], [-116.7243, 32.7585]]]]}, "properties": {"layer": "retained"}}]}
