{"type": "FeatureCollection", "features": [{"type": "Feature", "geometry": {"type": "Polygon", "coordinates": [[[-116.9638, 34.105], [-116.9631, 34.1051], [-116.9633, 34.1062], [-116.9609, 34.1098], [-116.9571, 34.113], [-116.9537, 34.1143], [-116.9515, 34.1139], [-116.9517, 34.113], [-116.9485, 34.1126], [-116.9473, 34.1105], [-116.9453, 34.1103], [-116.9399, 34.1129], [-116.9342, 34.1137], [-116.9336, 34.1159], [-116.9316, 34.1152], [-116.9307, 34.1167], [-116.9296, 34.1167], [-116.9287, 34.1156], [-116.9281, 34.1096], [-116.9269, 34.1103], [-116.9287, 34.1065], [-116.928, 34.1058], [-116.9293, 34.105], [-116.9282, 34.1036], [-116.931, 34.1043], [-116.9335, 34.1027], [-116.9336, 34.1009], [-116.9354, 34.0974], [-116.9386, 34.0957], [-116.9391, 34.0945], [-116.942, 34.0938], [-116.9505, 34.0962], [-116.9541, 34.0965], [-116.9573, 34.0959], [-116.9604, 34.0989], [-116.9624, 34.1026], [-116.9631, 34.1019], [-116.9647, 34.1019], [-116.9638, 34.105]]]}, "properties": {"layer": "perimeter"}}, {"type": "Feature", "geometry": {"type": "MultiPolygon", "coordinates": [[[[-116.9386, 34.0957], [-116.9391, 34.0945], [-116.9398, 34.0943], [-116.9398, 34.0957], [-116.9386, 34.0957]]], [[[-116.9464, 34.0954], [-116.9534, 34.0965], [-116.9573, 34.0959], [-116.9606, 34.0992], [-116.9463, 34.0992], [-116.9464, 34.0954]]]]}, "properties": {"layer": "retained"}}, {"type": "Feature", "geometry": {"type": "MultiPolygon", "coordinates": [[[[-116.9464, 34.0993], [-116.9468, 34.099], [-116.9464, 34.099], [-116.9464, 34.0993]]], [[[-116.9591, 34.0993], [-116.9595, 34.0991], [-116.9591, 34.0991], [-116.9591, 34.0993]]], [[[-116.9465, 34.0987], [-116.9468, 34.0985], [-116.9465, 34.0984], [-116.9465, 34.0987]]]]}, "properties": {"layer": "high_severity"}}]}
