{"type": "FeatureCollection", "features": [{"type": "Feature", "geometry": {"type": "MultiPolygon", "coordinates": [[[[-120.6239, 40.0061], [-120.6246, 40.0062], [-120.6243, 40.0065], [-120.6239, 40.0061]]], [[[-120.6227, 40.0067], [-120.6229, 40.0063], [-120.6229, 40.0065], [-120.6227, 40.0067]]], [[[-120.6267, 40.0067], [-120.6268, 40.0065], [-120.6269, 40.0067], [-120.6267, 40.0067]]], [[[-120.6239, 40.0067], [-120.6241, 40.0066], [-120.6239, 40.0067], [-120.6239, 40.0067]]], [[[-120.6254, 40.0068], [-120.6254, 40.0067], [-120.6255, 40.0068], [-120.6254, 40.0068]]], [[[-120.625, 40.0072], [-120.6248, 40.0073], [-120.6249, 40.0071], [-120.625, 40.0072]]], [[[-120.5801, 40.0099], [-120.5777, 40.0082], [-120.5792, 40.0066], [-120.5815, 40.0066], [-120.5828, 40.0075], [-120.5825, 40.0093], [-120.5811, 40.0089], [-120.5801, 40.0099]]], [[[-120.6058, 40.0105], [-120.6051, 40.0097], [-120.6061, 40.008], [-120.6074, 40.0085], [-120.6077, 40.0102], [-120.6058, 40.0105]]], [[[-120.6912, 40.0566], [-120.6923, 40.057], [-120.691, 40.0568], [-120.6912, 40.0566]]], [[[-120.6774, 40.064], [-120.6814, 40.064], [-120.677, 40.0645], [-120.6774, 40.064]]], [[[-120.6763, 40.0653], [-120.6776, 40.0648], [-120.6779, 40.0651], [-120.6763, 40.0653]]], [[[-120.5913, 40.0861], [-120.5912, 40.0856], [-120.5918, 40.0855], [-120.5919, 40.0858], [-120.5913, 40.0861]]], [[[-120.6019, 40.1766], [-120.599, 40.1754], [-120.5977, 40.1735], [-120.5963, 40.1734], [-120.5952, 40.1725], [-120.5934, 40.1729], [-120.592, 40.1721], [-120.589, 40.1719], [-120.5884, 40.1725], [-120.5854, 40.1715], [-120.5834, 40.1721], [-120.5776, 40.1687], [-120.5751, 40.1681], [-120.5718, 40.1685], [-120.5712, 40.1679], [-120.5716, 40.1668], [-120.5663, 40.1653], [-120.5659, 40.1659], [-120.5653, 40.1653], [-120.5603, 40.1646], [-120.5579, 40.1633], [-120.5554, 40.1604], [-120.5488, 40.1569], [-120.549, 40.1546], [-120.5452, 40.1539], [-120.5459, 40.1493], [-120.5423, 40.1445], [-120.5417, 40.1417], [-120.5386, 40.1401], [-120.5362, 40.1365], [-120.5367, 40.1319], [-120.5375, 40.1311], [-120.5362, 40.1295], [-120.5357, 40.1265], [-120.5336, 40.1244], [-120.5318, 40.1254], [-120.5283, 40.1251], [-120.5256, 40.1266], [-120.5237, 40.1262], [-120.5148, 40.1282], [-120.5088, 40.1316], [-120.5072, 40.1298], [-120.5056, 40.1301], [-120.5069, 40.1318], [-120.506, 40.1322], [-120.5065, 40.1328], [-120.5052, 40.1352], [-120.5064, 40.1363], [-120.5012, 40.1372], [-120.4997, 40.1403], [-120.4976, 40.1405], [-120.4973, 40.1413], [-120.4946, 40.1424], [-120.4961, 40.1435], [-120.4955, 40.1446], [-120.4943, 40.1447], [-120.4942, 40.1455], [-120.4955, 40.146], [-120.4925, 40.1471], [-120.4935, 40.1479], [-120.4927, 40.1493], [-120.4899, 40.1494], [-120.489, 40.1485], [-120.4874, 40.1491], [-120.487, 40.1481], [-120.4878, 40.1474], [-120.4862, 40.1468], [-120.4881, 40.1443], [-120.4845, 40.1443], [-120.4844, 40.1456], [-120.4831, 40.1463], [-120.4846, 40.147], [-120.4841, 40.1479], [-120.4822, 40.1469], [-120.4804, 40.1473], [-120.4802, 40.1485], [-120.4779, 40.1477], [-120.4767, 40.1495], [-120.478, 40.1496], [-120.4774, 40.1515], [-120.4754, 40.1527], [-120.4742, 40.1525], [-120.4739, 40.1513], [-120.4747, 40.1508], [-120.4726, 40.1505], [-120.4732, 40.1502], [-120.4714, 40.1494], [-120.4739, 40.1489], [-120.4739, 40.1475], [-120.4759, 40.1481], [-120.4774, 40.146], [-120.4753, 40.1436], [-120.4756, 40.1426], [-120.4745, 40.1415], [-120.4752, 40.1412], [-120.4775, 40.1426], [-120.4798, 40.1425], [-120.4784, 40.1387], [-120.4799, 40.1385], [-120.4815, 40.1359], [-120.4774, 40.1367], [-120.4775, 40.1358], [-120.4807, 40.1348], [-120.4801, 40.1323], [-120.4783, 40.1328], [-120.4801, 40.1306], [-120.4778, 40.129], [-120.4793, 40.1291], [-120.4788, 40.1281], [-120.4775, 40.1282], [-120.4771, 40.1276], [-120.4785, 40.1269], [-120.4792, 40.1279], [-120.4807, 40.1276], [-120.4794, 40.1259], [-120.4761, 40.1259], [-120.4778, 40.1246], [-120.4773, 40.1235], [-120.478, 40.1229], [-120.4811, 40.1225], [-120.4815, 40.1213], [-120.4852, 40.1214], [-120.4818, 40.1185], [-120.4815, 40.1174], [-120.4827, 40.1174], [-120.4851, 40.1196], [-120.4859, 40.1192], [-120.485, 40.1175], [-120.4867, 40.1176], [-120.4868, 40.1161], [-120.4811, 40.1164], [-120.4783, 40.12], [-120.4745, 40.1226], [-120.4729, 40.1225], [-120.4664, 40.1199], [-120.4624, 40.1221], [-120.4608, 40.1195], [-120.4621, 40.1189], [-120.4629, 40.1193], [-120.4633, 40.1184], [-120.4646, 40.1181], [-120.4691, 40.1182], [-120.4705, 40.1188], [-120.4724, 40.1169], [-120.4761, 40.1158], [-120.4774, 40.1162], [-120.4785, 40.1152], [-120.4806, 40.1165], [-120.481, 40.1154], [-120.4822, 40.115], [-120.4875, 40.1145], [-120.4871, 40.1135], [-120.4908, 40.1113], [-120.4868, 40.111], [-120.4897, 40.1107], [-120.4911, 40.1098], [-120.4897, 40.1096], [-120.49, 40.1076], [-120.489, 40.1067], [-120.4852, 40.1084], [-120.4832, 40.108], [-120.4835, 40.106], [-120.4808, 40.105], [-120.4777, 40.102], [-120.4753, 40.103], [-120.4769, 40.1038], [-120.4777, 40.1054], [-120.4745, 40.1054], [-120.4736, 40.1046], [-120.4717, 40.1046], [-120.4716, 40.1038], [-120.4746, 40.1034], [-120.4733, 40.1022], [-120.4737, 40.1017], [-120.473, 40.1013], [-120.4723, 40.1018], [-120.4709, 40.1001], [-120.472, 40.0994], [-120.4709, 40.0982], [-120.472, 40.0973], [-120.4707, 40.0961], [-120.4717, 40.0932], [-120.4691, 40.0929], [-120.4687, 40.091], [-120.4673, 40.0911], [-120.4681, 40.0875], [-120.4667, 40.0874], [-120.4637, 40.0854], [-120.4638, 40.0843], [-120.4674, 40.0849], [-120.4685, 40.0861], [-120.4696, 40.0853], [-120.4691, 40.0844], [-120.4706, 40.0846], [-120.4692, 40.0838], [-120.4651, 40.0832], [-120.4668, 40.082], [-120.4682, 40.0819], [-120.4676, 40.0816], [-120.4682, 40.0805], [-120.4695, 40.0814], [-120.4716, 40.0814], [-120.4733, 40.0806], [-120.4731, 40.0788], [-120.4692, 40.0776], [-120.4681, 40.0782], [-120.4678, 40.0775], [-120.4695, 40.0759], [-120.4703, 40.0765], [-120.4725, 40.0764], [-120.4777, 40.0751], [-120.4773, 40.0739], [-120.4786, 40.0726], [-120.4801, 40.0743], [-120.48, 40.0736], [-120.4811, 40.073], [-120.4799, 40.0724], [-120.4814, 40.072], [-120.4809, 40.0711], [-120.4815, 40.0697], [-120.4853, 40.0692], [-120.4863, 40.0713], [-120.4853, 40.0716], [-120.4873, 40.0726], [-120.4885, 40.0709], [-120.4876, 40.0684], [-120.4888, 40.0677], [-120.4895, 40.0651], [-120.4904, 40.0647], [-120.4905, 40.0614], [-120.4926, 40.0592], [-120.4943, 40.0588], [-120.4959, 40.0601], [-120.4976, 40.0602], [-120.5041, 40.057], [-120.5076, 40.0564], [-120.5097, 40.0566], [-120.5118, 40.0583], [-120.5166, 40.0587], [-120.5162, 40.0553], [-120.5154, 40.0544], [-120.5133, 40.054], [-120.5136, 40.0529], [-120.5158, 40.0531], [-120.5163, 40.0522], [-120.5151, 40.0518], [-120.5171, 40.0501], [-120.5209, 40.0515], [-120.5231, 40.0512], [-120.5233, 40.0505], [-120.5214, 40.0507], [-120.5209, 40.0492], [-120.5316, 40.0492], [-120.5368, 40.0485], [-120.539, 40.0491], [-120.5394, 40.0486], [-120.5429, 40.0494], [-120.5441, 40.0503], [-120.5444, 40.0496], [-120.5468, 40.049], [-120.5483, 40.0498], [-120.548, 40.0518], [-120.5488, 40.0516], [-120.5497, 40.051], [-120.551, 40.0473], [-120.5532, 40.0481], [-120.555, 40.0457], [-120.5574, 40.0442], [-120.5574, 40.0438], [-120.5554, 40.0439], [-120.5555, 40.0432], [-120.5534, 40.044], [-120.5518, 40.0427], [-120.5509, 40.0447], [-120.5478, 40.0442], [-120.5458, 40.0424], [-120.5422, 40.042], [-120.5437, 40.0412], [-120.5427, 40.0403], [-120.5409, 40.0402], [-120.5405, 40.0388], [-120.5398, 40.0394], [-120.5384, 40.0391], [-120.5379, 40.0401], [-120.5357, 40.0407], [-120.5346, 40.0401], [-120.5285, 40.041], [-120.532, 40.0374], [-120.5279, 40.0362], [-120.5311, 40.0329], [-120.5295, 40.0327], [-120.5292, 40.0302], [-120.5274, 40.0304], [-120.528, 40.0298], [-120.5272, 40.0296], [-120.5256, 40.0299], [-120.525, 40.0256], [-120.5259, 40.025], [-120.5238, 40.0246], [-120.5235, 40.0238], [-120.5221, 40.0237], [-120.5211, 40.0224], [-120.5204, 40.0228], [-120.5206, 40.0218], [-120.5259, 40.0216], [-120.5269, 40.0221], [-120.5268, 40.0228], [-120.5299, 40.0233], [-120.531, 40.0227], [-120.5307, 40.0219], [-120.5319, 40.0217], [-120.5327, 40.023], [-120.5335, 40.0218], [-120.5351, 40.0218], [-120.5363, 40.0198], [-120.5389, 40.0196], [-120.54, 40.0188], [-120.5399, 40.0177], [-120.5421, 40.0178], [-120.5426, 40.0186], [-120.546, 40.0179], [-120.5472, 40.0184], [-120.5467, 40.0211], [-120.548, 40.0208], [-120.5485, 40.0214], [-120.5513, 40.0197], [-120.554, 40.02], [-120.5535, 40.021], [-120.5547, 40.0213], [-120.5547, 40.022], [-120.553, 40.0243], [-120.553, 40.026], [-120.5537, 40.0263], [-120.5543, 40.0252], [-120.5554, 40.0252], [-120.5556, 40.0263], [-120.5568, 40.0262], [-120.5578, 40.0274], [-120.5582, 40.0292], [-120.5604, 40.0295], [-120.5603, 40.0281], [-120.5612, 40.028], [-120.5625, 40.0285], [-120.564, 40.0281], [-120.5649, 40.0291], [-120.5689, 40.0296], [-120.5694, 40.0283], [-120.5686, 40.0275], [-120.5689, 40.0265], [-120.5707, 40.0268], [-120.5723, 40.0261], [-120.5733, 40.0267], [-120.5764, 40.026], [-120.5778, 40.0266], [-120.5779, 40.0282], [-120.5794, 40.0273], [-120.5805, 40.0276], [-120.5813, 40.0275], [-120.5814, 40.0258], [-120.5824, 40.025], [-120.581, 40.0231], [-120.5867, 40.0232], [-120.5875, 40.0222], [-120.5861, 40.0226], [-120.5843, 40.0215], [-120.583, 40.0217], [-120.5821, 40.0205], [-120.5801, 40.0204], [-120.5791, 40.0195], [-120.5791, 40.018], [-120.5804, 40.0165], [-120.58, 40.0151], [-120.5794, 40.0142], [-120.5762, 40.0138], [-120.5774, 40.0129], [-120.5766, 40.0114], [-120.5777, 40.0103], [-120.5795, 40.0111], [-120.5823, 40.0106], [-120.5878, 40.007], [-120.5887, 40.0077], [-120.5881, 40.0083], [-120.5909, 40.0098], [-120.5961, 40.0086], [-120.5971, 40.0092], [-120.6002, 40.0079], [-120.603, 40.0088], [-120.6031, 40.01], [-120.6016, 40.0118], [-120.603, 40.0118], [-120.6033, 40.0129], [-120.6049, 40.0136], [-120.6104, 40.0105], [-120.6122, 40.0111], [-120.6132, 40.0104], [-120.6169, 40.0103], [-120.6181, 40.0111], [-120.6174, 40.0104], [-120.6178, 40.0094], [-120.6187, 40.0096], [-120.6211, 40.008], [-120.6245, 40.008], [-120.6291, 40.0065], [-120.6324, 40.0043], [-120.6335, 40.0056], [-120.6328, 40.0081], [-120.6366, 40.009], [-120.638, 40.0112], [-120.6417, 40.012], [-120.6412, 40.0109], [-120.642, 40.0115], [-120.6426, 40.0098], [-120.6467, 40.0076], [-120.6476, 40.01], [-120.6491, 40.0099], [-120.6537, 40.0113], [-120.6566, 40.0132], [-120.658, 40.0128], [-120.6601, 40.0142], [-120.6636, 40.0187], [-120.6634, 40.0246], [-120.6623, 40.0252], [-120.6609, 40.0249], [-120.6624, 40.0275], [-120.6671, 40.0276], [-120.668, 40.0282], [-120.6695, 40.0277], [-120.6739, 40.0297], [-120.6752, 40.0297], [-120.6774, 40.0313], [-120.6805, 40.0319], [-120.6829, 40.0306], [-120.686, 40.0322], [-120.6857, 40.0308], [-120.6868, 40.0304], [-120.6894, 40.032], [-120.6891, 40.0336], [-120.6876, 40.0344], [-120.6885, 40.0361], [-120.691, 40.0367], [-120.6928, 40.0355], [-120.6942, 40.0354], [-120.6978, 40.0372], [-120.6996, 40.0391], [-120.7085, 40.0422], [-120.7073, 40.0432], [-120.7041, 40.0429], [-120.7029, 40.0422], [-120.6987, 40.0429], [-120.6976, 40.0438], [-120.6945, 40.0433], [-120.6955, 40.0458], [-120.6935, 40.0468], [-120.6911, 40.0456], [-120.6904, 40.0472], [-120.691, 40.0484], [-120.6898, 40.0494], [-120.6933, 40.0535], [-120.6925, 40.054], [-120.6904, 40.0527], [-120.6909, 40.0555], [-120.6886, 40.0565], [-120.6889, 40.0572], [-120.6905, 40.0574], [-120.6924, 40.0589], [-120.6912, 40.0591], [-120.6919, 40.0604], [-120.6865, 40.0649], [-120.6831, 40.0649], [-120.6811, 40.0621], [-120.6726, 40.0569], [-120.671, 40.0552], [-120.6693, 40.0546], [-120.6682, 40.0484], [-120.6667, 40.0486], [-120.6675, 40.0494], [-120.6662, 40.0487], [-120.6651, 40.049], [-120.6665, 40.0501], [-120.6693, 40.0552], [-120.6689, 40.0573], [-120.6665, 40.0561], [-120.6667, 40.057], [-120.6647, 40.0571], [-120.6645, 40.0578], [-120.6688, 40.0578], [-120.6716, 40.0632], [-120.6747, 40.0648], [-120.6744, 40.0654], [-120.6758, 40.0671], [-120.6753, 40.0677], [-120.6727, 40.0685], [-120.6648, 40.0687], [-120.6651, 40.07], [-120.6638, 40.0707], [-120.664, 40.0715], [-120.6714, 40.0724], [-120.6724, 40.0717], [-120.672, 40.0713], [-120.6735, 40.0714], [-120.6756, 40.0733], [-120.676, 40.0775], [-120.6776, 40.0783], [-120.6759, 40.0806], [-120.6754, 40.0843], [-120.6722, 40.0882], [-120.6739, 40.0908], [-120.6727, 40.0923], [-120.6732, 40.0936], [-120.6751, 40.0937], [-120.675, 40.0944], [-120.6786, 40.0959], [-120.6791, 40.0978], [-120.6798, 40.098], [-120.6796, 40.0998], [-120.6788, 40.1005], [-120.6796, 40.1012], [-120.6789, 40.102], [-120.6795, 40.1027], [-120.6762, 40.1058], [-120.6763, 40.1125], [-120.6779, 40.1139], [-120.6771, 40.1143], [-120.6775, 40.1158], [-120.6767, 40.1162], [-120.6765, 40.1188], [-120.6755, 40.1203], [-120.6763, 40.1218], [-120.6749, 40.1233], [-120.6716, 40.1247], [-120.6694, 40.1309], [-120.6676, 40.1301], [-120.6628, 40.1322], [-120.665, 40.1331], [-120.6648, 40.1341], [-120.6601, 40.1356], [-120.6581, 40.1354], [-120.6574, 40.1344], [-120.6557, 40.1348], [-120.6569, 40.1357], [-120.6553, 40.136], [-120.6555, 40.1369], [-120.6568, 40.1384], [-120.6579, 40.1387], [-120.6581, 40.1398], [-120.6594, 40.14], [-120.6594, 40.1422], [-120.6607, 40.1432], [-120.6589, 40.1461], [-120.6559, 40.146], [-120.6531, 40.1472], [-120.6508, 40.1462], [-120.6514, 40.1467], [-120.6507, 40.1478], [-120.6488, 40.1481], [-120.6466, 40.151], [-120.6466, 40.1541], [-120.6434, 40.1555], [-120.6433, 40.1566], [-120.6392, 40.1581], [-120.6387, 40.1592], [-120.6352, 40.16], [-120.6319, 40.1582], [-120.6293, 40.159], [-120.6279, 40.1603], [-120.6286, 40.163], [-120.626, 40.1639], [-120.6245, 40.164], [-120.6239, 40.1632], [-120.6209, 40.1624], [-120.6179, 40.1664], [-120.6164, 40.1672], [-120.6153, 40.1703], [-120.6139, 40.1704], [-120.6136, 40.1699], [-120.6151, 40.1692], [-120.6132, 40.1695], [-120.6111, 40.1676], [-120.6077, 40.1663], [-120.6082, 40.1645], [-120.6053, 40.1634], [-120.6007, 40.1641], [-120.6009, 40.1653], [-120.6036, 40.1666], [-120.6034, 40.1691], [-120.6021, 40.17], [-120.6019, 40.1713], [-120.6023, 40.1709], [-120.6041, 40.1714], [-120.6029, 40.1738], [-120.602, 40.1742], [-120.6025, 40.1763], [-120.6019, 40.1766]], [[-120.5658, 40.1517], [-120.5669, 40.1486], [-120.5628, 40.1497], [-120.5623, 40.1483], [-120.5701, 40.1461], [-120.5719, 40.1429], [-120.5712, 40.1408], [-120.5725, 40.1389], [-120.5706, 40.1398], [-120.5693, 40.1388], [-120.5685, 40.1392], [-120.5658, 40.1381], [-120.5694, 40.1371], [-120.5675, 40.1347], [-120.5683, 40.1324], [-120.5666, 40.1339], [-120.5637, 40.1345], [-120.5639, 40.1337], [-120.56, 40.1355], [-120.5595, 40.1346], [-120.5604, 40.1343], [-120.56, 40.1333], [-120.5607, 40.133], [-120.5597, 40.1316], [-120.5619, 40.1315], [-120.564, 40.1286], [-120.5668, 40.1283], [-120.5668, 40.127], [-120.5654, 40.126], [-120.5667, 40.1255], [-120.5662, 40.125], [-120.5673, 40.1244], [-120.5684, 40.125], [-120.5696, 40.1226], [-120.5715, 40.1229], [-120.5714, 40.1212], [-120.5706, 40.1216], [-120.569, 40.1211], [-120.5679, 40.1188], [-120.5701, 40.1167], [-120.5713, 40.1141], [-120.5724, 40.114], [-120.5727, 40.1123], [-120.5742, 40.1118], [-120.5756, 40.1102], [-120.5769, 40.1105], [-120.5795, 40.1073], [-120.5825, 40.1062], [-120.583, 40.1052], [-120.5883, 40.1055], [-120.5927, 40.1024], [-120.5953, 40.1029], [-120.5963, 40.1038], [-120.5972, 40.1028], [-120.6001, 40.1032], [-120.6019, 40.1021], [-120.6039, 40.103], [-120.6067, 40.1006], [-120.6069, 40.0994], [-120.6059, 40.0978], [-120.6053, 40.0983], [-120.6033, 40.0975], [-120.6058, 40.0952], [-120.6049, 40.0954], [-120.604, 40.0946], [-120.6026, 40.096], [-120.6016, 40.0953], [-120.607, 40.0918], [-120.6063, 40.0917], [-120.6064, 40.0905], [-120.6029, 40.0906], [-120.6018, 40.0939], [-120.6004, 40.0942], [-120.5998, 40.0918], [-120.5985, 40.0917], [-120.6002, 40.09], [-120.5975, 40.0875], [-120.599, 40.0863], [-120.5964, 40.0867], [-120.5983, 40.0852], [-120.5981, 40.0844], [-120.5963, 40.085], [-120.5945, 40.0844], [-120.5937, 40.0851], [-120.5926, 40.084], [-120.589, 40.0855], [-120.5883, 40.0853], [-120.588, 40.0835], [-120.585, 40.0831], [-120.5846, 40.0853], [-120.5823, 40.0845], [-120.5823, 40.0868], [-120.5792, 40.0867], [-120.5759, 40.085], [-120.5752, 40.0861], [-120.5773, 40.0871], [-120.5766, 40.0878], [-120.5766, 40.0898], [-120.5777, 40.0918], [-120.5773, 40.0932], [-120.5759, 40.0932], [-120.5757, 40.0926], [-120.5691, 40.0942], [-120.568, 40.0948], [-120.5688, 40.0962], [-120.568, 40.0965], [-120.5672, 40.095], [-120.5661, 40.0957], [-120.5626, 40.0945], [-120.5614, 40.0958], [-120.56, 40.0951], [-120.5601, 40.0968], [-120.5584, 40.0973], [-120.5577, 40.0964], [-120.5567, 40.0975], [-120.5559, 40.1027], [-120.553, 40.1047], [-120.5519, 40.1049], [-120.5519, 40.1036], [-120.5507, 40.1045], [-120.5512, 40.1065], [-120.5498, 40.1076], [-120.5508, 40.1077], [-120.5511, 40.1122], [-120.5496, 40.1117], [-120.5476, 40.1098], [-120.5474, 40.1108], [-120.5454, 40.1117], [-120.5449, 40.1137], [-120.5425, 40.114], [-120.5415, 40.1126], [-120.5409, 40.1138], [-120.5374, 40.1155], [-120.5362, 40.1147], [-120.5355, 40.1117], [-120.5343, 40.1133], [-120.5351, 40.1145], [-120.5339, 40.1178], [-120.5326, 40.1191], [-120.5311, 40.1195], [-120.5333, 40.12], [-120.5336, 40.1207], [-120.5354, 40.1207], [-120.5361, 40.1221], [-120.5356, 40.1226], [-120.5369, 40.1227], [-120.5368, 40.1211], [-120.5379, 40.1214], [-120.5389, 40.1192], [-120.5425, 40.1192], [-120.5481, 40.1181], [-120.5493, 40.118], [-120.5525, 40.1203], [-120.552, 40.1208], [-120.5534, 40.121], [-120.5536, 40.123], [-120.5525, 40.1247], [-120.5488, 40.1258], [-120.5468, 40.1284], [-120.5481, 40.129], [-120.5504, 40.1335], [-120.5493, 40.1344], [-120.5485, 40.1332], [-120.5478, 40.1334], [-120.5475, 40.1318], [-120.5471, 40.134], [-120.545, 40.1345], [-120.5463, 40.1355], [-120.5441, 40.136], [-120.5438, 40.1369], [-120.5449, 40.1382], [-120.5462, 40.1369], [-120.5478, 40.1375], [-120.5492, 40.1359], [-120.5521, 40.1364], [-120.5525, 40.1358], [-120.5557, 40.1374], [-120.5567, 40.1393], [-120.5555, 40.1396], [-120.5546, 40.1424], [-120.5564, 40.1424], [-120.5586, 40.1433], [-120.5561, 40.1467], [-120.5567, 40.1481], [-120.5553, 40.1509], [-120.5577, 40.1515], [-120.5573, 40.1527], [-120.5584, 40.1529], [-120.5586, 40.1536], [-120.5599, 40.1526], [-120.5632, 40.1529], [-120.5635, 40.1523], [-120.5658, 40.1517]], [[-120.5463, 40.1072], [-120.5479, 40.1078], [-120.5473, 40.1051], [-120.5435, 40.1049], [-120.5426, 40.1038], [-120.5395, 40.1043], [-120.5382, 40.103], [-120.5375, 40.104], [-120.5355, 40.1038], [-120.5336, 40.1067], [-120.536, 40.1079], [-120.5371, 40.1076], [-120.5379, 40.1085], [-120.5379, 40.1109], [-120.5384, 40.1102], [-120.5415, 40.1105], [-120.5416, 40.1093], [-120.5436, 40.1075], [-120.5463, 40.1072]], [[-120.5979, 40.1171], [-120.5989, 40.1178], [-120.599, 40.1209], [-120.5998, 40.1213], [-120.6019, 40.1206], [-120.6006, 40.1193], [-120.601, 40.1184], [-120.6, 40.1184], [-120.5997, 40.1175], [-120.601, 40.1175], [-120.601, 40.1168], [-120.5999, 40.1155], [-120.5983, 40.1156], [-120.5979, 40.1171]]], [[[-120.5676, 40.1173], [-120.5689, 40.1165], [-120.5685, 40.1176], [-120.5676, 40.1173]]], [[[-120.5386, 40.0193], [-120.5383, 40.019], [-120.5388, 40.0191], [-120.5386, 40.0193]]], [[[-120.521, 40.0242], [-120.5211, 40.0237], [-120.5212, 40.0239], [-120.521, 40.0242]]], [[[-120.5262, 40.0394], [-120.5261, 40.0401], [-120.5231, 40.0405], [-120.5241, 40.039], [-120.5262, 40.0394]]], [[[-120.5077, 40.0509], [-120.5112, 40.0496], [-120.5139, 40.0495], [-120.5163, 40.0483], [-120.5186, 40.0479], [-120.5189, 40.0484], [-120.5122, 40.0512], [-120.5091, 40.0516], [-120.5077, 40.0509]]], [[[-120.5122, 40.0516], [-120.5135, 40.051], [-120.514, 40.0508], [-120.5132, 40.0517], [-120.5122, 40.0516]]], [[[-120.4628, 40.0996], [-120.4637, 40.0992], [-120.465, 40.1], [-120.4638, 40.1003], [-120.4628, 40.0996]]], [[[-120.5649, 40.1244], [-120.5647, 40.1235], [-120.5658, 40.1223], [-120.5665, 40.1234], [-120.5649, 40.1244]]], [[[-120.4754, 40.1278], [-120.4739, 40.1286], [-120.4732, 40.1271], [-120.4736, 40.1271], [-120.4754, 40.1278]]], [[[-120.4772, 40.1294], [-120.4765, 40.1318], [-120.4753, 40.1318], [-120.4757, 40.1309], [-120.4742, 40.1293], [-120.4772, 40.1294]]], [[[-120.5585, 40.1381], [-120.5585, 40.1386], [-120.5575, 40.1391], [-120.5575, 40.1383], [-120.5585, 40.1381]]], [[[-120.4853, 40.1473], [-120.4856, 40.147], [-120.4857, 40.1472], [-120.4853, 40.1473]]], [[[-120.4895, 40.1497], [-120.4888, 40.1494], [-120.489, 40.1493], [-120.4895, 40.1497]]], [[[-120.4806, 40.1506], [-120.4798, 40.1505], [-120.48, 40.1504], [-120.4806, 40.1506]]], [[[-120.4823, 40.1507], [-120.4831, 40.1509], [-120.4821, 40.1511], [-120.4823, 40.1507]]]]}, "properties": {"layer": "perimeter"}}, {"type": "Feature", "geometry": {"type": "MultiPolygon", "coordinates": [[[[-120.6774, 40.064], [-120.6814, 40.064], [-120.677, 40.0645], [-120.6774, 40.064]]], [[[-120.6764, 40.0647], [-120.6774, 40.0654], [-120.6761, 40.0652], [-120.6764, 40.0647]]], [[[-120.4794, 40.1188], [-120.4753, 40.1224], [-120.4725, 40.1224], [-120.4664, 40.1199], [-120.4624, 40.1221], [-120.4608, 40.1195], [-120.4633, 40.1188], [-120.4705, 40.1188], [-120.4724, 40.1169], [-120.4761, 40.1158], [-120.4774, 40.1162], [-120.4785, 40.1152], [-120.4794, 40.1158], [-120.4794, 40.1188]]], [[[-120.6896, 40.0624], [-120.6896, 40.0624], [-120.6896, 40.0624], [-120.6896, 40.0624]]], [[[-120.6843, 40.0649], [-120.6831, 40.0649], [-120.6811, 40.0621], [-120.6745, 40.0581], [-120.6839, 40.0581], [-120.6843, 40.0649]]], [[[-120.6742, 40.0578], [-120.671, 40.0552], [-120.6693, 40.0546], [-120.6697, 40.0543], [-120.6682, 40.0508], [-120.6699, 40.0508], [-120.6699, 40.0545], [-120.6745, 40.0544], [-120.6742, 40.0578]]], [[[-120.6667, 40.051], [-120.6693, 40.055], [-120.6689, 40.0573], [-120.6671, 40.0561], [-120.6663, 40.0563], [-120.6667, 40.057], [-120.665, 40.057], [-120.665, 40.0508], [-120.6667, 40.051]]], [[[-120.665, 40.0579], [-120.6687, 40.0577], [-120.6714, 40.0623], [-120.665, 40.0623], [-120.665, 40.0579]]], [[[-120.673, 40.0639], [-120.6755, 40.0661], [-120.6753, 40.0677], [-120.6705, 40.0688], [-120.6648, 40.0687], [-120.6652, 40.0698], [-120.6646, 40.07], [-120.6645, 40.066], [-120.6729, 40.066], [-120.673, 40.0639]]], [[[-120.6729, 40.0714], [-120.672, 40.0713], [-120.6729, 40.0713], [-120.6729, 40.0714]]], [[[-120.663, 40.1322], [-120.665, 40.1331], [-120.6648, 40.1341], [-120.6592, 40.1355], [-120.6593, 40.1322], [-120.663, 40.1322]]], [[[-120.5512, 40.1114], [-120.5504, 40.1123], [-120.5493, 40.1114], [-120.5512, 40.1114]]], [[[-120.5457, 40.1115], [-120.5449, 40.1137], [-120.5422, 40.1138], [-120.542, 40.1115], [-120.5457, 40.1115]]], [[[-120.5324, 40.1187], [-120.5326, 40.1191], [-120.5324, 40.1192], [-120.5324, 40.1187]]], [[[-120.5325, 40.1196], [-120.5336, 40.1207], [-120.5357, 40.1208], [-120.536, 40.1223], [-120.5324, 40.1224], [-120.5325, 40.1196]]], [[[-120.5371, 40.1224], [-120.5368, 40.1211], [-120.5371, 40.121], [-120.5371, 40.1224]]], [[[-120.5446, 40.1187], [-120.5487, 40.118], [-120.5505, 40.1187], [-120.5446, 40.1187]]], [[[-120.6317, 40.0258], [-120.6362, 40.0257], [-120.6363, 40.0223], [-120.6409, 40.0224], [-120.6409, 40.0294], [-120.627, 40.0295], [-120.6269, 40.0223], [-120.6317, 40.0224], [-120.6317, 40.0258]]], [[[-120.5229, 40.0969], [-120.5229, 40.0896], [-120.5275, 40.0896], [-120.5275, 40.0969], [-120.5229, 40.0969]]], [[[-120.5179, 40.106], [-120.513, 40.106], [-120.513, 40.1005], [-120.5179, 40.1005], [-120.5179, 40.106]]], [[[-120.513, 40.1115], [-120.513, 40.1079], [-120.5179, 40.1079], [-120.5179, 40.1115], [-120.513, 40.1115]]], [[[-120.5083, 40.1115], [-120.513, 40.1115], [-120.5131, 40.1152], [-120.5083, 40.1152], [-120.5083, 40.1115]]]]}, "properties": {"layer": "retained"}}, {"type": "Feature", "geometry": {"type": "MultiPolygon", "coordinates": [[[[-120.5167, 40.1041], [-120.5178, 40.1035], [-120.5178, 40.1019], [-120.5156, 40.1025], [-120.5156, 40.103], [-120.5167, 40.103], [-120.5167, 40.1041]]], [[[-120.6825, 40.0617], [-120.6828, 40.0603], [-120.6832, 40.0614], [-120.6839, 40.0614], [-120.6835, 40.0598], [-120.6828, 40.059], [-120.6828, 40.0598], [-120.6817, 40.0601], [-120.681, 40.0582], [-120.681, 40.0593], [-120.6789, 40.0601], [-120.6814, 40.0603], [-120.6814, 40.0614], [-120.6825, 40.0617]]], [[[-120.6375, 40.0295], [-120.6371, 40.0287], [-120.6361, 40.0293], [-120.6361, 40.0295], [-120.6375, 40.0295]]], [[[-120.6375, 40.0287], [-120.6389, 40.0279], [-120.6389, 40.0265], [-120.6378, 40.0265], [-120.6368, 40.0276], [-120.6375, 40.0287]]], [[[-120.641, 40.0271], [-120.641, 40.026], [-120.6385, 40.0257], [-120.6392, 40.0265], [-120.6406, 40.0263], [-120.6399, 40.0271], [-120.641, 40.0271]]], [[[-120.6269, 40.0296], [-120.6361, 40.0293], [-120.635, 40.0282], [-120.6361, 40.0284], [-120.6364, 40.0279], [-120.6357, 40.0279], [-120.6361, 40.0271], [-120.635, 40.0263], [-120.634, 40.0263], [-120.6343, 40.0257], [-120.6315, 40.0255], [-120.6311, 40.0263], [-120.6304, 40.0252], [-120.629, 40.0255], [-120.6269, 40.0247], [-120.6269, 40.0296]], [[-120.6298, 40.029], [-120.6287, 40.029], [-120.6283, 40.0285], [-120.6294, 40.0282], [-120.6298, 40.029]], [[-120.628, 40.0288], [-120.6273, 40.029], [-120.6273, 40.0288], [-120.628, 40.0288]], [[-120.6326, 40.0287], [-120.6315, 40.0282], [-120.6319, 40.0274], [-120.6322, 40.0274], [-120.6329, 40.0279], [-120.6326, 40.0287]], [[-120.6319, 40.0285], [-120.6315, 40.0287], [-120.6315, 40.0285], [-120.6319, 40.0285]], [[-120.6294, 40.0277], [-120.629, 40.0279], [-120.629, 40.0277], [-120.6294, 40.0277]], [[-120.6326, 40.0271], [-120.6322, 40.0274], [-120.6322, 40.0271], [-120.6326, 40.0271]], [[-120.6318, 40.0266], [-120.6315, 40.0268], [-120.6315, 40.0266], [-120.6318, 40.0266]], [[-120.6294, 40.0266], [-120.629, 40.0269], [-120.629, 40.0266], [-120.6294, 40.0266]], [[-120.6322, 40.026], [-120.6318, 40.0263], [-120.6318, 40.026], [-120.6322, 40.026]], [[-120.6276, 40.0252], [-120.6273, 40.0255], [-120.6273, 40.0252], [-120.6276, 40.0252]]]]}, "properties": {"layer": "high_severity"}}, {"type": "Feature", "geometry": {"type": "MultiPolygon", "coordinates": [[[[-120.634, 40.0295], [-120.6343, 40.0287], [-120.6336, 40.0282], [-120.6326, 40.0295], [-120.634, 40.0295]]], [[[-120.6308, 40.0279], [-120.6308, 40.0268], [-120.6301, 40.0269], [-120.6301, 40.0277], [-120.6308, 40.0279]]], [[[-120.6343, 40.0282], [-120.635, 40.0274], [-120.6333, 40.0268], [-120.6336, 40.0279], [-120.6343, 40.0282]]], [[[-120.6283, 40.0266], [-120.6283, 40.0261], [-120.6273, 40.0263], [-120.6273, 40.0266], [-120.6283, 40.0266]]]]}, "properties": {"layer": "interior"}}, {"type": "Feature", "geometry": {"type": "MultiPolygon", "coordinates": [[[[-120.634, 40.0295], [-120.6343, 40.0287], [-120.6336, 40.0282], [-120.6326, 40.0295], [-120.634, 40.0295]]], [[[-120.6308, 40.0279], [-120.6308, 40.0274], [-120.6301, 40.0274], [-120.6301, 40.0277], [-120.6308, 40.0279]]], [[[-120.6343, 40.0282], [-120.635, 40.0274], [-120.6333, 40.0268], [-120.6336, 40.0279], [-120.6343, 40.0282]]]]}, "properties": {"layer": "cell", "cell_id": "523_5000", "seed_zone": "523", "elevation_band": "5000–5500 ft"}}, {"type": "Feature", "geometry": {"type": "MultiPolygon", "coordinates": [[[[-120.6301, 40.0274], [-120.6308, 40.0268], [-120.6301, 40.0269], [-120.6301, 40.0274]]], [[[-120.6283, 40.0266], [-120.6283, 40.0261], [-120.6273, 40.0263], [-120.6273, 40.0266], [-120.6283, 40.0266]]]]}, "properties": {"layer": "cell", "cell_id": "523_5500", "seed_zone": "523", "elevation_band": "5500–6000 ft"}}, {"type": "Feature", "geometry": {"type": "Polygon", "coordinates": [[[-120.6269, 40.0263], [-120.6273, 40.0261], [-120.6269, 40.0261], [-120.6269, 40.0263]]]}, "properties": {"layer": "cell", "cell_id": "523_6000", "seed_zone": "523", "elevation_band": "6000–6500 ft"}}]}
