{"type": "FeatureCollection", "features": [{"type": "Feature", "geometry": {"type": "Polygon", "coordinates": [[[-120.7323, 38.0847], [-120.7313, 38.0854], [-120.7317, 38.0866], [-120.7299, 38.0866], [-120.7292, 38.0859], [-120.729, 38.0863], [-120.7276, 38.0853], [-120.72, 38.0867], [-120.7186, 38.0853], [-120.7156, 38.0838], [-120.7121, 38.0842], [-120.7087, 38.0826], [-120.7078, 38.0809], [-120.707, 38.0809], [-120.7064, 38.0787], [-120.705, 38.078], [-120.7049, 38.0764], [-120.7021, 38.0759], [-120.6991, 38.0745], [-120.6972, 38.0757], [-120.6952, 38.0751], [-120.695, 38.0732], [-120.6932, 38.0709], [-120.6933, 38.07], [-120.6946, 38.0693], [-120.6904, 38.0682], [-120.6882, 38.0656], [-120.6866, 38.0651], [-120.6936, 38.0651], [-120.6893, 38.0622], [-120.6879, 38.0563], [-120.6893, 38.0541], [-120.6934, 38.052], [-120.6993, 38.0548], [-120.7014, 38.0566], [-120.7026, 38.06], [-120.7048, 38.0614], [-120.7056, 38.0647], [-120.7068, 38.0639], [-120.7089, 38.0645], [-120.7101, 38.0657], [-120.7121, 38.0652], [-120.7142, 38.0662], [-120.7153, 38.0687], [-120.7124, 38.0729], [-120.7173, 38.0735], [-120.7217, 38.077], [-120.7244, 38.0776], [-120.7259, 38.0793], [-120.7259, 38.0808], [-120.7304, 38.0831], [-120.7323, 38.0847]]]}, "properties": {"layer": "perimeter"}}, {"type": "Feature", "geometry": {"type": "MultiPolygon", "coordinates": [[[[-120.7313, 38.0854], [-120.7317, 38.0866], [-120.7299, 38.0866], [-120.7292, 38.0859], [-120.729, 38.0863], [-120.7276, 38.0853], [-120.7231, 38.0859], [-120.7231, 38.0794], [-120.7185, 38.0794], [-120.7185, 38.0758], [-120.7092, 38.0758], [-120.7092, 38.0828], [-120.7078, 38.0809], [-120.707, 38.0809], [-120.7064, 38.0787], [-120.705, 38.078], [-120.7049, 38.0764], [-120.7021, 38.0759], [-120.6991, 38.0745], [-120.6972, 38.0757], [-120.6952, 38.0751], [-120.695, 38.0732], [-120.6932, 38.0709], [-120.6933, 38.07], [-120.6946, 38.0693], [-120.6904, 38.0682], [-120.6882, 38.0656], [-120.6866, 38.0651], [-120.6936, 38.0651], [-120.6893, 38.0622], [-120.6879, 38.0563], [-120.6893, 38.0541], [-120.6934, 38.052], [-120.6993, 38.0548], [-120.7014, 38.0566], [-120.7026, 38.06], [-120.7048, 38.0614], [-120.7056, 38.0647], [-120.7068, 38.0639], [-120.7089, 38.0645], [-120.7101, 38.0657], [-120.7121, 38.0652], [-120.7142, 38.0662], [-120.7153, 38.0687], [-120.7124, 38.0729], [-120.7173, 38.0735], [-120.7217, 38.077], [-120.7244, 38.0776], [-120.7259, 38.0793], [-120.7259, 38.0808], [-120.7323, 38.0847], [-120.7313, 38.0854]]], [[[-120.7138, 38.084], [-120.7121, 38.0842], [-120.7101, 38.0831], [-120.7138, 38.0831], [-120.7138, 38.084]]]]}, "properties": {"layer": "retained"}}]}
