{"type": "FeatureCollection", "features": [{"type": "Feature", "geometry": {"type": "MultiPolygon", "coordinates": [[[[-119.5638, 37.5139], [-119.5643, 37.5141], [-119.5638, 37.5141], [-119.5638, 37.5139]]], [[[-119.5601, 37.5186], [-119.56, 37.5185], [-119.5602, 37.5186], [-119.5601, 37.5186]]], [[[-119.6114, 37.4996], [-119.6125, 37.5001], [-119.6127, 37.4996], [-119.6142, 37.4996], [-119.6136, 37.5004], [-119.6148, 37.5019], [-119.616, 37.5022], [-119.6174, 37.5042], [-119.6189, 37.504], [-119.6197, 37.5061], [-119.6213, 37.507], [-119.6214, 37.5084], [-119.625, 37.5068], [-119.6261, 37.5077], [-119.632, 37.5071], [-119.6345, 37.5074], [-119.6353, 37.5081], [-119.634, 37.5141], [-119.6314, 37.514], [-119.6257, 37.5154], [-119.6252, 37.5163], [-119.6258, 37.5184], [-119.6244, 37.5189], [-119.6228, 37.5213], [-119.6207, 37.5211], [-119.619, 37.5217], [-119.6179, 37.5245], [-119.6194, 37.5263], [-119.6215, 37.527], [-119.6226, 37.5287], [-119.6263, 37.5303], [-119.6269, 37.5311], [-119.6266, 37.5341], [-119.6297, 37.5374], [-119.6286, 37.5433], [-119.6245, 37.5407], [-119.6225, 37.5385], [-119.6194, 37.5378], [-119.6124, 37.5377], [-119.6116, 37.5363], [-119.6115, 37.5374], [-119.6067, 37.5369], [-119.6038, 37.5351], [-119.6018, 37.5357], [-119.5988, 37.5348], [-119.5966, 37.5351], [-119.5917, 37.5334], [-119.5884, 37.531], [-119.5859, 37.5318], [-119.5855, 37.533], [-119.5843, 37.5335], [-119.5805, 37.5329], [-119.5788, 37.5319], [-119.5748, 37.5332], [-119.5718, 37.5333], [-119.5701, 37.5325], [-119.5676, 37.5343], [-119.5653, 37.5343], [-119.5635, 37.5355], [-119.5597, 37.5343], [-119.5585, 37.5351], [-119.5564, 37.5348], [-119.5541, 37.5363], [-119.5533, 37.5354], [-119.5523, 37.5356], [-119.5527, 37.5362], [-119.5504, 37.5369], [-119.5478, 37.5369], [-119.5455, 37.5358], [-119.5445, 37.5365], [-119.5413, 37.5349], [-119.5406, 37.5357], [-119.5347, 37.5337], [-119.5348, 37.5323], [-119.5368, 37.5322], [-119.5348, 37.5315], [-119.531, 37.5321], [-119.5279, 37.5312], [-119.5283, 37.5291], [-119.5292, 37.529], [-119.53, 37.5274], [-119.5291, 37.5263], [-119.5307, 37.5254], [-119.5311, 37.5225], [-119.5326, 37.5216], [-119.5325, 37.5205], [-119.5368, 37.5184], [-119.5376, 37.5186], [-119.5391, 37.5173], [-119.5406, 37.5185], [-119.5435, 37.5183], [-119.5447, 37.5192], [-119.5457, 37.5184], [-119.5481, 37.518], [-119.548, 37.5166], [-119.5468, 37.5159], [-119.5485, 37.5148], [-119.5516, 37.5165], [-119.5534, 37.5161], [-119.5531, 37.5173], [-119.5543, 37.5197], [-119.5555, 37.5191], [-119.5565, 37.5194], [-119.5561, 37.5207], [-119.5573, 37.5199], [-119.5586, 37.5201], [-119.5588, 37.5207], [-119.5582, 37.5207], [-119.5592, 37.5211], [-119.5592, 37.5218], [-119.5579, 37.5219], [-119.5596, 37.5223], [-119.5606, 37.5209], [-119.5602, 37.5185], [-119.5609, 37.5173], [-119.5641, 37.5174], [-119.5645, 37.5168], [-119.5631, 37.5154], [-119.5638, 37.5143], [-119.5669, 37.5141], [-119.5662, 37.5133], [-119.5668, 37.5119], [-119.5691, 37.5114], [-119.5768, 37.5137], [-119.5805, 37.5137], [-119.5846, 37.5148], [-119.5899, 37.5145], [-119.5943, 37.5157], [-119.5971, 37.5173], [-119.5992, 37.5172], [-119.5996, 37.5184], [-119.6013, 37.5182], [-119.6028, 37.517], [-119.6046, 37.5169], [-119.6066, 37.5149], [-119.6111, 37.5148], [-119.6133, 37.5113], [-119.6105, 37.5102], [-119.6099, 37.5089], [-119.6109, 37.5083], [-119.6096, 37.5081], [-119.6104, 37.5051], [-119.6094, 37.5035], [-119.6112, 37.5021], [-119.6105, 37.5008], [-119.6114, 37.4996]]], [[[-119.5596, 37.5215], [-119.5598, 37.5218], [-119.5595, 37.5219], [-119.5596, 37.5215]]], [[[-119.527, 37.5298], [-119.5275, 37.5301], [-119.527, 37.5301], [-119.527, 37.5298]]], [[[-119.5277, 37.5301], [-119.5278, 37.5302], [-119.5277, 37.5302], [-119.5277, 37.5301]]], [[[-119.5275, 37.5306], [-119.5275, 37.5307], [-119.5274, 37.5307], [-119.5275, 37.5306]]], [[[-119.5273, 37.5311], [-119.5272, 37.5313], [-119.5272, 37.5312], [-119.5273, 37.5311]]], [[[-119.5376, 37.5348], [-119.5375, 37.5349], [-119.5375, 37.5347], [-119.5376, 37.5348]]]]}, "properties": {"layer": "perimeter"}}]}
