{"type": "FeatureCollection", "features": [{"type": "Feature", "geometry": {"type": "Polygon", "coordinates": [[[-120.8533, 38.0271], [-120.853, 38.0256], [-120.8538, 38.0251], [-120.8523, 38.0247], [-120.8499, 38.0227], [-120.8434, 38.0215], [-120.8428, 38.0208], [-120.8385, 38.0195], [-120.835, 38.019], [-120.8348, 38.0183], [-120.8323, 38.0183], [-120.8254, 38.0148], [-120.8176, 38.0151], [-120.8022, 38.003], [-120.799, 38.0016], [-120.7953, 38.0018], [-120.7868, 38.0004], [-120.7839, 37.9989], [-120.7869, 37.9956], [-120.7948, 37.9967], [-120.7998, 37.9952], [-120.8026, 37.9933], [-120.8041, 37.9894], [-120.8016, 37.9901], [-120.7997, 37.9891], [-120.7969, 37.9897], [-120.793, 37.9895], [-120.7904, 37.9915], [-120.7885, 37.9915], [-120.7871, 37.9923], [-120.7866, 37.992], [-120.787, 37.9906], [-120.7883, 37.9889], [-120.7858, 37.9868], [-120.784, 37.9873], [-120.7821, 37.9859], [-120.7761, 37.9845], [-120.7754, 37.9835], [-120.7718, 37.9829], [-120.7702, 37.9816], [-120.7657, 37.9805], [-120.7616, 37.9787], [-120.7572, 37.9796], [-120.755, 37.9784], [-120.7526, 37.9738], [-120.7559, 37.9727], [-120.7572, 37.9703], [-120.7612, 37.97], [-120.7634, 37.9686], [-120.7697, 37.9725], [-120.7685, 37.974], [-120.77, 37.974], [-120.7713, 37.9725], [-120.7702, 37.9719], [-120.7696, 37.9695], [-120.7674, 37.967], [-120.7692, 37.9654], [-120.7722, 37.965], [-120.764, 37.9571], [-120.764, 37.9556], [-120.7661, 37.954], [-120.7627, 37.953], [-120.7603, 37.9501], [-120.7618, 37.9472], [-120.7651, 37.9463], [-120.768, 37.9489], [-120.769, 37.9512], [-120.7699, 37.951], [-120.7739, 37.9593], [-120.7743, 37.9674], [-120.7781, 37.9711], [-120.7786, 37.9724], [-120.7843, 37.9731], [-120.786, 37.9728], [-120.7874, 37.9708], [-120.7887, 37.9712], [-120.7891, 37.9704], [-120.7901, 37.9732], [-120.7943, 37.9751], [-120.8012, 37.9765], [-120.806, 37.9793], [-120.8106, 37.983], [-120.8117, 37.9866], [-120.8209, 37.9885], [-120.827, 37.9943], [-120.8394, 37.9963], [-120.8428, 37.9976], [-120.847, 37.9951], [-120.8492, 37.9957], [-120.8507, 37.9931], [-120.8499, 37.9923], [-120.8481, 37.985], [-120.8501, 37.9839], [-120.8523, 37.9853], [-120.8536, 37.9841], [-120.8548, 37.984], [-120.8556, 37.9828], [-120.8546, 37.9783], [-120.8518, 37.9773], [-120.8517, 37.9757], [-120.8525, 37.9755], [-120.8514, 37.9741], [-120.8503, 37.9738], [-120.8521, 37.9717], [-120.8499, 37.9683], [-120.8507, 37.9677], [-120.8542, 37.968], [-120.8578, 37.9693], [-120.8642, 37.9759], [-120.8657, 37.9796], [-120.8654, 37.9805], [-120.8644, 37.9805], [-120.8646, 37.9815], [-120.8666, 37.9806], [-120.8666, 37.9797], [-120.8682, 37.9786], [-120.8728, 37.985], [-120.8738, 37.9851], [-120.8797, 37.9924], [-120.8823, 37.9946], [-120.8909, 38.007], [-120.8947, 38.0118], [-120.8972, 38.0131], [-120.8962, 38.0145], [-120.897, 38.0165], [-120.904, 38.0221], [-120.906, 38.0227], [-120.9099, 38.026], [-120.9204, 38.0321], [-120.9228, 38.0344], [-120.9254, 38.0389], [-120.9263, 38.0387], [-120.93, 38.0415], [-120.9314, 38.0449], [-120.9305, 38.0464], [-120.9336, 38.0465], [-120.9333, 38.0478], [-120.9346, 38.0481], [-120.9369, 38.0518], [-120.9376, 38.0513], [-120.9399, 38.0537], [-120.9373, 38.054], [-120.9362, 38.0528], [-120.931, 38.0528], [-120.9264, 38.0515], [-120.915, 38.0462], [-120.9117, 38.0464], [-120.9053, 38.0442], [-120.8988, 38.0437], [-120.8898, 38.0388], [-120.8706, 38.0332], [-120.8676, 38.033], [-120.8633, 38.0307], [-120.8589, 38.0306], [-120.8533, 38.0271]]]}, "properties": {"layer": "perimeter"}}, {"type": "Feature", "geometry": {"type": "Polygon", "coordinates": [[[-120.853, 38.0256], [-120.8538, 38.0251], [-120.8523, 38.0247], [-120.8499, 38.0227], [-120.8434, 38.0215], [-120.8428, 38.0208], [-120.8385, 38.0195], [-120.835, 38.019], [-120.8348, 38.0183], [-120.8323, 38.0183], [-120.8254, 38.0148], [-120.8176, 38.0151], [-120.8022, 38.003], [-120.799, 38.0016], [-120.7953, 38.0018], [-120.7868, 38.0004], [-120.7839, 37.9989], [-120.7869, 37.9956], [-120.7948, 37.9967], [-120.7998, 37.9952], [-120.8026, 37.9933], [-120.8041, 37.9894], [-120.8016, 37.9901], [-120.7997, 37.9891], [-120.7969, 37.9897], [-120.793, 37.9895], [-120.7904, 37.9915], [-120.7885, 37.9915], [-120.7871, 37.9923], [-120.7866, 37.992], [-120.787, 37.9906], [-120.7883, 37.9889], [-120.7858, 37.9868], [-120.784, 37.9873], [-120.7821, 37.9859], [-120.7761, 37.9845], [-120.7754, 37.9835], [-120.7718, 37.9829], [-120.7702, 37.9816], [-120.7657, 37.9805], [-120.7616, 37.9787], [-120.7572, 37.9796], [-120.755, 37.9784], [-120.7526, 37.9738], [-120.7559, 37.9727], [-120.7572, 37.9703], [-120.7612, 37.97], [-120.7634, 37.9686], [-120.7697, 37.9725], [-120.7685, 37.974], [-120.77, 37.974], [-120.7713, 37.9725], [-120.7702, 37.9719], [-120.7696, 37.9695], [-120.7674, 37.967], [-120.7692, 37.9654], [-120.7722, 37.965], [-120.764, 37.9571], [-120.764, 37.9556], [-120.7661, 37.954], [-120.7627, 37.953], [-120.7603, 37.9501], [-120.7618, 37.9472], [-120.7651, 37.9463], [-120.768, 37.9489], [-120.769, 37.9512], [-120.7699, 37.951], [-120.7739, 37.9593], [-120.7743, 37.9674], [-120.7781, 37.9711], [-120.7786, 37.9724], [-120.7843, 37.9731], [-120.786, 37.9728], [-120.7874, 37.9708], [-120.7887, 37.9712], [-120.7891, 37.9704], [-120.7901, 37.9732], [-120.7943, 37.9751], [-120.8012, 37.9765], [-120.806, 37.9793], [-120.8106, 37.983], [-120.8117, 37.9866], [-120.8209, 37.9885], [-120.827, 37.9943], [-120.8394, 37.9963], [-120.8428, 37.9976], [-120.847, 37.9951], [-120.8492, 37.9957], [-120.8507, 37.9931], [-120.8499, 37.9923], [-120.8481, 37.985], [-120.8501, 37.9839], [-120.8523, 37.9853], [-120.8536, 37.9841], [-120.8548, 37.984], [-120.8556, 37.9828], [-120.8546, 37.9783], [-120.8518, 37.9773], [-120.8517, 37.9757], [-120.8525, 37.9755], [-120.8514, 37.9741], [-120.8503, 37.9738], [-120.8521, 37.9717], [-120.8499, 37.9683], [-120.8507, 37.9677], [-120.8542, 37.968], [-120.8578, 37.9693], [-120.8642, 37.9759], [-120.8657, 37.9796], [-120.8654, 37.9805], [-120.8644, 37.9805], [-120.8646, 37.9815], [-120.8666, 37.9806], [-120.8666, 37.9797], [-120.8682, 37.9786], [-120.8728, 37.985], [-120.8738, 37.9851], [-120.8797, 37.9924], [-120.8823, 37.9946], [-120.8909, 38.007], [-120.8947, 38.0118], [-120.8972, 38.0131], [-120.8962, 38.0145], [-120.897, 38.0165], [-120.904, 38.0221], [-120.906, 38.0227], [-120.9099, 38.026], [-120.9204, 38.0321], [-120.9228, 38.0344], [-120.9254, 38.0389], [-120.9263, 38.0387], [-120.93, 38.0415], [-120.9314, 38.0449], [-120.9305, 38.0464], [-120.9336, 38.0465], [-120.9333, 38.0478], [-120.9346, 38.0481], [-120.9369, 38.0518], [-120.9376, 38.0513], [-120.9399, 38.0537], [-120.9373, 38.054], [-120.9362, 38.0528], [-120.931, 38.0528], [-120.9264, 38.0515], [-120.915, 38.0462], [-120.9117, 38.0464], [-120.9053, 38.0442], [-120.8988, 38.0437], [-120.8898, 38.0388], [-120.8706, 38.0332], [-120.8676, 38.033], [-120.8633, 38.0307], [-120.8589, 38.0306], [-120.8533, 38.0271], [-120.853, 38.0256]]]}, "properties": {"layer": "retained"}}]}
